,addressline1,addressline2,addressline3,addressline4,businessname,businesstype,businesstypeid,confidenceinmanagement,extractdate,fhrsid,hygiene,itemcount,latitude,localauthoritybusinessid,localauthoritycode,localauthorityemailaddress,localauthorityname,localauthoritywebsite,longitude,postcode,ratingdate,ratingkey,ratingvalue,returncode,schemetype,structural
447863,,23 Linklet,Kirkwall,,A Better Bite,Mobile caterer,7846,,,564977,,,58.97565400000000,13035,785,,Orkney Islands,http://www.orkney.gov.uk/,-2.94536300000000,KW15 1UZ,2013-10-28,fhis_pass_en-GB,Pass,,FHIS,
447864,Albert Hotel,Mounthoolie Place,Kirkwall,,Albert Hotel,Restaurant/Cafe/Canteen,1,,,565108,,,58.98362100000000,6106,785,,Orkney Islands,http://www.orkney.gov.uk/,-2.95986500000000,KW15 1JZ,2013-11-11,fhis_pass_en-GB,Pass,,FHIS,
447865,Shop and Post Office,,St Marys,Holm,Alfred Flett Ltd,Retailers - other,4613,,,565145,,,58.89684500000000,8238,785,,Orkney Islands,http://www.orkney.gov.uk/,-2.90782400000000,KW17 2RU,2015-01-28,fhis_pass_en-GB,Pass,,FHIS,
447866,Ardconnel,Craigiefield Road,St Ola,,Ardconnel B & B,Hotel/bed & breakfast/guest house,7842,,,565069,,,58.99373800000000,3418,785,,Orkney Islands,http://www.orkney.gov.uk/,-2.94091600000000,KW15 1UJ,2013-01-24,fhis_pass_en-GB,Pass,,FHIS,
447867,,50 Victoria Street,Stromness,,Argo's Bakery,Retailers - other,4613,,,564927,,,58.96265700000000,10839,785,,Orkney Islands,http://www.orkney.gov.uk/,-3.29880000000000,KW16 3BS,2013-02-21,fhis_pass_en-GB,Pass,,FHIS,
447868,,44 Albert Street,Kirkwall,,Argo's Bakery,Retailers - other,4613,,,565014,,,58.98280900000000,14095,785,,Orkney Islands,http://www.orkney.gov.uk/,-2.95912900000000,KW15 1HQ,2014-07-14,fhis_pass_en-GB,Pass,,FHIS,
447869,Army Resource Centre,Weyland Park,Kirkwall,,Army Resource Centre,Restaurant/Cafe/Canteen,1,,,565082,,,58.98794500000000,4069,785,,Orkney Islands,http://www.orkney.gov.uk/,-2.95199800000000,KW15 1LP,2014-03-04,fhis_pass_en-GB,Pass,,FHIS,
447870,Asgard,Cairston Road,Stromness,,Asgard B & B,Hotel/bed & breakfast/guest house,7842,,,564953,,,58.96988900000000,12328,785,,Orkney Islands,http://www.orkney.gov.uk/,-3.28962800000000,KW16 3JS,2013-01-21,fhis_pass_en-GB,Pass,,FHIS,
447871,Ashleigh,Howaback Road,Dounby,Sandwick,Ashleigh B & B,Hotel/bed & breakfast/guest house,7842,,,564955,,,59.06269600000000,12395,785,,Orkney Islands,http://www.orkney.gov.uk/,-3.22359500000000,KW17 2JA,2013-01-29,fhis_pass_en-GB,Pass,,FHIS,
447872,Aultnagar,Sunnybank Road,St Ola,,Aultnagar B & B,Hotel/bed & breakfast/guest house,7842,,,565136,,,58.98679800000000,7661,785,,Orkney Islands,http://www.orkney.gov.uk/,-2.99357000000000,KW15 1TP,2013-03-04,fhis_pass_en-GB,Pass,,FHIS,
447873,Avalon,Carness Road,St Ola,,Avalon House,Hotel/bed & breakfast/guest house,7842,,,564964,,,58.99819800000000,12702,785,,Orkney Islands,http://www.orkney.gov.uk/,-2.94260400000000,KW15 1UE,2013-01-21,fhis_pass_en-GB,Pass,,FHIS,
447874,Ayre Hotel,Ayre Road,Kirkwall,,Ayre Hotel (Kirkwall) Limited,Restaurant/Cafe/Canteen,1,,,565102,,,58.98445200000000,6044,785,,Orkney Islands,http://www.orkney.gov.uk/,-2.96289800000000,KW15 1QX,2013-10-11,fhis_pass_en-GB,Pass,,FHIS,
447875,Ayres Rock Takeaway,Coo Road,Sanday,,Ayres Rock Takeaway,Takeaway/sandwich shop,7844,,,565178,,,59.25410900000000,14040,785,,Orkney Islands,http://www.orkney.gov.uk/,-2.59948100000000,KW17 2AY,2013-10-10,fhis_pass_en-GB,Pass,,FHIS,
447876,,2 Dundas Crescent,Kirkwall,,B & B,Hotel/bed & breakfast/guest house,7842,,,565096,,,58.97911900000000,5293,785,,Orkney Islands,http://www.orkney.gov.uk/,-2.95542500000000,KW15 1JQ,2013-02-06,fhis_pass_en-GB,Pass,,FHIS,
447877,B Doull & Son,Church Road,St Margarets Hope,South Ronaldsay,B Doull & Son,Retailers - other,4613,,,565162,,,58.82478300000000,9403,785,,Orkney Islands,http://www.orkney.gov.uk/,-2.95605800000000,KW17 2SR,2012-05-14,fhis_pass_en-GB,Pass,,FHIS,
447878,Backaskaill,Backaskaill Road,Sanday,,Backaskaill Farmhouse B & B,Restaurant/Cafe/Canteen,1,,,565011,,,59.22746800000000,14038,785,,Orkney Islands,http://www.orkney.gov.uk/,-2.65997100000000,KW17 2BA,2012-11-07,fhis_pass_en-GB,Pass,,FHIS,
447879,Baikies Stores,,Finstown,Firth,Baikies Stores,Retailers - other,4613,,,565068,,,59.00810900000000,3326,785,,Orkney Islands,http://www.orkney.gov.uk/,-3.12123000000000,KW17 2EL,2012-03-13,fhis_pass_en-GB,Pass,,FHIS,
447880,Balfour Castle,,Shapinsay,,Balfour Castle,Restaurant/Cafe/Canteen,1,,,565144,,,59.04168300000000,8137,785,,Orkney Islands,http://www.orkney.gov.uk/,-2.90233500000000,KW17 2DY,2014-06-18,fhis_pass_en-GB,Pass,,FHIS,
447881,Balfour Mains,Sandyhill Road,Shapinsay,,Balfour Mains Venue,Other catering premises,7841,,,565041,,,59.04168300000000,14823,785,,Orkney Islands,http://www.orkney.gov.uk/,-2.90233500000000,KW17 2DY,2014-06-18,fhis_pass_en-GB,Pass,,FHIS,
447882,Barony Hotel,Wattle Road,Birsay,,Barony Hotel,Restaurant/Cafe/Canteen,1,,,565101,,,59.12416600000000,600,785,,Orkney Islands,http://www.orkney.gov.uk/,-3.29467200000000,KW17 2LS,2014-01-08,fhis_pass_en-GB,Pass,,FHIS,
447883,Barony Mills,,Birsay,,Barony Mills,Manufacturers/packers,7839,,,564991,,,59.12497600000000,13494,785,,Orkney Islands,http://www.orkney.gov.uk/,-3.30169100000000,KW17 2LY,2014-10-30,fhis_pass_en-GB,Pass,,FHIS,
447884,,19 Graham Place,Stromness,,Bayleaf Delicatessen,Retailers - other,4613,,,565031,,,58.96122600000000,14659,785,,Orkney Islands,http://www.orkney.gov.uk/,-3.29994600000000,KW16 3BY,2012-10-24,fhis_pass_en-GB,Pass,,FHIS,
447885,Bellavista,Carness Road,St Ola,,Bellavista Guest House,Hotel/bed & breakfast/guest house,7842,,,565072,,,58.99819800000000,3648,785,,Orkney Islands,http://www.orkney.gov.uk/,-2.94260400000000,KW15 1UE,2013-02-06,fhis_pass_en-GB,Pass,,FHIS,
447886,Bellevue Inn,Front Road,St Margarets Hope,South Ronaldsay,Bellevue Inn,Restaurant/Cafe/Canteen,1,,,565159,,,58.82607100000000,9364,785,,Orkney Islands,http://www.orkney.gov.uk/,-2.95908900000000,KW17 2SL,2013-10-09,fhis_pass_en-GB,Pass,,FHIS,
447887,Nether Linksness,Moaness Road,Hoy,,Beneth'll Cafe,Restaurant/Cafe/Canteen,1,,,565045,,,58.91197600000000,14867,785,,Orkney Islands,http://www.orkney.gov.uk/,-3.33042500000000,KW16 3NJ,2014-09-25,fhis_pass_en-GB,Pass,,FHIS,
447888,Benmora,Cromwell Road,Kirkwall,,Benmora B & B,Hotel/bed & breakfast/guest house,7842,,,565073,,,58.98763700000000,3721,785,,Orkney Islands,http://www.orkney.gov.uk/,-2.95355600000000,KW15 1LN,2013-01-31,fhis_pass_en-GB,Pass,,FHIS,
447889,Birsay Bay Tearoom,Linkshouse Road,The Palace,Birsay,Birsay Bay Tearoom,Restaurant/Cafe/Canteen,1,,,565046,,,59.12899100000000,14870,785,,Orkney Islands,http://www.orkney.gov.uk/,-3.31583900000000,KW17 2LX,2014-11-14,fhis_pass_en-GB,Pass,,FHIS,
447890,Birsay Community Hall,Community Centre Road,Birsay,,Birsay Community Association,Other catering premises,7841,,,565036,,,59.10974800000000,14787,785,,Orkney Islands,http://www.orkney.gov.uk/,-3.32432100000000,KW17 2ND,2013-05-27,fhis_pass_en-GB,Pass,,FHIS,
447891,,6 Easdale Close,Kirkwall,,Bite Me,Mobile caterer,7846,,,726434,,,58.97274800000000,5543,785,,Orkney Islands,http://www.orkney.gov.uk/,-2.95098800000000,KW15 1YF,2014-12-18,fhis_pass_en-GB,Pass,,FHIS,
447892,,15 Sommerville Square,Kirkwall,,Bobby - Childcare Services,Hospitals/Childcare/Caring Premises,5,,,718792,,,58.98038200000000,11998,785,,Orkney Islands,http://www.orkney.gov.uk/,-2.96433300000000,KW15 1BX,2014-11-18,fhis_pass_en-GB,Pass,,FHIS,
447893,Bon-Accord,New Scapa Road,Kirkwall,,Bon-Accord B & B,Hotel/bed & breakfast/guest house,7842,,,564992,,,58.97709100000000,13686,785,,Orkney Islands,http://www.orkney.gov.uk/,-2.96368400000000,KW15 1BT,2014-03-12,fhis_pass_en-GB,Pass,,FHIS,
447894,Braeside,Beaquoy Road,Dounby,,Brae Bakes,Manufacturers/packers,7839,,,564974,,,59.07878800000000,13007,785,,Orkney Islands,http://www.orkney.gov.uk/,-3.22008500000000,KW17 2HY,2014-07-02,fhis_pass_en-GB,Pass,,FHIS,
447895,Braeswick,,Sanday,,Braeswick B & B,Hotel/bed & breakfast/guest house,7842,,,565000,,,59.22746800000000,13853,785,,Orkney Islands,http://www.orkney.gov.uk/,-2.65997100000000,KW17 2BA,2013-10-10,fhis_pass_en-GB,Pass,,FHIS,
447896,Schoolhouse Farm,,Deerness,,Bremners,Mobile caterer,7846,,,670082,,,58.93696500000000,8507,785,,Orkney Islands,http://www.orkney.gov.uk/,-2.74442900000000,KW17 2QH,2014-06-16,fhis_pass_en-GB,Pass,,FHIS,
447897,Brinkies House,Brownstown Road,Stromness Parish,,Brinkies Guest House,Hotel/bed & breakfast/guest house,7842,,,565051,,,58.96237600000000,1796,785,,Orkney Islands,http://www.orkney.gov.uk/,-3.30791800000000,KW16 3JN,2013-01-24,fhis_pass_en-GB,Pass,,FHIS,
447898,,55 Victoria Street,Kirkwall,,Bruces Stores,Retailers - other,4613,,,565124,,,58.98020500000000,6955,785,,Orkney Islands,http://www.orkney.gov.uk/,-2.96157900000000,KW15 1DN,2014-12-02,fhis_pass_en-GB,Pass,,FHIS,
447899,Lawrona,Village Road,Burray Village,Burray,Burray Community Association,Restaurant/Cafe/Canteen,1,,,564905,,,58.84548000000000,10277,785,,Orkney Islands,http://www.orkney.gov.uk/,-2.91448500000000,KW17 2SS,2012-05-17,fhis_pass_en-GB,Pass,,FHIS,
447900,Burray Primary School,Westshore Road,Burray Village,Burray,Burray Primary School,School/college/university,7845,,,564891,,,58.84548000000000,10018,785,,Orkney Islands,http://www.orkney.gov.uk/,-2.91448500000000,KW17 2SS,2012-04-17,fhis_pass_en-GB,Pass,,FHIS,
447901,,1 Mounthoolie Place,Kirkwall,,Buster's Diner,Restaurant/Cafe/Canteen,1,,,564948,,,58.98362100000000,12164,785,,Orkney Islands,http://www.orkney.gov.uk/,-2.95986500000000,KW15 1JZ,2013-11-05,fhis_pass_en-GB,Pass,,FHIS,
447902,,21 Albert Street,Kirkwall,,Cafe Lolz@21,Restaurant/Cafe/Canteen,1,,,565005,,,58.98359800000000,13952,785,,Orkney Islands,http://www.orkney.gov.uk/,-2.95821100000000,KW15 1HP,2014-03-21,fhis_pass_en-GB,Pass,,FHIS,
447903,Braebister,North Bigging Road,Harray,,Caroline Corrigall,Hospitals/Childcare/Caring Premises,5,,,729302,,,59.06474100000000,14299,785,,Orkney Islands,http://www.orkney.gov.uk/,-3.21048300000000,KW17 2HZ,2015-01-06,fhis_pass_en-GB,Pass,,FHIS,
447904,Castlehill,Georth Road,Evie,,Castlehill B & B,Hotel/bed & breakfast/guest house,7842,,,564980,,,59.11693300000000,13205,785,,Orkney Islands,http://www.orkney.gov.uk/,-3.11922900000000,KW17 2PJ,2014-04-09,fhis_pass_en-GB,Pass,,FHIS,
447905,,2 Bridge Street,Kirkwall,,Chicken George,Takeaway/sandwich shop,7844,,,571528,,,58.98419800000000,14522,785,,Orkney Islands,http://www.orkney.gov.uk/,-2.95833200000000,KW15 1HR,2014-12-19,fhis_pass_en-GB,Pass,,FHIS,
447906,The Life Centre,East Road,Kirkwall,,Christian Growth Centre,Restaurant/Cafe/Canteen,1,,,564926,,,58.98478300000000,10797,785,,Orkney Islands,http://www.orkney.gov.uk/,-2.94850100000000,KW15 1LX,2012-03-20,fhis_pass_en-GB,Pass,,FHIS,
447907,Orphir Church,Gyre Road,Orphir Village,Orphir,Community Coffee Morning,Restaurant/Cafe/Canteen,1,,,564913,,,58.93817100000000,10309,785,,Orkney Islands,http://www.orkney.gov.uk/,-3.12756100000000,KW17 2RB,2013-03-07,fhis_pass_en-GB,Pass,,FHIS,
447908,Co-Operative,Pickaquoy Road,Kirkwall,,Co-Operative,Retailers - supermarkets/hypermarkets,7840,,,565112,,,58.98177500000000,6327,785,,Orkney Islands,http://www.orkney.gov.uk/,-2.97025200000000,KW15 1RP,2013-04-05,fhis_pass_en-GB,Pass,,FHIS,
447909,,19 Albert Street,Kirkwall,,Cooperative Food,Retailers - supermarkets/hypermarkets,7840,,,565022,,,58.98359800000000,14413,785,,Orkney Islands,http://www.orkney.gov.uk/,-2.95821100000000,KW15 1HP,2014-04-11,fhis_pass_en-GB,Pass,,FHIS,
447910,Corse Shop,,Sanday,,Corse Shop,Retailers - other,4613,,,564901,,,59.25410900000000,10245,785,,Orkney Islands,http://www.orkney.gov.uk/,-2.59948100000000,KW17 2AY,2012-11-07,fhis_pass_en-GB,Pass,,FHIS,
447911,The Brig Larder,1 Albert Street,Kirkwall,,Craigie Butchers,Retailers - other,4613,,,718794,,,58.98359800000000,15177,785,,Orkney Islands,http://www.orkney.gov.uk/,-2.95821100000000,KW15 1HP,2014-11-26,fhis_pass_en-GB,Pass,,FHIS,
447912,Hall Of Yenstay,Yinstay Road,St Andrews,,Craigie Butchers Ltd,Manufacturers/packers,7839,,,565139,,,58.97463300000000,7832,785,,Orkney Islands,http://www.orkney.gov.uk/,-2.83944400000000,KW17 2QS,2014-09-18,fhis_pass_en-GB,Pass,,FHIS,
447913,Colymbus,9 Craigiefield Park,St Ola,,Craigiefield Park B & B,Hotel/bed & breakfast/guest house,7842,,,565071,,,58.99583200000000,3639,785,,Orkney Islands,http://www.orkney.gov.uk/,-2.94562000000000,KW15 1TE,2013-08-12,fhis_pass_en-GB,Pass,,FHIS,
447914,Highland Park House,Lynn Road,Kirkwall,,Creative Escapes,Hotel/bed & breakfast/guest house,7842,,,688535,,,58.96687300000000,15037,785,,Orkney Islands,http://www.orkney.gov.uk/,-2.95246100000000,KW15 1SU,2014-07-10,fhis_pass_en-GB,Pass,,FHIS,
447915,Cruan Riding School,Cruan Road,Firth,,Cruan Riding School,Retailers - other,4613,,,565184,,,58.99553700000000,3168,785,,Orkney Islands,http://www.orkney.gov.uk/,-3.09379200000000,KW15 1TT,2014-02-10,fhis_improvement_required_en-GB,Improvement Required,,FHIS,
447916,Peerie Lurdy,,Flotta,,D F Sinclair,Retailers - other,4613,,,565169,,,58.82599100000000,9674,785,,Orkney Islands,http://www.orkney.gov.uk/,-3.10408400000000,KW16 3NP,2013-05-07,fhis_pass_en-GB,Pass,,FHIS,
447917,,42 Broad Street,Kirkwall,,David Spence,Retailers - other,4613,,,565115,,,58.98098200000000,6759,785,,Orkney Islands,http://www.orkney.gov.uk/,-2.96088700000000,KW15 1DG,2014-11-03,fhis_pass_en-GB,Pass,,FHIS,
447918,,31 Albert Street,Kirkwall,,Dealz,Retailers - other,4613,,,565028,,,58.98337600000000,14562,785,,Orkney Islands,http://www.orkney.gov.uk/,-2.95902300000000,KW15 1HL,2014-10-16,fhis_pass_en-GB,Pass,,FHIS,
447919,"Deb's Cafe, Kirkwall Airport",,St Andrews,,"Deb's Cafe, Kirkwall Airport",Restaurant/Cafe/Canteen,1,,,565034,,,58.95370500000000,14725,785,,Orkney Islands,http://www.orkney.gov.uk/,-2.90250400000000,KW15 1TH,2014-08-15,fhis_pass_en-GB,Pass,,FHIS,
447920,Deerness Community Centre,B9050 From Newark Road To Millhouse Road,Deerness,,Deerness Community Centre,Restaurant/Cafe/Canteen,1,,,564950,,,,12199,785,,Orkney Islands,http://www.orkney.gov.uk/,,,2014-07-17,fhis_pass_en-GB,Pass,,FHIS,
447921,Deerness Stores,,Deerness,,Deerness Stores,Retailers - other,4613,,,565147,,,58.93696500000000,8532,785,,Orkney Islands,http://www.orkney.gov.uk/,-2.74442900000000,KW17 2QH,2014-03-17,fhis_pass_en-GB,Pass,,FHIS,
447922,,7 Bridge Street,Kirkwall,,Dil Se,Restaurant/Cafe/Canteen,1,,,564949,,,58.98419800000000,12180,785,,Orkney Islands,http://www.orkney.gov.uk/,-2.95833200000000,KW15 1HR,2014-07-01,fhis_pass_en-GB,Pass,,FHIS,
447923,,38 Albert Street,Kirkwall,,Donaldsons of Orkney,Retailers - other,4613,,,565105,,,58.98280900000000,6064,785,,Orkney Islands,http://www.orkney.gov.uk/,-2.95912900000000,KW15 1HQ,2014-11-11,fhis_pass_en-GB,Pass,,FHIS,
447924,,25 Linklet,Kirkwall,,Donna Findlay,Hospitals/Childcare/Caring Premises,5,,,688538,,,58.97565400000000,4571,785,,Orkney Islands,http://www.orkney.gov.uk/,-2.94536300000000,KW15 1UZ,2014-07-08,fhis_pass_en-GB,Pass,,FHIS,
447925,Dounby Primary School,,Dounby,Sandwick,Dounby Community Centre,Restaurant/Cafe/Canteen,1,,,564893,,,59.06269600000000,10199,785,,Orkney Islands,http://www.orkney.gov.uk/,-3.22359500000000,KW17 2JA,2014-03-20,fhis_pass_en-GB,Pass,,FHIS,
447926,Dounby Primary School,,Dounby,Sandwick,Dounby Primary School,School/college/university,7845,,,565061,,,59.06269600000000,2536,785,,Orkney Islands,http://www.orkney.gov.uk/,-3.22359500000000,KW17 2JA,2014-08-21,fhis_pass_en-GB,Pass,,FHIS,
447927,,63 John Street,Stromness,,E Flett,Retailers - other,4613,,,564925,,,58.96465000000000,1076,785,,Orkney Islands,http://www.orkney.gov.uk/,-3.29704900000000,KW16 3AD,2014-01-15,fhis_pass_en-GB,Pass,,FHIS,
447928,Eastward House,,South Ronaldsay,,Eastward House,Hotel/bed & breakfast/guest house,7842,,,565166,,,58.76260700000000,9553,785,,Orkney Islands,http://www.orkney.gov.uk/,-2.96067700000000,KW17 2RN,2013-06-26,fhis_pass_en-GB,Pass,,FHIS,
447929,Ebenezer Stores,,Whitehall,Stronsay,Ebenezer Stores,Retailers - other,4613,,,564907,,,59.14072400000000,10288,785,,Orkney Islands,http://www.orkney.gov.uk/,-2.60127200000000,KW17 2AR,2014-06-11,fhis_pass_en-GB,Pass,,FHIS,
447930,Eday Community Enterprises,,Eday,,Eday Community Enterprises Ltd,Retailers - other,4613,,,565146,,,59.22503200000000,8473,785,,Orkney Islands,http://www.orkney.gov.uk/,-2.76220700000000,KW17 2AB,2012-09-12,fhis_pass_en-GB,Pass,,FHIS,
447931,Eday Heritage And Visitor Centre,,Eday,,Eday Heritage And Visitor Centre,Restaurant/Cafe/Canteen,1,,,564970,,,59.22503200000000,12866,785,,Orkney Islands,http://www.orkney.gov.uk/,-2.76220700000000,KW17 2AB,2014-02-11,fhis_pass_en-GB,Pass,,FHIS,
447932,Eday Primary School,,Eday,,Eday Primary School,School/college/university,7845,,,565176,,,59.16200300000000,10322,785,,Orkney Islands,http://www.orkney.gov.uk/,-2.76745000000000,KW17 2AA,2013-11-19,fhis_pass_en-GB,Pass,,FHIS,
447933,,51 Junction Road,Kirkwall,,Empire Chinese Restaurant,Restaurant/Cafe/Canteen,1,,,565122,,,58.98049800000000,6927,785,,Orkney Islands,http://www.orkney.gov.uk/,-2.96317000000000,KW15 1AR,2013-05-02,fhis_pass_en-GB,Pass,,FHIS,
447934,,11 Old Scapa Road,Kirkwall,,Enable Scotland,Hospitals/Childcare/Caring Premises,5,,,565111,,,58.97598900000000,6230,785,,Orkney Islands,http://www.orkney.gov.uk/,-2.96925400000000,KW15 1BB,2014-10-23,fhis_pass_en-GB,Pass,,FHIS,
447935,Evie Primary School,,Evie,,Evie Primary School,School/college/university,7845,,,564894,,,59.10408700000000,10205,785,,Orkney Islands,http://www.orkney.gov.uk/,-3.08782000000000,KW17 2PE,2014-11-20,fhis_pass_en-GB,Pass,,FHIS,
447936,,2 North End Road,Stromness,,Ferry Bank B & B,Hotel/bed & breakfast/guest house,7842,,,565171,,,58.96709500000000,980,785,,Orkney Islands,http://www.orkney.gov.uk/,-3.29508900000000,KW16 3AG,2013-01-24,fhis_pass_en-GB,Pass,,FHIS,
447937,Firth Primary School,,Finstown,Firth,Firth Primary School,School/college/university,7845,,,565064,,,59.01362300000000,3072,785,,Orkney Islands,http://www.orkney.gov.uk/,-3.10981200000000,KW17 2ES,2013-11-21,fhis_pass_en-GB,Pass,,FHIS,
447938,Fish Mart Cafe,,Whitehall,Stronsay,Fish Mart Cafe,Restaurant/Cafe/Canteen,1,,,579806,,,59.14012300000000,14902,785,,Orkney Islands,http://www.orkney.gov.uk/,-2.59350200000000,KW17 2AS,2013-08-14,fhis_improvement_required_en-GB,Improvement Required,,FHIS,
447939,Flotta Primary School,,Flotta,,Flotta Community Centre,Restaurant/Cafe/Canteen,1,,,564951,,,58.82599100000000,12238,785,,Orkney Islands,http://www.orkney.gov.uk/,-3.10408400000000,KW16 3NP,2013-01-21,fhis_pass_en-GB,Pass,,FHIS,
447940,Foinhaven,Germiston Road,Orphir,,Foinhaven B & B,Hotel/bed & breakfast/guest house,7842,,,564946,,,58.96223700000000,12132,785,,Orkney Islands,http://www.orkney.gov.uk/,-3.11356700000000,KW16 3HD,2013-01-24,fhis_pass_en-GB,Pass,,FHIS,
447941,Orkney Fossil And Vintage Centre,Viewforth Road,Burray,,Fossil Centre Community Cafe,Restaurant/Cafe/Canteen,1,,,564985,,,58.86414400000000,13381,785,,Orkney Islands,http://www.orkney.gov.uk/,-2.90537200000000,KW17 2SY,2013-09-23,fhis_pass_en-GB,Pass,,FHIS,
447942,Foveran Hotel,,Scapa Brae,St Ola,Foveran Hotel,Restaurant/Cafe/Canteen,1,,,565137,,,58.95631600000000,7691,785,,Orkney Islands,http://www.orkney.gov.uk/,-3.01322300000000,KW15 1SF,2013-10-10,fhis_pass_en-GB,Pass,,FHIS,
447943,,34 Bridge Street,Kirkwall,,Frozen Food Centre,Retailers - other,4613,,,565081,,,58.98419800000000,4056,785,,Orkney Islands,http://www.orkney.gov.uk/,-2.95833200000000,KW15 1HR,2014-10-16,fhis_pass_en-GB,Pass,,FHIS,
447944,Selbro Store,Scotts Road,St Ola,,Frozen Meals Service,Other catering premises,7841,,,564995,,,58.98752000000000,13737,785,,Orkney Islands,http://www.orkney.gov.uk/,-2.97539000000000,KW15 1GR,2014-08-15,fhis_pass_en-GB,Pass,,FHIS,
447945,,10-12 Ayre Road,Kirkwall,,Fusion,Pub/bar/nightclub,7843,,,564920,,,58.98445200000000,10530,785,,Orkney Islands,http://www.orkney.gov.uk/,-2.96289800000000,KW15 1QX,2013-01-31,fhis_pass_en-GB,Pass,,FHIS,
447946,Old School,,Hoy,,Gable End Theatre,Retailers - other,4613,,,564898,,,58.81726000000000,10230,785,,Orkney Islands,http://www.orkney.gov.uk/,-3.20167200000000,KW16 3NX,2014-09-25,fhis_pass_en-GB,Pass,,FHIS,
447947,"Gerri's Ice Cream Parlour, Summerdale",,Stenness Village,Stenness,"Gerri's Ice Cream Parlour, Summerdale",Restaurant/Cafe/Canteen,1,,,565057,,,58.98494900000000,2341,785,,Orkney Islands,http://www.orkney.gov.uk/,-3.22984900000000,KW16 3JX,2013-04-26,fhis_pass_en-GB,Pass,,FHIS,
447948,Gilbertson Day Centre,Old Scapa Road,Kirkwall,,Gilbertson Day Centre,Hospitals/Childcare/Caring Premises,5,,,580754,,,58.97598900000000,7065,785,,Orkney Islands,http://www.orkney.gov.uk/,-2.96925400000000,KW15 1BB,2013-08-21,fhis_pass_en-GB,Pass,,FHIS,
447949,Glaitness Primary School,Pickaquoy Road,Kirkwall,,Glaitness Primary School,School/college/university,7845,,,564896,,,58.98177500000000,10227,785,,Orkney Islands,http://www.orkney.gov.uk/,-2.97025200000000,KW15 1RP,2013-09-19,fhis_pass_en-GB,Pass,,FHIS,
447950,Grain Farm House,3 Wellington Street,Kirkwall,,Grain Farm House,Hotel/bed & breakfast/guest house,7842,,,565012,,,58.97769500000000,14041,785,,Orkney Islands,http://www.orkney.gov.uk/,-2.96458800000000,KW15 1AY,2014-06-19,fhis_pass_en-GB,Pass,,FHIS,
447951,Unit 2,The Quarry Road,Pierowall,Westray,Haff Yok Cafe,Restaurant/Cafe/Canteen,1,,,565042,,,59.32242500000000,14826,785,,Orkney Islands,http://www.orkney.gov.uk/,-2.98813300000000,KW17 2DF,2014-09-03,fhis_pass_en-GB,Pass,,FHIS,
447952,Hammersmith,,Harray,,Hammersmith B & B,Hotel/bed & breakfast/guest house,7842,,,565053,,,59.03223000000000,2000,785,,Orkney Islands,http://www.orkney.gov.uk/,-3.17728100000000,KW17 2JR,2013-01-24,fhis_pass_en-GB,Pass,,FHIS,
447953,,35 Graham Place,Stromness,,Hamnavoe Restaurant,Restaurant/Cafe/Canteen,1,,,565048,,,58.96122600000000,1501,785,,Orkney Islands,http://www.orkney.gov.uk/,-3.29994600000000,KW16 3BY,2014-11-12,fhis_pass_en-GB,Pass,,FHIS,
447954,Hannatoft,Holm Road,Kirkwall,,Hannah's Homebakes,Other catering premises,7841,,,565020,,,58.97038700000000,14373,785,,Orkney Islands,http://www.orkney.gov.uk/,-2.95454000000000,KW15 1RX,2015-02-10,fhis_pass_en-GB,Pass,,FHIS,
447955,,3 Bridge Street,Kirkwall,,Harbour Fry,Takeaway/sandwich shop,7844,,,565083,,,58.98419800000000,4111,785,,Orkney Islands,http://www.orkney.gov.uk/,-2.95833200000000,KW15 1HR,2013-12-17,fhis_pass_en-GB,Pass,,FHIS,
447956,Harray Stores,,Harray,,Harray Stores,Manufacturers/packers,7839,,,564996,,,59.05024200000000,13750,785,,Orkney Islands,http://www.orkney.gov.uk/,-3.19343000000000,KW17 2LQ,2014-10-24,fhis_improvement_required_en-GB,Improvement Required,,FHIS,
447957,Haughland House,,Shapinsay,,Haughland House Trust,Hotel/bed & breakfast/guest house,7842,,,564940,,,59.04547100000000,11889,785,,Orkney Islands,http://www.orkney.gov.uk/,-2.85908800000000,KW17 2DZ,2013-09-16,fhis_pass_en-GB,Pass,,FHIS,
447958,Heilsa Fjold,School Road,Sanday,,Heilsa Fjold Cafe,Restaurant/Cafe/Canteen,1,,,565021,,,59.25616000000000,14378,785,,Orkney Islands,http://www.orkney.gov.uk/,-2.57486200000000,KW17 2BN,2012-07-12,fhis_pass_en-GB,Pass,,FHIS,
447959,,14 Harbour Street,Kirkwall,,Helgi's,Restaurant/Cafe/Canteen,1,,,564972,,,58.98451200000000,12884,785,,Orkney Islands,http://www.orkney.gov.uk/,-2.95969800000000,KW15 1LE,2014-11-13,fhis_pass_en-GB,Pass,,FHIS,
447960,Hildeval,Easthill,Kirkwall,,Hildeval Bed & Breakfast,Hotel/bed & breakfast/guest house,7842,,,565076,,,58.98444300000000,3917,785,,Orkney Islands,http://www.orkney.gov.uk/,-2.94462900000000,KW15 1LY,2013-02-06,fhis_pass_en-GB,Pass,,FHIS,
447961,Hilton,,Shapinsay,,Hilton Farmhouse,Hotel/bed & breakfast/guest house,7842,,,565187,,,59.03369900000000,7954,785,,Orkney Islands,http://www.orkney.gov.uk/,-2.85734800000000,KW17 2EA,2013-10-01,fhis_pass_en-GB,Pass,,FHIS,
447962,Holland House,Church Road,Harray,,Holland House B&B,Hotel/bed & breakfast/guest house,7842,,,564988,,,59.05024200000000,13414,785,,Orkney Islands,http://www.orkney.gov.uk/,-3.19343000000000,KW17 2LQ,2013-10-01,fhis_pass_en-GB,Pass,,FHIS,
447963,Hope Primary School,School Road,St Margarets Hope,South Ronaldsay,Hope Primary School,School/college/university,7845,,,565161,,,58.82455000000000,9398,785,,Orkney Islands,http://www.orkney.gov.uk/,-2.96436400000000,KW17 2TN,2014-08-21,fhis_pass_en-GB,Pass,,FHIS,
447964,Hoxa Tearooms,Uppertown Road,South Ronaldsay,,Hoxa Tearooms,Restaurant/Cafe/Canteen,1,,,564918,,,58.82112800000000,10351,785,,Orkney Islands,http://www.orkney.gov.uk/,-2.99400200000000,KW17 2TW,2013-08-19,fhis_pass_en-GB,Pass,,FHIS,
447965,Hoy & Walls Health And Social Care Centre,,Longhope,Hoy,Hoy & Walls Health And Social Care Centre,Hospitals/Childcare/Caring Premises,5,,,564897,,,58.79916200000000,10229,785,,Orkney Islands,http://www.orkney.gov.uk/,-3.20071700000000,KW16 3PG,2013-10-31,fhis_improvement_required_en-GB,Improvement Required,,FHIS,
447966,Hoy Hotel,,Hoy,,Hoy Hotel,Restaurant/Cafe/Canteen,1,,,564919,,,58.83229100000000,10380,785,,Orkney Islands,http://www.orkney.gov.uk/,-3.20595200000000,KW16 3NT,2013-10-31,fhis_pass_en-GB,Pass,,FHIS,
447967,Massatter,Windwick Road,South Ronaldsay,,Hunters Ices,Mobile caterer,7846,,,670081,,,58.76260700000000,12900,785,,Orkney Islands,http://www.orkney.gov.uk/,-2.96067700000000,KW17 2RN,2014-06-16,fhis_pass_en-GB,Pass,,FHIS,
447968,Hyval,Northdyke Road,Sandwick,,Hyval Farm B & B,Hotel/bed & breakfast/guest house,7842,,,564931,,,59.06667600000000,10980,785,,Orkney Islands,http://www.orkney.gov.uk/,-3.33103400000000,KW16 3LS,2013-01-24,fhis_pass_en-GB,Pass,,FHIS,
447969,,37 Junction Road,Kirkwall,,Indian Garden,Restaurant/Cafe/Canteen,1,,,701921,,,58.98197700000000,15174,785,,Orkney Islands,http://www.orkney.gov.uk/,-2.96241100000000,KW15 1AG,2014-09-10,fhis_improvement_required_en-GB,Improvement Required,,FHIS,
447970,,12 Bridge Street,Kirkwall,,International Takeaway,Takeaway/sandwich shop,7844,,,564973,,,58.98419800000000,12948,785,,Orkney Islands,http://www.orkney.gov.uk/,-2.95833200000000,KW15 1HR,2014-01-13,fhis_pass_en-GB,Pass,,FHIS,
447971,Isbister Bros Ltd,,Sandwick,,Isbister Bros Ltd,Retailers - other,4613,,,565050,,,59.06920300000000,1682,785,,Orkney Islands,http://www.orkney.gov.uk/,-3.30953800000000,KW16 3LT,2012-07-11,fhis_pass_en-GB,Pass,,FHIS,
447972,J & A G Rendall Ltd,Willow Road,Kirkwall,,J & A G Rendall Ltd,Retailers - other,4613,,,564960,,,58.98179300000000,12631,785,,Orkney Islands,http://www.orkney.gov.uk/,-2.95443800000000,KW15 1NJ,2014-04-24,fhis_pass_en-GB,Pass,,FHIS,
447973,J C Tulloch,,Pierowall,Westray,J C Tulloch,Retailers - other,4613,,,565128,,,59.32114900000000,7291,785,,Orkney Islands,http://www.orkney.gov.uk/,-2.98941400000000,KW17 2DH,2014-09-03,fhis_pass_en-GB,Pass,,FHIS,
447974,Anchorfast Buildings,Pier Road,Longhope,Hoy,J M F Groat & Sons Limited,Retailers - other,4613,,,564944,,,58.79916200000000,12031,785,,Orkney Islands,http://www.orkney.gov.uk/,-3.20071700000000,KW16 3PG,2014-06-10,fhis_pass_en-GB,Pass,,FHIS,
447975,J M Stevenson,4 Albert Street,Kirkwall,,J M Stevenson,Retailers - other,4613,,,565078,,,58.98359800000000,4046,785,,Orkney Islands,http://www.orkney.gov.uk/,-2.95821100000000,KW15 1HP,2013-08-21,fhis_pass_en-GB,Pass,,FHIS,
447976,Pierowall Fish Ltd,Broughton Road,Westray,,Jack's,Takeaway/sandwich shop,7844,,,619944,,,59.31591300000000,14982,785,,Orkney Islands,http://www.orkney.gov.uk/,-2.97866900000000,KW17 2DA,2012-08-22,fhis_pass_en-GB,Pass,,FHIS,
447977,,57 Hamnavoe,Stromness,,Janette M Brown,Hospitals/Childcare/Caring Premises,5,,,696126,,,58.96729200000000,539,785,,Orkney Islands,http://www.orkney.gov.uk/,-3.28610500000000,KW16 3JQ,2014-08-15,fhis_pass_en-GB,Pass,,FHIS,
447978,Jim Fred's Cafe,Back Road,St Margarets Hope,South Ronaldsay,Jim Fred's Cafe,Restaurant/Cafe/Canteen,1,,,564987,,,58.82540800000000,13402,785,,Orkney Islands,http://www.orkney.gov.uk/,-2.95896700000000,KW17 2SP,2014-11-03,fhis_pass_en-GB,Pass,,FHIS,
447979,,15-19 Bridge Street,Kirkwall,,John Scott & Miller Ltd,Retailers - other,4613,,,565080,,,58.98419800000000,4052,785,,Orkney Islands,http://www.orkney.gov.uk/,-2.95833200000000,KW15 1HR,2014-08-11,fhis_pass_en-GB,Pass,,FHIS,
447980,Jolly's Of Orkney,Scotts Road,St Ola,,Jolly's Of Orkney,Manufacturers/packers,7839,,,565008,,,58.98752000000000,13995,785,,Orkney Islands,http://www.orkney.gov.uk/,-2.97539000000000,KW15 1GR,2014-09-18,fhis_pass_en-GB,Pass,,FHIS,
447981,The Brig Larder,1 Albert Street,Kirkwall,,Jolly's of Orkney,Retailers - other,4613,,,718795,,,58.98359800000000,15200,785,,Orkney Islands,http://www.orkney.gov.uk/,-2.95821100000000,KW15 1HP,2014-11-26,fhis_pass_en-GB,Pass,,FHIS,
447982,,25 Broad Street,Kirkwall,,Judith Glue,Restaurant/Cafe/Canteen,1,,,565121,,,58.98163700000000,6877,785,,Orkney Islands,http://www.orkney.gov.uk/,-2.96099300000000,KW15 1DH,2014-07-14,fhis_pass_en-GB,Pass,,FHIS,
447983,Julia's Cafe & Bistro,Ferry Road,Stromness,,Julia's Cafe & Bistro,Restaurant/Cafe/Canteen,1,,,564910,,,58.96492800000000,10299,785,,Orkney Islands,http://www.orkney.gov.uk/,-3.29619000000000,KW16 3AE,2013-09-18,fhis_pass_en-GB,Pass,,FHIS,
447984,Kalisgarth Care Centre,Howanbreck,Pierowall,Westray,Kalisgarth Care Centre,Hospitals/Childcare/Caring Premises,5,,,564943,,,59.32155900000000,11980,785,,Orkney Islands,http://www.orkney.gov.uk/,-2.98979500000000,KW17 2DG,2014-09-03,fhis_pass_en-GB,Pass,,FHIS,
447985,,9b Coplands Drive,Stromness,,Karen's Cakes,Other catering premises,7841,,,565040,,,58.96673600000000,14821,785,,Orkney Islands,http://www.orkney.gov.uk/,-3.28518000000000,KW16 3BN,2013-07-03,fhis_pass_en-GB,Pass,,FHIS,
447986,Karrawa Guest House,Inganess Road,St Ola,,Karrawa Guest House,Hotel/bed & breakfast/guest house,7842,,,565026,,,58.97134800000000,14527,785,,Orkney Islands,http://www.orkney.gov.uk/,-2.94467100000000,KW15 1SP,2013-01-21,fhis_pass_en-GB,Pass,,FHIS,
447987,Kaya,,Stenness,,Kaya Bed & Breakfast,Hotel/bed & breakfast/guest house,7842,,,565037,,,58.98494900000000,14788,785,,Orkney Islands,http://www.orkney.gov.uk/,-3.22984900000000,KW16 3JX,2013-06-13,fhis_pass_en-GB,Pass,,FHIS,
447988,Kenila,Ballarat Road,Harray,,Kenila B&B,Hotel/bed & breakfast/guest house,7842,,,565056,,,59.03902400000000,2326,785,,Orkney Islands,http://www.orkney.gov.uk/,-3.21278600000000,KW17 2LE,2013-02-07,fhis_pass_en-GB,Pass,,FHIS,
447989,Kettletoft Butcher,,Sanday,,Kettletoft Butcher,Retailers - other,4613,,,564916,,,59.23341100000000,10328,785,,Orkney Islands,http://www.orkney.gov.uk/,-2.59917000000000,KW17 2BJ,2013-03-20,fhis_pass_en-GB,Pass,,FHIS,
447990,Kettletoft Hotel,,Sanday,,Kettletoft Hotel,Restaurant/Cafe/Canteen,1,,,565152,,,59.23341100000000,9135,785,,Orkney Islands,http://www.orkney.gov.uk/,-2.59917000000000,KW17 2BJ,2013-03-20,fhis_pass_en-GB,Pass,,FHIS,
447991,Kevock,The Keelies,Kirkwall,,Kevock B & B,Hotel/bed & breakfast/guest house,7842,,,565094,,,58.98129600000000,5261,785,,Orkney Islands,http://www.orkney.gov.uk/,-2.95494600000000,KW15 1GA,2013-01-21,fhis_pass_en-GB,Pass,,FHIS,
447992,Kirkness & Gorie,11 Broad Street,Kirkwall,,Kirkness & Gorie,Retailers - other,4613,,,565118,,,58.98163700000000,6837,785,,Orkney Islands,http://www.orkney.gov.uk/,-2.96099300000000,KW15 1DH,2014-10-08,fhis_pass_en-GB,Pass,,FHIS,
447993,Kirkwall & St Ola Community Centre,Broad Street,Kirkwall,,Kirkwall & St Ola Community Centre,Restaurant/Cafe/Canteen,1,,,565123,,,58.98163700000000,6931,785,,Orkney Islands,http://www.orkney.gov.uk/,-2.96099300000000,KW15 1DH,2014-07-07,fhis_pass_en-GB,Pass,,FHIS,
447994,,86 Victoria Street,Kirkwall,,Kirkwall Baptist Church,Restaurant/Cafe/Canteen,1,,,564959,,,,12617,785,,Orkney Islands,http://www.orkney.gov.uk/,,,2012-10-03,fhis_pass_en-GB,Pass,,FHIS,
447995,Brandyquoy Bowling Green & Clubhouse,Palace Road,Kirkwall,,Kirkwall Bowling Club,Restaurant/Cafe/Canteen,1,,,565039,,,,14798,785,,Orkney Islands,http://www.orkney.gov.uk/,,,2013-05-09,fhis_pass_en-GB,Pass,,FHIS,
447996,Kirkwall East Church,King Street,Kirkwall,,Kirkwall East Church,Other catering premises,7841,,,564895,,,58.98214900000000,10226,785,,Orkney Islands,http://www.orkney.gov.uk/,-2.95735300000000,KW15 1JF,2014-03-10,fhis_pass_en-GB,Pass,,FHIS,
447997,Kirkwall Grammar School,The Meadows,Kirkwall,,Kirkwall Grammar School,School/college/university,7845,,,666577,,,58.97994600000000,14946,785,,Orkney Islands,http://www.orkney.gov.uk/,-2.94668100000000,KW15 1QN,2014-05-14,fhis_pass_en-GB,Pass,,FHIS,
447998,Kirkwall Hotel,Harbour Street,Kirkwall,,Kirkwall Hotel Ltd,Restaurant/Cafe/Canteen,1,,,571529,,,58.98451200000000,14890,785,,Orkney Islands,http://www.orkney.gov.uk/,-2.95969800000000,KW15 1LE,2015-01-07,fhis_pass_en-GB,Pass,,FHIS,
447999,Masonic Club,Castle Street,Kirkwall,,Kirkwall Kilwinning Recreation Club,Pub/bar/nightclub,7843,,,564967,,,58.98225900000000,12806,785,,Orkney Islands,http://www.orkney.gov.uk/,-2.96064500000000,KW15 1DF,2013-10-02,fhis_pass_en-GB,Pass,,FHIS,
448000,,7 Clouston Corner,Stenness Village,Stenness,Kuppa Kakes,Other catering premises,7841,,,565058,,,58.98326600000000,2362,785,,Orkney Islands,http://www.orkney.gov.uk/,-3.21491300000000,KW16 3LB,2012-07-03,fhis_pass_en-GB,Pass,,FHIS,
448001,Ladybank,,Sanday,,Ladybank B & B,Hotel/bed & breakfast/guest house,7842,,,564906,,,59.24523600000000,10287,785,,Orkney Islands,http://www.orkney.gov.uk/,-2.55933800000000,KW17 2BL,2013-10-10,fhis_pass_en-GB,Pass,,FHIS,
448002,Lerona,Cromwell Crescent,Kirkwall,,Lerona B & B,Hotel/bed & breakfast/guest house,7842,,,565074,,,58.98719400000000,3758,785,,Orkney Islands,http://www.orkney.gov.uk/,-2.95277800000000,KW15 1LW,2013-01-21,fhis_pass_en-GB,Pass,,FHIS,
448003,Lidl,Pickaquoy Road,Kirkwall,,Lidl,Retailers - supermarkets/hypermarkets,7840,,,564947,,,58.98177500000000,12155,785,,Orkney Islands,http://www.orkney.gov.uk/,-2.97025200000000,KW15 1RP,2014-08-15,fhis_pass_en-GB,Pass,,FHIS,
448004,Lighthouse,Lighthouse Road,North Ronaldsay,,Lighthouse Cafe,Restaurant/Cafe/Canteen,1,,,564924,,,59.38079800000000,10755,785,,Orkney Islands,http://www.orkney.gov.uk/,-2.41013800000000,KW17 2BG,2014-08-21,fhis_improvement_required_en-GB,Improvement Required,,FHIS,
448005,,1 Taftingus Place,St Margarets Hope,South Ronaldsay,Lily's Craft Kitchen,Other catering premises,7841,,,688536,,,58.82448300000000,15097,785,,Orkney Islands,http://www.orkney.gov.uk/,-2.96017200000000,KW17 2UD,2014-07-14,fhis_pass_en-GB,Pass,,FHIS,
448006,Midhouse,Aikers Road,South Ronaldsay,,Lily's Craft Kitchen,Other catering premises,7841,,,688533,,,58.81405200000000,13015,785,,Orkney Islands,http://www.orkney.gov.uk/,-2.93368800000000,KW17 2TJ,2014-07-09,fhis_pass_en-GB,Pass,,FHIS,
448007,Linnadale,Heddle Road,Finstown,Firth,Linnadale B & B,Hotel/bed & breakfast/guest house,7842,,,565066,,,59.00683300000000,3092,785,,Orkney Islands,http://www.orkney.gov.uk/,-3.11608700000000,KW17 2EG,2013-03-11,fhis_pass_en-GB,Pass,,FHIS,
448008,Lins Takeaway,Willow Road,Kirkwall,,Lins Takeaway,Takeaway/sandwich shop,7844,,,564986,,,58.98179300000000,13383,785,,Orkney Islands,http://www.orkney.gov.uk/,-2.95443800000000,KW15 1NJ,2014-10-20,fhis_pass_en-GB,Pass,,FHIS,
448009,,31 Victoria Street,Kirkwall,,Lucano,Restaurant/Cafe/Canteen,1,,,565003,,,58.98020500000000,13898,785,,Orkney Islands,http://www.orkney.gov.uk/,-2.96157900000000,KW15 1DN,2014-03-18,fhis_pass_en-GB,Pass,,FHIS,
448010,Lynnfield Hotel,Holm Road,Kirkwall,,Lynnfield Hotel,Restaurant/Cafe/Canteen,1,,,564969,,,58.96687300000000,12831,785,,Orkney Islands,http://www.orkney.gov.uk/,-2.95246100000000,KW15 1SU,2014-08-20,fhis_pass_en-GB,Pass,,FHIS,
448011,Olivebank Shop,,Stronsay,,M A Williamson,Retailers - other,4613,,,565156,,,59.09871500000000,9210,785,,Orkney Islands,http://www.orkney.gov.uk/,-2.58720000000000,KW17 2AF,2014-10-02,fhis_pass_en-GB,Pass,,FHIS,
448012,,Marengo Road,St Margarets Hope,South Ronaldsay,Marengo Centre,Hotel/bed & breakfast/guest house,7842,,,565183,,,58.82609800000000,14887,785,,Orkney Islands,http://www.orkney.gov.uk/,-2.95552300000000,KW17 2TD,2013-09-18,fhis_pass_en-GB,Pass,,FHIS,
448013,Marion's Shop,,Rousay,,Marion's Shop,Retailers - other,4613,,,565132,,,59.15962200000000,7410,785,,Orkney Islands,http://www.orkney.gov.uk/,-2.98465700000000,KW17 2PR,2012-06-19,fhis_pass_en-GB,Pass,,FHIS,
448014,,13 Palace Road,Kirkwall,,McKinlay's B & B,Hotel/bed & breakfast/guest house,7842,,,565091,,,58.98105700000000,4974,785,,Orkney Islands,http://www.orkney.gov.uk/,-2.95814100000000,KW15 1PA,2013-01-21,fhis_pass_en-GB,Pass,,FHIS,
448015,Merkister Hotel,Russland Road,Harray,,Merkister Hotel,Restaurant/Cafe/Canteen,1,,,565062,,,59.05367800000000,2550,785,,Orkney Islands,http://www.orkney.gov.uk/,-3.21985700000000,KW17 2LF,2014-05-13,fhis_pass_en-GB,Pass,,FHIS,
448016,Mills Filling Station,Pickaquoy Road,Kirkwall,,Mills Filling Station,Retailers - other,4613,,,565110,,,58.98556700000000,6144,785,,Orkney Islands,http://www.orkney.gov.uk/,-2.96994100000000,KW15 1QZ,2012-04-12,fhis_pass_en-GB,Pass,,FHIS,
448017,Sevi Geo,Ontoft Road,St Margarets Hope,South Ronaldsay,Miss Mandy Cromarty,Hospitals/Childcare/Caring Premises,5,,,688534,,,58.82891900000000,14490,785,,Orkney Islands,http://www.orkney.gov.uk/,-2.96268400000000,KW17 2SW,2014-07-07,fhis_pass_en-GB,Pass,,FHIS,
448018,Mistra Shop And Post Office,,Evie Village,Evie,Mistra Shop And Post Office,Retailers - other,4613,,,565063,,,59.11693300000000,3003,785,,Orkney Islands,http://www.orkney.gov.uk/,-3.11922900000000,KW17 2PJ,2012-04-12,fhis_pass_en-GB,Pass,,FHIS,
448019,,18 Quoybanks Place,Kirkwall,,Mr JD Coltherd,Mobile caterer,7846,,,565089,,,58.97449800000000,4766,785,,Orkney Islands,http://www.orkney.gov.uk/,-2.95479300000000,KW15 1ES,2013-10-14,fhis_pass_en-GB,Pass,,FHIS,
448020,,26 Knockhall Drive,Stromness,,Mrs Lianne Taylor,Hospitals/Childcare/Caring Premises,5,,,666576,,,58.95792400000000,14658,785,,Orkney Islands,http://www.orkney.gov.uk/,-3.30500300000000,KW16 3EQ,2014-05-12,fhis_pass_en-GB,Pass,,FHIS,
448021,Murray Arms Hotel,Back Road,St Margarets Hope,South Ronaldsay,Murray Arms Hotel,Restaurant/Cafe/Canteen,1,,,565165,,,58.82540800000000,9479,785,,Orkney Islands,http://www.orkney.gov.uk/,-2.95896700000000,KW17 2SP,2014-08-14,fhis_improvement_required_en-GB,Improvement Required,,FHIS,
448022,Shore Street Offices,Shore Street,Kirkwall,,MV Earl Sigurd,Restaurant/Cafe/Canteen,1,,,564982,,,58.98483100000000,13357,785,,Orkney Islands,http://www.orkney.gov.uk/,-2.95784500000000,KW15 1LG,2014-05-14,fhis_pass_en-GB,Pass,,FHIS,
448023,Shore Street Offices,Shore Street,Kirkwall,,MV Earl Thorfinn,Restaurant/Cafe/Canteen,1,,,564983,,,58.98483100000000,13358,785,,Orkney Islands,http://www.orkney.gov.uk/,-2.95784500000000,KW15 1LG,2013-11-21,fhis_pass_en-GB,Pass,,FHIS,
448024,"Serco Northlink Ferries, Terminal Building",Ferry Road,Stromness,,MV Hamnavoe,Restaurant/Cafe/Canteen,1,,,571527,,,58.96405500000000,10854,785,,Orkney Islands,http://www.orkney.gov.uk/,-3.29553100000000,KW16 3BH,2014-03-13,fhis_pass_en-GB,Pass,,FHIS,
448025,Orkney Ferries,Shore Street,Kirkwall,,MV Varagen,Restaurant/Cafe/Canteen,1,,,564981,,,58.98483000000000,13356,785,,Orkney Islands,http://www.orkney.gov.uk/,-2.95784500000000,KW15 1LG,2015-01-30,fhis_pass_en-GB,Pass,,FHIS,
448026,Newquoy,,Sanday,,Newquoy Guest House & Retreat Coffee Shop,Hotel/bed & breakfast/guest house,7842,,,565150,,,59.28257200000000,9044,785,,Orkney Islands,http://www.orkney.gov.uk/,-2.58066000000000,KW17 2AZ,2014-06-23,fhis_pass_en-GB,Pass,,FHIS,
448027,Balfour Hospital,New Scapa Road,Kirkwall,,NHS Orkney,Hospitals/Childcare/Caring Premises,5,,,565114,,,58.97672200000000,6757,785,,Orkney Islands,http://www.orkney.gov.uk/,-2.96496100000000,KW15 1BH,2013-10-04,fhis_pass_en-GB,Pass,,FHIS,
448028,Maxholme,Graeme Park,St Marys,Holm,Nick's Tatties,Mobile caterer,7846,,,608608,,,58.89605500000000,14372,785,,Orkney Islands,http://www.orkney.gov.uk/,-2.91668800000000,KW17 2RT,2013-11-11,fhis_pass_en-GB,Pass,,FHIS,
448029,1 Broughton,Broughton Road,Westray,,No 1 Broughton Bed & Breakfast,Hotel/bed & breakfast/guest house,7842,,,565099,,,59.31591300000000,5876,785,,Orkney Islands,http://www.orkney.gov.uk/,-2.97866900000000,KW17 2DA,2013-03-06,fhis_pass_en-GB,Pass,,FHIS,
448030,North End Garage,North End Road,Stromness,,North End Garage,Retailers - other,4613,,,564911,,,58.96709500000000,10305,785,,Orkney Islands,http://www.orkney.gov.uk/,-3.29508900000000,KW16 3AG,2014-05-06,fhis_pass_en-GB,Pass,,FHIS,
448031,Twingness,Main Road,North Ronaldsay,,North Ronaldsay Bird Observatory,Restaurant/Cafe/Canteen,1,,,564915,,,59.36367400000000,10327,785,,Orkney Islands,http://www.orkney.gov.uk/,-2.42664300000000,KW17 2BE,2014-08-21,fhis_pass_en-GB,Pass,,FHIS,
448032,North Walls Community School,,Hoy,,North Walls Community School,School/college/university,7845,,,565172,,,58.81726000000000,9834,785,,Orkney Islands,http://www.orkney.gov.uk/,-3.20167200000000,KW16 3NX,2014-09-25,fhis_pass_en-GB,Pass,,FHIS,
448033,Northfield,Denwick Road,Deerness,,Northfield B&B,Hotel/bed & breakfast/guest house,7842,,,565006,,,58.94404100000000,13960,785,,Orkney Islands,http://www.orkney.gov.uk/,-2.76913700000000,KW17 2QL,2013-01-28,fhis_pass_en-GB,Pass,,FHIS,
448034,,76 Victoria Street,Stromness,,Orca Hotel,Restaurant/Cafe/Canteen,1,,,564929,,,58.96265700000000,1096,785,,Orkney Islands,http://www.orkney.gov.uk/,-3.29880000000000,KW16 3BS,2013-06-07,fhis_pass_en-GB,Pass,,FHIS,
448035,Orkney Auction Mart,Grainshore Road,St Ola,,Orkney Auction Mart Canteen,Restaurant/Cafe/Canteen,1,,,565134,,,58.99195100000000,7469,785,,Orkney Islands,http://www.orkney.gov.uk/,-2.97610700000000,KW15 1FL,2014-06-17,fhis_pass_en-GB,Pass,,FHIS,
448036,,54 Victoria Street,Kirkwall,,Orkney Blide Trust,Restaurant/Cafe/Canteen,1,,,565117,,,58.98020500000000,6825,785,,Orkney Islands,http://www.orkney.gov.uk/,-2.96157900000000,KW15 1DN,2013-09-17,fhis_pass_en-GB,Pass,,FHIS,
448037,The Orkney Brewery,Quoyloo Road,Sandwick,,Orkney Brewery Visitor Centre,Restaurant/Cafe/Canteen,1,,,565032,,,59.06920300000000,14687,785,,Orkney Islands,http://www.orkney.gov.uk/,-3.30953800000000,KW16 3LT,2014-05-12,fhis_pass_en-GB,Pass,,FHIS,
448038,,16 Harbour Street,Kirkwall,,Orkney Club,Pub/bar/nightclub,7843,,,565185,,,58.98451200000000,6005,785,,Orkney Islands,http://www.orkney.gov.uk/,-2.95969800000000,KW15 1LE,2014-05-08,fhis_pass_en-GB,Pass,,FHIS,
448039,Orkney College,East Road,Kirkwall,,Orkney College Cafeteria,Restaurant/Cafe/Canteen,1,,,564914,,,58.98478300000000,10315,785,,Orkney Islands,http://www.orkney.gov.uk/,-2.94850100000000,KW15 1LX,2014-01-15,fhis_pass_en-GB,Pass,,FHIS,
448040,Orkney Fish (Shop),Garson Park,Stromness,,Orkney Fish (Shop),Retailers - other,4613,,,632911,,,58.96882800000000,15017,785,,Orkney Islands,http://www.orkney.gov.uk/,-3.28162300000000,KW16 3BL,2014-01-30,fhis_pass_en-GB,Pass,,FHIS,
448041,,18 Junction Road,Kirkwall,,Orkney Food Bank,Retailers - other,4613,,,608609,,,58.98352200000000,14972,785,,Orkney Islands,http://www.orkney.gov.uk/,-2.96118400000000,KW15 1AB,2013-11-14,fhis_pass_en-GB,Pass,,FHIS,
448042,Orkney Golf Club,Hatston Brae,Kirkwall,,Orkney Golf Club,Pub/bar/nightclub,7843,,,564904,,,58.98723600000000,10273,785,,Orkney Islands,http://www.orkney.gov.uk/,-2.98091500000000,KW15 1UA,2014-03-20,fhis_pass_en-GB,Pass,,FHIS,
448043,,Maitland Place,Finstown,Firth,"Orkney Haddock Ltd, The Store",Retailers - other,4613,,,701272,,,59.00368600000000,15171,785,,Orkney Islands,http://www.orkney.gov.uk/,-3.10930000000000,KW17 2EQ,2014-09-10,fhis_pass_en-GB,Pass,,FHIS,
448044,Trondra,Grimeston Road,Harray,,Orkney Island Memories,Hotel/bed & breakfast/guest house,7842,,,688537,,,59.01808600000000,2046,785,,Orkney Islands,http://www.orkney.gov.uk/,-3.17808700000000,KW17 2JT,2014-07-18,fhis_pass_en-GB,Pass,,FHIS,
448045,Pickaquoy Clubrooms,Muddisdale Road,Kirkwall,,Orkney Rugby Club,Pub/bar/nightclub,7843,,,565100,,,58.98168000000000,5990,785,,Orkney Islands,http://www.orkney.gov.uk/,-2.97202400000000,KW15 1RR,2014-05-13,fhis_pass_en-GB,Pass,,FHIS,
448046,The Girnel House,22 Harbour Street,Kirkwall,,Orkney Sailing Club,Pub/bar/nightclub,7843,,,565107,,,58.98451200000000,6087,785,,Orkney Islands,http://www.orkney.gov.uk/,-2.95969800000000,KW15 1LE,2012-11-16,fhis_pass_en-GB,Pass,,FHIS,
448047,Orkney Wine Company,Lamb Holm,Holm,,Orkney Wine Company (Shop),Retailers - other,4613,,,564999,,,58.88485100000000,13835,785,,Orkney Islands,http://www.orkney.gov.uk/,-2.89685800000000,KW17 2SF,2014-08-14,fhis_pass_en-GB,Pass,,FHIS,
448048,Orphir Primary School,,Orphir Village,Orphir,Orphir Primary School,School/college/university,7845,,,564912,,,58.93817100000000,10308,785,,Orkney Islands,http://www.orkney.gov.uk/,-3.12756100000000,KW17 2RB,2012-10-30,fhis_pass_en-GB,Pass,,FHIS,
448049,Ashbury,School Road,St Margarets Hope,South Ronaldsay,P & T Hasson,Mobile caterer,7846,,,565033,,,58.82455000000000,14690,785,,Orkney Islands,http://www.orkney.gov.uk/,-2.96436400000000,KW17 2TN,2015-01-15,fhis_improvement_required_en-GB,Improvement Required,,FHIS,
448050,Palace Stores,,The Palace,Birsay,Palace Stores,Retailers - other,4613,,,565023,,,59.12899100000000,14417,785,,Orkney Islands,http://www.orkney.gov.uk/,-3.31583900000000,KW17 2LX,2014-04-14,fhis_pass_en-GB,Pass,,FHIS,
448051,Papa Westray Primary School,School Road,Papa Westray,,Papa Westray Primary School,School/college/university,7845,,,565141,,,59.34739300000000,7918,785,,Orkney Islands,http://www.orkney.gov.uk/,-2.89327300000000,KW17 2BU,2014-03-24,fhis_pass_en-GB,Pass,,FHIS,
448052,Beltane House,School Road,Papa Westray,,Papay Community Co-op Ltd Shop,Retailers - other,4613,,,564923,,,59.34739300000000,10702,785,,Orkney Islands,http://www.orkney.gov.uk/,-2.89327300000000,KW17 2BU,2013-03-27,fhis_pass_en-GB,Pass,,FHIS,
448053,Papdale Halls Of Residence,Papdale Loan,Kirkwall,,Papdale Halls Of Residence,Restaurant/Cafe/Canteen,1,,,619943,,,58.98176500000000,14941,785,,Orkney Islands,http://www.orkney.gov.uk/,-2.94610400000000,KW15 1QP,2013-12-16,fhis_pass_en-GB,Pass,,FHIS,
448054,Papdale Primary School,Willow Road,Kirkwall,,Papdale Primary School,School/college/university,7845,,,565093,,,58.98125500000000,5252,785,,Orkney Islands,http://www.orkney.gov.uk/,-2.95075300000000,KW15 1PJ,2014-09-18,fhis_pass_en-GB,Pass,,FHIS,
448055,,8 Hermaness,Kirkwall,,Papdale Stores,Retailers - other,4613,,,565095,,,58.97670600000000,5265,785,,Orkney Islands,http://www.orkney.gov.uk/,-2.94520000000000,KW15 1XA,2012-03-13,fhis_pass_en-GB,Pass,,FHIS,
448056,Anchor View,Hatston Brae,Kirkwall,,Pat's Bed & Breakfast,Hotel/bed & breakfast/guest house,7842,,,705099,,,58.98649700000000,5983,785,,Orkney Islands,http://www.orkney.gov.uk/,-2.97529100000000,KW15 1RD,2014-09-25,fhis_pass_en-GB,Pass,,FHIS,
448057,Peedie Breeks Nursery,Berstane Road,Kirkwall,,Peedie Breeks Nursery,Hospitals/Childcare/Caring Premises,5,,,565086,,,58.98320600000000,4160,785,,Orkney Islands,http://www.orkney.gov.uk/,-2.94918800000000,KW15 1NA,2014-11-27,fhis_pass_en-GB,Pass,,FHIS,
448058,,6 Faraclett,Kirkwall,,Peedie Chippie,Mobile caterer,7846,,,564928,,,58.97716100000000,10843,785,,Orkney Islands,http://www.orkney.gov.uk/,-2.94441200000000,KW15 1XD,2014-03-05,fhis_pass_en-GB,Pass,,FHIS,
448059,Pier Office,Pier Road,South Ronaldsay,,Pentland Ferries Ltd,Restaurant/Cafe/Canteen,1,,,565158,,,58.82891900000000,9329,785,,Orkney Islands,http://www.orkney.gov.uk/,-2.96268400000000,KW17 2SW,2014-08-20,fhis_pass_en-GB,Pass,,FHIS,
448060,Surrigarth,Swartmill Road,Westray,,Peter Miller,Retailers - other,4613,,,564963,,,59.28971700000000,12660,785,,Orkney Islands,http://www.orkney.gov.uk/,-2.90677000000000,KW17 2DD,2012-03-08,fhis_pass_en-GB,Pass,,FHIS,
448061,The Rosary,Downies Lane,Stromness,,Piece Box,Mobile caterer,7846,,,565174,,,58.96552400000000,991,785,,Orkney Islands,http://www.orkney.gov.uk/,-3.29949900000000,KW16 3EP,2014-04-10,fhis_pass_en-GB,Pass,,FHIS,
448062,"Pier Restaurant, Pier Cottage",,Rousay,,"Pier Restaurant, Pier Cottage",Restaurant/Cafe/Canteen,1,,,565180,,,59.13287200000000,14884,785,,Orkney Islands,http://www.orkney.gov.uk/,-2.98900900000000,KW17 2PU,2013-09-06,fhis_pass_en-GB,Pass,,FHIS,
448063,Pierowall Hotel,,Pierowall,Westray,Pierowall Hotel,Restaurant/Cafe/Canteen,1,,,565129,,,59.31549700000000,7297,785,,Orkney Islands,http://www.orkney.gov.uk/,-2.98860000000000,KW17 2BZ,2014-09-03,fhis_pass_en-GB,Pass,,FHIS,
448064,Polrudden Guest House,Peerie Sea Loan,Kirkwall,,Polrudden Guest House,Hotel/bed & breakfast/guest house,7842,,,565104,,,58.98500700000000,6054,785,,Orkney Islands,http://www.orkney.gov.uk/,-2.97397900000000,KW15 1UH,2014-03-21,fhis_pass_en-GB,Pass,,FHIS,
448065,Pomona Cafe,9 Albert Street,Kirkwall,,Pomona Cafe,Restaurant/Cafe/Canteen,1,,,565087,,,58.98359800000000,4172,785,,Orkney Islands,http://www.orkney.gov.uk/,-2.95821100000000,KW15 1HP,2014-10-08,fhis_pass_en-GB,Pass,,FHIS,
448066,Pomona Inn,,Finstown,Firth,Pomona Inn,Pub/bar/nightclub,7843,,,565067,,,59.00810900000000,3308,785,,Orkney Islands,http://www.orkney.gov.uk/,-3.12123000000000,KW17 2EL,2014-10-24,fhis_pass_en-GB,Pass,,FHIS,
448067,Post Office,,Whitehall,Stronsay,Post Office,Retailers - other,4613,,,565154,,,59.14072400000000,9173,785,,Orkney Islands,http://www.orkney.gov.uk/,-2.60127200000000,KW17 2AR,2012-04-18,fhis_pass_en-GB,Pass,,FHIS,
448068,Orkney College,East Road,Kirkwall,,Practice Kitchen & 2nd Production Kitchen,School/college/university,7845,,,565084,,,58.98478300000000,4148,785,,Orkney Islands,http://www.orkney.gov.uk/,-2.94850100000000,KW15 1LX,2014-01-15,fhis_pass_en-GB,Pass,,FHIS,
448069,"Museum, Scapa Flow Visitor Centre",,Lyness,Hoy,Pumphouse Cafe,Restaurant/Cafe/Canteen,1,,,564908,,,58.83229100000000,10291,785,,Orkney Islands,http://www.orkney.gov.uk/,-3.20595200000000,KW16 3NT,2014-03-05,fhis_pass_en-GB,Pass,,FHIS,
448070,Quoyburray Inn,,St Andrews,,Quoyburray Inn,Restaurant/Cafe/Canteen,1,,,564945,,,58.93425000000000,12121,785,,Orkney Islands,http://www.orkney.gov.uk/,-2.85528000000000,KW17 2QU,2014-01-22,fhis_pass_en-GB,Pass,,FHIS,
448071,,12 Victoria Street,Kirkwall,,R A Finn,Retailers - other,4613,,,565116,,,58.98020500000000,6769,785,,Orkney Islands,http://www.orkney.gov.uk/,-2.96157900000000,KW15 1DN,2015-01-06,fhis_pass_en-GB,Pass,,FHIS,
448072,Rendall Community Centre,A966 From Lyron To Gorseness Road,Rendall,,Rendall Community Centre,Restaurant/Cafe/Canteen,1,,,564900,,,,10240,785,,Orkney Islands,http://www.orkney.gov.uk/,,,2014-06-30,fhis_pass_en-GB,Pass,,FHIS,
448073,Helzie,Ness Road,Westray,,Richan's Retreat,Restaurant/Cafe/Canteen,1,,,564979,,,59.25273300000000,13197,785,,Orkney Islands,http://www.orkney.gov.uk/,-2.87029600000000,KW17 2DE,2013-06-13,fhis_pass_en-GB,Pass,,FHIS,
448074,Roadside,Veness Road,Eday,,Roadside Inn,Pub/bar/nightclub,7843,,,564990,,,59.16200300000000,13472,785,,Orkney Islands,http://www.orkney.gov.uk/,-2.76745000000000,KW17 2AA,2013-11-19,fhis_pass_en-GB,Pass,,FHIS,
448075,"Roadside Stores, Roadside",Howar Road,North Ronaldsay,,"Roadside Stores, Roadside",Retailers - other,4613,,,565148,,,59.36367400000000,8854,785,,Orkney Islands,http://www.orkney.gov.uk/,-2.42664300000000,KW17 2BE,2013-05-30,fhis_pass_en-GB,Pass,,FHIS,
448076,Robertson & Sons,Church Road,St Margarets Hope,South Ronaldsay,Robertson & Sons,Retailers - other,4613,,,565163,,,58.82478300000000,9404,785,,Orkney Islands,http://www.orkney.gov.uk/,-2.95605800000000,KW17 2SR,2012-04-27,fhis_pass_en-GB,Pass,,FHIS,
448077,Roeberry House,,South Ronaldsay,,Roeberry House,Hotel/bed & breakfast/guest house,7842,,,565168,,,58.82112800000000,9612,785,,Orkney Islands,http://www.orkney.gov.uk/,-2.99400200000000,KW17 2TW,2014-01-23,fhis_pass_en-GB,Pass,,FHIS,
448078,Rousay Primary School,,Rousay,,Rousay Primary School,School/college/university,7845,,,565133,,,59.15962200000000,7414,785,,Orkney Islands,http://www.orkney.gov.uk/,-2.98465700000000,KW17 2PR,2013-12-18,fhis_pass_en-GB,Pass,,FHIS,
448079,,55 Victoria Street,Stromness,,Royal Hotel,Restaurant/Cafe/Canteen,1,,,564975,,,58.96265700000000,13014,785,,Orkney Islands,http://www.orkney.gov.uk/,-3.29880000000000,KW16 3BS,2014-09-23,fhis_pass_en-GB,Pass,,FHIS,
448080,Royal Hotel,Manse Road,Longhope,Hoy,Royal Hotel,Restaurant/Cafe/Canteen,1,,,565173,,,58.79916200000000,9900,785,,Orkney Islands,http://www.orkney.gov.uk/,-3.20071700000000,KW16 3PG,2012-09-06,fhis_pass_en-GB,Pass,,FHIS,
448081,Royal Oak Guest House,Holm Road,Kirkwall,,Royal Oak Guest House,Hotel/bed & breakfast/guest house,7842,,,565097,,,58.97454400000000,5526,785,,Orkney Islands,http://www.orkney.gov.uk/,-2.95345500000000,KW15 1PY,2013-02-06,fhis_pass_en-GB,Pass,,FHIS,
448082,The Salvation Army,Junction Road,Kirkwall,,Salvation Army (Lunch Club),Restaurant/Cafe/Canteen,1,,,565125,,,58.97886100000000,7067,785,,Orkney Islands,http://www.orkney.gov.uk/,-2.96359400000000,KW15 1AX,2013-11-27,fhis_pass_en-GB,Pass,,FHIS,
448083,Sanday Community School,School Road,Sanday,,Sanday Community School,School/college/university,7845,,,565151,,,59.25616000000000,9073,785,,Orkney Islands,http://www.orkney.gov.uk/,-2.57486200000000,KW17 2BN,2014-06-23,fhis_pass_en-GB,Pass,,FHIS,
448084,Roadside,,Sanday,,Sanday Community Shop - Community Interest Group,Retailers - other,4613,,,565181,,,59.25561700000000,14885,785,,Orkney Islands,http://www.orkney.gov.uk/,-2.54467300000000,KW17 2BW,2013-07-26,fhis_pass_en-GB,Pass,,FHIS,
448085,Sand-O-Gill,,Westray,,Sand-O-Gill B & B,Hotel/bed & breakfast/guest house,7842,,,565098,,,59.33607300000000,5856,785,,Orkney Islands,http://www.orkney.gov.uk/,-2.97295500000000,KW17 2DN,2013-11-21,fhis_pass_en-GB,Pass,,FHIS,
448086,Sandwick Community Centre,B9057 From Quoyloo Road To A967,Sandwick,,Sandwick Community Centre,Other catering premises,7841,,,565077,,,,402,785,,Orkney Islands,http://www.orkney.gov.uk/,,,2013-05-07,fhis_pass_en-GB,Pass,,FHIS,
448087,Sandybank Shop,Westside Road,Eday,,Sandybank Shop,Retailers - other,4613,,,564935,,,59.16200300000000,11170,785,,Orkney Islands,http://www.orkney.gov.uk/,-2.76745000000000,KW17 2AA,2012-09-12,fhis_pass_en-GB,Pass,,FHIS,
448088,Scapa House,,St Ola,,Scapa House,Hotel/bed & breakfast/guest house,7842,,,565135,,,58.96366300000000,7590,785,,Orkney Islands,http://www.orkney.gov.uk/,-2.99582500000000,KW15 1SE,2013-02-06,fhis_pass_en-GB,Pass,,FHIS,
448089,The Brig Larder,1 Albert Street,Kirkwall,,Scott & Miller LLP,Retailers - other,4613,,,718793,,,58.98359800000000,15170,785,,Orkney Islands,http://www.orkney.gov.uk/,-2.95821100000000,KW15 1HP,2014-11-26,fhis_pass_en-GB,Pass,,FHIS,
448090,Shapinsay Primary School,,Shapinsay,,Shapinsay Primary School,School/college/university,7845,,,565143,,,59.04168300000000,8065,785,,Orkney Islands,http://www.orkney.gov.uk/,-2.90233500000000,KW17 2DY,2014-01-24,fhis_pass_en-GB,Pass,,FHIS,
448091,Argos Bakery,Cairston Road,Stromness,,Shop,Takeaway/sandwich shop,7844,,,565001,,,58.96988900000000,13878,785,,Orkney Islands,http://www.orkney.gov.uk/,-3.28962800000000,KW16 3JS,2014-09-23,fhis_pass_en-GB,Pass,,FHIS,
448092,,37 Albert Street,Kirkwall,,Sinclair's Ice Cream,Restaurant/Cafe/Canteen,1,,,735796,,,58.98280900000000,15215,785,,Orkney Islands,http://www.orkney.gov.uk/,-2.95912900000000,KW15 1HQ,2015-02-04,fhis_pass_en-GB,Pass,,FHIS,
448093,Howar,Newark Road,Harray,,Sinky's,Mobile caterer,7846,,,565004,,,59.01808600000000,13921,785,,Orkney Islands,http://www.orkney.gov.uk/,-3.17808700000000,KW17 2JT,2014-01-14,fhis_pass_en-GB,Pass,,FHIS,
448094,Skara Brae Visitors Centre,,Sandwick,,Skara Brae Cafe,Restaurant/Cafe/Canteen,1,,,565013,,,59.04899000000000,14078,785,,Orkney Islands,http://www.orkney.gov.uk/,-3.33557900000000,KW16 3LR,2013-05-03,fhis_pass_en-GB,Pass,,FHIS,
448095,"Skerries Bistro, Banks",Liddle Road,South Ronaldsay,,"Skerries Bistro, Banks",Restaurant/Cafe/Canteen,1,,,565157,,,58.74427400000000,9326,785,,Orkney Islands,http://www.orkney.gov.uk/,-2.94278900000000,KW17 2RW,2014-03-03,fhis_pass_en-GB,Pass,,FHIS,
448096,Smiddybrae House,Vetquoy Road,Dounby,Sandwick,Smiddybrae House,Hospitals/Childcare/Caring Premises,5,,,564922,,,59.06711600000000,10670,785,,Orkney Islands,http://www.orkney.gov.uk/,-3.23109500000000,KW17 2HH,2014-05-06,fhis_pass_en-GB,Pass,,FHIS,
448097,Smithfield Hotel,,Dounby,Sandwick,Smithfield Hotel,Restaurant/Cafe/Canteen,1,,,565015,,,59.06835700000000,14113,785,,Orkney Islands,http://www.orkney.gov.uk/,-3.23283100000000,KW17 2HT,2014-07-31,fhis_pass_en-GB,Pass,,FHIS,
448098,11 Balfour,,Shapinsay,,Smithy Cafe & Restaurant,Restaurant/Cafe/Canteen,1,,,565027,,,59.03229500000000,14532,785,,Orkney Islands,http://www.orkney.gov.uk/,-2.90928500000000,KW17 2DX,2014-01-24,fhis_pass_en-GB,Pass,,FHIS,
448099,Swartland,,St Ola,,Snak Pot,Mobile caterer,7846,,,564962,,,58.96200800000000,12655,785,,Orkney Islands,http://www.orkney.gov.uk/,-2.97251300000000,KW15 1SD,2015-02-10,fhis_pass_en-GB,Pass,,FHIS,
448100,Flotta Oil Terminal,,Flotta,,Sodexo Remote Sites Scotland Limited,Restaurant/Cafe/Canteen,1,,,564909,,,58.82599100000000,10292,785,,Orkney Islands,http://www.orkney.gov.uk/,-3.10408400000000,KW16 3NP,2013-09-05,fhis_pass_en-GB,Pass,,FHIS,
448101,St Andrews Primary School,,St Andrews,,St Andrews Primary School,School/college/university,7845,,,565138,,,58.91881900000000,7767,785,,Orkney Islands,http://www.orkney.gov.uk/,-2.81947300000000,KW17 2QG,2014-09-18,fhis_pass_en-GB,Pass,,FHIS,
448102,St Colms Centre,Pickaquoy Road,Kirkwall,,St Colms Centre,Hospitals/Childcare/Caring Premises,5,,,565120,,,58.98168000000000,6874,785,,Orkney Islands,http://www.orkney.gov.uk/,-2.97202400000000,KW15 1RR,2014-09-17,fhis_pass_en-GB,Pass,,FHIS,
448103,St Margarets Cottage,Church Road,St Margarets Hope,South Ronaldsay,St Margarets Cottage,Hotel/bed & breakfast/guest house,7842,,,565160,,,58.82478300000000,9383,785,,Orkney Islands,http://www.orkney.gov.uk/,-2.95605800000000,KW17 2SR,2014-03-10,fhis_pass_en-GB,Pass,,FHIS,
448104,St Ola Hotel,Harbour Street,Kirkwall,,St Ola Hotel,Hotel/bed & breakfast/guest house,7842,,,564956,,,58.98451200000000,12421,785,,Orkney Islands,http://www.orkney.gov.uk/,-2.95969800000000,KW15 1LE,2014-05-19,fhis_pass_en-GB,Pass,,FHIS,
448105,St Peters House,Back Road,Stromness,,St Peters House,Hospitals/Childcare/Caring Premises,5,,,565038,,,58.96186500000000,1479,785,,Orkney Islands,http://www.orkney.gov.uk/,-3.30520400000000,KW16 3DX,2014-09-16,fhis_pass_en-GB,Pass,,FHIS,
448106,St Rognvald House,Old Scapa Road,Kirkwall,,St Rognvald House,Hospitals/Childcare/Caring Premises,5,,,565113,,,58.97598900000000,6677,785,,Orkney Islands,http://www.orkney.gov.uk/,-2.96925400000000,KW15 1BB,2014-03-21,fhis_pass_en-GB,Pass,,FHIS,
448107,The Pickaquoy Centre,Muddisdale Road,Kirkwall,,Standing Stones Cafe,Restaurant/Cafe/Canteen,1,,,565179,,,58.98226000000000,14861,785,,Orkney Islands,http://www.orkney.gov.uk/,-2.97376200000000,KW15 1LR,2015-01-07,fhis_pass_en-GB,Pass,,FHIS,
448108,Standing Stones Hotel,,Stenness,,Standing Stones Hotel,Restaurant/Cafe/Canteen,1,,,565007,,,58.98494900000000,13966,785,,Orkney Islands,http://www.orkney.gov.uk/,-3.22984900000000,KW16 3JX,2014-08-19,fhis_pass_en-GB,Pass,,FHIS,
448109,Stenness Primary School,Ireland Road,Stenness Village,Stenness,Stenness Primary School,School/college/university,7845,,,564902,,,58.98326600000000,10247,785,,Orkney Islands,http://www.orkney.gov.uk/,-3.21491300000000,KW16 3LB,2014-03-18,fhis_pass_en-GB,Pass,,FHIS,
448110,Storehouse,,Whitehall,Stronsay,Storehouse B & B,Hotel/bed & breakfast/guest house,7842,,,565153,,,59.14072400000000,9158,785,,Orkney Islands,http://www.orkney.gov.uk/,-2.60127200000000,KW17 2AR,2013-05-08,fhis_pass_en-GB,Pass,,FHIS,
448111,Straigona,Tankerness Hall Road,St Andrews,,Straigona B & B,Hotel/bed & breakfast/guest house,7842,,,565140,,,58.96001300000000,7848,785,,Orkney Islands,http://www.orkney.gov.uk/,-2.86393300000000,KW17 2QR,2013-01-29,fhis_pass_en-GB,Pass,,FHIS,
448112,Stromabank Hotel,Sandsdale Road,Hoy,,Stromabank Hotel,Restaurant/Cafe/Canteen,1,,,565175,,,58.79269800000000,10319,785,,Orkney Islands,http://www.orkney.gov.uk/,-3.19272500000000,KW16 3PA,2013-07-12,fhis_pass_en-GB,Pass,,FHIS,
448113,Stromness Academy,Garson Road,Stromness,,Stromness Academy,School/college/university,7845,,,565090,,,58.96988900000000,477,785,,Orkney Islands,http://www.orkney.gov.uk/,-3.28962800000000,KW16 3JS,2014-05-12,fhis_pass_en-GB,Pass,,FHIS,
448114,,63 Victoria Street,Stromness,,Stromness Chip Shop,Takeaway/sandwich shop,7844,,,564958,,,58.96265700000000,12606,785,,Orkney Islands,http://www.orkney.gov.uk/,-3.29880000000000,KW16 3BS,2013-04-11,fhis_pass_en-GB,Pass,,FHIS,
448115,Stromness Community Centre,Church Road,Stromness,,Stromness Community Centre,Restaurant/Cafe/Canteen,1,,,564932,,,58.96253800000000,1101,785,,Orkney Islands,http://www.orkney.gov.uk/,-3.29992600000000,KW16 3BA,2013-10-03,fhis_pass_en-GB,Pass,,FHIS,
448116,Stromness Golf Club,Back Road,Stromness,,Stromness Golf Club Ltd,Restaurant/Cafe/Canteen,1,,,564937,,,58.95335100000000,1161,785,,Orkney Islands,http://www.orkney.gov.uk/,-3.29982300000000,KW16 3DW,2013-11-08,fhis_pass_en-GB,Pass,,FHIS,
448117,,15 Victoria Street,Stromness,,Stromness Hotel,Restaurant/Cafe/Canteen,1,,,565142,,,58.96318700000000,796,785,,Orkney Islands,http://www.orkney.gov.uk/,-3.29788100000000,KW16 3AA,2014-09-16,fhis_pass_en-GB,Pass,,FHIS,
448118,Stromness Primary School,Cairston Road,Stromness,,Stromness Primary School,School/college/university,7845,,,565009,,,58.96988900000000,14003,785,,Orkney Islands,http://www.orkney.gov.uk/,-3.28962800000000,KW16 3JS,2014-09-17,fhis_pass_en-GB,Pass,,FHIS,
448119,Stronsay Hotel,,Whitehall,Stronsay,Stronsay Hotel,Restaurant/Cafe/Canteen,1,,,565044,,,59.14072400000000,14864,785,,Orkney Islands,http://www.orkney.gov.uk/,-2.60127200000000,KW17 2AR,2014-10-02,fhis_pass_en-GB,Pass,,FHIS,
448120,Stronsay Junior High School,,Stronsay,,Stronsay Junior High School,School/college/university,7845,,,565155,,,59.12000100000000,9188,785,,Orkney Islands,http://www.orkney.gov.uk/,-2.61009600000000,KW17 2AE,2014-10-02,fhis_pass_en-GB,Pass,,FHIS,
448121,,1 Eunson Kloss,Kirkwall,,Sunnybrae Centre,Hospitals/Childcare/Caring Premises,5,,,565126,,,58.97852400000000,7073,785,,Orkney Islands,http://www.orkney.gov.uk/,-2.97012600000000,KW15 1BF,2014-07-10,fhis_pass_en-GB,Pass,,FHIS,
448122,Sutherland Garage,,Stenness Village,Stenness,Sutherland's Shop,Retailers - other,4613,,,564939,,,58.98761600000000,11764,785,,Orkney Islands,http://www.orkney.gov.uk/,-3.20795000000000,KW16 3JY,2014-04-14,fhis_pass_en-GB,Pass,,FHIS,
448123,Taversoe Hotel,,Rousay,,Taversoe Hotel,Restaurant/Cafe/Canteen,1,,,564984,,,59.13455500000000,13364,785,,Orkney Islands,http://www.orkney.gov.uk/,-3.05471000000000,KW17 2PT,2013-12-18,fhis_pass_en-GB,Pass,,FHIS,
448124,Tesco,18 Pickaquoy Road,Kirkwall,,Tesco Stores (Staff Canteen),Restaurant/Cafe/Canteen,1,,,565002,,,58.98177500000000,13894,785,,Orkney Islands,http://www.orkney.gov.uk/,-2.97025200000000,KW15 1RP,2014-01-06,fhis_pass_en-GB,Pass,,FHIS,
448125,Tesco,18 Pickaquoy Road,Kirkwall,,Tesco Stores Limited,Retailers - supermarkets/hypermarkets,7840,,,564997,,,58.98177500000000,13812,785,,Orkney Islands,http://www.orkney.gov.uk/,-2.97025200000000,KW15 1RP,2014-06-16,fhis_pass_en-GB,Pass,,FHIS,
448126,,26 Junction Road,Kirkwall,,The Auld Motor Hoose,Pub/bar/nightclub,7843,,,565109,,,58.98352200000000,6121,785,,Orkney Islands,http://www.orkney.gov.uk/,-2.96118400000000,KW15 1AB,2014-10-20,fhis_pass_en-GB,Pass,,FHIS,
448127,,22 Victoria Street,Stromness,,The Cafe,Restaurant/Cafe/Canteen,1,,,565047,,,58.96318700000000,14888,785,,Orkney Islands,http://www.orkney.gov.uk/,-3.29788100000000,KW16 3AA,2014-07-08,fhis_pass_en-GB,Pass,,FHIS,
448128,,27 North End Road,Stromness,,The Cooperative Food,Retailers - supermarkets/hypermarkets,7840,,,564936,,,58.96709500000000,1148,785,,Orkney Islands,http://www.orkney.gov.uk/,-3.29508900000000,KW16 3AG,2013-09-25,fhis_pass_en-GB,Pass,,FHIS,
448129,Dounby Stores,,Dounby,,The Cooperative Food,Retailers - supermarkets/hypermarkets,7840,,,565060,,,59.06847600000000,2521,785,,Orkney Islands,http://www.orkney.gov.uk/,-3.23255700000000,KW17 2HT,2013-10-18,fhis_pass_en-GB,Pass,,FHIS,
448130,The Creel Restaurant,Front Road,St Margarets Hope,South Ronaldsay,The Creel Restaurant,Restaurant/Cafe/Canteen,1,,,565164,,,58.82576000000000,9465,785,,Orkney Islands,http://www.orkney.gov.uk/,-2.95866500000000,KW17 2SL,2013-06-06,fhis_pass_en-GB,Pass,,FHIS,
448131,The Dounby Butchers,Vetquoy Road,Dounby,Sandwick,The Dounby Butchers,Retailers - other,4613,,,564938,,,59.06835700000000,11662,785,,Orkney Islands,http://www.orkney.gov.uk/,-3.23283100000000,KW17 2HT,2013-10-16,fhis_pass_en-GB,Pass,,FHIS,
448132,,17 Albert Street,Kirkwall,,The Edinburgh Woollen Mill,Retailers - other,4613,,,564961,,,58.98359800000000,12645,785,,Orkney Islands,http://www.orkney.gov.uk/,-2.95821100000000,KW15 1HP,2012-08-27,fhis_pass_en-GB,Pass,,FHIS,
448133,,10 John Street,Stromness,,The Ferry Inn,Restaurant/Cafe/Canteen,1,,,565016,,,58.96465000000000,14133,785,,Orkney Islands,http://www.orkney.gov.uk/,-3.29704900000000,KW16 3AD,2014-06-17,fhis_pass_en-GB,Pass,,FHIS,
448134,Fea,,Birsay,,The Fine Swine,Mobile caterer,7846,,,693186,,,59.13838500000000,159,785,,Orkney Islands,http://www.orkney.gov.uk/,-3.25511500000000,KW17 2NS,2014-08-05,fhis_pass_en-GB,Pass,,FHIS,
448135,The Gatehouse,,Shapinsay,,The Gatehouse,Pub/bar/nightclub,7843,,,564966,,,59.03229500000000,12751,785,,Orkney Islands,http://www.orkney.gov.uk/,-2.90928500000000,KW17 2DX,2014-01-24,fhis_pass_en-GB,Pass,,FHIS,
448136,The Noust Bar & Restaurant,Gyre Road,,Orphir,The Noust Bar & Restaurant,Restaurant/Cafe/Canteen,1,,,693185,,,58.93817100000000,15161,785,,Orkney Islands,http://www.orkney.gov.uk/,-3.12756100000000,KW17 2RB,2014-08-12,fhis_pass_en-GB,Pass,,FHIS,
448137,"Peedie Whites, 18 Balfour",,Shapinsay,,The Orkney Chocolate Company,Manufacturers/packers,7839,,,632912,,,59.03229500000000,8146,785,,Orkney Islands,http://www.orkney.gov.uk/,-2.90928500000000,KW17 2DX,2014-01-24,fhis_pass_en-GB,Pass,,FHIS,
448138,,40 Victoria Street,Kirkwall,,The Orkney Hotel,Restaurant/Cafe/Canteen,1,,,565119,,,58.98020500000000,6846,785,,Orkney Islands,http://www.orkney.gov.uk/,-2.96157900000000,KW15 1DN,2014-03-20,fhis_pass_en-GB,Pass,,FHIS,
448139,The Quoy Of Houton,Tower Road,Orphir,,The Quoy Of Houton,Hotel/bed & breakfast/guest house,7842,,,565055,,,58.91912100000000,2229,785,,Orkney Islands,http://www.orkney.gov.uk/,-3.17308200000000,KW17 2RD,2013-11-27,fhis_pass_en-GB,Pass,,FHIS,
448140,,6 Broad Street,Kirkwall,,The Reel,Restaurant/Cafe/Canteen,1,,,564994,,,58.98208600000000,13733,785,,Orkney Islands,http://www.orkney.gov.uk/,-2.95977000000000,KW15 1NX,2014-03-04,fhis_pass_en-GB,Pass,,FHIS,
448141,Braehead Manse,,Westray,,The Reid Hall,Hotel/bed & breakfast/guest house,7842,,,565010,,,59.30516500000000,14005,785,,Orkney Islands,http://www.orkney.gov.uk/,-2.95551100000000,KW17 2DB,2013-06-13,fhis_pass_en-GB,Pass,,FHIS,
448142,,9-11 John Street,Stromness,,The Royal British Legion,Pub/bar/nightclub,7843,,,564930,,,58.96465000000000,1098,785,,Orkney Islands,http://www.orkney.gov.uk/,-3.29704900000000,KW16 3AD,2011-11-15,fhis_pass_en-GB,Pass,,FHIS,
448143,The Royal British Legion,Junction Road,Kirkwall,,The Royal British Legion,Restaurant/Cafe/Canteen,1,,,666575,,,58.98049800000000,13355,785,,Orkney Islands,http://www.orkney.gov.uk/,-2.96317000000000,KW15 1AR,2014-05-13,fhis_pass_en-GB,Pass,,FHIS,
448144,The Sands,Pier Road,Burray Village,Burray,The Sands,Restaurant/Cafe/Canteen,1,,,564892,,,58.84548000000000,10077,785,,Orkney Islands,http://www.orkney.gov.uk/,-2.91448500000000,KW17 2SS,2014-06-16,fhis_pass_en-GB,Pass,,FHIS,
448145,,6-8 Shore Street,Kirkwall,,The Shore,Restaurant/Cafe/Canteen,1,,,564957,,,58.98483100000000,12458,785,,Orkney Islands,http://www.orkney.gov.uk/,-2.95784500000000,KW15 1LG,2014-10-29,fhis_pass_en-GB,Pass,,FHIS,
448146,The Strynd Nursery,Strynd,Kirkwall,,The Strynd Nursery,Hospitals/Childcare/Caring Premises,5,,,564942,,,58.98216400000000,11948,785,,Orkney Islands,http://www.orkney.gov.uk/,-2.95897200000000,KW15 1HG,2013-11-26,fhis_pass_en-GB,Pass,,FHIS,
448147,,7 Strynd,Kirkwall,,The Strynd Tea Room,Restaurant/Cafe/Canteen,1,,,565018,,,58.98216400000000,14298,785,,Orkney Islands,http://www.orkney.gov.uk/,-2.95897200000000,KW15 1HG,2015-02-09,fhis_pass_en-GB,Pass,,FHIS,
448148,Aisgarth,,Greenfield,St Andrews,The Toab Shop,Retailers - other,4613,,,564917,,,58.91881900000000,10331,785,,Orkney Islands,http://www.orkney.gov.uk/,-2.81947300000000,KW17 2QG,2013-10-04,fhis_pass_en-GB,Pass,,FHIS,
448149,Shoreside,,Shapinsay,,Thomas Sinclair,Retailers - other,4613,,,564934,,,,11149,785,,Orkney Islands,http://www.orkney.gov.uk/,,KW17 2GG,2013-06-06,fhis_pass_en-GB,Pass,,FHIS,
448150,Ayre Service Station,Burnmouth Road,Kirkwall,,Tickety Boo,Retailers - other,4613,,,701273,,,58.98408700000000,15172,785,,Orkney Islands,http://www.orkney.gov.uk/,-2.96365300000000,KW15 1QY,2014-09-17,fhis_pass_en-GB,Pass,,FHIS,
448151,,4 Bridge Street,Kirkwall,,Torvhaug,Pub/bar/nightclub,7843,,,565075,,,58.98419800000000,3816,785,,Orkney Islands,http://www.orkney.gov.uk/,-2.95833200000000,KW15 1HR,2013-11-14,fhis_pass_en-GB,Pass,,FHIS,
448152,Trading Post,Back Road,St Margarets Hope,South Ronaldsay,Trading Post,Retailers - other,4613,,,564968,,,58.82540800000000,12813,785,,Orkney Islands,http://www.orkney.gov.uk/,-2.95896700000000,KW17 2SP,2014-03-10,fhis_pass_en-GB,Pass,,FHIS,
448153,,16 Albert Street,Kirkwall,,Trenabies,Restaurant/Cafe/Canteen,1,,,565079,,,58.98359800000000,4049,785,,Orkney Islands,http://www.orkney.gov.uk/,-2.95821100000000,KW15 1HP,2014-02-12,fhis_pass_en-GB,Pass,,FHIS,
448154,Glenisla,Maitland Place,Finstown,Firth,Victoria Clouston,Other catering premises,7841,,,565065,,,59.00368600000000,3079,785,,Orkney Islands,http://www.orkney.gov.uk/,-3.10930000000000,KW17 2EQ,2012-06-21,fhis_pass_en-GB,Pass,,FHIS,
448155,,74 Victoria Street,Stromness,,W H B Sutherland Ltd,Retailers - other,4613,,,565167,,,58.96265700000000,959,785,,Orkney Islands,http://www.orkney.gov.uk/,-3.29880000000000,KW16 3BS,2013-08-21,fhis_pass_en-GB,Pass,,FHIS,
448156,W I Rendall,,Pierowall,Westray,W I Rendall,Retailers - other,4613,,,565130,,,59.32114900000000,7357,785,,Orkney Islands,http://www.orkney.gov.uk/,-2.98941400000000,KW17 2DH,2013-11-21,fhis_pass_en-GB,Pass,,FHIS,
448157,Wellpark Garden Centre,Mill Street,Kirkwall,,Wellpark Garden Centre,Restaurant/Cafe/Canteen,1,,,564899,,,58.98318400000000,10231,785,,Orkney Islands,http://www.orkney.gov.uk/,-2.95468500000000,KW15 1NE,2013-09-23,fhis_pass_en-GB,Pass,,FHIS,
448158,,14 Main Street,Kirkwall,,West End Hotel,Restaurant/Cafe/Canteen,1,,,564971,,,58.97819800000000,12882,785,,Orkney Islands,http://www.orkney.gov.uk/,-2.96218400000000,KW15 1BU,2013-08-22,fhis_pass_en-GB,Pass,,FHIS,
448159,West Mainland Day Care Centre,Ireland Road,Stenness Village,Stenness,West Mainland Day Care Centre,Hospitals/Childcare/Caring Premises,5,,,564903,,,58.98326600000000,10249,785,,Orkney Islands,http://www.orkney.gov.uk/,-3.21491300000000,KW16 3LB,2013-04-30,fhis_pass_en-GB,Pass,,FHIS,
448160,West Manse,Langskaill Road West,Westray,,West Manse,Hotel/bed & breakfast/guest house,7842,,,564952,,,59.27632800000000,12317,785,,Orkney Islands,http://www.orkney.gov.uk/,-2.98209400000000,KW17 2DR,2012-05-30,fhis_pass_en-GB,Pass,,FHIS,
448161,Westray Junior High School,,Pierowall,Westray,Westray Junior High School,School/college/university,7845,,,565131,,,59.32114900000000,7367,785,,Orkney Islands,http://www.orkney.gov.uk/,-2.98941400000000,KW17 2DH,2014-01-22,fhis_pass_en-GB,Pass,,FHIS,
448162,Westrow Lodge,,Orphir,,Westrow Lodge B & B,Hotel/bed & breakfast/guest house,7842,,,565054,,,58.91912100000000,2094,785,,Orkney Islands,http://www.orkney.gov.uk/,-3.17308200000000,KW17 2RD,2013-01-21,fhis_pass_en-GB,Pass,,FHIS,
448163,Wheeling Steen Gallery,Aikerness Road,Westray,,Wheeling Steen Gallery,Retailers - other,4613,,,564989,,,59.33607300000000,13444,785,,Orkney Islands,http://www.orkney.gov.uk/,-2.97295500000000,KW17 2DN,2011-10-04,fhis_pass_en-GB,Pass,,FHIS,
448164,Millhouse,,Hoy,,Wild Heather B&B,Hotel/bed & breakfast/guest house,7842,,,565170,,,58.84174200000000,9798,785,,Orkney Islands,http://www.orkney.gov.uk/,-3.21153000000000,KW16 3NU,2014-03-05,fhis_pass_en-GB,Pass,,FHIS,
448165,,71 Victoria Street,Kirkwall,,William Shearer,Retailers - other,4613,,,565127,,,58.97916300000000,7107,785,,Orkney Islands,http://www.orkney.gov.uk/,-2.96162000000000,KW15 1DQ,2014-12-19,fhis_pass_en-GB,Pass,,FHIS,
448166,Williamsons,East Road,Kirkwall,,Williamsons,Manufacturers/packers,7839,,,565017,,,58.98404100000000,14152,785,,Orkney Islands,http://www.orkney.gov.uk/,-2.95413500000000,KW15 1HZ,2015-01-07,fhis_pass_en-GB,Pass,,FHIS,
448167,,65 Victoria Street,Kirkwall,,Zio Francos,Restaurant/Cafe/Canteen,1,,,564998,,,58.97916300000000,13818,785,,Orkney Islands,http://www.orkney.gov.uk/,-2.96162000000000,KW15 1DQ,2015-02-04,fhis_pass_en-GB,Pass,,FHIS,
