,addressline1,addressline2,addressline3,addressline4,businessname,businesstype,businesstypeid,confidenceinmanagement,extractdate,fhrsid,hygiene,itemcount,latitude,localauthoritybusinessid,localauthoritycode,localauthorityemailaddress,localauthorityname,localauthoritywebsite,longitude,postcode,ratingdate,ratingkey,ratingvalue,returncode,schemetype,structural
424890,58 Aurs Drive Barrhead East Renfrewshire,,,,3 In 1 Indian Cuisine,Takeaway/sandwich shop,7844,,,82567,,,55.79677100000000,2005/1141/COMM,787,EnvironmentalHealth@eastrenfrewshire.gov.uk,East Renfrewshire,http://www.eastrenfrewshire.gov.uk/,-4.38273700000000,G78 2LW,2013-09-13,fhis_pass_en-GB,Pass,,FHIS,
424891,Abbeyfield Society Abbeyfield House 8 Kirkview Crescent Newton Mearns East Renfrewshire,,,,Abbeyfield House,Hospitals/Childcare/Caring Premises,5,,,82393,,,55.76786400000000,2003/0494/COMM,787,EnvironmentalHealth@eastrenfrewshire.gov.uk,East Renfrewshire,http://www.eastrenfrewshire.gov.uk/,-4.32279600000000,G77 5DD,2013-05-23,fhis_pass_en-GB,Pass,,FHIS,
424892,Abbeyfield Society Abbeyfield House 2 Orchard Park Avenue Giffnock East Renfrewshire,,,,Abbeyfield Society,Hospitals/Childcare/Caring Premises,5,,,82404,,,55.80521800000000,2003/0519/COMM,787,EnvironmentalHealth@eastrenfrewshire.gov.uk,East Renfrewshire,http://www.eastrenfrewshire.gov.uk/,-4.29931300000000,G46 7BD,2013-12-10,fhis_pass_en-GB,Pass,,FHIS,
424893,Cottage 3 Eastwood Park Rouken Glen Road Giffnock East Renfrewshire,,,,Age Concern Dementia Project,Other catering premises,7841,,,82477,,,55.79782100000000,2003/0722/COMM,787,EnvironmentalHealth@eastrenfrewshire.gov.uk,East Renfrewshire,http://www.eastrenfrewshire.gov.uk/,-4.30361500000000,G46 7JS,2013-08-20,fhis_pass_en-GB,Pass,,FHIS,
424894,Alan Beveridge Fishmonger 144 Fenwick Road Giffnock East Renfrewshire,,,,Alan Beveridge,Retailers - other,4613,,,7703,,,55.80485800000000,03/00162/COMM,787,EnvironmentalHealth@eastrenfrewshire.gov.uk,East Renfrewshire,http://www.eastrenfrewshire.gov.uk/,-4.29501500000000,G46 6XW,2014-04-23,fhis_pass_en-GB,Pass,,FHIS,
424895,Albertslund Community Centre 1 Westacres Road Newton Mearns East Renfrewshire,,,,Albertslund Hall,Other catering premises,7841,,,82541,,,55.77458500000000,2004/1010/COMM,787,EnvironmentalHealth@eastrenfrewshire.gov.uk,East Renfrewshire,http://www.eastrenfrewshire.gov.uk/,-4.35260000000000,G77 6WW,2014-11-13,fhis_pass_en-GB,Pass,,FHIS,
424896,Aldomak Ltd Unit 3 1 Burnfield Avenue Giffnock East Renfrewshire,,,,Aldomak,Manufacturers/packers,7839,,,82794,,,55.80042700000000,2011/1641/COMM,787,EnvironmentalHealth@eastrenfrewshire.gov.uk,East Renfrewshire,http://www.eastrenfrewshire.gov.uk/,-4.31145600000000,G46 7TT,2013-11-27,fhis_exempt_en-GB,Exempt,,FHIS,
424897,D And A Yuill 170 - 174 Cross Arthurlie Street Barrhead East Renfrewshire,,,,Alma's,Takeaway/sandwich shop,7844,,,730979,,,55.80312000000000,2014/1962/COMM,787,EnvironmentalHealth@eastrenfrewshire.gov.uk,East Renfrewshire,http://www.eastrenfrewshire.gov.uk/,-4.39777400000000,G78 1EY,2015-01-15,fhis_pass_en-GB,Pass,,FHIS,
424898,63 - 65 Cross Arthurlie Street Barrhead East Renfrewshire,,,,Alpino,Takeaway/sandwich shop,7844,,,7861,,,55.80082900000000,03/00404/COMM,787,EnvironmentalHealth@eastrenfrewshire.gov.uk,East Renfrewshire,http://www.eastrenfrewshire.gov.uk/,-4.39772800000000,G78 1RR,2013-06-20,fhis_pass_en-GB,Pass,,FHIS,
424899,223 Fenwick Road Giffnock East Renfrewshire,,,,Andiamo,Restaurant/Cafe/Canteen,1,,,7835,,,55.80388200000000,03/00363/COMM,787,EnvironmentalHealth@eastrenfrewshire.gov.uk,East Renfrewshire,http://www.eastrenfrewshire.gov.uk/,-4.29433500000000,G46 6JG,2013-12-12,fhis_pass_en-GB,Pass,,FHIS,
424900,10 Merryvale Place Giffnock East Renfrewshire,,,,Armandos Pizza,Takeaway/sandwich shop,7844,,,7499,,,55.81257400000000,03/00050/COMM,787,EnvironmentalHealth@eastrenfrewshire.gov.uk,East Renfrewshire,http://www.eastrenfrewshire.gov.uk/,-4.29135100000000,G46 6AT,2014-12-09,fhis_pass_en-GB,Pass,,FHIS,
424901,Athurlie Bowling Club 60 Springhill Road Barrhead East Renfrewshire,,,,Arthurlie Bowling Club,Other catering premises,7841,,,7597,,,55.78975400000000,03/00091/COMM,787,EnvironmentalHealth@eastrenfrewshire.gov.uk,East Renfrewshire,http://www.eastrenfrewshire.gov.uk/,-4.39556400000000,G78 2SE,2010-10-15,fhis_pass_en-GB,Pass,,FHIS,
424902,Roebank Drive Barrhead East Renfrewshire,,,,Arthurlie Family Centre,Other catering premises,7841,,,82696,,,55.79322000000000,2009/1421/COMM,787,EnvironmentalHealth@eastrenfrewshire.gov.uk,East Renfrewshire,http://www.eastrenfrewshire.gov.uk/,-4.38741700000000,G78 2JA,2013-08-02,fhis_pass_en-GB,Pass,,FHIS,
424903,Arthurlie Inn 5 Main Street Barrhead East Renfrewshire,,,,Arthurlie Inn,Pub/bar/nightclub,7843,,,82456,,,55.79904100000000,2003/0678/COMM,787,EnvironmentalHealth@eastrenfrewshire.gov.uk,East Renfrewshire,http://www.eastrenfrewshire.gov.uk/,-4.39634200000000,G78 1RE,2011-10-20,fhis_pass_en-GB,Pass,,FHIS,
424904,Arthurlie Social Club Ralston Road Barrhead East Renfrewshire,,,,Arthurlie Social Club,Other catering premises,7841,,,82497,,,55.79941100000000,2003/0811/COMM,787,EnvironmentalHealth@eastrenfrewshire.gov.uk,East Renfrewshire,http://www.eastrenfrewshire.gov.uk/,-4.39167400000000,G78 2QQ,2014-07-25,fhis_pass_en-GB,Pass,,FHIS,
424905,Asda 1 The Avenue At Mearns 250 Ayr Road Newton Mearns East Renfrewshire,,,,Asda,Retailers - supermarkets/hypermarkets,7840,,,5673,,,55.77292000000000,02/00015/COMM,787,EnvironmentalHealth@eastrenfrewshire.gov.uk,East Renfrewshire,http://www.eastrenfrewshire.gov.uk/,-4.33390800000000,G77 6EY,2014-11-12,fhis_pass_en-GB,Pass,,FHIS,
424906,Asda Supermarket 4 Church Road Barrhead East Renfrewshire,,,,Asda,Retailers - supermarkets/hypermarkets,7840,,,717146,,,,2014/1928/COMM,787,EnvironmentalHealth@eastrenfrewshire.gov.uk,East Renfrewshire,http://www.eastrenfrewshire.gov.uk/,,,2014-10-27,fhis_pass_en-GB,Pass,,FHIS,
424907,10-16 Blackburn Square Barrhead East Renfrewshire,,,,Auchenback Community Centre,Other catering premises,7841,,,82580,,,55.79693700000000,2005/1231/COMM,787,EnvironmentalHealth@eastrenfrewshire.gov.uk,East Renfrewshire,http://www.eastrenfrewshire.gov.uk/,-4.37926900000000,G78 2NF,2010-08-06,fhis_pass_en-GB,Pass,,FHIS,
424908,61 Aurs Drive Barrhead East Renfrewshire,,,,Auchenback Resource Centre,Retailers - other,4613,,,82513,,,55.79677100000000,2003/0887/COMM,787,EnvironmentalHealth@eastrenfrewshire.gov.uk,East Renfrewshire,http://www.eastrenfrewshire.gov.uk/,-4.38273700000000,G78 2LW,2013-10-29,fhis_pass_en-GB,Pass,,FHIS,
424909,35 Graffham Avenue Giffnock East Renfrewshire,,,,Bake Me A Dream,Other catering premises,7841,,,570615,,,55.80664300000000,2013/1810/COMM,787,EnvironmentalHealth@eastrenfrewshire.gov.uk,East Renfrewshire,http://www.eastrenfrewshire.gov.uk/,-4.28265600000000,G46 6EJ,2014-11-06,fhis_pass_en-GB,Pass,,FHIS,
424910,Bar Milano 2 Mains Avenue Giffnock East Renfrewshire,,,,Bar Milano,Restaurant/Cafe/Canteen,1,,,82701,,,55.80042700000000,2009/1448/COMM,787,EnvironmentalHealth@eastrenfrewshire.gov.uk,East Renfrewshire,http://www.eastrenfrewshire.gov.uk/,-4.31145600000000,G46 6QZ,2013-10-01,fhis_pass_en-GB,Pass,,FHIS,
424911,Bowling Green 80 Carlibar Road Barrhead East Renfrewshire,,,,Barrhead Bowling Club,Other catering premises,7841,,,82384,,,55.80501000000000,2003/0474/COMM,787,EnvironmentalHealth@eastrenfrewshire.gov.uk,East Renfrewshire,http://www.eastrenfrewshire.gov.uk/,-4.38426100000000,G78 1BD,2014-12-04,fhis_pass_en-GB,Pass,,FHIS,
424912,Barrhead Learning Disability Centre 8 Carlibar Road Barrhead East Renfrewshire,,,,Barrhead Centre,Other catering premises,7841,,,82678,,,55.80384700000000,2008/1410/COMM,787,EnvironmentalHealth@eastrenfrewshire.gov.uk,East Renfrewshire,http://www.eastrenfrewshire.gov.uk/,-4.39649400000000,G78 1AA,2014-11-25,fhis_pass_en-GB,Pass,,FHIS,
424913,Barrhead Evangelical Church 38 Cross Arthurlie Street Barrhead East Renfrewshire,,,,Barrhead Evangelical Church Hall,Other catering premises,7841,,,458145,,,55.80007400000000,2012/1727/COMM,787,EnvironmentalHealth@eastrenfrewshire.gov.uk,East Renfrewshire,http://www.eastrenfrewshire.gov.uk/,-4.39773000000000,G78 1QU,2014-11-07,fhis_pass_en-GB,Pass,,FHIS,
424914,Barrhead High School 25 Aurs Road Barrhead East Renfrewshire,,,,Barrhead High School,School/college/university,7845,,,7390,,,55.80192300000000,03/00010/FOOD,787,EnvironmentalHealth@eastrenfrewshire.gov.uk,East Renfrewshire,http://www.eastrenfrewshire.gov.uk/,-4.37986000000000,G78 2SJ,2013-12-10,fhis_pass_en-GB,Pass,,FHIS,
424915,East Renfrewshire Council Council Offices 211 Main Street Barrhead East Renfrewshire,,,,Barrhead HQ Canteen,Restaurant/Cafe/Canteen,1,,,82606,,,55.80187400000000,2006/1308/COMM,787,EnvironmentalHealth@eastrenfrewshire.gov.uk,East Renfrewshire,http://www.eastrenfrewshire.gov.uk/,-4.38793100000000,G78 1SY,2010-03-27,fhis_pass_en-GB,Pass,,FHIS,
424916,Barrhead Methodist Church 134 Cross Arthurlie Street Barrhead East Renfrewshire,,,,Barrhead Methodist Church,Other catering premises,7841,,,82386,,,55.80312000000000,2003/0477/COMM,787,EnvironmentalHealth@eastrenfrewshire.gov.uk,East Renfrewshire,http://www.eastrenfrewshire.gov.uk/,-4.39777400000000,G78 1EY,2010-10-13,fhis_pass_en-GB,Pass,,FHIS,
424917,Barrhead Newsagents 80 Cross Arthurlie Street Barrhead East Renfrewshire,,,,Barrhead Newsagents,Retailers - other,4613,,,7858,,,55.80091100000000,03/00401/COMM,787,EnvironmentalHealth@eastrenfrewshire.gov.uk,East Renfrewshire,http://www.eastrenfrewshire.gov.uk/,-4.39722300000000,G78 1RP,2012-08-07,fhis_pass_en-GB,Pass,,FHIS,
424918,Post Office 77 Cross Arthurlie Street Barrhead East Renfrewshire,,,,Barrhead NSPO,Retailers - other,4613,,,82574,,,55.80110000000000,2005/1213/COMM,787,EnvironmentalHealth@eastrenfrewshire.gov.uk,East Renfrewshire,http://www.eastrenfrewshire.gov.uk/,-4.39812800000000,G78 1RS,2010-06-23,fhis_pass_en-GB,Pass,,FHIS,
424919,Bella Panini 196 Crookfur Shopping Precinct Harvie Avenue Newton Mearns East Renfrewshire,,,,Bella Panini,Retailers - other,4613,,,621124,,,55.78152900000000,2013/1876/COMM,787,EnvironmentalHealth@eastrenfrewshire.gov.uk,East Renfrewshire,http://www.eastrenfrewshire.gov.uk/,-4.33775600000000,G77 6UT,2013-11-19,fhis_pass_en-GB,Pass,,FHIS,
424920,Belmont House School 17 Sandringham Avenue Newton Mearns East Renfrewshire,,,,Belmont House,School/college/university,7845,,,7570,,,55.78210100000000,03/00079/COMM,787,EnvironmentalHealth@eastrenfrewshire.gov.uk,East Renfrewshire,http://www.eastrenfrewshire.gov.uk/,-4.31275100000000,G77 5DU,2014-09-03,fhis_pass_en-GB,Pass,,FHIS,
424921,224 Main Street Barrhead East Renfrewshire,,,,Bicket Butchers,Retailers - other,4613,,,692560,,,55.80157200000000,2014/1920/COMM,787,EnvironmentalHealth@eastrenfrewshire.gov.uk,East Renfrewshire,http://www.eastrenfrewshire.gov.uk/,-4.38730600000000,G78 1SN,2014-07-16,fhis_pass_en-GB,Pass,,FHIS,
424922,25 Cross Arthurlie Street Barrhead East Renfrewshire,,,,Bluestone,Restaurant/Cafe/Canteen,1,,,509991,,,55.79946500000000,2012/1781/COMM,787,EnvironmentalHealth@eastrenfrewshire.gov.uk,East Renfrewshire,http://www.eastrenfrewshire.gov.uk/,-4.39809100000000,G78 1QY,2014-08-05,fhis_pass_en-GB,Pass,,FHIS,
424923,Bonnyton Golf Club 227 Kirktonmoor Road Eaglesham East Renfrewshire,,,,Bonnyton Golf Club,Other catering premises,7841,,,7351,,,55.73693300000000,03/00001/COMM,787,EnvironmentalHealth@eastrenfrewshire.gov.uk,East Renfrewshire,http://www.eastrenfrewshire.gov.uk/,-4.30247900000000,G76 0QB,2014-07-01,fhis_pass_en-GB,Pass,,FHIS,
424924,Bonnyton House 9 Oliphant Crescent Busby East Renfrewshire,,,,Bonnyton House,Hospitals/Childcare/Caring Premises,5,,,7534,,,55.77859800000000,03/00062/COMM,787,EnvironmentalHealth@eastrenfrewshire.gov.uk,East Renfrewshire,http://www.eastrenfrewshire.gov.uk/,-4.27460500000000,G76 8PU,2014-09-16,fhis_pass_en-GB,Pass,,FHIS,
424925,Boots 182 - 184 Main Street Barrhead East Renfrewshire,,,,Boots,Retailers - other,4613,,,82488,,,55.80089500000000,2003/0783/COMM,787,EnvironmentalHealth@eastrenfrewshire.gov.uk,East Renfrewshire,http://www.eastrenfrewshire.gov.uk/,-4.38835000000000,G78 1SL,2012-05-01,fhis_pass_en-GB,Pass,,FHIS,
424926,Boots Pharmacy 61B Main Street Thornliebank East Renfrewshire,,,,Boots Pharmacy,Retailers - other,4613,,,570519,,,55.80729400000000,2010/1571/COMM,787,EnvironmentalHealth@eastrenfrewshire.gov.uk,East Renfrewshire,http://www.eastrenfrewshire.gov.uk/,-4.31700600000000,G46 7RX,2011-01-27,fhis_exempt_en-GB,Exempt,,FHIS,
424927,Boots 4 The Avenue At Mearns 250 Ayr Road Newton Mearns East Renfrewshire,,,,Boots PLC,Retailers - other,4613,,,7615,,,55.77292000000000,03/00101/COMM,787,EnvironmentalHealth@eastrenfrewshire.gov.uk,East Renfrewshire,http://www.eastrenfrewshire.gov.uk/,-4.33390800000000,G77 6EY,2010-04-20,fhis_pass_en-GB,Pass,,FHIS,
424928,Unit 11-12 The Toll Busby Road Clarkston East Renfrewshire,,,,Boots The Chemist,Retailers - other,4613,,,626937,,,55.79004600000000,2008/1406/COMM,787,EnvironmentalHealth@eastrenfrewshire.gov.uk,East Renfrewshire,http://www.eastrenfrewshire.gov.uk/,-4.27712300000000,G76 7BG,2013-12-20,fhis_pass_en-GB,Pass,,FHIS,
424929,136 Main Street Barrhead East Renfrewshire,,,,Bottles,Retailers - other,4613,,,82569,,,55.80029600000000,2005/1146/COMM,787,EnvironmentalHealth@eastrenfrewshire.gov.uk,East Renfrewshire,http://www.eastrenfrewshire.gov.uk/,-4.39049900000000,G78 1SG,2013-03-19,fhis_pass_en-GB,Pass,,FHIS,
424930,179 Ayr Road Newton Mearns East Renfrewshire,,,,BP Express Shopping,Retailers - other,4613,,,7642,,,55.77320900000000,03/00115/COMM,787,EnvironmentalHealth@eastrenfrewshire.gov.uk,East Renfrewshire,http://www.eastrenfrewshire.gov.uk/,-4.33049700000000,G77 6RE,2010-08-13,fhis_pass_en-GB,Pass,,FHIS,
424931,Braidbar Primary School Kyle Drive Giffnock East Renfrewshire,,,,Braidbar After School Care Service,School/college/university,7845,,,82403,,,55.80568500000000,2003/0515/COMM,787,EnvironmentalHealth@eastrenfrewshire.gov.uk,East Renfrewshire,http://www.eastrenfrewshire.gov.uk/,-4.28097200000000,G46 6ES,2014-01-23,fhis_pass_en-GB,Pass,,FHIS,
424932,Braidbar Primary School Kyle Drive Giffnock East Renfrewshire,,,,Braidbar Primary School,School/college/university,7845,,,82402,,,55.80568500000000,2003/0514/COMM,787,EnvironmentalHealth@eastrenfrewshire.gov.uk,East Renfrewshire,http://www.eastrenfrewshire.gov.uk/,-4.28097200000000,G46 6ES,2014-10-02,fhis_pass_en-GB,Pass,,FHIS,
424933,The Church Of Broom 1 Broom Road East Newton Mearns East Renfrewshire,,,,Broom Parish Church,Other catering premises,7841,,,7865,,,55.77864800000000,03/00413/COMM,787,EnvironmentalHealth@eastrenfrewshire.gov.uk,East Renfrewshire,http://www.eastrenfrewshire.gov.uk/,-4.30710800000000,G77 5HN,2013-01-23,fhis_pass_en-GB,Pass,,FHIS,
424934,Broons 222 Main Street Barrhead East Renfrewshire,,,,Broons,Takeaway/sandwich shop,7844,,,548487,,,55.80157200000000,2013/1806/COMM,787,EnvironmentalHealth@eastrenfrewshire.gov.uk,East Renfrewshire,http://www.eastrenfrewshire.gov.uk/,-4.38730600000000,G78 1SN,2013-04-17,fhis_pass_en-GB,Pass,,FHIS,
424935,R And R Brown And Sons 91C Main Street Thornliebank East Renfrewshire,,,,Browns Butchers,Manufacturers/packers,7839,,,82483,,,55.80792900000000,2003/0746/COMM,787,EnvironmentalHealth@eastrenfrewshire.gov.uk,East Renfrewshire,http://www.eastrenfrewshire.gov.uk/,-4.31575100000000,G46 7RY,2014-10-15,fhis_pass_en-GB,Pass,,FHIS,
424936,118 Busby Road Clarkston East Renfrewshire,,,,Buon Appetito,Takeaway/sandwich shop,7844,,,7799,,,55.78562700000000,03/00294/COMM,787,EnvironmentalHealth@eastrenfrewshire.gov.uk,East Renfrewshire,http://www.eastrenfrewshire.gov.uk/,-4.27407400000000,G76 8BG,2013-11-07,fhis_pass_en-GB,Pass,,FHIS,
424937,32 Burnfield Road Giffnock East Renfrewshire,,,,Burnfield Care Home,Hospitals/Childcare/Caring Premises,5,,,82593,,,55.80707800000000,2006/1268/COMM,787,EnvironmentalHealth@eastrenfrewshire.gov.uk,East Renfrewshire,http://www.eastrenfrewshire.gov.uk/,-4.29835300000000,G46 7PZ,2013-11-19,fhis_pass_en-GB,Pass,,FHIS,
424938,15 The Crescent Busby East Renfrewshire,,,,Busby Bowling Club,Other catering premises,7841,,,7818,,,55.78080200000000,03/00342/COMM,787,EnvironmentalHealth@eastrenfrewshire.gov.uk,East Renfrewshire,http://www.eastrenfrewshire.gov.uk/,-4.25889700000000,G76 8HT,2014-09-10,fhis_pass_en-GB,Pass,,FHIS,
424939,Busby Parish Church 11 Church Road Busby East Renfrewshire,,,,Busby Parish Church,Other catering premises,7841,,,7864,,,55.78142100000000,03/00412/COMM,787,EnvironmentalHealth@eastrenfrewshire.gov.uk,East Renfrewshire,http://www.eastrenfrewshire.gov.uk/,-4.26917200000000,G76 8EB,2012-11-27,fhis_pass_en-GB,Pass,,FHIS,
424940,Busby Primary School 23 Church Road Busby East Renfrewshire,,,,Busby Primary School,School/college/university,7845,,,7802,,,55.78142100000000,03/00307/COMM,787,EnvironmentalHealth@eastrenfrewshire.gov.uk,East Renfrewshire,http://www.eastrenfrewshire.gov.uk/,-4.26917200000000,G76 8EB,2014-05-20,fhis_pass_en-GB,Pass,,FHIS,
424941,Busby Road Busby Lay By,,,,Busby Snack Van,Takeaway/sandwich shop,7844,,,708555,,,55.78903300000000,2014/1939/COMM,787,EnvironmentalHealth@eastrenfrewshire.gov.uk,East Renfrewshire,http://www.eastrenfrewshire.gov.uk/,-4.23935500000000,G76 9BN,2014-09-11,fhis_pass_en-GB,Pass,,FHIS,
424942,Busby Village News 14 Main Street Busby East Renfrewshire,,,,Busby Village News,Retailers - other,4613,,,82405,,,55.78200500000000,2003/0523/COMM,787,EnvironmentalHealth@eastrenfrewshire.gov.uk,East Renfrewshire,http://www.eastrenfrewshire.gov.uk/,-4.26824900000000,G76 8DU,2010-07-15,fhis_pass_en-GB,Pass,,FHIS,
424943,Cafe 158 158B Main Street Barrhead East Renfrewshire,,,,Cafe 158,Restaurant/Cafe/Canteen,1,,,82707,,,55.80089500000000,2009/1468/COMM,787,EnvironmentalHealth@eastrenfrewshire.gov.uk,East Renfrewshire,http://www.eastrenfrewshire.gov.uk/,-4.38835000000000,G78 1SL,2014-08-08,fhis_pass_en-GB,Pass,,FHIS,
424944,50 Aurs Drive Barrhead East Renfrewshire,,,,Cafe Aurs,Restaurant/Cafe/Canteen,1,,,717147,,,55.79677100000000,2014/1943/COMM,787,EnvironmentalHealth@eastrenfrewshire.gov.uk,East Renfrewshire,http://www.eastrenfrewshire.gov.uk/,-4.38273700000000,G78 2LW,2014-10-14,fhis_pass_en-GB,Pass,,FHIS,
424945,Cafe India 89B Main Street Thornliebank East Renfrewshire,,,,Cafe India,Takeaway/sandwich shop,7844,,,82571,,,55.80792900000000,2005/1173/COMM,787,EnvironmentalHealth@eastrenfrewshire.gov.uk,East Renfrewshire,http://www.eastrenfrewshire.gov.uk/,-4.31575100000000,G46 7RY,2014-11-27,fhis_pass_en-GB,Pass,,FHIS,
424946,Cafe Roma Central Buildings No 3-4 70 Busby Road Clarkston East Renfrewshire,,,,Cafe Roma,Restaurant/Cafe/Canteen,1,,,82679,,,55.78851900000000,2008/1417/COMM,787,EnvironmentalHealth@eastrenfrewshire.gov.uk,East Renfrewshire,http://www.eastrenfrewshire.gov.uk/,-4.27564600000000,G76 7AU,2014-08-26,fhis_pass_en-GB,Pass,,FHIS,
424947,Caldwell Golf Club House Roebank Road Uplawmoor East Renfrewshire,,,,Caldwell Golf Club,Other catering premises,7841,,,7359,,,55.76311000000000,03/00003/COMM,787,EnvironmentalHealth@eastrenfrewshire.gov.uk,East Renfrewshire,http://www.eastrenfrewshire.gov.uk/,-4.50744800000000,G78 4AU,2014-10-24,fhis_pass_en-GB,Pass,,FHIS,
424948,1 Neilston Road Uplawmoor East Renfrewshire,,,,Caldwell Parish Church,Other catering premises,7841,,,82542,,,55.76463800000000,2004/1021/COMM,787,EnvironmentalHealth@eastrenfrewshire.gov.uk,East Renfrewshire,http://www.eastrenfrewshire.gov.uk/,-4.49904900000000,G78 4AB,2013-02-11,fhis_pass_en-GB,Pass,,FHIS,
424949,Canton House 42 Main Street Barrhead East Renfrewshire,,,,Canton House,Takeaway/sandwich shop,7844,,,548488,,,55.79901700000000,2013/1843/COMM,787,EnvironmentalHealth@eastrenfrewshire.gov.uk,East Renfrewshire,http://www.eastrenfrewshire.gov.uk/,-4.39621300000000,G78 1RE,2014-05-01,fhis_pass_en-GB,Pass,,FHIS,
424950,30 Main Street Barrhead East Renfrewshire,,,,Capital Chinese Takeaway,Takeaway/sandwich shop,7844,,,82457,,,55.79904100000000,2003/0679/COMM,787,EnvironmentalHealth@eastrenfrewshire.gov.uk,East Renfrewshire,http://www.eastrenfrewshire.gov.uk/,-4.39634200000000,G78 1RE,2014-01-06,fhis_pass_en-GB,Pass,,FHIS,
424951,Carlibar Family Centre Carlibar Road Barrhead East Renfrewshire,,,,Carlibar Family Centre,Other catering premises,7841,,,82635,,,55.80501000000000,2007/1333/COMM,787,EnvironmentalHealth@eastrenfrewshire.gov.uk,East Renfrewshire,http://www.eastrenfrewshire.gov.uk/,-4.38426100000000,G78 1BD,2014-11-26,fhis_pass_en-GB,Pass,,FHIS,
424952,Carlibar Primary School Carlibar Road Barrhead East Renfrewshire,,,,Carlibar Primary School,School/college/university,7845,,,82600,,,55.80501000000000,2006/1287/COMM,787,EnvironmentalHealth@eastrenfrewshire.gov.uk,East Renfrewshire,http://www.eastrenfrewshire.gov.uk/,-4.38426100000000,G78 1BD,2014-04-25,fhis_pass_en-GB,Pass,,FHIS,
424953,East Renfrewshire Council Municipal Buildings 1 Eastwood Park Rouken Glen Road Giffnock East Renfrewshire,,,,Carmichael Hall,Other catering premises,7841,,,82495,,,55.79770900000000,2003/0806/COMM,787,EnvironmentalHealth@eastrenfrewshire.gov.uk,East Renfrewshire,http://www.eastrenfrewshire.gov.uk/,-4.30194900000000,G46 6UG,2013-03-05,fhis_pass_en-GB,Pass,,FHIS,
424954,Carolside Primary School 4 Ashfield Road Clarkston East Renfrewshire,,,,Carolside Primary School,School/college/university,7845,,,2564,,,55.78208100000000,01/00001/COMM,787,EnvironmentalHealth@eastrenfrewshire.gov.uk,East Renfrewshire,http://www.eastrenfrewshire.gov.uk/,-4.28066100000000,G76 7TX,2013-12-04,fhis_pass_en-GB,Pass,,FHIS,
424955,2 Cartsbridge Road Busby East Renfrewshire,,,,Cartsbridge Evangelical Church,Other catering premises,7841,,,82374,,,55.78267200000000,2003/0458/COMM,787,EnvironmentalHealth@eastrenfrewshire.gov.uk,East Renfrewshire,http://www.eastrenfrewshire.gov.uk/,-4.27005800000000,G76 8DP,2013-08-27,fhis_pass_en-GB,Pass,,FHIS,
424956,Cartvale Bar 25 Main Street Busby East Renfrewshire,,,,Cartvale Bar,Pub/bar/nightclub,7843,,,82638,,,55.78235600000000,2007/1340/COMM,787,EnvironmentalHealth@eastrenfrewshire.gov.uk,East Renfrewshire,http://www.eastrenfrewshire.gov.uk/,-4.26774300000000,G76 8DS,2010-06-09,fhis_pass_en-GB,Pass,,FHIS,
424957,1 Waterfoot Road Newton Mearns East Renfrewshire,,,,Castello,Restaurant/Cafe/Canteen,1,,,642644,,,55.76763800000000,2003/0809/COMM,787,EnvironmentalHealth@eastrenfrewshire.gov.uk,East Renfrewshire,http://www.eastrenfrewshire.gov.uk/,-4.31808000000000,G77 5RU,2014-03-11,fhis_improvement_required_en-GB,Improvement Required,,FHIS,
424958,Mearns Primary School 2 Hunter Drive Newton Mearns East Renfrewshire,,,,Caterlink Ltd,Restaurant/Cafe/Canteen,1,,,509992,,,55.77341100000000,2012/1786/COMM,787,EnvironmentalHealth@eastrenfrewshire.gov.uk,East Renfrewshire,http://www.eastrenfrewshire.gov.uk/,-4.33219900000000,G77 6DP,2014-08-15,fhis_pass_en-GB,Pass,,FHIS,
424959,St Ninians High School 13 Eastwood Park Rouken Glen Road Giffnock East Renfrewshire,,,,Caterlink Ltd,Restaurant/Cafe/Canteen,1,,,522265,,,55.79782100000000,2012/1787/COMM,787,EnvironmentalHealth@eastrenfrewshire.gov.uk,East Renfrewshire,http://www.eastrenfrewshire.gov.uk/,-4.30361500000000,G46 7JS,2014-08-18,fhis_pass_en-GB,Pass,,FHIS,
424960,Office Room 6 Hilltree Court 96 Fenwick Road Giffnock East Renfrewshire,,,,Caterplus Services - McCarthy And Stone,Hospitals/Childcare/Caring Premises,5,,,537537,,,55.80801900000000,2013/1808/COMM,787,EnvironmentalHealth@eastrenfrewshire.gov.uk,East Renfrewshire,http://www.eastrenfrewshire.gov.uk/,-4.29464200000000,G46 6AA,2014-10-16,fhis_pass_en-GB,Pass,,FHIS,
424961,Cathay Cuisine 128 Ayr Road Newton Mearns East Renfrewshire,,,,Cathay Cuisine,Takeaway/sandwich shop,7844,,,668389,,,55.78034900000000,2013/1891/COMM,787,EnvironmentalHealth@eastrenfrewshire.gov.uk,East Renfrewshire,http://www.eastrenfrewshire.gov.uk/,-4.31939300000000,G77 6EG,2014-04-29,fhis_pass_en-GB,Pass,,FHIS,
424962,Cathcart Castle Golf Club Cleuch Mearns Road Clarkston East Renfrewshire,,,,Cathcart Castle Golf Club,Other catering premises,7841,,,82411,,,55.78669400000000,2003/0538/COMM,787,EnvironmentalHealth@eastrenfrewshire.gov.uk,East Renfrewshire,http://www.eastrenfrewshire.gov.uk/,-4.29498300000000,G76 7YL,2014-08-15,fhis_pass_en-GB,Pass,,FHIS,
424963,Caulders At Braidbar Braidbar Nurseries Mearns Road Newton Mearns East Renfrewshire,,,,Caulders At Braidbar,Restaurant/Cafe/Canteen,1,,,82704,,,55.75155200000000,2009/1460/COMM,787,EnvironmentalHealth@eastrenfrewshire.gov.uk,East Renfrewshire,http://www.eastrenfrewshire.gov.uk/,-4.35344400000000,G77 6RS,2014-01-30,fhis_pass_en-GB,Pass,,FHIS,
424964,685 Clarkston Road Netherlee East Renfrewshire,,,,CC's Pizza Parlour,Takeaway/sandwich shop,7844,,,338749,,,55.80191900000000,2011/1675/COMM,787,EnvironmentalHealth@eastrenfrewshire.gov.uk,East Renfrewshire,http://www.eastrenfrewshire.gov.uk/,-4.27031600000000,G44 3SE,2014-07-31,fhis_pass_en-GB,Pass,,FHIS,
424965,Central Cafe 70 Cross Arthurlie Street Barrhead East Renfrewshire,,,,Central Cafe,Restaurant/Cafe/Canteen,1,,,7859,,,55.80091100000000,03/00402/COMM,787,EnvironmentalHealth@eastrenfrewshire.gov.uk,East Renfrewshire,http://www.eastrenfrewshire.gov.uk/,-4.39722300000000,G78 1RP,2013-12-16,fhis_pass_en-GB,Pass,,FHIS,
424966,26 Main Street Barrhead East Renfrewshire,,,,Charghas Fast Food,Takeaway/sandwich shop,7844,,,82577,,,55.79904100000000,2005/1228/COMM,787,EnvironmentalHealth@eastrenfrewshire.gov.uk,East Renfrewshire,http://www.eastrenfrewshire.gov.uk/,-4.39634200000000,G78 1RE,2014-02-24,fhis_pass_en-GB,Pass,,FHIS,
424967,Charles Frazer 30 The Avenue At Mearns 250 Ayr Road Newton Mearns East Renfrewshire,,,,Charles Frazer,Manufacturers/packers,7839,,,7766,,,55.77292000000000,03/00205/COMM,787,EnvironmentalHealth@eastrenfrewshire.gov.uk,East Renfrewshire,http://www.eastrenfrewshire.gov.uk/,-4.33390800000000,G77 6EY,2014-03-03,fhis_pass_en-GB,Pass,,FHIS,
424968,Chavey Down 420 Mearns Road Newton Mearns East Renfrewshire,,,,Chavey Down,Hospitals/Childcare/Caring Premises,5,,,82478,,,55.76456200000000,2003/0733/COMM,787,EnvironmentalHealth@eastrenfrewshire.gov.uk,East Renfrewshire,http://www.eastrenfrewshire.gov.uk/,-4.32629800000000,G77 5RY,2013-08-29,fhis_pass_en-GB,Pass,,FHIS,
424969,Flat 1-1 3 Craigbank Crescent Eaglesham East Renfrewshire,,,,Cheerful Deliveries,Other catering premises,7841,,,559111,,,55.74699600000000,2007/1358/COMM,787,EnvironmentalHealth@eastrenfrewshire.gov.uk,East Renfrewshire,http://www.eastrenfrewshire.gov.uk/,-4.27273300000000,G76 0DU,2013-05-21,fhis_pass_en-GB,Pass,,FHIS,
424970,Chocca Mocca 115 Orchard Park Avenue Giffnock East Renfrewshire,,,,Chocca Mocca,Takeaway/sandwich shop,7844,,,82677,,,55.80608100000000,2008/1407/COMM,787,EnvironmentalHealth@eastrenfrewshire.gov.uk,East Renfrewshire,http://www.eastrenfrewshire.gov.uk/,-4.30935400000000,G46 7BW,2013-12-10,fhis_pass_en-GB,Pass,,FHIS,
424971,Choo's Kitchen 114 Ayr Road Newton Mearns East Renfrewshire,,,,Choo's Kitchen,Takeaway/sandwich shop,7844,,,692561,,,55.78034900000000,2014/1922/COMM,787,EnvironmentalHealth@eastrenfrewshire.gov.uk,East Renfrewshire,http://www.eastrenfrewshire.gov.uk/,-4.31939300000000,G77 6EG,2014-08-04,fhis_pass_en-GB,Pass,,FHIS,
424972,Cindy Flowers 6 Fenwick Place Giffnock East Renfrewshire,,,,Cindy Flowers,Retailers - other,4613,,,82490,,,55.79673000000000,2003/0794/COMM,787,EnvironmentalHealth@eastrenfrewshire.gov.uk,East Renfrewshire,http://www.eastrenfrewshire.gov.uk/,-4.30042400000000,G46 6UF,2010-08-16,fhis_pass_en-GB,Pass,,FHIS,
424973,St Aidans Episcopal Church Mearns Road Clarkston East Renfrewshire,,,,Clarkston After School Service,Other catering premises,7841,,,701386,,,55.78943900000000,2014/1911/COMM,787,EnvironmentalHealth@eastrenfrewshire.gov.uk,East Renfrewshire,http://www.eastrenfrewshire.gov.uk/,-4.27742200000000,G76 7ER,2014-08-26,fhis_pass_en-GB,Pass,,FHIS,
424974,Clarkston Baptist Church 11 Arthur Street Clarkston East Renfrewshire,,,,Clarkston Baptist Church,Other catering premises,7841,,,82380,,,55.78501100000000,2003/0468/COMM,787,EnvironmentalHealth@eastrenfrewshire.gov.uk,East Renfrewshire,http://www.eastrenfrewshire.gov.uk/,-4.27336800000000,G76 8BQ,2013-12-03,fhis_pass_en-GB,Pass,,FHIS,
424975,Clarkston Bowling And Tennis Club 127 Eastwoodmains Road Clarkston East Renfrewshire,,,,Clarkston Bowling Club,Other catering premises,7841,,,82436,,,55.79184100000000,2003/0625/COMM,787,EnvironmentalHealth@eastrenfrewshire.gov.uk,East Renfrewshire,http://www.eastrenfrewshire.gov.uk/,-4.28115200000000,G76 7HD,2013-06-12,fhis_pass_en-GB,Pass,,FHIS,
424976,672 Clarkston Road Netherlee East Renfrewshire,,,,Clarkston Hall,Other catering premises,7841,,,82486,,,55.79979500000000,2003/0772/COMM,787,EnvironmentalHealth@eastrenfrewshire.gov.uk,East Renfrewshire,http://www.eastrenfrewshire.gov.uk/,-4.27338400000000,G44 3YS,2010-06-04,fhis_pass_en-GB,Pass,,FHIS,
424977,2 Busby Road Clarkston East Renfrewshire,,,,Clarkston Jasmin Ltd,Restaurant/Cafe/Canteen,1,,,82672,,,55.79000600000000,2008/1381/COMM,787,EnvironmentalHealth@eastrenfrewshire.gov.uk,East Renfrewshire,http://www.eastrenfrewshire.gov.uk/,-4.27833300000000,G76 7XL,2014-09-09,fhis_improvement_required_en-GB,Improvement Required,,FHIS,
424978,121st Glasgow Scout Group 21 Aidans Brae Clarkston East Renfrewshire,,,,Clarkston Scout Hall,Other catering premises,7841,,,338748,,,55.78838200000000,2011/1674/COMM,787,EnvironmentalHealth@eastrenfrewshire.gov.uk,East Renfrewshire,http://www.eastrenfrewshire.gov.uk/,-4.27868500000000,G76 7EP,2011-12-23,fhis_pass_en-GB,Pass,,FHIS,
424979,17 Fenwick Road Giffnock East Renfrewshire,,,,Clay Oven,Takeaway/sandwich shop,7844,,,726502,,,55.81215800000000,2014/1968/COMM,787,EnvironmentalHealth@eastrenfrewshire.gov.uk,East Renfrewshire,http://www.eastrenfrewshire.gov.uk/,-4.29198100000000,G46 6AU,2014-12-02,fhis_pass_en-GB,Pass,,FHIS,
424980,3 Tower Rais Cottage Darnley Road Barrhead East Renfrewshire,,,,Clouds Bakery,Other catering premises,7841,,,610616,,,55.80571900000000,2013/1870/COMM,787,EnvironmentalHealth@eastrenfrewshire.gov.uk,East Renfrewshire,http://www.eastrenfrewshire.gov.uk/,-4.37551200000000,G78 1TA,2013-11-06,fhis_pass_en-GB,Pass,,FHIS,
424981,Petrol Filling Station 60 - 62 Paisley Road Barrhead East Renfrewshire,,,,Coffeze Ltd Scotland,Restaurant/Cafe/Canteen,1,,,371469,,,55.80685000000000,2012/1745/COMM,787,EnvironmentalHealth@eastrenfrewshire.gov.uk,East Renfrewshire,http://www.eastrenfrewshire.gov.uk/,-4.39870500000000,G78 1NN,2012-05-02,fhis_pass_en-GB,Pass,,FHIS,
424982,Columba Club 69 Darnley Road Barrhead East Renfrewshire,,,,Columba Club,Other catering premises,7841,,,82382,,,55.80571900000000,2003/0471/COMM,787,EnvironmentalHealth@eastrenfrewshire.gov.uk,East Renfrewshire,http://www.eastrenfrewshire.gov.uk/,-4.37551200000000,G78 1TA,2012-02-17,fhis_pass_en-GB,Pass,,FHIS,
424983,Corcoran Food Distribution Unit 1a 6 Cogan Street Barrhead East Renfrewshire,,,,Corcoran Food Distribution,Distributors/Transporters,7,,,439655,,,55.79990700000000,2003/1548/COMM,787,EnvironmentalHealth@eastrenfrewshire.gov.uk,East Renfrewshire,http://www.eastrenfrewshire.gov.uk/,-4.39942700000000,G78 1QP,2014-08-25,fhis_pass_en-GB,Pass,,FHIS,
424984,2A Arnside Avenue Giffnock East Renfrewshire,,,,Cosgrove Care,Hospitals/Childcare/Caring Premises,5,,,82479,,,55.80601200000000,2003/0734/COMM,787,EnvironmentalHealth@eastrenfrewshire.gov.uk,East Renfrewshire,http://www.eastrenfrewshire.gov.uk/,-4.29718900000000,G46 7QQ,2014-08-19,fhis_pass_en-GB,Pass,,FHIS,
424985,Costa Coffee 6 The Avenue At Mearns 250 Ayr Road Newton Mearns East Renfrewshire,,,,Costa Coffee,Restaurant/Cafe/Canteen,1,,,82671,,,55.77292000000000,2008/1377/COMM,787,EnvironmentalHealth@eastrenfrewshire.gov.uk,East Renfrewshire,http://www.eastrenfrewshire.gov.uk/,-4.33390800000000,G77 6EY,2010-08-17,fhis_pass_en-GB,Pass,,FHIS,
424986,Costcutter 35 - 39 Kennishead Road Thornliebank East Renfrewshire,,,,Costcutter,Retailers - other,4613,,,82376,,,55.80803400000000,2003/0463/COMM,787,EnvironmentalHealth@eastrenfrewshire.gov.uk,East Renfrewshire,http://www.eastrenfrewshire.gov.uk/,-4.31875800000000,G46 8NX,2014-02-21,fhis_improvement_required_en-GB,Improvement Required,,FHIS,
424987,The Lodge 15 Crookfur Road Newton Mearns East Renfrewshire,,,,Cottage Homes,Hospitals/Childcare/Caring Premises,5,,,7820,,,55.77739000000000,03/00346/COMM,787,EnvironmentalHealth@eastrenfrewshire.gov.uk,East Renfrewshire,http://www.eastrenfrewshire.gov.uk/,-4.33090600000000,G77 6JY,2014-03-03,fhis_pass_en-GB,Pass,,FHIS,
424988,East Renfrewshire Council The Gatehouse Eastwood Park Rouken Glen Road Giffnock East Renfrewshire,,,,Council HQ Canteen The Hatch,Restaurant/Cafe/Canteen,1,,,82493,,,55.79770900000000,2003/0800/COMM,787,EnvironmentalHealth@eastrenfrewshire.gov.uk,East Renfrewshire,http://www.eastrenfrewshire.gov.uk/,-4.30194900000000,G46 6UG,2013-02-19,fhis_pass_en-GB,Pass,,FHIS,
424989,Crema 18 The Toll Busby Road Clarkston East Renfrewshire,,,,Crema,Restaurant/Cafe/Canteen,1,,,448704,,,55.78977400000000,2012/1752/COMM,787,EnvironmentalHealth@eastrenfrewshire.gov.uk,East Renfrewshire,http://www.eastrenfrewshire.gov.uk/,-4.27678800000000,G76 7BG,2014-02-20,fhis_pass_en-GB,Pass,,FHIS,
424990,1 Molendinar Terrace Neilston East Renfrewshire,,,,Crofthead Bowling Club,Other catering premises,7841,,,82415,,,55.78161200000000,2003/0548/COMM,787,EnvironmentalHealth@eastrenfrewshire.gov.uk,East Renfrewshire,http://www.eastrenfrewshire.gov.uk/,-4.43484100000000,G78 3LL,2013-10-22,fhis_pass_en-GB,Pass,,FHIS,
424991,Crookfur Pavilion Crookfur Park Ayr Road Newton Mearns East Renfrewshire,,,,Crookfur Pavilion,Other catering premises,7841,,,548479,,,55.77596200000000,2003/1850/COMM,787,EnvironmentalHealth@eastrenfrewshire.gov.uk,East Renfrewshire,http://www.eastrenfrewshire.gov.uk/,-4.32801400000000,G77 6DT,2014-10-07,fhis_pass_en-GB,Pass,,FHIS,
424992,Crookfur Primary School House Capelrig Road Newton Mearns East Renfrewshire,,,,Crookfur Primary School,School/college/university,7845,,,7795,,,55.78639300000000,03/00264/COMM,787,EnvironmentalHealth@eastrenfrewshire.gov.uk,East Renfrewshire,http://www.eastrenfrewshire.gov.uk/,-4.33058200000000,G77 6LF,2014-05-12,fhis_pass_en-GB,Pass,,FHIS,
424993,Cross Arthurlie Primary School 7 Fern Drive Barrhead East Renfrewshire,,,,Cross Arthurlie Primary School,School/college/university,7845,,,82433,,,55.80737800000000,2003/0619/COMM,787,EnvironmentalHealth@eastrenfrewshire.gov.uk,East Renfrewshire,http://www.eastrenfrewshire.gov.uk/,-4.40114800000000,G78 1JF,2013-09-03,fhis_pass_en-GB,Pass,,FHIS,
424994,Cross Stobs Bottle Shop 2 Grahamston Road Barrhead East Renfrewshire,,,,Cross Stobs Bottle Shop,Retailers - other,4613,,,82748,,,55.81105900000000,2010/1477/COMM,787,EnvironmentalHealth@eastrenfrewshire.gov.uk,East Renfrewshire,http://www.eastrenfrewshire.gov.uk/,-4.39993800000000,G78 1NS,2012-03-22,fhis_pass_en-GB,Pass,,FHIS,
424995,Cross Stobs Inn 4 Grahamston Road Barrhead East Renfrewshire,,,,Cross Stobs Inn,Pub/bar/nightclub,7843,,,82444,,,55.81105900000000,2003/0647/COMM,787,EnvironmentalHealth@eastrenfrewshire.gov.uk,East Renfrewshire,http://www.eastrenfrewshire.gov.uk/,-4.39993800000000,G78 1NS,2013-09-18,fhis_pass_en-GB,Pass,,FHIS,
424996,Dalmeny Community Centre Barnes Street Barrhead East Renfrewshire,,,,Dalmeny Community Centre,Other catering premises,7841,,,82385,,,55.79960000000000,2003/0476/COMM,787,EnvironmentalHealth@eastrenfrewshire.gov.uk,East Renfrewshire,http://www.eastrenfrewshire.gov.uk/,-4.40038100000000,G78 1EH,2010-11-03,fhis_pass_en-GB,Pass,,FHIS,
424997,Dalmeny Park Hotel 10 Lochlibo Road Barrhead East Renfrewshire,,,,Dalmeny Park Country House Hotel,Hotel/bed & breakfast/guest house,7842,,,82451,,,55.79616800000000,2003/0662/COMM,787,EnvironmentalHealth@eastrenfrewshire.gov.uk,East Renfrewshire,http://www.eastrenfrewshire.gov.uk/,-4.40674400000000,G78 1LG,2014-05-29,fhis_pass_en-GB,Pass,,FHIS,
424998,Day To Day 91A Glasgow Road Barrhead East Renfrewshire,,,,Day To Day,Retailers - other,4613,,,82427,,,55.80684500000000,2003/0608/COMM,787,EnvironmentalHealth@eastrenfrewshire.gov.uk,East Renfrewshire,http://www.eastrenfrewshire.gov.uk/,-4.38095800000000,G78 1BX,2014-08-18,fhis_improvement_required_en-GB,Improvement Required,,FHIS,
424999,Day-Today Express 92 Main Street Barrhead East Renfrewshire,,,,Day To Day Store,Retailers - other,4613,,,7409,,,55.79957800000000,03/00016/COMM,787,EnvironmentalHealth@eastrenfrewshire.gov.uk,East Renfrewshire,http://www.eastrenfrewshire.gov.uk/,-4.39229000000000,G78 1SE,2013-09-03,fhis_improvement_required_en-GB,Improvement Required,,FHIS,
425000,21 Kennishead Road Thornliebank East Renfrewshire,,,,Day-Today Stores,Retailers - other,4613,,,82396,,,55.80709800000000,2003/0500/COMM,787,EnvironmentalHealth@eastrenfrewshire.gov.uk,East Renfrewshire,http://www.eastrenfrewshire.gov.uk/,-4.31836700000000,G46 8NY,2014-04-09,fhis_pass_en-GB,Pass,,FHIS,
425001,De Marcos 120 Ayr Road Newton Mearns East Renfrewshire,,,,DeMarco's,Takeaway/sandwich shop,7844,,,82594,,,55.78034900000000,2006/1276/COMM,787,EnvironmentalHealth@eastrenfrewshire.gov.uk,East Renfrewshire,http://www.eastrenfrewshire.gov.uk/,-4.31939300000000,G77 6EG,2014-05-29,fhis_improvement_required_en-GB,Improvement Required,,FHIS,
425002,576 Clarkston Road Netherlee East Renfrewshire,,,,Dining In With Pearl India,Restaurant/Cafe/Canteen,1,,,655649,,,55.80206700000000,2014/1906/COMM,787,EnvironmentalHealth@eastrenfrewshire.gov.uk,East Renfrewshire,http://www.eastrenfrewshire.gov.uk/,-4.27104300000000,G44 3SQ,2013-03-04,fhis_improvement_required_en-GB,Improvement Required,,FHIS,
425003,Dominos 162C Fenwick Road Giffnock East Renfrewshire,,,,Dominos Pizza,Takeaway/sandwich shop,7844,,,7759,,,55.80284600000000,03/00200/COMM,787,EnvironmentalHealth@eastrenfrewshire.gov.uk,East Renfrewshire,http://www.eastrenfrewshire.gov.uk/,-4.29540700000000,G46 6XF,2014-08-25,fhis_pass_en-GB,Pass,,FHIS,
425004,Wee Cucina 205 Fenwick Road Giffnock East Renfrewshire,,,,Double Dot Burger,Takeaway/sandwich shop,7844,,,730980,,,55.80503300000000,2015/1973/COMM,787,EnvironmentalHealth@eastrenfrewshire.gov.uk,East Renfrewshire,http://www.eastrenfrewshire.gov.uk/,-4.29424300000000,G46 6JD,2015-01-06,fhis_pass_en-GB,Pass,,FHIS,
425005,Duff Memorial Hall Main Street Busby East Renfrewshire,,,,Duff Memorial Hall,Other catering premises,7841,,,82467,,,55.78147800000000,2003/0700/COMM,787,EnvironmentalHealth@eastrenfrewshire.gov.uk,East Renfrewshire,http://www.eastrenfrewshire.gov.uk/,-4.26710200000000,G76 8DX,2014-06-09,fhis_pass_en-GB,Pass,,FHIS,
425006,Eaglesham Bakery 4 Glasgow Road Eaglesham East Renfrewshire,,,,Eaglesham Bakers,Retailers - other,4613,,,610617,,,55.74387400000000,2013/1874/COMM,787,EnvironmentalHealth@eastrenfrewshire.gov.uk,East Renfrewshire,http://www.eastrenfrewshire.gov.uk/,-4.27632700000000,G76 0JQ,2013-11-03,fhis_pass_en-GB,Pass,,FHIS,
425007,Eaglesham Bowling Club Cheapside Street Eaglesham East Renfrewshire,,,,Eaglesham Bowling Club,Other catering premises,7841,,,7803,,,55.74043100000000,03/00308/COMM,787,EnvironmentalHealth@eastrenfrewshire.gov.uk,East Renfrewshire,http://www.eastrenfrewshire.gov.uk/,-4.27101300000000,G76 0JZ,2010-12-24,fhis_pass_en-GB,Pass,,FHIS,
425008,16 Montgomery Street Eaglesham East Renfrewshire,,,,Eaglesham Parish Church,Other catering premises,7841,,,82416,,,55.73859500000000,2003/0549/COMM,787,EnvironmentalHealth@eastrenfrewshire.gov.uk,East Renfrewshire,http://www.eastrenfrewshire.gov.uk/,-4.27597200000000,G76 0AS,2010-10-14,fhis_pass_en-GB,Pass,,FHIS,
425009,Eaglesham Pharmacy 14 Glasgow Road Eaglesham East Renfrewshire,,,,Eaglesham Pharmacy,Retailers - other,4613,,,82375,,,55.74387400000000,2003/0459/COMM,787,EnvironmentalHealth@eastrenfrewshire.gov.uk,East Renfrewshire,http://www.eastrenfrewshire.gov.uk/,-4.27632700000000,G76 0JQ,2013-07-16,fhis_exempt_en-GB,Exempt,,FHIS,
425010,Eaglesham Primary School 25 Strathaven Road Eaglesham East Renfrewshire,,,,Eaglesham Primary School,School/college/university,7845,,,82442,,,55.73760600000000,2003/0644/COMM,787,EnvironmentalHealth@eastrenfrewshire.gov.uk,East Renfrewshire,http://www.eastrenfrewshire.gov.uk/,-4.26871400000000,G76 0LF,2014-03-27,fhis_pass_en-GB,Pass,,FHIS,
425011,East Renfrewshire Golf Club Ayr Road Newton Mearns East Renfrewshire,,,,East Renfrewshire Golf Club,Other catering premises,7841,,,7399,,,55.75624100000000,03/00013/COMM,787,EnvironmentalHealth@eastrenfrewshire.gov.uk,East Renfrewshire,http://www.eastrenfrewshire.gov.uk/,-4.35592600000000,G77 6RT,2014-02-20,fhis_pass_en-GB,Pass,,FHIS,
425012,Eastwood Golf Club Langlee Road Loganswell Newton Mearns East Renfrewshire,,,,Eastwood Golf Club,Other catering premises,7841,,,7448,,,55.74263300000000,03/00026/COMM,787,EnvironmentalHealth@eastrenfrewshire.gov.uk,East Renfrewshire,http://www.eastrenfrewshire.gov.uk/,-4.35829200000000,G77 6RX,2014-03-24,fhis_pass_en-GB,Pass,,FHIS,
425013,Eastwood High School Capelrig Road Newton Mearns East Renfrewshire,,,,Eastwood High School,School/college/university,7845,,,642650,,,55.78771900000000,2013/1893/COMM,787,EnvironmentalHealth@eastrenfrewshire.gov.uk,East Renfrewshire,http://www.eastrenfrewshire.gov.uk/,-4.32885900000000,G77 6NQ,2014-02-07,fhis_pass_en-GB,Pass,,FHIS,
425014,Eastwood House Eastwood Park Rouken Glen Road Giffnock East Renfrewshire,,,,Eastwood House,Other catering premises,7841,,,82474,,,55.79782100000000,2003/0709/COMM,787,EnvironmentalHealth@eastrenfrewshire.gov.uk,East Renfrewshire,http://www.eastrenfrewshire.gov.uk/,-4.30361500000000,G46 7JS,2010-07-14,fhis_pass_en-GB,Pass,,FHIS,
425015,Eastwoodhill Eventide Home 238 Fenwick Road Giffnock East Renfrewshire,,,,Eastwoodhill Residential Home,Hospitals/Childcare/Caring Premises,5,,,7831,,,55.79765500000000,03/00358/COMM,787,EnvironmentalHealth@eastrenfrewshire.gov.uk,East Renfrewshire,http://www.eastrenfrewshire.gov.uk/,-4.30001600000000,G46 6UU,2014-03-11,fhis_pass_en-GB,Pass,,FHIS,
425016,Eat At E's 69 Seres Road Clarkston East Renfrewshire,,,,Eat @ E's,Restaurant/Cafe/Canteen,1,,,82750,,,55.79234600000000,2010/1483/COMM,787,EnvironmentalHealth@eastrenfrewshire.gov.uk,East Renfrewshire,http://www.eastrenfrewshire.gov.uk/,-4.28926900000000,G76 7PG,2014-01-23,fhis_improvement_required_en-GB,Improvement Required,,FHIS,
425017,Eat Delicatessen 16 The Toll Busby Road Clarkston East Renfrewshire,,,,Eat Delicatessen,Other catering premises,7841,,,82506,,,55.78977400000000,2003/0853/COMM,787,EnvironmentalHealth@eastrenfrewshire.gov.uk,East Renfrewshire,http://www.eastrenfrewshire.gov.uk/,-4.27678800000000,G76 7BG,2014-01-14,fhis_pass_en-GB,Pass,,FHIS,
425018,The Eglinton Arms 59 Gilmour Street Eaglesham East Renfrewshire,,,,Eglinton Arms Hotel,Hotel/bed & breakfast/guest house,7842,,,82363,,,55.74021200000000,2003/0438/COMM,787,EnvironmentalHealth@eastrenfrewshire.gov.uk,East Renfrewshire,http://www.eastrenfrewshire.gov.uk/,-4.27311900000000,G76 0LG,2013-09-04,fhis_pass_en-GB,Pass,,FHIS,
425019,Elmwood Day Nursery 1 Elmwood Avenue Newton Mearns East Renfrewshire,,,,Elmwood Nursery,Hospitals/Childcare/Caring Premises,5,,,7572,,,55.78111400000000,03/00080/COMM,787,EnvironmentalHealth@eastrenfrewshire.gov.uk,East Renfrewshire,http://www.eastrenfrewshire.gov.uk/,-4.31883200000000,G77 6EH,2014-12-01,fhis_pass_en-GB,Pass,,FHIS,
425020,8 Spiersbridge Way Thornliebank East Renfrewshire,,,,Enchanted Forest Nursery,Hospitals/Childcare/Caring Premises,5,,,82747,,,55.80389100000000,2010/1475/COMM,787,EnvironmentalHealth@eastrenfrewshire.gov.uk,East Renfrewshire,http://www.eastrenfrewshire.gov.uk/,-4.32064900000000,G46 8NG,2014-12-09,fhis_pass_en-GB,Pass,,FHIS,
425021,Filling Station 161 Glasgow Road Barrhead East Renfrewshire,,,,Esso,Retailers - other,4613,,,82501,,,55.81015500000000,2003/0819/COMM,787,EnvironmentalHealth@eastrenfrewshire.gov.uk,East Renfrewshire,http://www.eastrenfrewshire.gov.uk/,-4.37988400000000,G78 1DT,2013-08-08,fhis_improvement_required_en-GB,Improvement Required,,FHIS,
425022,Drumby Service Station 91 Eastwoodmains Road Clarkston East Renfrewshire,,,,Esso Drumby Service Station,Retailers - other,4613,,,7476,,,55.79236500000000,03/00037/COMM,787,EnvironmentalHealth@eastrenfrewshire.gov.uk,East Renfrewshire,http://www.eastrenfrewshire.gov.uk/,-4.28247500000000,G76 7HG,2013-04-02,fhis_pass_en-GB,Pass,,FHIS,
425023,Fairweather Hall 30 Barrhead Road Newton Mearns East Renfrewshire,,,,Fairweather Hall,Restaurant/Cafe/Canteen,1,,,7869,,,55.77332300000000,03/00420/COMM,787,EnvironmentalHealth@eastrenfrewshire.gov.uk,East Renfrewshire,http://www.eastrenfrewshire.gov.uk/,-4.33820500000000,G77 6BD,2013-11-11,fhis_pass_en-GB,Pass,,FHIS,
425024,217 Fenwick Road Giffnock East Renfrewshire,,,,Far East Oriental Takeaway,Takeaway/sandwich shop,7844,,,548480,,,55.80503400000000,2003/1851/COMM,787,EnvironmentalHealth@eastrenfrewshire.gov.uk,East Renfrewshire,http://www.eastrenfrewshire.gov.uk/,-4.29424300000000,G46 6JD,2013-11-26,fhis_pass_en-GB,Pass,,FHIS,
425025,Farmfoods 49A Main Street Thornliebank East Renfrewshire,,,,Farmfoods,Retailers - other,4613,,,82422,,,55.80677700000000,2003/0579/COMM,787,EnvironmentalHealth@eastrenfrewshire.gov.uk,East Renfrewshire,http://www.eastrenfrewshire.gov.uk/,-4.31823600000000,G46 7SF,2010-08-17,fhis_pass_en-GB,Pass,,FHIS,
425026,Farmfoods Unit 1 206 Main Street Barrhead East Renfrewshire,,,,Farmfoods,Retailers - other,4613,,,82389,,,55.80157200000000,2003/0489/COMM,787,EnvironmentalHealth@eastrenfrewshire.gov.uk,East Renfrewshire,http://www.eastrenfrewshire.gov.uk/,-4.38730600000000,G78 1SN,2014-07-21,fhis_pass_en-GB,Pass,,FHIS,
425027,Post Office 221 Fenwick Road Giffnock East Renfrewshire,,,,Fenwick Road Post Office,Retailers - other,4613,,,7838,,,55.80388200000000,03/00368/COMM,787,EnvironmentalHealth@eastrenfrewshire.gov.uk,East Renfrewshire,http://www.eastrenfrewshire.gov.uk/,-4.29433500000000,G46 6JG,2014-01-23,fhis_pass_en-GB,Pass,,FHIS,
425028,8 Fenwick Place Giffnock East Renfrewshire,,,,Fenwicks,Restaurant/Cafe/Canteen,1,,,7679,,,55.79673000000000,03/00141/COMM,787,EnvironmentalHealth@eastrenfrewshire.gov.uk,East Renfrewshire,http://www.eastrenfrewshire.gov.uk/,-4.30042400000000,G46 6UF,2014-01-16,fhis_pass_en-GB,Pass,,FHIS,
425029,Fereneze Golf Club Fereneze Avenue Barrhead East Renfrewshire,,,,Fereneze Golf Club,Other catering premises,7841,,,82434,,,55.80471300000000,2003/0620/COMM,787,EnvironmentalHealth@eastrenfrewshire.gov.uk,East Renfrewshire,http://www.eastrenfrewshire.gov.uk/,-4.40181300000000,G78 1HJ,2013-09-17,fhis_pass_en-GB,Pass,,FHIS,
425030,Fereneze Inn 70 Carlibar Road Barrhead East Renfrewshire,,,,Fereneze Inn,Pub/bar/nightclub,7843,,,626942,,,55.80353100000000,2013/1886/COMM,787,EnvironmentalHealth@eastrenfrewshire.gov.uk,East Renfrewshire,http://www.eastrenfrewshire.gov.uk/,-4.39237300000000,G78 1AD,2013-11-29,fhis_pass_en-GB,Pass,,FHIS,
425031,Flames 52 Main Street Neilston East Renfrewshire,,,,Flames,Restaurant/Cafe/Canteen,1,,,82472,,,55.78490000000000,2003/0706/COMM,787,EnvironmentalHealth@eastrenfrewshire.gov.uk,East Renfrewshire,http://www.eastrenfrewshire.gov.uk/,-4.42673600000000,G78 3NJ,2014-04-14,fhis_pass_en-GB,Pass,,FHIS,
425032,The Floral Art Centre Central Buildings No 8 78 Busby Road Clarkston East Renfrewshire,,,,Floral Art Centre,Retailers - other,4613,,,82423,,,55.78851900000000,2003/0589/COMM,787,EnvironmentalHealth@eastrenfrewshire.gov.uk,East Renfrewshire,http://www.eastrenfrewshire.gov.uk/,-4.27564600000000,G76 7AU,2011-10-20,fhis_pass_en-GB,Pass,,FHIS,
425033,The Flying Horse 232 Main Street Barrhead East Renfrewshire,,,,Flying Horse,Pub/bar/nightclub,7843,,,82359,,,55.80157200000000,2003/0433/COMM,787,EnvironmentalHealth@eastrenfrewshire.gov.uk,East Renfrewshire,http://www.eastrenfrewshire.gov.uk/,-4.38730600000000,G78 1SN,2014-05-06,fhis_pass_en-GB,Pass,,FHIS,
425034,166 Main Street Barrhead East Renfrewshire,,,,Food Sandwich And Coffee Bar,Restaurant/Cafe/Canteen,1,,,559115,,,55.80089500000000,2013/1817/COMM,787,EnvironmentalHealth@eastrenfrewshire.gov.uk,East Renfrewshire,http://www.eastrenfrewshire.gov.uk/,-4.38835000000000,G78 1SL,2014-11-17,fhis_pass_en-GB,Pass,,FHIS,
425035,152 Main Street Barrhead East Renfrewshire,,,,Frasers Pharmacy,Retailers - other,4613,,,82568,,,55.80029600000000,2005/1144/COMM,787,EnvironmentalHealth@eastrenfrewshire.gov.uk,East Renfrewshire,http://www.eastrenfrewshire.gov.uk/,-4.39049900000000,G78 1SG,2010-11-03,fhis_pass_en-GB,Pass,,FHIS,
425036,Frasers Pharmacy 271 Mearns Road Newton Mearns East Renfrewshire,,,,Frasers Pharmacy,Retailers - other,4613,,,7495,,,55.77497000000000,03/00048/COMM,787,EnvironmentalHealth@eastrenfrewshire.gov.uk,East Renfrewshire,http://www.eastrenfrewshire.gov.uk/,-4.31387500000000,G77 5LU,2013-05-30,fhis_exempt_en-GB,Exempt,,FHIS,
425037,Gordon A Brown 665A Clarkston Road Netherlee East Renfrewshire,,,,G R Brown,Manufacturers/packers,7839,,,7808,,,55.80191900000000,03/00316/COMM,787,EnvironmentalHealth@eastrenfrewshire.gov.uk,East Renfrewshire,http://www.eastrenfrewshire.gov.uk/,-4.27031600000000,G44 3SE,2014-11-11,fhis_pass_en-GB,Pass,,FHIS,
425038,Brown Butchers 12 Glasgow Road Eaglesham East Renfrewshire,,,,G R Brown Butcher,Manufacturers/packers,7839,,,82379,,,55.74387400000000,2003/0466/COMM,787,EnvironmentalHealth@eastrenfrewshire.gov.uk,East Renfrewshire,http://www.eastrenfrewshire.gov.uk/,-4.27632700000000,G76 0JQ,2014-09-02,fhis_pass_en-GB,Pass,,FHIS,
425039,Garrys Food And Wine 44 Stamperland Crescent Clarkston East Renfrewshire,,,,Garrys Food And Wine,Retailers - other,4613,,,7599,,,55.79400700000000,03/00092/COMM,787,EnvironmentalHealth@eastrenfrewshire.gov.uk,East Renfrewshire,http://www.eastrenfrewshire.gov.uk/,-4.27339800000000,G76 8LH,2013-04-12,fhis_pass_en-GB,Pass,,FHIS,
425040,134 Fenwick Road Giffnock East Renfrewshire,,,,Genji Sushi Ltd,Takeaway/sandwich shop,7844,,,559112,,,55.80042700000000,2011/1659/COMM,787,EnvironmentalHealth@eastrenfrewshire.gov.uk,East Renfrewshire,http://www.eastrenfrewshire.gov.uk/,-4.31145600000000,G46 6XN,2014-12-17,fhis_pass_en-GB,Pass,,FHIS,
425041,222 Fenwick Road Giffnock East Renfrewshire,,,,Giffnock And Newlands Hebrew Congregation,Other catering premises,7841,,,7837,,,55.80134900000000,03/00365/COMM,787,EnvironmentalHealth@eastrenfrewshire.gov.uk,East Renfrewshire,http://www.eastrenfrewshire.gov.uk/,-4.29565400000000,G46 6UE,2013-11-01,fhis_pass_en-GB,Pass,,FHIS,
425042,Giffnock Lawn Tennis Club 2 - 6 Percy Drive Giffnock East Renfrewshire,,,,Giffnock Bowling Club,Other catering premises,7841,,,7813,,,55.79697100000000,03/00333/COMM,787,EnvironmentalHealth@eastrenfrewshire.gov.uk,East Renfrewshire,http://www.eastrenfrewshire.gov.uk/,-4.29426300000000,G46 6NZ,2010-12-20,fhis_pass_en-GB,Pass,,FHIS,
425043,33 - 35 Eastwoodmains Road Giffnock East Renfrewshire,,,,Giffnock Convenience Store,Retailers - other,4613,,,82749,,,55.79495700000000,2010/1481/COMM,787,EnvironmentalHealth@eastrenfrewshire.gov.uk,East Renfrewshire,http://www.eastrenfrewshire.gov.uk/,-4.29001300000000,G46 6PW,2013-11-29,fhis_pass_en-GB,Pass,,FHIS,
425044,The Giffnock Ivy 219 Fenwick Road Giffnock East Renfrewshire,,,,Giffnock Ivy,Restaurant/Cafe/Canteen,1,,,82439,,,55.80503400000000,2003/0638/COMM,787,EnvironmentalHealth@eastrenfrewshire.gov.uk,East Renfrewshire,http://www.eastrenfrewshire.gov.uk/,-4.29424300000000,G46 6JD,2014-08-13,fhis_pass_en-GB,Pass,,FHIS,
425045,184 Fenwick Road Giffnock East Renfrewshire,,,,Giffnock News,Retailers - other,4613,,,7784,,,55.80284600000000,03/00225/COMM,787,EnvironmentalHealth@eastrenfrewshire.gov.uk,East Renfrewshire,http://www.eastrenfrewshire.gov.uk/,-4.29540700000000,G46 6XF,2011-10-20,fhis_pass_en-GB,Pass,,FHIS,
425046,Northolm Sports Ground 100 Braidbar Farm Road Giffnock East Renfrewshire,,,,Giffnock North Amateur Athletics Club,Other catering premises,7841,,,82377,,,55.80718400000000,2003/0464/COMM,787,EnvironmentalHealth@eastrenfrewshire.gov.uk,East Renfrewshire,http://www.eastrenfrewshire.gov.uk/,-4.28546500000000,G46 6HU,2014-03-10,fhis_pass_en-GB,Pass,,FHIS,
425047,Giffnock Primary School 1 Academy Road Giffnock East Renfrewshire,,,,Giffnock Primary School,School/college/university,7845,,,7365,,,55.80308100000000,03/00004/COMM,787,EnvironmentalHealth@eastrenfrewshire.gov.uk,East Renfrewshire,http://www.eastrenfrewshire.gov.uk/,-4.29341000000000,G46 6JL,2013-12-05,fhis_pass_en-GB,Pass,,FHIS,
425048,Giffnock South Parish Church 2 Greenhill Avenue Giffnock East Renfrewshire,,,,Giffnock South Parish Church,Other catering premises,7841,,,82368,,,55.79520400000000,2003/0450/COMM,787,EnvironmentalHealth@eastrenfrewshire.gov.uk,East Renfrewshire,http://www.eastrenfrewshire.gov.uk/,-4.29795700000000,G46 6QX,2011-03-16,fhis_pass_en-GB,Pass,,FHIS,
425049,Giffnock Lawn Tennis Club 2 - 6 Percy Drive Giffnock East Renfrewshire,,,,Giffnock Tennis Club,Other catering premises,7841,,,7812,,,55.79697100000000,03/00332/COMM,787,EnvironmentalHealth@eastrenfrewshire.gov.uk,East Renfrewshire,http://www.eastrenfrewshire.gov.uk/,-4.29426300000000,G46 6NZ,2012-12-18,fhis_pass_en-GB,Pass,,FHIS,
425050,Giffnock United Reformed Church 163 Fenwick Road Giffnock East Renfrewshire,,,,Giffnock United Reform Church,Other catering premises,7841,,,7773,,,55.80821100000000,03/00214/COMM,787,EnvironmentalHealth@eastrenfrewshire.gov.uk,East Renfrewshire,http://www.eastrenfrewshire.gov.uk/,-4.29350500000000,G46 6JB,2013-10-24,fhis_pass_en-GB,Pass,,FHIS,
425051,3 May Terrace Giffnock East Renfrewshire,,,,Glasgow MacCabi Youth Centre,Hospitals/Childcare/Caring Premises,5,,,82391,,,55.80449000000000,2003/0492/COMM,787,EnvironmentalHealth@eastrenfrewshire.gov.uk,East Renfrewshire,http://www.eastrenfrewshire.gov.uk/,-4.29205700000000,G46 6LD,2013-05-23,fhis_pass_en-GB,Pass,,FHIS,
425052,Glen Day Care Centre 16 Woodfarm Road Thornliebank East Renfrewshire,,,,Glen Family Centre,Hospitals/Childcare/Caring Premises,5,,,7780,,,55.79918100000000,03/00222/COMM,787,EnvironmentalHealth@eastrenfrewshire.gov.uk,East Renfrewshire,http://www.eastrenfrewshire.gov.uk/,-4.30971100000000,G46 7JJ,2014-10-07,fhis_pass_en-GB,Pass,,FHIS,
425053,124 Ayr Road Newton Mearns East Renfrewshire,,,,Glendinning Pharmacy,Retailers - other,4613,,,7628,,,55.78034900000000,03/00108/COMM,787,EnvironmentalHealth@eastrenfrewshire.gov.uk,East Renfrewshire,http://www.eastrenfrewshire.gov.uk/,-4.31939300000000,G77 6EG,2014-01-22,fhis_pass_en-GB,Pass,,FHIS,
425054,Glenwood Nursery School 18A Woodfarm Road Thornliebank East Renfrewshire,,,,Glenwood Nursery,Hospitals/Childcare/Caring Premises,5,,,7782,,,55.80163900000000,03/00224/COMM,787,EnvironmentalHealth@eastrenfrewshire.gov.uk,East Renfrewshire,http://www.eastrenfrewshire.gov.uk/,-4.30708000000000,G46 7HD,2014-10-29,fhis_pass_en-GB,Pass,,FHIS,
425055,Golden Sun 36 - 38 Glasgow Road Barrhead East Renfrewshire,,,,Golden Sun,Takeaway/sandwich shop,7844,,,82566,,,55.80554200000000,2005/1120/COMM,787,EnvironmentalHealth@eastrenfrewshire.gov.uk,East Renfrewshire,http://www.eastrenfrewshire.gov.uk/,-4.38137400000000,G78 1BU,2014-10-01,fhis_pass_en-GB,Pass,,FHIS,
425056,Flat 1-2 35 Graham Street Barrhead East Renfrewshire,,,,Graham Street Community Group,Other catering premises,7841,,,82367,,,55.80315100000000,2003/0449/COMM,787,EnvironmentalHealth@eastrenfrewshire.gov.uk,East Renfrewshire,http://www.eastrenfrewshire.gov.uk/,-4.39988200000000,G78 1EU,2013-06-13,fhis_exempt_en-GB,Exempt,,FHIS,
425057,Grape And Berry 98 Cross Arthurlie Street Barrhead East Renfrewshire,,,,Grape And Berry Ltd,Retailers - other,4613,,,428808,,,55.80091100000000,2012/1747/COMM,787,EnvironmentalHealth@eastrenfrewshire.gov.uk,East Renfrewshire,http://www.eastrenfrewshire.gov.uk/,-4.39722300000000,G78 1RP,2012-07-10,fhis_pass_en-GB,Pass,,FHIS,
425058,683 Clarkston Road Netherlee East Renfrewshire,,,,Green Newsagent,Retailers - other,4613,,,7806,,,55.80191900000000,03/00313/COMM,787,EnvironmentalHealth@eastrenfrewshire.gov.uk,East Renfrewshire,http://www.eastrenfrewshire.gov.uk/,-4.27031600000000,G44 3SE,2013-09-17,fhis_improvement_required_en-GB,Improvement Required,,FHIS,
425059,National Trust Greenbank House High Flender Road Clarkston East Renfrewshire,,,,Greenbank Garden Centre,Restaurant/Cafe/Canteen,1,,,82578,,,55.78123000000000,2005/1229/COMM,787,EnvironmentalHealth@eastrenfrewshire.gov.uk,East Renfrewshire,http://www.eastrenfrewshire.gov.uk/,-4.29254000000000,G76 8RB,2013-05-08,fhis_pass_en-GB,Pass,,FHIS,
425060,34 Eaglesham Road Clarkston East Renfrewshire,,,,Greenbank Parish Church,Other catering premises,7841,,,7872,,,55.78413800000000,03/00426/COMM,787,EnvironmentalHealth@eastrenfrewshire.gov.uk,East Renfrewshire,http://www.eastrenfrewshire.gov.uk/,-4.27583700000000,G76 7DJ,2014-04-23,fhis_pass_en-GB,Pass,,FHIS,
425061,Greenlaw Grove 1 North Greenlaw Way Newton Mearns East Renfrewshire,,,,Greenlaw Grove Care Home,Hospitals/Childcare/Caring Premises,5,,,726501,,,,2014/1961/COMM,787,EnvironmentalHealth@eastrenfrewshire.gov.uk,East Renfrewshire,http://www.eastrenfrewshire.gov.uk/,,,2014-12-15,fhis_pass_en-GB,Pass,,FHIS,
425062,Greens Health & Fitness 82 Braidholm Road Giffnock East Renfrewshire,,,,Green's Health Club,Other catering premises,7841,,,7708,,,55.80826900000000,03/00169/COMM,787,EnvironmentalHealth@eastrenfrewshire.gov.uk,East Renfrewshire,http://www.eastrenfrewshire.gov.uk/,-4.28366100000000,G46 6ED,2013-08-01,fhis_pass_en-GB,Pass,,FHIS,
425063,188 Main Street Barrhead East Renfrewshire,,,,Greggs The Bakers,Retailers - other,4613,,,82409,,,55.80089500000000,2003/0534/COMM,787,EnvironmentalHealth@eastrenfrewshire.gov.uk,East Renfrewshire,http://www.eastrenfrewshire.gov.uk/,-4.38835000000000,G78 1SL,2013-05-14,fhis_pass_en-GB,Pass,,FHIS,
425064,Greggs 31 The Avenue At Mearns 250 Ayr Road Newton Mearns East Renfrewshire,,,,Greggs The Bakers,Retailers - other,4613,,,428809,,,55.77292000000000,2012/1757/COMM,787,EnvironmentalHealth@eastrenfrewshire.gov.uk,East Renfrewshire,http://www.eastrenfrewshire.gov.uk/,-4.33390800000000,G77 6EY,2014-01-09,fhis_pass_en-GB,Pass,,FHIS,
425065,Greggs 77 Main Street Thornliebank East Renfrewshire,,,,Greggs The Bakers,Retailers - other,4613,,,82605,,,55.80792900000000,2006/1304/COMM,787,EnvironmentalHealth@eastrenfrewshire.gov.uk,East Renfrewshire,http://www.eastrenfrewshire.gov.uk/,-4.31575100000000,G46 7RY,2014-08-19,fhis_pass_en-GB,Pass,,FHIS,
425066,Greggs Ltd 6 The Toll Busby Road Clarkston East Renfrewshire,,,,Greggs The Bakers,Retailers - other,4613,,,82535,,,55.78977400000000,2004/0953/COMM,787,EnvironmentalHealth@eastrenfrewshire.gov.uk,East Renfrewshire,http://www.eastrenfrewshire.gov.uk/,-4.27678800000000,G76 7BG,2013-10-22,fhis_pass_en-GB,Pass,,FHIS,
425067,Happy Days Nursery 9 East Kilbride Road Busby East Renfrewshire,,,,Happy Days Too,Hospitals/Childcare/Caring Premises,5,,,7863,,,55.78173500000000,03/00410/COMM,787,EnvironmentalHealth@eastrenfrewshire.gov.uk,East Renfrewshire,http://www.eastrenfrewshire.gov.uk/,-4.26437300000000,G76 8JY,2014-02-24,fhis_pass_en-GB,Pass,,FHIS,
425068,Harvies 188 Crookfur Shopping Precinct Harvie Avenue Newton Mearns East Renfrewshire,,,,Harvies,Retailers - other,4613,,,82390,,,55.78152900000000,2003/0490/COMM,787,EnvironmentalHealth@eastrenfrewshire.gov.uk,East Renfrewshire,http://www.eastrenfrewshire.gov.uk/,-4.33775600000000,G77 6UT,2014-08-27,fhis_pass_en-GB,Pass,,FHIS,
425069,Hickeys 23A Cross Arthurlie Street Barrhead East Renfrewshire,,,,Hickeys General Store,Retailers - other,4613,,,7850,,,55.79946500000000,03/00386/COMM,787,EnvironmentalHealth@eastrenfrewshire.gov.uk,East Renfrewshire,http://www.eastrenfrewshire.gov.uk/,-4.39809100000000,G78 1QY,2013-12-03,fhis_pass_en-GB,Pass,,FHIS,
425070,Holland And Barrett 37A The Avenue At Mearns 250 Ayr Road Newton Mearns East Renfrewshire,,,,Holland And Barrett,Retailers - other,4613,,,548483,,,55.77292000000000,2008/1853/COMM,787,EnvironmentalHealth@eastrenfrewshire.gov.uk,East Renfrewshire,http://www.eastrenfrewshire.gov.uk/,-4.33390800000000,G77 6EY,2013-08-15,fhis_pass_en-GB,Pass,,FHIS,
425071,Unit 13 3 Greenlaw Place Newton Mearns East Renfrewshire,,,,Home Bargains,Retailers - other,4613,,,701388,,,55.78283500000000,2014/1927/COMM,787,EnvironmentalHealth@eastrenfrewshire.gov.uk,East Renfrewshire,http://www.eastrenfrewshire.gov.uk/,-4.34705300000000,G77 6GR,2014-08-25,fhis_pass_en-GB,Pass,,FHIS,
425072,Ian Brown - Food And Drink 55 Eastwood Mains Road Giffnock East Renfrewshire,,,,Ian Brown,Restaurant/Cafe/Canteen,1,,,82779,,,55.79495700000000,2011/1600/COMM,787,EnvironmentalHealth@eastrenfrewshire.gov.uk,East Renfrewshire,http://www.eastrenfrewshire.gov.uk/,-4.29001300000000,G46 6PW,2014-11-26,fhis_pass_en-GB,Pass,,FHIS,
425073,158 Main Street Barrhead East Renfrewshire,,,,Iceland Frozen Foods,Retailers - other,4613,,,7461,,,55.80089500000000,03/00032/COMM,787,EnvironmentalHealth@eastrenfrewshire.gov.uk,East Renfrewshire,http://www.eastrenfrewshire.gov.uk/,-4.38835000000000,G78 1SL,2011-10-21,fhis_pass_en-GB,Pass,,FHIS,
425074,Ground Floor 81 - 83 Main Street Neilston East Renfrewshire,,,,Il Ciocco,Restaurant/Cafe/Canteen,1,,,82466,,,55.78439000000000,2003/0698/COMM,787,EnvironmentalHealth@eastrenfrewshire.gov.uk,East Renfrewshire,http://www.eastrenfrewshire.gov.uk/,-4.42662400000000,G78 3NH,2013-10-17,fhis_pass_en-GB,Pass,,FHIS,
425075,Imrie 61C Main Street Thornliebank East Renfrewshire,,,,Imrie Fruit,Retailers - other,4613,,,82420,,,55.80729400000000,2003/0570/COMM,787,EnvironmentalHealth@eastrenfrewshire.gov.uk,East Renfrewshire,http://www.eastrenfrewshire.gov.uk/,-4.31700600000000,G46 7RX,2012-05-29,fhis_pass_en-GB,Pass,,FHIS,
425076,Parklands Country Club 196 Ayr Road Newton Mearns East Renfrewshire,,,,Innocence Nursery,Hospitals/Childcare/Caring Premises,5,,,684032,,,55.77596200000000,2014/1918/COMM,787,EnvironmentalHealth@eastrenfrewshire.gov.uk,East Renfrewshire,http://www.eastrenfrewshire.gov.uk/,-4.32801400000000,G77 6DT,2014-06-11,fhis_pass_en-GB,Pass,,FHIS,
425077,Westbourne Centre 56 Kelburn Street Barrhead East Renfrewshire,,,,In-Store,Retailers - other,4613,,,82504,,,55.79800000000000,2003/0838/COMM,787,EnvironmentalHealth@eastrenfrewshire.gov.uk,East Renfrewshire,http://www.eastrenfrewshire.gov.uk/,-4.39886900000000,,2010-06-11,fhis_pass_en-GB,Pass,,FHIS,
425078,Isobel Mair School 58 Stewarton Road Newton Mearns East Renfrewshire,,,,Isobel Mair School,Hospitals/Childcare/Caring Premises,5,,,82800,,,55.74924400000000,2011/1672/COMM,787,EnvironmentalHealth@eastrenfrewshire.gov.uk,East Renfrewshire,http://www.eastrenfrewshire.gov.uk/,-4.35983000000000,G77 6NB,2014-12-16,fhis_pass_en-GB,Pass,,FHIS,
425079,Ivy India 340 Ayr Road Newton Mearns East Renfrewshire,,,,Ivy India,Restaurant/Cafe/Canteen,1,,,626938,,,55.75624100000000,2013/1871/COMM,787,EnvironmentalHealth@eastrenfrewshire.gov.uk,East Renfrewshire,http://www.eastrenfrewshire.gov.uk/,-4.35592600000000,G77 6RT,2013-12-17,fhis_pass_en-GB,Pass,,FHIS,
425080,Jafars 32 Arthurlie Avenue Barrhead East Renfrewshire,,,,Jafars,Retailers - other,4613,,,7665,,,55.79564200000000,03/00132/COMM,787,EnvironmentalHealth@eastrenfrewshire.gov.uk,East Renfrewshire,http://www.eastrenfrewshire.gov.uk/,-4.38858700000000,G78 2JD,2014-11-11,fhis_pass_en-GB,Pass,,FHIS,
425081,Central Buildings No 1 64 Busby Road Clarkston East Renfrewshire,,,,James Galbraith Butchers,Manufacturers/packers,7839,,,82484,,,55.78851900000000,2003/0769/COMM,787,EnvironmentalHealth@eastrenfrewshire.gov.uk,East Renfrewshire,http://www.eastrenfrewshire.gov.uk/,-4.27564600000000,G76 7AU,2013-11-13,fhis_improvement_required_en-GB,Improvement Required,,FHIS,
425082,190A Fenwick Road Giffnock East Renfrewshire,,,,Jasmine One,Restaurant/Cafe/Canteen,1,,,7826,,,55.80134900000000,03/00353/COMM,787,EnvironmentalHealth@eastrenfrewshire.gov.uk,East Renfrewshire,http://www.eastrenfrewshire.gov.uk/,-4.29565400000000,G46 6UE,2014-05-28,fhis_pass_en-GB,Pass,,FHIS,
425083,34 Glasgow Road Barrhead East Renfrewshire,,,,Jewels Of Asia At Fry Inn,Takeaway/sandwich shop,7844,,,82428,,,55.80554200000000,2003/0609/COMM,787,EnvironmentalHealth@eastrenfrewshire.gov.uk,East Renfrewshire,http://www.eastrenfrewshire.gov.uk/,-4.38137400000000,G78 1BU,2014-04-28,fhis_pass_en-GB,Pass,,FHIS,
425084,Joy Bowl Central Buildings No 6 74 Busby Road Clarkston East Renfrewshire,,,,Joy Bowl,Takeaway/sandwich shop,7844,,,82536,,,55.78851900000000,2004/0992/COMM,787,EnvironmentalHealth@eastrenfrewshire.gov.uk,East Renfrewshire,http://www.eastrenfrewshire.gov.uk/,-4.27564600000000,G76 7AU,2014-01-22,fhis_improvement_required_en-GB,Improvement Required,,FHIS,
425085,Kps 33 Mackinley Place Newton Mearns East Renfrewshire,,,,K.P's Fresh Fish,Retailers - other,4613,,,610615,,,55.77306300000000,2013/1865/COMM,787,EnvironmentalHealth@eastrenfrewshire.gov.uk,East Renfrewshire,http://www.eastrenfrewshire.gov.uk/,-4.33300700000000,G77 6EZ,2013-10-16,fhis_pass_en-GB,Pass,,FHIS,
425086,Football Centre Rouken Glen Park Rouken Glen Road Giffnock East Renfrewshire,,,,K7X,Restaurant/Cafe/Canteen,1,,,82507,,,55.79838900000000,2003/0855/FOOD,787,EnvironmentalHealth@eastrenfrewshire.gov.uk,East Renfrewshire,http://www.eastrenfrewshire.gov.uk/,-4.31880600000000,G46 7UG,2013-03-06,fhis_pass_en-GB,Pass,,FHIS,
425087,Shish Tandoori 130 Ayr Road Newton Mearns East Renfrewshire,,,,Kari,Restaurant/Cafe/Canteen,1,,,726497,,,55.78034900000000,2014/1932/COMM,787,EnvironmentalHealth@eastrenfrewshire.gov.uk,East Renfrewshire,http://www.eastrenfrewshire.gov.uk/,-4.31939300000000,G77 6EG,2014-11-11,fhis_improvement_required_en-GB,Improvement Required,,FHIS,
425088,6 Carlibar Road Barrhead East Renfrewshire,,,,Kebab Shack,Takeaway/sandwich shop,7844,,,7671,,,55.80384700000000,03/00138/COMM,787,EnvironmentalHealth@eastrenfrewshire.gov.uk,East Renfrewshire,http://www.eastrenfrewshire.gov.uk/,-4.39649400000000,G78 1AA,2014-11-18,fhis_improvement_required_en-GB,Improvement Required,,FHIS,
425089,Kebabish Mearns News 106 Ayr Road Newton Mearns East Renfrewshire,,,,Kebabish Mearns News,Takeaway/sandwich shop,7844,,,82669,,,55.78034900000000,2008/1373/COMM,787,EnvironmentalHealth@eastrenfrewshire.gov.uk,East Renfrewshire,http://www.eastrenfrewshire.gov.uk/,-4.31939300000000,G77 6EG,2014-06-17,fhis_improvement_required_en-GB,Improvement Required,,FHIS,
425090,Kelburn Bar 19 Cross Arthurlie Street Barrhead East Renfrewshire,,,,Kelburn Bar,Pub/bar/nightclub,7843,,,82414,,,55.79946500000000,2003/0545/COMM,787,EnvironmentalHealth@eastrenfrewshire.gov.uk,East Renfrewshire,http://www.eastrenfrewshire.gov.uk/,-4.39809100000000,G78 1QY,2012-02-17,fhis_pass_en-GB,Pass,,FHIS,
425091,Kelburn Brewing Company Unit 1 10 Muriel Street Barrhead East Renfrewshire,,,,Kelburn Brewing Company Ltd,Manufacturers/packers,7839,,,82641,,,55.80524900000000,2007/1347/COMM,787,EnvironmentalHealth@eastrenfrewshire.gov.uk,East Renfrewshire,http://www.eastrenfrewshire.gov.uk/,-4.39187200000000,G78 1QB,2014-01-23,fhis_pass_en-GB,Pass,,FHIS,
425092,KeyStore 117 - 119 Orchard Park Avenue Giffnock East Renfrewshire,,,,Keystore,Retailers - other,4613,,,82633,,,55.80608100000000,2007/1325/COMM,787,EnvironmentalHealth@eastrenfrewshire.gov.uk,East Renfrewshire,http://www.eastrenfrewshire.gov.uk/,-4.30935400000000,G46 7BW,2014-05-23,fhis_pass_en-GB,Pass,,FHIS,
425093,Eaglesham Parish Church Montgomery Street Eaglesham East Renfrewshire,,,,Kids Time Out,Restaurant/Cafe/Canteen,1,,,7741,,,55.73941700000000,03/00191/COMM,787,EnvironmentalHealth@eastrenfrewshire.gov.uk,East Renfrewshire,http://www.eastrenfrewshire.gov.uk/,-4.27332800000000,G76 0AR,2010-08-11,fhis_improvement_required_en-GB,Improvement Required,,FHIS,
425094,Killoch Bar 89 Main Street Neilston East Renfrewshire,,,,Killoch Bar,Pub/bar/nightclub,7843,,,82455,,,55.78439000000000,2003/0674/COMM,787,EnvironmentalHealth@eastrenfrewshire.gov.uk,East Renfrewshire,http://www.eastrenfrewshire.gov.uk/,-4.42662400000000,G78 3NH,2010-08-17,fhis_pass_en-GB,Pass,,FHIS,
425095,Kirkhill Primary School Kirkhill Road Newton Mearns East Renfrewshire,,,,Kirkhill Primary School,School/college/university,7845,,,82394,,,55.77544300000000,2003/0497/COMM,787,EnvironmentalHealth@eastrenfrewshire.gov.uk,East Renfrewshire,http://www.eastrenfrewshire.gov.uk/,-4.30261300000000,G77 5RJ,2014-10-02,fhis_pass_en-GB,Pass,,FHIS,
425096,82 Broom Road East Newton Mearns East Renfrewshire,,,,Kirkhillgait Nursery,Hospitals/Childcare/Caring Premises,5,,,7693,,,55.77569600000000,03/00154/COMM,787,EnvironmentalHealth@eastrenfrewshire.gov.uk,East Renfrewshire,http://www.eastrenfrewshire.gov.uk/,-4.30538700000000,G77 5SR,2014-09-04,fhis_pass_en-GB,Pass,,FHIS,
425097,Barrhead Health And Care Centre 213 Main Street Barrhead East Renfrewshire,,,,Kirkton Centre,Restaurant/Cafe/Canteen,1,,,428807,,,55.80195100000000,2012/1738/COMM,787,EnvironmentalHealth@eastrenfrewshire.gov.uk,East Renfrewshire,http://www.eastrenfrewshire.gov.uk/,-4.38953200000000,G78 1SW,2012-07-11,fhis_pass_en-GB,Pass,,FHIS,
425098,La Brava 679A Clarkston Road Netherlee East Renfrewshire,,,,La Brava,Restaurant/Cafe/Canteen,1,,,82744,,,55.80191900000000,2010/1470/COMM,787,EnvironmentalHealth@eastrenfrewshire.gov.uk,East Renfrewshire,http://www.eastrenfrewshire.gov.uk/,-4.27031600000000,G44 3SE,2014-02-12,fhis_pass_en-GB,Pass,,FHIS,
425099,Lainey'z 4 Robertson Street Barrhead East Renfrewshire,,,,Lainey'z,Restaurant/Cafe/Canteen,1,,,621123,,,55.80076400000000,2013/1875/COMM,787,EnvironmentalHealth@eastrenfrewshire.gov.uk,East Renfrewshire,http://www.eastrenfrewshire.gov.uk/,-4.39924000000000,G78 1QW,2013-11-22,fhis_pass_en-GB,Pass,,FHIS,
425100,Lapwing Lodge Peesweep Gleniffer Road Uplawmoor East Renfrewshire,,,,Lapwing Lodge,Other catering premises,7841,,,82496,,,55.80849200000000,2003/0810/COMM,787,EnvironmentalHealth@eastrenfrewshire.gov.uk,East Renfrewshire,http://www.eastrenfrewshire.gov.uk/,-4.47724900000000,PA2 8UL,2010-10-27,fhis_pass_en-GB,Pass,,FHIS,
425101,Eastwood Care Home Eastwood Court 1 Eastwoodmains Road Giffnock East Renfrewshire,,,,Larchwood Care,Hospitals/Childcare/Caring Premises,5,,,7488,,,55.79612200000000,03/00043/COMM,787,EnvironmentalHealth@eastrenfrewshire.gov.uk,East Renfrewshire,http://www.eastrenfrewshire.gov.uk/,-4.29689400000000,G46 6QB,2014-02-25,fhis_pass_en-GB,Pass,,FHIS,
425102,47 Cross Arthurlie Street Barrhead East Renfrewshire,,,,L'Arco,Takeaway/sandwich shop,7844,,,7848,,,55.80007400000000,03/00383/COMM,787,EnvironmentalHealth@eastrenfrewshire.gov.uk,East Renfrewshire,http://www.eastrenfrewshire.gov.uk/,-4.39773000000000,G78 1QU,2013-10-29,fhis_pass_en-GB,Pass,,FHIS,
425103,222 Fenwick Road Giffnock East Renfrewshire,,,,L'Chaims,Restaurant/Cafe/Canteen,1,,,82440,,,55.80134900000000,2003/0639/COMM,787,EnvironmentalHealth@eastrenfrewshire.gov.uk,East Renfrewshire,http://www.eastrenfrewshire.gov.uk/,-4.29565400000000,G46 6UE,2014-07-08,fhis_pass_en-GB,Pass,,FHIS,
425104,Lee's Off Sales 210 - 212 Main Street Barrhead East Renfrewshire,,,,Lee's Off Sales,Retailers - other,4613,,,82602,,,55.80157200000000,2006/1299/COMM,787,EnvironmentalHealth@eastrenfrewshire.gov.uk,East Renfrewshire,http://www.eastrenfrewshire.gov.uk/,-4.38730600000000,G78 1SN,2013-08-13,fhis_pass_en-GB,Pass,,FHIS,
425105,98 Kelburn Street Barrhead East Renfrewshire,,,,Lidl,Retailers - other,4613,,,82510,,,55.79613500000000,2003/0867/COMM,787,EnvironmentalHealth@eastrenfrewshire.gov.uk,East Renfrewshire,http://www.eastrenfrewshire.gov.uk/,-4.40245000000000,G78 1LD,2010-09-28,fhis_pass_en-GB,Pass,,FHIS,
425106,1 Floors Road Eaglesham East Renfrewshire,,,,Linn Products Ltd,Restaurant/Cafe/Canteen,1,,,82365,,,55.76286700000000,2003/0442/COMM,787,EnvironmentalHealth@eastrenfrewshire.gov.uk,East Renfrewshire,http://www.eastrenfrewshire.gov.uk/,-4.28298200000000,G76 0EP,2014-01-31,fhis_pass_en-GB,Pass,,FHIS,
425107,Livingstons Newsagent 75 Main Street Thornliebank East Renfrewshire,,,,Livingston's Newsagent,Retailers - other,4613,,,82419,,,55.80729400000000,2003/0562/COMM,787,EnvironmentalHealth@eastrenfrewshire.gov.uk,East Renfrewshire,http://www.eastrenfrewshire.gov.uk/,-4.31700600000000,G46 7RX,2014-02-13,fhis_pass_en-GB,Pass,,FHIS,
425108,Livorno 16 Busby Road Clarkston East Renfrewshire,,,,Livorno,Restaurant/Cafe/Canteen,1,,,487118,,,55.79000600000000,2012/1763/COMM,787,EnvironmentalHealth@eastrenfrewshire.gov.uk,East Renfrewshire,http://www.eastrenfrewshire.gov.uk/,-4.27833300000000,G76 7XL,2013-12-02,fhis_pass_en-GB,Pass,,FHIS,
425109,176 Main Street Barrhead East Renfrewshire,,,,Lloyds Pharmacy,Retailers - other,4613,,,82512,,,55.80089500000000,2003/0877/COMM,787,EnvironmentalHealth@eastrenfrewshire.gov.uk,East Renfrewshire,http://www.eastrenfrewshire.gov.uk/,-4.38835000000000,G78 1SL,2014-03-09,fhis_pass_en-GB,Pass,,FHIS,
425110,Lloyds Pharmacy 15 Fenwick Road Giffnock East Renfrewshire,,,,Lloyds Pharmacy,Retailers - other,4613,,,82538,,,55.81215800000000,2004/1000/COMM,787,EnvironmentalHealth@eastrenfrewshire.gov.uk,East Renfrewshire,http://www.eastrenfrewshire.gov.uk/,-4.29198100000000,G46 6AU,2011-10-21,fhis_pass_en-GB,Pass,,FHIS,
425111,Lloyds Pharmacy 39 Eastwoodmains Road Giffnock East Renfrewshire,,,,Lloyds Pharmacy,Retailers - other,4613,,,82511,,,55.79495700000000,2003/0873/COMM,787,EnvironmentalHealth@eastrenfrewshire.gov.uk,East Renfrewshire,http://www.eastrenfrewshire.gov.uk/,-4.29001300000000,G46 6PW,2011-10-21,fhis_pass_en-GB,Pass,,FHIS,
425112,2 Hawthorn Road Busby East Renfrewshire,,,,Lodge St John,Other catering premises,7841,,,82387,,,55.78102400000000,2003/0484/COMM,787,EnvironmentalHealth@eastrenfrewshire.gov.uk,East Renfrewshire,http://www.eastrenfrewshire.gov.uk/,-4.27219500000000,G76 8EH,2014-07-21,fhis_pass_en-GB,Pass,,FHIS,
425113,Lower Mill Bakery Lower Mill Road Busby East Renfrewshire,,,,Lower Mill Bakery,Manufacturers/packers,7839,,,82399,,,55.78516600000000,2003/0509/COMM,787,EnvironmentalHealth@eastrenfrewshire.gov.uk,East Renfrewshire,http://www.eastrenfrewshire.gov.uk/,-4.27031500000000,G76 8BJ,2013-03-19,fhis_exempt_en-GB,Exempt,,FHIS,
425114,142 Main Street Barrhead East Renfrewshire,,,,MacPhees Sandwich Bar,Takeaway/sandwich shop,7844,,,82508,,,55.80029600000000,2003/0865/COMM,787,EnvironmentalHealth@eastrenfrewshire.gov.uk,East Renfrewshire,http://www.eastrenfrewshire.gov.uk/,-4.39049900000000,G78 1SG,2013-11-13,fhis_pass_en-GB,Pass,,FHIS,
425115,Busby Primary School 23 Church Road Busby East Renfrewshire,,,,MACS,Hospitals/Childcare/Caring Premises,5,,,548484,,,55.78142100000000,2013/1796/COMM,787,EnvironmentalHealth@eastrenfrewshire.gov.uk,East Renfrewshire,http://www.eastrenfrewshire.gov.uk/,-4.26917200000000,G76 8EB,2013-04-17,fhis_pass_en-GB,Pass,,FHIS,
425116,Carolside Primary School 4 Ashfield Road Clarkston East Renfrewshire,,,,MACS,Hospitals/Childcare/Caring Premises,5,,,548485,,,55.78208100000000,2013/1797/COMM,787,EnvironmentalHealth@eastrenfrewshire.gov.uk,East Renfrewshire,http://www.eastrenfrewshire.gov.uk/,-4.28066100000000,G76 7TX,2013-04-18,fhis_pass_en-GB,Pass,,FHIS,
425117,Crookfur Primary School Capelrig Road Newton Mearns East Renfrewshire,,,,MACS,Hospitals/Childcare/Caring Premises,5,,,537536,,,55.78639300000000,2013/1798/COMM,787,EnvironmentalHealth@eastrenfrewshire.gov.uk,East Renfrewshire,http://www.eastrenfrewshire.gov.uk/,-4.33058200000000,G77 6LF,2013-04-23,fhis_pass_en-GB,Pass,,FHIS,
425118,Cross Arthurlie Primary School 7 Fern Drive Barrhead East Renfrewshire,,,,MACS,Hospitals/Childcare/Caring Premises,5,,,559113,,,55.80737800000000,2013/1799/COMM,787,EnvironmentalHealth@eastrenfrewshire.gov.uk,East Renfrewshire,http://www.eastrenfrewshire.gov.uk/,-4.40114800000000,G78 1JF,2013-05-20,fhis_pass_en-GB,Pass,,FHIS,
425119,Kirkhill Primary School Kirkhill Road Newton Mearns East Renfrewshire,,,,MACS,Hospitals/Childcare/Caring Premises,5,,,559114,,,55.77544300000000,2013/1801/COMM,787,EnvironmentalHealth@eastrenfrewshire.gov.uk,East Renfrewshire,http://www.eastrenfrewshire.gov.uk/,-4.30261300000000,G77 5RJ,2013-05-20,fhis_pass_en-GB,Pass,,FHIS,
425120,Mearns Primary School 2 Hunter Drive Newton Mearns East Renfrewshire,,,,MACS,Hospitals/Childcare/Caring Premises,5,,,548486,,,55.77341100000000,2013/1800/COMM,787,EnvironmentalHealth@eastrenfrewshire.gov.uk,East Renfrewshire,http://www.eastrenfrewshire.gov.uk/,-4.33219900000000,G77 6DP,2013-05-14,fhis_pass_en-GB,Pass,,FHIS,
425121,Neilston Primary School 43 High Street Neilston East Renfrewshire,,,,MACS,School/college/university,7845,,,7867,,,55.78392000000000,03/00418/COMM,787,EnvironmentalHealth@eastrenfrewshire.gov.uk,East Renfrewshire,http://www.eastrenfrewshire.gov.uk/,-4.42447400000000,G78 3HJ,2012-12-17,fhis_pass_en-GB,Pass,,FHIS,
425122,St Cadocs Primary School 51 Crookfur Road Newton Mearns East Renfrewshire,,,,MACS,Hospitals/Childcare/Caring Premises,5,,,570612,,,55.77831500000000,2013/1804/COMM,787,EnvironmentalHealth@eastrenfrewshire.gov.uk,East Renfrewshire,http://www.eastrenfrewshire.gov.uk/,-4.34134300000000,G77 6TT,2013-06-26,fhis_pass_en-GB,Pass,,FHIS,
425123,St Josephs Primary School Oliphant Crescent Busby East Renfrewshire,,,,MACS,Hospitals/Childcare/Caring Premises,5,,,570611,,,55.77984700000000,2013/1803/COMM,787,EnvironmentalHealth@eastrenfrewshire.gov.uk,East Renfrewshire,http://www.eastrenfrewshire.gov.uk/,-4.27510800000000,G76 8PT,2013-06-24,fhis_pass_en-GB,Pass,,FHIS,
425124,1 High Street Neilston East Renfrewshire,,,,Madras Nursery School,Hospitals/Childcare/Caring Premises,5,,,82450,,,55.78392000000000,2003/0658/COMM,787,EnvironmentalHealth@eastrenfrewshire.gov.uk,East Renfrewshire,http://www.eastrenfrewshire.gov.uk/,-4.42447400000000,G78 3HJ,2014-01-17,fhis_pass_en-GB,Pass,,FHIS,
425125,142 Main Street Neilston East Renfrewshire,,,,Mainstore,Retailers - other,4613,,,82545,,,55.78216800000000,2004/1038/COMM,787,EnvironmentalHealth@eastrenfrewshire.gov.uk,East Renfrewshire,http://www.eastrenfrewshire.gov.uk/,-4.43261100000000,G78 3JX,2011-07-07,fhis_pass_en-GB,Pass,,FHIS,
425126,Majestic Wine 100 Fenwick Road Giffnock East Renfrewshire,,,,Majestic,Retailers - other,4613,,,82565,,,55.80801900000000,2005/1080/COMM,787,EnvironmentalHealth@eastrenfrewshire.gov.uk,East Renfrewshire,http://www.eastrenfrewshire.gov.uk/,-4.29464200000000,G46 6AA,2013-10-22,fhis_pass_en-GB,Pass,,FHIS,
425127,Mandarin 3 Eaglesham Road Clarkston East Renfrewshire,,,,Mandarin,Takeaway/sandwich shop,7844,,,7841,,,55.78539200000000,03/00372/COMM,787,EnvironmentalHealth@eastrenfrewshire.gov.uk,East Renfrewshire,http://www.eastrenfrewshire.gov.uk/,-4.27463400000000,G76 7BU,2014-02-24,fhis_pass_en-GB,Pass,,FHIS,
425128,Marios 3 Fenwick Road Giffnock East Renfrewshire,,,,Marios,Takeaway/sandwich shop,7844,,,82509,,,55.81215800000000,2003/0866/COMM,787,EnvironmentalHealth@eastrenfrewshire.gov.uk,East Renfrewshire,http://www.eastrenfrewshire.gov.uk/,-4.29198100000000,G46 6AU,2013-08-14,fhis_improvement_required_en-GB,Improvement Required,,FHIS,
425129,Marks And Spencer 16 The Avenue At Mearns 250 Ayr Road Newton Mearns East Renfrewshire,,,,Marks And Spencer Plc,Retailers - supermarkets/hypermarkets,7840,,,7764,,,55.77292000000000,03/00203/COMM,787,EnvironmentalHealth@eastrenfrewshire.gov.uk,East Renfrewshire,http://www.eastrenfrewshire.gov.uk/,-4.33390800000000,G77 6EY,2014-11-04,fhis_pass_en-GB,Pass,,FHIS,
425130,6 Burnfield Road Giffnock East Renfrewshire,,,,Mark's Deli,Retailers - other,4613,,,82706,,,55.80653100000000,2009/1466/COMM,787,EnvironmentalHealth@eastrenfrewshire.gov.uk,East Renfrewshire,http://www.eastrenfrewshire.gov.uk/,-4.29492200000000,G46 7QB,2014-08-04,fhis_pass_en-GB,Pass,,FHIS,
425131,Site Of Autoteller 9 Fenwick Road Giffnock East Renfrewshire,,,,Martin McColl Ltd,Retailers - other,4613,,,7691,,,55.81215800000000,03/00151/COMM,787,EnvironmentalHealth@eastrenfrewshire.gov.uk,East Renfrewshire,http://www.eastrenfrewshire.gov.uk/,-4.29198100000000,G46 6AU,2013-07-26,fhis_pass_en-GB,Pass,,FHIS,
425132,17 Polnoon Street Eaglesham East Renfrewshire,,,,Masonic Lodge,Other catering premises,7841,,,7548,,,55.74034500000000,03/00068/COMM,787,EnvironmentalHealth@eastrenfrewshire.gov.uk,East Renfrewshire,http://www.eastrenfrewshire.gov.uk/,-4.27711000000000,G76 0BH,2013-03-27,fhis_pass_en-GB,Pass,,FHIS,
425133,30 Cochrane Street Barrhead East Renfrewshire,,,,Masonic Lodge,Other catering premises,7841,,,7852,,,55.79972800000000,03/00390/COMM,787,EnvironmentalHealth@eastrenfrewshire.gov.uk,East Renfrewshire,http://www.eastrenfrewshire.gov.uk/,-4.39569800000000,G78 1RF,2011-06-02,fhis_pass_en-GB,Pass,,FHIS,
425134,Mearns Castle Parish Church Waterfoot Road Newton Mearns East Renfrewshire,,,,Maxwell Mearns Castle Church,Other catering premises,7841,,,82373,,,55.76995400000000,2003/0456/COMM,787,EnvironmentalHealth@eastrenfrewshire.gov.uk,East Renfrewshire,http://www.eastrenfrewshire.gov.uk/,-4.30916100000000,G77 5RE,2014-06-20,fhis_pass_en-GB,Pass,,FHIS,
425135,Maya Indian 2A Burnfield Road Giffnock East Renfrewshire,,,,Maya Indian,Restaurant/Cafe/Canteen,1,,,585748,,,55.80653100000000,2013/1858/COMM,787,EnvironmentalHealth@eastrenfrewshire.gov.uk,East Renfrewshire,http://www.eastrenfrewshire.gov.uk/,-4.29492200000000,G46 7QB,2013-08-27,fhis_improvement_required_en-GB,Improvement Required,,FHIS,
425136,2 Water Road Barrhead East Renfrewshire,,,,McCready Family Centre,Other catering premises,7841,,,82358,,,55.80225200000000,2003/0431/COMM,787,EnvironmentalHealth@eastrenfrewshire.gov.uk,East Renfrewshire,http://www.eastrenfrewshire.gov.uk/,-4.38835300000000,G78 1SQ,2013-04-23,fhis_pass_en-GB,Pass,,FHIS,
425137,McDonalds 121 - 123 Main Street Thornliebank East Renfrewshire,,,,McDonalds,Restaurant/Cafe/Canteen,1,,,7421,,,55.80792900000000,03/00018/COMM,787,EnvironmentalHealth@eastrenfrewshire.gov.uk,East Renfrewshire,http://www.eastrenfrewshire.gov.uk/,-4.31575100000000,G46 7RY,2013-10-23,fhis_pass_en-GB,Pass,,FHIS,
425138,Mearns Bowling Club 205 Ayr Road Newton Mearns East Renfrewshire,,,,Mearns Bowling Club,Other catering premises,7841,,,7636,,,55.77159200000000,03/00112/COMM,787,EnvironmentalHealth@eastrenfrewshire.gov.uk,East Renfrewshire,http://www.eastrenfrewshire.gov.uk/,-4.33427500000000,G77 6AE,2010-12-13,fhis_pass_en-GB,Pass,,FHIS,
425139,Mearns Castle High School 51 Waterfoot Road Newton Mearns East Renfrewshire,,,,Mearns Castle High School,School/college/university,7845,,,7777,,,55.76763800000000,03/00220/COMM,787,EnvironmentalHealth@eastrenfrewshire.gov.uk,East Renfrewshire,http://www.eastrenfrewshire.gov.uk/,-4.31808000000000,G77 5RU,2014-03-12,fhis_pass_en-GB,Pass,,FHIS,
425140,Mearns Filling Station 177 Mearns Road Newton Mearns East Renfrewshire,,,,Mearns Filling Station,Retailers - other,4613,,,82595,,,55.78015500000000,2006/1277/COMM,787,EnvironmentalHealth@eastrenfrewshire.gov.uk,East Renfrewshire,http://www.eastrenfrewshire.gov.uk/,-4.30437400000000,G77 5EP,2014-11-17,fhis_pass_en-GB,Pass,,FHIS,
425141,14 Larchfield Court Newton Mearns East Renfrewshire,,,,Mearns Hebrew Congregational Synagogue,Other catering premises,7841,,,82400,,,55.77281600000000,2003/0512/COMM,787,EnvironmentalHealth@eastrenfrewshire.gov.uk,East Renfrewshire,http://www.eastrenfrewshire.gov.uk/,-4.32895900000000,G77 5PL,2014-02-25,fhis_pass_en-GB,Pass,,FHIS,
425142,50 Eaglesham Road Newton Mearns East Renfrewshire,,,,Mearns Kirk Church,Other catering premises,7841,,,7843,,,55.76839100000000,03/00373/COMM,787,EnvironmentalHealth@eastrenfrewshire.gov.uk,East Renfrewshire,http://www.eastrenfrewshire.gov.uk/,-4.32769000000000,G77 5BU,2013-03-06,fhis_pass_en-GB,Pass,,FHIS,
425143,The Mearns Wok 232 Ayr Road Newton Mearns East Renfrewshire,,,,Mearns Wok,Takeaway/sandwich shop,7844,,,7653,,,55.77282800000000,03/00120/COMM,787,EnvironmentalHealth@eastrenfrewshire.gov.uk,East Renfrewshire,http://www.eastrenfrewshire.gov.uk/,-4.33353500000000,G77 6AA,2013-12-10,fhis_pass_en-GB,Pass,,FHIS,
425144,Mearnskirk House Mearnskirk Road Newton Mearns East Renfrewshire,,,,Mearnskirk House,Hospitals/Childcare/Caring Premises,5,,,82544,,,55.76101600000000,2004/1034/COMM,787,EnvironmentalHealth@eastrenfrewshire.gov.uk,East Renfrewshire,http://www.eastrenfrewshire.gov.uk/,-4.33125200000000,G77 5RZ,2014-07-25,fhis_pass_en-GB,Pass,,FHIS,
425145,Mels Food And Wine 20 Glasgow Road Eaglesham East Renfrewshire,,,,Mel's Food And Wine,Retailers - other,4613,,,82371,,,55.74387400000000,2003/0453/COMM,787,EnvironmentalHealth@eastrenfrewshire.gov.uk,East Renfrewshire,http://www.eastrenfrewshire.gov.uk/,-4.27632700000000,G76 0JQ,2014-01-23,fhis_pass_en-GB,Pass,,FHIS,
425146,Michaelangelos 15 Helena Place Busby Road Clarkston East Renfrewshire,,,,Michaelangelo's,Restaurant/Cafe/Canteen,1,,,726498,,,55.79039000000000,2014/1944/COMM,787,EnvironmentalHealth@eastrenfrewshire.gov.uk,East Renfrewshire,http://www.eastrenfrewshire.gov.uk/,-4.27747800000000,G76 7RB,2014-11-13,fhis_pass_en-GB,Pass,,FHIS,
425147,Millview Care Home 120 Carlibar Road Barrhead East Renfrewshire,,,,Millview Nursing Home,Hospitals/Childcare/Caring Premises,5,,,7666,,,55.80430000000000,03/00136/COMM,787,EnvironmentalHealth@eastrenfrewshire.gov.uk,East Renfrewshire,http://www.eastrenfrewshire.gov.uk/,-4.38611700000000,G78 1BJ,2013-12-02,fhis_pass_en-GB,Pass,,FHIS,
425148,Minar Restaurant 124 Busby Road Clarkston East Renfrewshire,,,,Minar Restaurant,Restaurant/Cafe/Canteen,1,,,7798,,,55.78562700000000,03/00291/COMM,787,EnvironmentalHealth@eastrenfrewshire.gov.uk,East Renfrewshire,http://www.eastrenfrewshire.gov.uk/,-4.27407400000000,G76 8BG,2014-03-25,fhis_pass_en-GB,Pass,,FHIS,
425149,Mings Express Busby Station East Kilbride Road Busby East Renfrewshire,,,,Mings Express,Takeaway/sandwich shop,7844,,,655647,,,55.78003400000000,2014/1903/COMM,787,EnvironmentalHealth@eastrenfrewshire.gov.uk,East Renfrewshire,http://www.eastrenfrewshire.gov.uk/,-4.25958600000000,G76 8HX,2014-04-01,fhis_pass_en-GB,Pass,,FHIS,
425150,Montgomerie Hall Gilmour Street Eaglesham East Renfrewshire,,,,Montgomerie Hall,Other catering premises,7841,,,82443,,,55.74198900000000,2003/0645/COMM,787,EnvironmentalHealth@eastrenfrewshire.gov.uk,East Renfrewshire,http://www.eastrenfrewshire.gov.uk/,-4.27569200000000,G76 0LH,2013-12-13,fhis_pass_en-GB,Pass,,FHIS,
425151,Morrisons 38 Fenwick Road Giffnock East Renfrewshire,,,,Morrisons Plc,Retailers - supermarkets/hypermarkets,7840,,,82674,,,55.80801900000000,2008/1384/COMM,787,EnvironmentalHealth@eastrenfrewshire.gov.uk,East Renfrewshire,http://www.eastrenfrewshire.gov.uk/,-4.29464200000000,G46 6AA,2014-12-05,fhis_pass_en-GB,Pass,,FHIS,
425152,41 Gateside Crescent Barrhead East Renfrewshire,,,,Mrs G's Kitchen,Other catering premises,7841,,,626940,,,55.79400900000000,2013/1879/COMM,787,EnvironmentalHealth@eastrenfrewshire.gov.uk,East Renfrewshire,http://www.eastrenfrewshire.gov.uk/,-4.40594000000000,G78 1LN,2014-01-07,fhis_pass_en-GB,Pass,,FHIS,
425153,527 Clarkston Road Netherlee East Renfrewshire,,,,Muirend Newsagents,Retailers - other,4613,,,579622,,,55.80878000000000,2013/1842/COMM,787,EnvironmentalHealth@eastrenfrewshire.gov.uk,East Renfrewshire,http://www.eastrenfrewshire.gov.uk/,-4.27157800000000,G44 3PN,2013-07-19,fhis_pass_en-GB,Pass,,FHIS,
425154,Muirend Pavilion Hazelden Gardens Giffnock East Renfrewshire,,,,Muirend Pavilion,Other catering premises,7841,,,82453,,,55.80987100000000,2003/0665/COMM,787,EnvironmentalHealth@eastrenfrewshire.gov.uk,East Renfrewshire,http://www.eastrenfrewshire.gov.uk/,-4.27769000000000,G44 3HQ,2014-10-21,fhis_pass_en-GB,Pass,,FHIS,
425155,523 Clarkston Road Netherlee East Renfrewshire,,,,Muirend Pharmacy,Retailers - other,4613,,,7800,,,55.80878000000000,03/00303/COMM,787,EnvironmentalHealth@eastrenfrewshire.gov.uk,East Renfrewshire,http://www.eastrenfrewshire.gov.uk/,-4.27157800000000,G44 3PN,2014-01-31,fhis_pass_en-GB,Pass,,FHIS,
425156,Murco 692 Clarkston Road Clarkston East Renfrewshire,,,,Murco,Retailers - other,4613,,,701390,,,55.79595600000000,2014/1934/COMM,787,EnvironmentalHealth@eastrenfrewshire.gov.uk,East Renfrewshire,http://www.eastrenfrewshire.gov.uk/,-4.27395800000000,G44 3YR,2014-08-27,fhis_pass_en-GB,Pass,,FHIS,
425157,Mure Hall 13 Tannoch Road Uplawmoor East Renfrewshire,,,,Mure Hall,Other catering premises,7841,,,82543,,,55.76432700000000,2004/1024/COMM,787,EnvironmentalHealth@eastrenfrewshire.gov.uk,East Renfrewshire,http://www.eastrenfrewshire.gov.uk/,-4.49400700000000,G78 4AD,2014-11-04,fhis_pass_en-GB,Pass,,FHIS,
425158,Neilston Bowling Club Kingston Road Neilston East Renfrewshire,,,,Neilston Bowling Club,Other catering premises,7841,,,82448,,,55.78027700000000,2003/0656/COMM,787,EnvironmentalHealth@eastrenfrewshire.gov.uk,East Renfrewshire,http://www.eastrenfrewshire.gov.uk/,-4.42734100000000,G78 3HZ,2013-10-17,fhis_pass_en-GB,Pass,,FHIS,
425159,Neilston Greengrocer 58 Main Street Neilston East Renfrewshire,,,,Neilston Licensed Grocer,Retailers - other,4613,,,82461,,,55.78490000000000,2003/0688/COMM,787,EnvironmentalHealth@eastrenfrewshire.gov.uk,East Renfrewshire,http://www.eastrenfrewshire.gov.uk/,-4.42673600000000,G78 3NJ,2014-05-06,fhis_pass_en-GB,Pass,,FHIS,
425160,Neilston Parish Church Hall 51 High Street Neilston East Renfrewshire,,,,Neilston Parish Church And Hall,Other catering premises,7841,,,82460,,,55.78392000000000,2003/0687/COMM,787,EnvironmentalHealth@eastrenfrewshire.gov.uk,East Renfrewshire,http://www.eastrenfrewshire.gov.uk/,-4.42447400000000,G78 3HJ,2013-12-10,fhis_pass_en-GB,Pass,,FHIS,
425161,Neilston Pharmacy 55 - 57 Main Street Neilston East Renfrewshire,,,,Neilston Pharmacy,Retailers - other,4613,,,82514,,,55.78439000000000,2003/1544/COMM,787,EnvironmentalHealth@eastrenfrewshire.gov.uk,East Renfrewshire,http://www.eastrenfrewshire.gov.uk/,-4.42662400000000,G78 3NH,2014-05-28,fhis_exempt_en-GB,Exempt,,FHIS,
425162,Neilston Primary School 43 High Street Neilston East Renfrewshire,,,,Neilston Primary School,School/college/university,7845,,,82449,,,55.78392000000000,2003/0657/COMM,787,EnvironmentalHealth@eastrenfrewshire.gov.uk,East Renfrewshire,http://www.eastrenfrewshire.gov.uk/,-4.42447400000000,G78 3HJ,2014-09-15,fhis_pass_en-GB,Pass,,FHIS,
425163,170 Netherlee Road Netherlee East Renfrewshire,,,,Netherlee House,Other catering premises,7841,,,82539,,,55.80507800000000,2004/1002/COMM,787,EnvironmentalHealth@eastrenfrewshire.gov.uk,East Renfrewshire,http://www.eastrenfrewshire.gov.uk/,-4.26911200000000,G44 3QB,2013-08-12,fhis_pass_en-GB,Pass,,FHIS,
425164,Netherlee Church 130 Ormonde Avenue Netherlee East Renfrewshire,,,,Netherlee Parish Church,Other catering premises,7841,,,7810,,,55.80420200000000,03/00327/COMM,787,EnvironmentalHealth@eastrenfrewshire.gov.uk,East Renfrewshire,http://www.eastrenfrewshire.gov.uk/,-4.27177400000000,G44 3SL,2013-05-02,fhis_pass_en-GB,Pass,,FHIS,
425165,Netherlee Pavilion 19 Linnpark Avenue Netherlee East Renfrewshire,,,,Netherlee Pavilion,Other catering premises,7841,,,82452,,,55.80549000000000,2003/0664/COMM,787,EnvironmentalHealth@eastrenfrewshire.gov.uk,East Renfrewshire,http://www.eastrenfrewshire.gov.uk/,-4.27014100000000,G44 3QD,2014-08-29,fhis_pass_en-GB,Pass,,FHIS,
425166,Netherlee Primary School Clarkston Road Netherlee East Renfrewshire,,,,Netherlee Primary School,School/college/university,7845,,,7801,,,55.80174800000000,03/00306/COMM,787,EnvironmentalHealth@eastrenfrewshire.gov.uk,East Renfrewshire,http://www.eastrenfrewshire.gov.uk/,-4.26934900000000,G44 3SF,2014-08-29,fhis_pass_en-GB,Pass,,FHIS,
425167,91st Glasgow (Netherlee) Scout Group 51 Ormonde Drive Netherlee East Renfrewshire,,,,Netherlee Scout Hall,Other catering premises,7841,,,82464,,,55.80318500000000,2003/0696/COMM,787,EnvironmentalHealth@eastrenfrewshire.gov.uk,East Renfrewshire,http://www.eastrenfrewshire.gov.uk/,-4.27329400000000,G44 3RD,2011-10-04,fhis_pass_en-GB,Pass,,FHIS,
425168,New Turban Indian Restaurant 2 Fenwick Place Giffnock East Renfrewshire,,,,New Turban Restaurant,Restaurant/Cafe/Canteen,1,,,7575,,,55.79673000000000,03/00081/COMM,787,EnvironmentalHealth@eastrenfrewshire.gov.uk,East Renfrewshire,http://www.eastrenfrewshire.gov.uk/,-4.30042400000000,G46 6UF,2014-10-06,fhis_pass_en-GB,Pass,,FHIS,
425169,New Wings Diner 39 - 41 Main Street Busby East Renfrewshire,,,,New Wings Diner,Takeaway/sandwich shop,7844,,,82636,,,55.78235600000000,2007/1334/COMM,787,EnvironmentalHealth@eastrenfrewshire.gov.uk,East Renfrewshire,http://www.eastrenfrewshire.gov.uk/,-4.26774300000000,G76 8DS,2014-04-28,fhis_improvement_required_en-GB,Improvement Required,,FHIS,
425170,Newlands Home Bakery 11 Broomburn Drive Newton Mearns East Renfrewshire,,,,Newlands Home Bakery,Restaurant/Cafe/Canteen,1,,,82370,,,55.77459300000000,2003/0452/COMM,787,EnvironmentalHealth@eastrenfrewshire.gov.uk,East Renfrewshire,http://www.eastrenfrewshire.gov.uk/,-4.31385200000000,G77 5JQ,2014-08-29,fhis_pass_en-GB,Pass,,FHIS,
425171,Newlands Home Bakery 27 Eaglesham Road Clarkston East Renfrewshire,,,,Newlands Home Bakery,Restaurant/Cafe/Canteen,1,,,82357,,,55.78410100000000,2003/00359/COMM,787,EnvironmentalHealth@eastrenfrewshire.gov.uk,East Renfrewshire,http://www.eastrenfrewshire.gov.uk/,-4.27495800000000,G76 7DH,2014-11-26,fhis_pass_en-GB,Pass,,FHIS,
425172,Church 2 Greenfarm Road Newton Mearns East Renfrewshire,,,,Newton Mearns Baptist Church,Other catering premises,7841,,,82369,,,55.78118100000000,2003/0451/COMM,787,EnvironmentalHealth@eastrenfrewshire.gov.uk,East Renfrewshire,http://www.eastrenfrewshire.gov.uk/,-4.34282200000000,G77 6FA,2014-01-22,fhis_pass_en-GB,Pass,,FHIS,
425173,241 Ayr Road Newton Mearns East Renfrewshire,,,,Newton Mearns Parish Church,Other catering premises,7841,,,82485,,,55.76989300000000,2003/0770/COMM,787,EnvironmentalHealth@eastrenfrewshire.gov.uk,East Renfrewshire,http://www.eastrenfrewshire.gov.uk/,-4.33709100000000,G77 6AH,2014-01-23,fhis_pass_en-GB,Pass,,FHIS,
425174,Night Star 570 Clarkston Road Netherlee East Renfrewshire,,,,Night Star,Takeaway/sandwich shop,7844,,,7809,,,55.80206700000000,03/00323/COMM,787,EnvironmentalHealth@eastrenfrewshire.gov.uk,East Renfrewshire,http://www.eastrenfrewshire.gov.uk/,-4.27104300000000,G44 3SQ,2014-02-21,fhis_pass_en-GB,Pass,,FHIS,
425175,Norwood 39 Victoria Road Barrhead East Renfrewshire,,,,Norwood Care Home,Hospitals/Childcare/Caring Premises,5,,,7775,,,55.80627800000000,03/00217/COMM,787,EnvironmentalHealth@eastrenfrewshire.gov.uk,East Renfrewshire,http://www.eastrenfrewshire.gov.uk/,-4.39670700000000,G78 1NQ,2014-08-22,fhis_pass_en-GB,Pass,,FHIS,
425176,Olde House Inn 132 Main Street Neilston East Renfrewshire,,,,Olde House Inn,Pub/bar/nightclub,7843,,,7434,,,55.78299800000000,03/00023/COMM,787,EnvironmentalHealth@eastrenfrewshire.gov.uk,East Renfrewshire,http://www.eastrenfrewshire.gov.uk/,-4.43108300000000,G78 3JU,2012-02-17,fhis_pass_en-GB,Pass,,FHIS,
425177,Olive It Med 146 Fenwick Road Giffnock East Renfrewshire,,,,Olive It Med,Retailers - other,4613,,,82791,,,55.80485800000000,2011/1635/COMM,787,EnvironmentalHealth@eastrenfrewshire.gov.uk,East Renfrewshire,http://www.eastrenfrewshire.gov.uk/,-4.29501500000000,G46 6XW,2014-05-01,fhis_pass_en-GB,Pass,,FHIS,
425178,One O One 55A Main Street Thornliebank East Renfrewshire,,,,One O One Convenience Store,Retailers - other,4613,,,82421,,,55.80729400000000,2003/0572/COMM,787,EnvironmentalHealth@eastrenfrewshire.gov.uk,East Renfrewshire,http://www.eastrenfrewshire.gov.uk/,-4.31700600000000,G46 7RX,2013-05-03,fhis_pass_en-GB,Pass,,FHIS,
425179,Orchard Park Convenience Store 123 Orchard Park Avenue Giffnock East Renfrewshire,,,,Orchard Park Convenience Store,Retailers - other,4613,,,82463,,,55.80608100000000,2003/0695/COMM,787,EnvironmentalHealth@eastrenfrewshire.gov.uk,East Renfrewshire,http://www.eastrenfrewshire.gov.uk/,-4.30935400000000,G46 7BW,2013-11-15,fhis_pass_en-GB,Pass,,FHIS,
425180,Orchard Park Hotel 2 Park Road Giffnock East Renfrewshire,,,,Orchard Park Hotel,Hotel/bed & breakfast/guest house,7842,,,7543,,,55.80224800000000,03/00066/COMM,787,EnvironmentalHealth@eastrenfrewshire.gov.uk,East Renfrewshire,http://www.eastrenfrewshire.gov.uk/,-4.29565900000000,G46 7PH,2014-11-06,fhis_pass_en-GB,Pass,,FHIS,
425181,Crosslees Nursery Crosslees Drive Thornliebank East Renfrewshire,,,,Orchard Park Nursery,Hospitals/Childcare/Caring Premises,5,,,701387,,,55.80641400000000,2014/1925/COMM,787,EnvironmentalHealth@eastrenfrewshire.gov.uk,East Renfrewshire,http://www.eastrenfrewshire.gov.uk/,-4.31551700000000,G46 7DY,2014-08-12,fhis_pass_en-GB,Pass,,FHIS,
425182,14 Church Road Giffnock East Renfrewshire,,,,Orchardhill Parish Church,Other catering premises,7841,,,82537,,,55.80036800000000,2004/0998/COMM,787,EnvironmentalHealth@eastrenfrewshire.gov.uk,East Renfrewshire,http://www.eastrenfrewshire.gov.uk/,-4.29283600000000,G46 6JR,2013-10-29,fhis_pass_en-GB,Pass,,FHIS,
425183,108 Ayr Road Newton Mearns East Renfrewshire,,,,Oscars,Restaurant/Cafe/Canteen,1,,,7829,,,55.78034900000000,03/00355/COMM,787,EnvironmentalHealth@eastrenfrewshire.gov.uk,East Renfrewshire,http://www.eastrenfrewshire.gov.uk/,-4.31939300000000,G77 6EG,2014-05-29,fhis_pass_en-GB,Pass,,FHIS,
425184,Our Lady Of The Missions 49 Robslee Road Thornliebank East Renfrewshire,,,,Our Lady Of The Missions,School/college/university,7845,,,82492,,,55.80237800000000,2003/0798/COMM,787,EnvironmentalHealth@eastrenfrewshire.gov.uk,East Renfrewshire,http://www.eastrenfrewshire.gov.uk/,-4.30742700000000,G46 7DD,2013-12-09,fhis_pass_en-GB,Pass,,FHIS,
425185,Sports Pavilion Overlee Park Moray Drive Clarkston East Renfrewshire,,,,Overlee Pavilion,Other catering premises,7841,,,82489,,,55.78744800000000,2003/0793/COMM,787,EnvironmentalHealth@eastrenfrewshire.gov.uk,East Renfrewshire,http://www.eastrenfrewshire.gov.uk/,-4.26941000000000,G76 8NL,2012-08-29,fhis_pass_en-GB,Pass,,FHIS,
425186,Pane E Vino 208 - 210 Fenwick Road Giffnock East Renfrewshire,,,,Pane E Vino,Restaurant/Cafe/Canteen,1,,,448703,,,55.80134900000000,2012/1751/COMM,787,EnvironmentalHealth@eastrenfrewshire.gov.uk,East Renfrewshire,http://www.eastrenfrewshire.gov.uk/,-4.29565400000000,G46 6UE,2014-02-05,fhis_pass_en-GB,Pass,,FHIS,
425187,Para Para 5 Eaglesham Road Clarkston East Renfrewshire,,,,Para Para,Retailers - other,4613,,,7840,,,55.78539200000000,03/00370/COMM,787,EnvironmentalHealth@eastrenfrewshire.gov.uk,East Renfrewshire,http://www.eastrenfrewshire.gov.uk/,-4.27463400000000,G76 7BU,2014-01-23,fhis_pass_en-GB,Pass,,FHIS,
425188,1 Ravenscliffe Drive Giffnock East Renfrewshire,,,,Park Church,Other catering premises,7841,,,82491,,,55.80597300000000,2003/0795/COMM,787,EnvironmentalHealth@eastrenfrewshire.gov.uk,East Renfrewshire,http://www.eastrenfrewshire.gov.uk/,-4.30168700000000,G46 7QR,2014-01-31,fhis_pass_en-GB,Pass,,FHIS,
425189,Parklands Country Club 196 Ayr Road Newton Mearns East Renfrewshire,,,,Parklands Health Club,Other catering premises,7841,,,7639,,,55.77596200000000,03/00113/COMM,787,EnvironmentalHealth@eastrenfrewshire.gov.uk,East Renfrewshire,http://www.eastrenfrewshire.gov.uk/,-4.32801400000000,G77 6DT,2014-09-01,fhis_pass_en-GB,Pass,,FHIS,
425190,Shilford Garage Lochlibo Road Neilston East Renfrewshire,,,,Pat's Pantry,Other catering premises,7841,,,82784,,,55.77468400000000,2011/1609/COMM,787,EnvironmentalHealth@eastrenfrewshire.gov.uk,East Renfrewshire,http://www.eastrenfrewshire.gov.uk/,-4.47433800000000,G78 3BA,2013-10-23,fhis_pass_en-GB,Pass,,FHIS,
425191,Pavone Sud Restaurant 34 - 35 The Avenue At Mearns 250 Ayr Road Newton Mearns East Renfrewshire,,,,Pavone Sud,Restaurant/Cafe/Canteen,1,,,82500,,,55.77292000000000,2003/0817/COMM,787,EnvironmentalHealth@eastrenfrewshire.gov.uk,East Renfrewshire,http://www.eastrenfrewshire.gov.uk/,-4.33390800000000,G77 6EY,2013-10-18,fhis_pass_en-GB,Pass,,FHIS,
425192,Peking House 81 Main Street Thornliebank East Renfrewshire,,,,Peking House,Restaurant/Cafe/Canteen,1,,,82424,,,55.80792900000000,2003/0600/COMM,787,EnvironmentalHealth@eastrenfrewshire.gov.uk,East Renfrewshire,http://www.eastrenfrewshire.gov.uk/,-4.31575100000000,G46 7RY,2014-03-11,fhis_pass_en-GB,Pass,,FHIS,
425193,89 - 91 Gilmour Street Eaglesham East Renfrewshire,,,,Peking Village,Restaurant/Cafe/Canteen,1,,,82441,,,55.74198900000000,2003/0642/COMM,787,EnvironmentalHealth@eastrenfrewshire.gov.uk,East Renfrewshire,http://www.eastrenfrewshire.gov.uk/,-4.27569200000000,G76 0LH,2015-01-19,fhis_pass_en-GB,Pass,,FHIS,
425194,Peters Fish And Chicken Bar 216 Carnwadric Road Thornliebank East Renfrewshire,,,,Peter's Fish And Chips,Takeaway/sandwich shop,7844,,,82797,,,55.80803800000000,2011/1656/COMM,787,EnvironmentalHealth@eastrenfrewshire.gov.uk,East Renfrewshire,http://www.eastrenfrewshire.gov.uk/,-4.32043400000000,G46 8PF,2014-05-06,fhis_pass_en-GB,Pass,,FHIS,
425195,275 Mearns Road Newton Mearns East Renfrewshire,,,,Piccolini E Vino,Restaurant/Cafe/Canteen,1,,,537539,,,55.77497000000000,2013/1818/COMM,787,EnvironmentalHealth@eastrenfrewshire.gov.uk,East Renfrewshire,http://www.eastrenfrewshire.gov.uk/,-4.31387500000000,G77 5LU,2014-08-13,fhis_pass_en-GB,Pass,,FHIS,
425196,Pizza Hut UK Ltd 17 The Toll Busby Road Clarkston East Renfrewshire,,,,Pizza Hut,Takeaway/sandwich shop,7844,,,7769,,,55.78977400000000,03/00210/COMM,787,EnvironmentalHealth@eastrenfrewshire.gov.uk,East Renfrewshire,http://www.eastrenfrewshire.gov.uk/,-4.27678800000000,G76 7BG,2013-11-06,fhis_pass_en-GB,Pass,,FHIS,
425197,67 - 69 Cross Arthurlie Street Barrhead East Renfrewshire,,,,Planet Play,Other catering premises,7841,,,82755,,,55.80082900000000,2010/1565/COMM,787,EnvironmentalHealth@eastrenfrewshire.gov.uk,East Renfrewshire,http://www.eastrenfrewshire.gov.uk/,-4.39772800000000,G78 1RR,2013-10-31,fhis_pass_en-GB,Pass,,FHIS,
425198,Polish Corner Unit 1 2 Main Street Thornliebank East Renfrewshire,,,,Polish Corner,Retailers - supermarkets/hypermarkets,7840,,,642647,,,55.80567300000000,2013/1884/COMM,787,EnvironmentalHealth@eastrenfrewshire.gov.uk,East Renfrewshire,http://www.eastrenfrewshire.gov.uk/,-4.31861700000000,G46 7SH,2014-01-16,fhis_pass_en-GB,Pass,,FHIS,
425199,Post Office 53A Main Street Thornliebank East Renfrewshire,,,,Post Office,Retailers - other,4613,,,82572,,,55.80677700000000,2005/1177/COMM,787,EnvironmentalHealth@eastrenfrewshire.gov.uk,East Renfrewshire,http://www.eastrenfrewshire.gov.uk/,-4.31823600000000,G46 7SF,2013-11-26,fhis_pass_en-GB,Pass,,FHIS,
425200,Beefeater Grill 3 Greenlaw Way Newton Mearns East Renfrewshire,,,,Premier Inn And Beefeater,Restaurant/Cafe/Canteen,1,,,246439,,,55.78444500000000,2012/1706/COMM,787,EnvironmentalHealth@eastrenfrewshire.gov.uk,East Renfrewshire,http://www.eastrenfrewshire.gov.uk/,-4.34837800000000,G77 6EF,2014-01-31,fhis_pass_en-GB,Pass,,FHIS,
425201,Mall Cafe 20 The Avenue At Mearns 250 Ayr Road Newton Mearns East Renfrewshire,,,,Primavera,Restaurant/Cafe/Canteen,1,,,7765,,,55.77292000000000,03/00204/COMM,787,EnvironmentalHealth@eastrenfrewshire.gov.uk,East Renfrewshire,http://www.eastrenfrewshire.gov.uk/,-4.33390800000000,G77 6EY,2013-11-12,fhis_pass_en-GB,Pass,,FHIS,
425202,48 Main Street Neilston East Renfrewshire,,,,R A Dunbar And Son,Manufacturers/packers,7839,,,82469,,,55.78490000000000,2003/0703/COMM,787,EnvironmentalHealth@eastrenfrewshire.gov.uk,East Renfrewshire,http://www.eastrenfrewshire.gov.uk/,-4.42673600000000,G78 3NJ,2013-06-05,fhis_pass_en-GB,Pass,,FHIS,
425203,269 Mearns Road Newton Mearns East Renfrewshire,,,,R S McColl,Retailers - other,4613,,,82397,,,55.77497000000000,2003/0502/COMM,787,EnvironmentalHealth@eastrenfrewshire.gov.uk,East Renfrewshire,http://www.eastrenfrewshire.gov.uk/,-4.31387500000000,G77 5LU,2014-01-22,fhis_pass_en-GB,Pass,,FHIS,
425204,8 Glasgow Road Eaglesham East Renfrewshire,,,,R S McColl,Retailers - other,4613,,,82360,,,55.74387400000000,2003/0435/COMM,787,EnvironmentalHealth@eastrenfrewshire.gov.uk,East Renfrewshire,http://www.eastrenfrewshire.gov.uk/,-4.27632700000000,G76 0JQ,2013-07-25,fhis_pass_en-GB,Pass,,FHIS,
425205,Post Office 11 The Avenue At Mearns 250 Ayr Road Newton Mearns East Renfrewshire,,,,R S McColl,Retailers - other,4613,,,7761,,,55.77292000000000,03/00202/COMM,787,EnvironmentalHealth@eastrenfrewshire.gov.uk,East Renfrewshire,http://www.eastrenfrewshire.gov.uk/,-4.33390800000000,G77 6EY,2010-11-01,fhis_pass_en-GB,Pass,,FHIS,
425206,Post Office 29 Eaglesham Road Clarkston East Renfrewshire,,,,R S McColl,Retailers - other,4613,,,7830,,,55.78410100000000,03/00357/COMM,787,EnvironmentalHealth@eastrenfrewshire.gov.uk,East Renfrewshire,http://www.eastrenfrewshire.gov.uk/,-4.27495800000000,G76 7DH,2011-03-23,fhis_pass_en-GB,Pass,,FHIS,
425207,17 Carlibar Road Barrhead East Renfrewshire,,,,Railway Cottage Nursery,Hospitals/Childcare/Caring Premises,5,,,594352,,,55.80392200000000,2012/1785/COMM,787,EnvironmentalHealth@eastrenfrewshire.gov.uk,East Renfrewshire,http://www.eastrenfrewshire.gov.uk/,-4.39632300000000,G78 1AA,2013-10-03,fhis_pass_en-GB,Pass,,FHIS,
425208,RC And M Imrie 18A Glasgow Road Eaglesham East Renfrewshire,,,,RC And M Imrie,Retailers - other,4613,,,537538,,,55.74387400000000,2013/1816/COMM,787,EnvironmentalHealth@eastrenfrewshire.gov.uk,East Renfrewshire,http://www.eastrenfrewshire.gov.uk/,-4.27632700000000,G76 0JQ,2013-03-11,fhis_pass_en-GB,Pass,,FHIS,
425209,46 Cross Arthurlie Street Barrhead East Renfrewshire,,,,Red Fort,Restaurant/Cafe/Canteen,1,,,7849,,,55.80007400000000,03/00384/COMM,787,EnvironmentalHealth@eastrenfrewshire.gov.uk,East Renfrewshire,http://www.eastrenfrewshire.gov.uk/,-4.39773000000000,G78 1QU,2013-07-30,fhis_pass_en-GB,Pass,,FHIS,
425210,Barrland Court Barrland Drive Giffnock East Renfrewshire,,,,Revive Catering Contract Management,Hospitals/Childcare/Caring Premises,5,,,201788,,,55.80449600000000,2011/1678/COMM,787,EnvironmentalHealth@eastrenfrewshire.gov.uk,East Renfrewshire,http://www.eastrenfrewshire.gov.uk/,-4.29607900000000,G46 7QD,2014-08-13,fhis_pass_en-GB,Pass,,FHIS,
425211,Rouken Glen Garden Centre Rouken Glen Park Rouken Glen Road Giffnock East Renfrewshire,,,,Rouken Glen Garden Centre,Restaurant/Cafe/Canteen,1,,,82515,,,55.79838900000000,2003/1546/COMM,787,EnvironmentalHealth@eastrenfrewshire.gov.uk,East Renfrewshire,http://www.eastrenfrewshire.gov.uk/,-4.31880600000000,G46 7UG,2014-02-12,fhis_pass_en-GB,Pass,,FHIS,
425212,Ruby Palace 562 Clarkston Road Netherlee East Renfrewshire,,,,Ruby Palace,Restaurant/Cafe/Canteen,1,,,82430,,,55.80433500000000,2003/0612/COMM,787,EnvironmentalHealth@eastrenfrewshire.gov.uk,East Renfrewshire,http://www.eastrenfrewshire.gov.uk/,-4.27042500000000,G44 3RT,2014-07-14,fhis_pass_en-GB,Pass,,FHIS,
425213,Rumours Cross Arthurlie Street Barrhead East Renfrewshire,,,,Rumours,Pub/bar/nightclub,7843,,,7862,,,55.80082900000000,03/00409/COMM,787,EnvironmentalHealth@eastrenfrewshire.gov.uk,East Renfrewshire,http://www.eastrenfrewshire.gov.uk/,-4.39772800000000,G78 1RR,2013-07-24,fhis_pass_en-GB,Pass,,FHIS,
425214,S J At Snooks Unit 12 Westbourne Centre 56 Kelburn Street Barrhead East Renfrewshire,,,,S J At Snooks,Restaurant/Cafe/Canteen,1,,,82408,,,55.79774700000000,2003/0531/COMM,787,EnvironmentalHealth@eastrenfrewshire.gov.uk,East Renfrewshire,http://www.eastrenfrewshire.gov.uk/,-4.40049100000000,G78 1LR,2014-03-28,fhis_pass_en-GB,Pass,,FHIS,
425215,Saffron 232A Main Street Barrhead East Renfrewshire,,,,Saffron,Restaurant/Cafe/Canteen,1,,,7790,,,55.80157200000000,03/00241/COMM,787,EnvironmentalHealth@eastrenfrewshire.gov.uk,East Renfrewshire,http://www.eastrenfrewshire.gov.uk/,-4.38730600000000,G78 1SN,2014-10-29,fhis_pass_en-GB,Pass,,FHIS,
425216,188 Fenwick Road Giffnock East Renfrewshire,,,,Sainsbury's,Retailers - supermarkets/hypermarkets,7840,,,82756,,,55.80134900000000,2010/1566/COMM,787,EnvironmentalHealth@eastrenfrewshire.gov.uk,East Renfrewshire,http://www.eastrenfrewshire.gov.uk/,-4.29565400000000,G46 6UE,2010-12-02,fhis_pass_en-GB,Pass,,FHIS,
425217,201 Main Street Barrhead East Renfrewshire,,,,Salvation Army,Other catering premises,7841,,,7468,,,55.80035400000000,03/00034/COMM,787,EnvironmentalHealth@eastrenfrewshire.gov.uk,East Renfrewshire,http://www.eastrenfrewshire.gov.uk/,-4.39166800000000,G78 1SD,2014-11-25,fhis_pass_en-GB,Pass,,FHIS,
425218,Sam's Chinese Takeaway 5 Fenwick Road Giffnock East Renfrewshire,,,,Sam's Chinese Takeaway,Takeaway/sandwich shop,7844,,,684031,,,55.81215800000000,2014/1917/COMM,787,EnvironmentalHealth@eastrenfrewshire.gov.uk,East Renfrewshire,http://www.eastrenfrewshire.gov.uk/,-4.29198100000000,G46 6AU,2014-07-15,fhis_improvement_required_en-GB,Improvement Required,,FHIS,
425219,Unit 2 146 Main Street Barrhead East Renfrewshire,,,,Santi`s New Yorker,Takeaway/sandwich shop,7844,,,7440,,,55.80029600000000,03/00025/COMM,787,EnvironmentalHealth@eastrenfrewshire.gov.uk,East Renfrewshire,http://www.eastrenfrewshire.gov.uk/,-4.39049900000000,G78 1SG,2014-01-22,fhis_pass_en-GB,Pass,,FHIS,
425220,91st Glasgow (Netherlee) Scout Group 51 Ormonde Drive Netherlee East Renfrewshire,,,,School's Out,Other catering premises,7841,,,82575,,,55.80318500000000,2005/1216/COMM,787,EnvironmentalHealth@eastrenfrewshire.gov.uk,East Renfrewshire,http://www.eastrenfrewshire.gov.uk/,-4.27329400000000,G44 3RD,2010-03-17,fhis_pass_en-GB,Pass,,FHIS,
425221,36 Mearns Road Clarkston East Renfrewshire,,,,Scotmid,Retailers - other,4613,,,7487,,,55.78927500000000,03/00042/COMM,787,EnvironmentalHealth@eastrenfrewshire.gov.uk,East Renfrewshire,http://www.eastrenfrewshire.gov.uk/,-4.27899200000000,G76 7EU,2013-04-03,fhis_pass_en-GB,Pass,,FHIS,
425222,ScotMid 3 Cheapside Street Eaglesham East Renfrewshire,,,,Scotmid,Retailers - supermarkets/hypermarkets,7840,,,7804,,,55.74043100000000,03/00309/COMM,787,EnvironmentalHealth@eastrenfrewshire.gov.uk,East Renfrewshire,http://www.eastrenfrewshire.gov.uk/,-4.27101300000000,G76 0JZ,2014-04-29,fhis_pass_en-GB,Pass,,FHIS,
425223,Scotmid 60 Aurs Drive Barrhead East Renfrewshire,,,,Scotmid,Retailers - other,4613,,,82644,,,55.79677100000000,2007/1368/COMM,787,EnvironmentalHealth@eastrenfrewshire.gov.uk,East Renfrewshire,http://www.eastrenfrewshire.gov.uk/,-4.38273700000000,G78 2LW,2013-11-12,fhis_pass_en-GB,Pass,,FHIS,
425224,4C BURNFIELD AVENUE,,,,Scott Hampers,Distributors/Transporters,7,,,684030,,,,2013/1863/COMM,787,EnvironmentalHealth@eastrenfrewshire.gov.uk,East Renfrewshire,http://www.eastrenfrewshire.gov.uk/,,,2013-07-01,fhis_pass_en-GB,Pass,,FHIS,
425225,215 Fenwick Road Giffnock East Renfrewshire,,,,Shaheds Tandoori,Takeaway/sandwich shop,7844,,,548481,,,55.80503400000000,2003/1852/COMM,787,EnvironmentalHealth@eastrenfrewshire.gov.uk,East Renfrewshire,http://www.eastrenfrewshire.gov.uk/,-4.29424300000000,G46 6JD,2014-03-25,fhis_pass_en-GB,Pass,,FHIS,
425226,Shanks Bowling Club 38 Victoria Road Barrhead East Renfrewshire,,,,Shanks Bowling Club,Other catering premises,7841,,,7797,,,55.80627800000000,03/00288/COMM,787,EnvironmentalHealth@eastrenfrewshire.gov.uk,East Renfrewshire,http://www.eastrenfrewshire.gov.uk/,-4.39670700000000,G78 1NQ,2011-10-19,fhis_pass_en-GB,Pass,,FHIS,
425227,Glen Service Station Spiersbridge Road Thornliebank East Renfrewshire,,,,Shell Service Station,Retailers - other,4613,,,82494,,,55.80114200000000,2003/0801/COMM,787,EnvironmentalHealth@eastrenfrewshire.gov.uk,East Renfrewshire,http://www.eastrenfrewshire.gov.uk/,-4.32107600000000,G46 7HT,2013-05-29,fhis_pass_en-GB,Pass,,FHIS,
425228,10A Springhill Road Barrhead East Renfrewshire,,,,Shopsmart,Retailers - other,4613,,,82708,,,55.79784900000000,2009/1469/COMM,787,EnvironmentalHealth@eastrenfrewshire.gov.uk,East Renfrewshire,http://www.eastrenfrewshire.gov.uk/,-4.39615700000000,G78 2BD,2014-08-18,fhis_pass_en-GB,Pass,,FHIS,
425229,9 Eaglesham Road Clarkston East Renfrewshire,,,,Skinny Malinky's,Restaurant/Cafe/Canteen,1,,,82746,,,55.78539200000000,2010/1474/COMM,787,EnvironmentalHealth@eastrenfrewshire.gov.uk,East Renfrewshire,http://www.eastrenfrewshire.gov.uk/,-4.27463400000000,G76 7BU,2014-09-24,fhis_pass_en-GB,Pass,,FHIS,
425230,Sloans Newsagent 70 Braidholm Road Giffnock East Renfrewshire,,,,Sloans Newsagents,Retailers - other,4613,,,82418,,,55.80826900000000,2003/0561/COMM,787,EnvironmentalHealth@eastrenfrewshire.gov.uk,East Renfrewshire,http://www.eastrenfrewshire.gov.uk/,-4.28366100000000,G46 6ED,2013-08-16,fhis_pass_en-GB,Pass,,FHIS,
425231,Happy Days Too Southfield House 423 Mearns Road Newton Mearns East Renfrewshire,,,,Southfield House,Hospitals/Childcare/Caring Premises,5,,,7811,,,55.76456200000000,03/00329/COMM,787,EnvironmentalHealth@eastrenfrewshire.gov.uk,East Renfrewshire,http://www.eastrenfrewshire.gov.uk/,-4.32629800000000,G77 5RY,2014-02-19,fhis_pass_en-GB,Pass,,FHIS,
425232,Spar 87 Main Street Thornliebank East Renfrewshire,,,,Spar,Retailers - supermarkets/hypermarkets,7840,,,82425,,,55.80792900000000,2003/0602/COMM,787,EnvironmentalHealth@eastrenfrewshire.gov.uk,East Renfrewshire,http://www.eastrenfrewshire.gov.uk/,-4.31575100000000,G46 7RY,2011-05-05,fhis_pass_en-GB,Pass,,FHIS,
425233,Speed Chinese Takeaway Unit 2 71 Main Street Neilston East Renfrewshire,,,,Speed Chinese Takeaway,Takeaway/sandwich shop,7844,,,82516,,,55.78439000000000,2003/1547/COMM,787,EnvironmentalHealth@eastrenfrewshire.gov.uk,East Renfrewshire,http://www.eastrenfrewshire.gov.uk/,-4.42662400000000,G78 3NH,2014-09-04,fhis_pass_en-GB,Pass,,FHIS,
425234,Sporty Kids Ltd Unit 2 72 Spiersbridge Road Thornliebank East Renfrewshire,,,,Sportykids,Restaurant/Cafe/Canteen,1,,,82639,,,55.80101400000000,2007/1344/COMM,787,EnvironmentalHealth@eastrenfrewshire.gov.uk,East Renfrewshire,http://www.eastrenfrewshire.gov.uk/,-4.32260000000000,G46 7SN,2013-08-20,fhis_pass_en-GB,Pass,,FHIS,
425235,Springhill School House 90 Springhill Road Barrhead East Renfrewshire,,,,Springhill Primary School,School/college/university,7845,,,7594,,,55.78975400000000,03/00090/COMM,787,EnvironmentalHealth@eastrenfrewshire.gov.uk,East Renfrewshire,http://www.eastrenfrewshire.gov.uk/,-4.39556400000000,G78 2SE,2014-04-28,fhis_improvement_required_en-GB,Improvement Required,,FHIS,
425236,36 Mearns Road Clarkston East Renfrewshire,,,,St Aidens Episcopal Church,Other catering premises,7841,,,82412,,,55.78927500000000,2003/0539/COMM,787,EnvironmentalHealth@eastrenfrewshire.gov.uk,East Renfrewshire,http://www.eastrenfrewshire.gov.uk/,-4.27899200000000,G76 7EU,2014-01-30,fhis_pass_en-GB,Pass,,FHIS,
425237,Arthurlie Parish Church 2 Ralston Road Barrhead East Renfrewshire,,,,St Andrews Church,Other catering premises,7841,,,82702,,,55.79831600000000,2009/1455/COMM,787,EnvironmentalHealth@eastrenfrewshire.gov.uk,East Renfrewshire,http://www.eastrenfrewshire.gov.uk/,-4.39344100000000,G78 2RR,2014-09-17,fhis_pass_en-GB,Pass,,FHIS,
425238,Barrhead South And Levern Church Main Street Barrhead East Renfrewshire,,,,St Andrews Church (Main Street Hall),Other catering premises,7841,,,82468,,,55.80029600000000,2003/0702/COMM,787,EnvironmentalHealth@eastrenfrewshire.gov.uk,East Renfrewshire,http://www.eastrenfrewshire.gov.uk/,-4.39049900000000,G78 1SG,2014-10-01,fhis_pass_en-GB,Pass,,FHIS,
425239,St Bridgets Church 12 Polnoon Street Eaglesham East Renfrewshire,,,,St Bridget`s Church,Other catering premises,7841,,,7545,,,55.74034500000000,03/00067/COMM,787,EnvironmentalHealth@eastrenfrewshire.gov.uk,East Renfrewshire,http://www.eastrenfrewshire.gov.uk/,-4.27711000000000,G76 0BH,2011-05-04,fhis_exempt_en-GB,Exempt,,FHIS,
425240,St Cadocs Church 26 Fruin Avenue Newton Mearns East Renfrewshire,,,,St Cadocs Church,Other catering premises,7841,,,82364,,,55.77945000000000,2003/0441/COMM,787,EnvironmentalHealth@eastrenfrewshire.gov.uk,East Renfrewshire,http://www.eastrenfrewshire.gov.uk/,-4.32605300000000,G77 6HA,2010-07-23,fhis_pass_en-GB,Pass,,FHIS,
425241,St Cadocs Primary School 51 Crookfur Road Newton Mearns East Renfrewshire,,,,St Cadocs Primary School,School/college/university,7845,,,7822,,,55.77831500000000,03/00348/COMM,787,EnvironmentalHealth@eastrenfrewshire.gov.uk,East Renfrewshire,http://www.eastrenfrewshire.gov.uk/,-4.34134300000000,G77 6TT,2014-05-28,fhis_pass_en-GB,Pass,,FHIS,
425242,St John's Church 1 Aurs Road Barrhead East Renfrewshire,,,,St John's Church,Other catering premises,7841,,,548482,,,55.80239300000000,2003/1854/COMM,787,EnvironmentalHealth@eastrenfrewshire.gov.uk,East Renfrewshire,http://www.eastrenfrewshire.gov.uk/,-4.38202700000000,G78 2RW,2013-06-04,fhis_pass_en-GB,Pass,,FHIS,
425243,St Johns Primary School 18 Commercial Road Barrhead East Renfrewshire,,,,St John's Primary School,School/college/university,7845,,,7851,,,55.80542800000000,03/00388/COMM,787,EnvironmentalHealth@eastrenfrewshire.gov.uk,East Renfrewshire,http://www.eastrenfrewshire.gov.uk/,-4.39006400000000,G78 1AJ,2014-12-11,fhis_pass_en-GB,Pass,,FHIS,
425244,St Josephs Primary School Oliphant Crescent Busby East Renfrewshire,,,,St Josephs Primary School,School/college/university,7845,,,7531,,,55.77984700000000,03/00061/COMM,787,EnvironmentalHealth@eastrenfrewshire.gov.uk,East Renfrewshire,http://www.eastrenfrewshire.gov.uk/,-4.27510800000000,G76 8PT,2013-09-12,fhis_pass_en-GB,Pass,,FHIS,
425245,St Lukes High School 25 Springfield Road Barrhead East Renfrewshire,,,,St Lukes High School,School/college/university,7845,,,7591,,,55.78876200000000,03/00089/COMM,787,EnvironmentalHealth@eastrenfrewshire.gov.uk,East Renfrewshire,http://www.eastrenfrewshire.gov.uk/,-4.38602800000000,G78 2SG,2013-06-26,fhis_pass_en-GB,Pass,,FHIS,
425246,St Marks Primary School 30 Roebank Drive Barrhead East Renfrewshire,,,,St Marks Primary,School/college/university,7845,,,7565,,,55.79322000000000,03/00076/COMM,787,EnvironmentalHealth@eastrenfrewshire.gov.uk,East Renfrewshire,http://www.eastrenfrewshire.gov.uk/,-4.38741700000000,G78 2JA,2014-10-30,fhis_pass_en-GB,Pass,,FHIS,
425247,St Thomas Primary School 23 Broadlie Road Neilston East Renfrewshire,,,,St Thomas Primary,School/college/university,7845,,,7377,,,55.78546600000000,03/00006/FOOD,787,EnvironmentalHealth@eastrenfrewshire.gov.uk,East Renfrewshire,http://www.eastrenfrewshire.gov.uk/,-4.42718600000000,G78 3ET,2010-03-17,fhis_pass_en-GB,Pass,,FHIS,
425248,5 Nethervale Avenue Netherlee East Renfrewshire,,,,Stamperland Bowling Club,Other catering premises,7841,,,82499,,,55.79782300000000,2003/0814/COMM,787,EnvironmentalHealth@eastrenfrewshire.gov.uk,East Renfrewshire,http://www.eastrenfrewshire.gov.uk/,-4.27212000000000,G44 3XT,2012-09-04,fhis_pass_en-GB,Pass,,FHIS,
425249,61 Stamperland Hill Clarkston East Renfrewshire,,,,Stamperland Community And Social Club,Other catering premises,7841,,,7729,,,55.79665900000000,03/00184/COMM,787,EnvironmentalHealth@eastrenfrewshire.gov.uk,East Renfrewshire,http://www.eastrenfrewshire.gov.uk/,-4.27235600000000,G76 8AJ,2012-02-28,fhis_pass_en-GB,Pass,,FHIS,
425250,141 Stamperland Gardens Clarkston East Renfrewshire,,,,Stamperland Newsagent,Retailers - other,4613,,,7723,,,55.79464500000000,03/00181/COMM,787,EnvironmentalHealth@eastrenfrewshire.gov.uk,East Renfrewshire,http://www.eastrenfrewshire.gov.uk/,-4.27290800000000,G76 8LJ,2013-04-19,fhis_pass_en-GB,Pass,,FHIS,
425251,11 Stamperland Gardens Clarkston East Renfrewshire,,,,Stamperland Parish Church,Other catering premises,7841,,,7601,,,55.78955500000000,03/00093/COMM,787,EnvironmentalHealth@eastrenfrewshire.gov.uk,East Renfrewshire,http://www.eastrenfrewshire.gov.uk/,-4.27112800000000,G76 8HQ,2013-06-05,fhis_pass_en-GB,Pass,,FHIS,
425252,63 Stamperland Hill Clarkston East Renfrewshire,,,,Stamperland Residents Association - Hall,Other catering premises,7841,,,7732,,,55.79665900000000,03/00185/COMM,787,EnvironmentalHealth@eastrenfrewshire.gov.uk,East Renfrewshire,http://www.eastrenfrewshire.gov.uk/,-4.27235600000000,G76 8AJ,2013-01-29,fhis_pass_en-GB,Pass,,FHIS,
425253,Barrhead Fire Station 30 Grahamston Road Barrhead East Renfrewshire,,,,Strathclyde Fire Brigade,Other catering premises,7841,,,82458,,,55.81299700000000,2003/0680/COMM,787,EnvironmentalHealth@eastrenfrewshire.gov.uk,East Renfrewshire,http://www.eastrenfrewshire.gov.uk/,-4.39689700000000,G78 1TL,2013-11-26,fhis_pass_en-GB,Pass,,FHIS,
425254,Clarkston Fire Station 1 Dorian Drive Clarkston East Renfrewshire,,,,Strathclyde Fire Brigade,Other catering premises,7841,,,7844,,,55.79280800000000,03/00375/COMM,787,EnvironmentalHealth@eastrenfrewshire.gov.uk,East Renfrewshire,http://www.eastrenfrewshire.gov.uk/,-4.29100300000000,G76 7NT,2014-09-11,fhis_pass_en-GB,Pass,,FHIS,
425255,Stuart Chemist 154 Fenwick Road Giffnock East Renfrewshire,,,,Stuart Chemist,Retailers - other,4613,,,7698,,,55.80485800000000,03/00158/COMM,787,EnvironmentalHealth@eastrenfrewshire.gov.uk,East Renfrewshire,http://www.eastrenfrewshire.gov.uk/,-4.29501500000000,G46 6XW,2012-06-26,fhis_pass_en-GB,Pass,,FHIS,
425256,Central Buildings No 7 76 Busby Road Clarkston East Renfrewshire,,,,Subway,Takeaway/sandwich shop,7844,,,428806,,,55.78851900000000,2011/1638/COMM,787,EnvironmentalHealth@eastrenfrewshire.gov.uk,East Renfrewshire,http://www.eastrenfrewshire.gov.uk/,-4.27564600000000,G76 7AU,2014-01-08,fhis_pass_en-GB,Pass,,FHIS,
425257,Subway 156 Fenwick Road Giffnock East Renfrewshire,,,,Subway,Takeaway/sandwich shop,7844,,,82642,,,55.80485800000000,2007/1350/COMM,787,EnvironmentalHealth@eastrenfrewshire.gov.uk,East Renfrewshire,http://www.eastrenfrewshire.gov.uk/,-4.29501500000000,G46 6XW,2013-02-26,fhis_pass_en-GB,Pass,,FHIS,
425258,Subway 17 The Avenue At Mearns 250 Ayr Road Newton Mearns East Renfrewshire,,,,Subway,Takeaway/sandwich shop,7844,,,82603,,,55.77292000000000,2006/1302/COMM,787,EnvironmentalHealth@eastrenfrewshire.gov.uk,East Renfrewshire,http://www.eastrenfrewshire.gov.uk/,-4.33390800000000,G77 6EY,2013-12-03,fhis_pass_en-GB,Pass,,FHIS,
425259,Subway 190 - 192 Main Street Barrhead East Renfrewshire,,,,Subway,Takeaway/sandwich shop,7844,,,82668,,,55.80089500000000,2008/1370/COMM,787,EnvironmentalHealth@eastrenfrewshire.gov.uk,East Renfrewshire,http://www.eastrenfrewshire.gov.uk/,-4.38835000000000,G78 1SL,2014-05-12,fhis_pass_en-GB,Pass,,FHIS,
425260,Subway 79 Main Street Thornliebank East Renfrewshire,,,,Subway,Takeaway/sandwich shop,7844,,,82695,,,55.80792900000000,2009/1420/COMM,787,EnvironmentalHealth@eastrenfrewshire.gov.uk,East Renfrewshire,http://www.eastrenfrewshire.gov.uk/,-4.31575100000000,G46 7RY,2014-02-12,fhis_pass_en-GB,Pass,,FHIS,
425261,Filling Station Ayr Road Newton Mearns East Renfrewshire,,,,Sunningdale Service Station,Retailers - other,4613,,,7452,,,55.78091200000000,03/00028/COMM,787,EnvironmentalHealth@eastrenfrewshire.gov.uk,East Renfrewshire,http://www.eastrenfrewshire.gov.uk/,-4.31765600000000,G77 6QU,2014-07-29,fhis_pass_en-GB,Pass,,FHIS,
425262,Superdrug Stores 1A The Avenue At Mearns 250 Ayr Road Newton Mearns East Renfrewshire,,,,Superdrug,Retailers - other,4613,,,2566,,,55.77292000000000,01/00002/COMM,787,EnvironmentalHealth@eastrenfrewshire.gov.uk,East Renfrewshire,http://www.eastrenfrewshire.gov.uk/,-4.33390800000000,G77 6EY,2010-09-14,fhis_pass_en-GB,Pass,,FHIS,
425263,Swan Inn 23 Polnoon Street Eaglesham East Renfrewshire,,,,Swan Inn,Pub/bar/nightclub,7843,,,7549,,,55.74034500000000,03/00069/COMM,787,EnvironmentalHealth@eastrenfrewshire.gov.uk,East Renfrewshire,http://www.eastrenfrewshire.gov.uk/,-4.27711000000000,G76 0BH,2014-01-23,fhis_pass_en-GB,Pass,,FHIS,
425264,12 Cathkin Drive Clarkston East Renfrewshire,,,,Sweet News,Retailers - other,4613,,,7805,,,55.79198700000000,03/00310/COMM,787,EnvironmentalHealth@eastrenfrewshire.gov.uk,East Renfrewshire,http://www.eastrenfrewshire.gov.uk/,-4.29020500000000,G76 7PF,2011-02-14,fhis_pass_en-GB,Pass,,FHIS,
425265,Tao 91B Main Street Thornliebank East Renfrewshire,,,,Tao,Takeaway/sandwich shop,7844,,,487120,,,55.80792900000000,2012/1794/COMM,787,EnvironmentalHealth@eastrenfrewshire.gov.uk,East Renfrewshire,http://www.eastrenfrewshire.gov.uk/,-4.31575100000000,G46 7RY,2014-07-03,fhis_pass_en-GB,Pass,,FHIS,
425266,Taste Of China 130 Main Street Barrhead East Renfrewshire,,,,Taste Of China,Takeaway/sandwich shop,7844,,,7430,,,55.80029600000000,03/00022/COMM,787,EnvironmentalHealth@eastrenfrewshire.gov.uk,East Renfrewshire,http://www.eastrenfrewshire.gov.uk/,-4.39049900000000,G78 1SG,2014-06-11,fhis_pass_en-GB,Pass,,FHIS,
425267,Tea For Two 61A Main Street Thornliebank East Renfrewshire,,,,Tea For Two,Restaurant/Cafe/Canteen,1,,,82699,,,55.80729400000000,2009/1433/COMM,787,EnvironmentalHealth@eastrenfrewshire.gov.uk,East Renfrewshire,http://www.eastrenfrewshire.gov.uk/,-4.31700600000000,G46 7RX,2014-09-04,fhis_improvement_required_en-GB,Improvement Required,,FHIS,
425268,54 Busby Road Clarkston East Renfrewshire,,,,Tesco,Retailers - other,4613,,,82637,,,55.78864800000000,2007/1337/COMM,787,EnvironmentalHealth@eastrenfrewshire.gov.uk,East Renfrewshire,http://www.eastrenfrewshire.gov.uk/,-4.27643500000000,G76 7AT,2012-05-04,fhis_pass_en-GB,Pass,,FHIS,
425269,Tesco Stores 60 Kelburn Street Barrhead East Renfrewshire,,,,Tesco,Retailers - supermarkets/hypermarkets,7840,,,82447,,,55.79774700000000,2003/0654/COMM,787,EnvironmentalHealth@eastrenfrewshire.gov.uk,East Renfrewshire,http://www.eastrenfrewshire.gov.uk/,-4.40049100000000,G78 1LR,2013-05-29,fhis_pass_en-GB,Pass,,FHIS,
425270,Tesco Unit 1 3 Greenlaw Place Newton Mearns East Renfrewshire,,,,Tesco,Retailers - supermarkets/hypermarkets,7840,,,82751,,,55.78122400000000,2010/1484/COMM,787,EnvironmentalHealth@eastrenfrewshire.gov.uk,East Renfrewshire,http://www.eastrenfrewshire.gov.uk/,-4.35370200000000,G77 6NP,2010-07-01,fhis_pass_en-GB,Pass,,FHIS,
425271,Bank Cafe 84 Main Street Neilston East Renfrewshire,,,,The Bank Cafe,Other catering premises,7841,,,82640,,,55.78400300000000,2007/1345/COMM,787,EnvironmentalHealth@eastrenfrewshire.gov.uk,East Renfrewshire,http://www.eastrenfrewshire.gov.uk/,-4.42889700000000,G78 3EA,2014-12-04,fhis_pass_en-GB,Pass,,FHIS,
425272,Eastwood Recreation Centre 6 Eastwood Park Rouken Glen Road Giffnock East Renfrewshire,,,,The Beangrinder,Restaurant/Cafe/Canteen,1,,,82793,,,55.79782100000000,2011/1639/COMM,787,EnvironmentalHealth@eastrenfrewshire.gov.uk,East Renfrewshire,http://www.eastrenfrewshire.gov.uk/,-4.30361500000000,G46 7JS,2013-03-14,fhis_pass_en-GB,Pass,,FHIS,
425273,9 Davieland Road Giffnock East Renfrewshire,,,,The Boathouse,Restaurant/Cafe/Canteen,1,,,585747,,,55.79258800000000,2013/1820/COMM,787,EnvironmentalHealth@eastrenfrewshire.gov.uk,East Renfrewshire,http://www.eastrenfrewshire.gov.uk/,-4.31141000000000,G46 7LA,2013-07-24,fhis_pass_en-GB,Pass,,FHIS,
425274,Flat 1-1 141 Cross Arthurlie Street Barrhead East Renfrewshire,,,,The Brig Inn,Pub/bar/nightclub,7843,,,7854,,,55.80316500000000,03/00396/COMM,787,EnvironmentalHealth@eastrenfrewshire.gov.uk,East Renfrewshire,http://www.eastrenfrewshire.gov.uk/,-4.39823900000000,G78 1EX,2010-09-10,fhis_pass_en-GB,Pass,,FHIS,
425275,Busby Hotel 1 Field Road Busby East Renfrewshire,,,,The Busby Hotel,Restaurant/Cafe/Canteen,1,,,726499,,,55.78014100000000,2014/1951/COMM,787,EnvironmentalHealth@eastrenfrewshire.gov.uk,East Renfrewshire,http://www.eastrenfrewshire.gov.uk/,-4.26600300000000,G76 8RX,2014-11-26,fhis_pass_en-GB,Pass,,FHIS,
425276,115 Main Street Neilston East Renfrewshire,,,,The Co-Operative,Retailers - other,4613,,,82570,,,55.78439000000000,2005/1168/COMM,787,EnvironmentalHealth@eastrenfrewshire.gov.uk,East Renfrewshire,http://www.eastrenfrewshire.gov.uk/,-4.42662400000000,G78 3NH,2013-07-24,fhis_pass_en-GB,Pass,,FHIS,
425277,The Co-Operative 17 Eaglesham Road Clarkston East Renfrewshire,,,,The Co-Operative,Retailers - supermarkets/hypermarkets,7840,,,7833,,,55.78410100000000,03/00362/COMM,787,EnvironmentalHealth@eastrenfrewshire.gov.uk,East Renfrewshire,http://www.eastrenfrewshire.gov.uk/,-4.27495800000000,G76 7DH,2010-10-12,fhis_pass_en-GB,Pass,,FHIS,
425278,The Co-Operative 265 Mearns Road Newton Mearns East Renfrewshire,,,,The Co-Operative,Retailers - other,4613,,,7493,,,55.77497000000000,03/00047/COMM,787,EnvironmentalHealth@eastrenfrewshire.gov.uk,East Renfrewshire,http://www.eastrenfrewshire.gov.uk/,-4.31387500000000,G77 5LU,2013-08-27,fhis_pass_en-GB,Pass,,FHIS,
425279,The Co-Operative Pharmacy 7 Eaglesham Road Clarkston East Renfrewshire,,,,The Co-Operative Pharmacy,Retailers - other,4613,,,7839,,,55.78539200000000,03/00369/COMM,787,EnvironmentalHealth@eastrenfrewshire.gov.uk,East Renfrewshire,http://www.eastrenfrewshire.gov.uk/,-4.27463400000000,G76 7BU,2011-09-12,fhis_pass_en-GB,Pass,,FHIS,
425280,107 Main Street Neilston East Renfrewshire,,,,The Dancing Goat,Restaurant/Cafe/Canteen,1,,,82778,,,55.78439000000000,2011/1599/COMM,787,EnvironmentalHealth@eastrenfrewshire.gov.uk,East Renfrewshire,http://www.eastrenfrewshire.gov.uk/,-4.42662400000000,G78 3NH,2014-02-26,fhis_pass_en-GB,Pass,,FHIS,
425281,The Derby Cafe 677 Clarkston Road Netherlee East Renfrewshire,,,,The Derby Cafe,Restaurant/Cafe/Canteen,1,,,7807,,,55.80191900000000,03/00315/COMM,787,EnvironmentalHealth@eastrenfrewshire.gov.uk,East Renfrewshire,http://www.eastrenfrewshire.gov.uk/,-4.27031600000000,G44 3SE,2014-03-12,fhis_pass_en-GB,Pass,,FHIS,
425282,The Firs Nursing Home 12 Lowndes Street Barrhead East Renfrewshire,,,,The Firs Nursing Home,Hospitals/Childcare/Caring Premises,5,,,82454,,,55.79924600000000,2003/0666/COMM,787,EnvironmentalHealth@eastrenfrewshire.gov.uk,East Renfrewshire,http://www.eastrenfrewshire.gov.uk/,-4.38949400000000,G78 2QX,2014-12-08,fhis_pass_en-GB,Pass,,FHIS,
425283,Golden Kitchen 230 Ayr Road Newton Mearns East Renfrewshire,,,,The Golden Kitchen,Takeaway/sandwich shop,7844,,,7635,,,55.77282800000000,03/00111/COMM,787,EnvironmentalHealth@eastrenfrewshire.gov.uk,East Renfrewshire,http://www.eastrenfrewshire.gov.uk/,-4.33353500000000,G77 6AA,2014-07-10,fhis_pass_en-GB,Pass,,FHIS,
425284,The Italian Job 145 Stamperland Gardens Clarkston East Renfrewshire,,,,The Italian Job,Restaurant/Cafe/Canteen,1,,,82752,,,55.79464500000000,2010/1488/COMM,787,EnvironmentalHealth@eastrenfrewshire.gov.uk,East Renfrewshire,http://www.eastrenfrewshire.gov.uk/,-4.27290800000000,G76 8LJ,2014-07-15,fhis_pass_en-GB,Pass,,FHIS,
425285,30 Kingston Road Neilston East Renfrewshire,,,,The Kiosk,Retailers - other,4613,,,570617,,,55.77839600000000,2013/1824/COMM,787,EnvironmentalHealth@eastrenfrewshire.gov.uk,East Renfrewshire,http://www.eastrenfrewshire.gov.uk/,-4.42974400000000,G78 3JR,2013-07-11,fhis_pass_en-GB,Pass,,FHIS,
425286,18B Glasgow Road Eaglesham East Renfrewshire,,,,The Movie Cafe,Other catering premises,7841,,,82372,,,55.74387400000000,2003/0454/COMM,787,EnvironmentalHealth@eastrenfrewshire.gov.uk,East Renfrewshire,http://www.eastrenfrewshire.gov.uk/,-4.27632700000000,G76 0JQ,2014-08-20,fhis_pass_en-GB,Pass,,FHIS,
425287,The Osprey 56 Stewarton Road Newton Mearns East Renfrewshire,,,,The Osprey,Pub/bar/nightclub,7843,,,7738,,,55.78122400000000,03/00188/COMM,787,EnvironmentalHealth@eastrenfrewshire.gov.uk,East Renfrewshire,http://www.eastrenfrewshire.gov.uk/,-4.35370200000000,G77 6NP,2013-10-28,fhis_pass_en-GB,Pass,,FHIS,
425288,Clark And Son 14 Busby Road Clarkston East Renfrewshire,,,,The Overlee,Restaurant/Cafe/Canteen,1,,,708554,,,55.79000600000000,2014/1935/COMM,787,EnvironmentalHealth@eastrenfrewshire.gov.uk,East Renfrewshire,http://www.eastrenfrewshire.gov.uk/,-4.27833300000000,G76 7XL,2014-09-08,fhis_pass_en-GB,Pass,,FHIS,
425289,Redhurst 27 Eastwoodmains Road Giffnock East Renfrewshire,,,,The Redhurst,Hotel/bed & breakfast/guest house,7842,,,579620,,,55.79596000000000,2013/1827/COMM,787,EnvironmentalHealth@eastrenfrewshire.gov.uk,East Renfrewshire,http://www.eastrenfrewshire.gov.uk/,-4.29211400000000,G46 6QE,2013-07-09,fhis_pass_en-GB,Pass,,FHIS,
425290,10 Harvie Avenue Newton Mearns East Renfrewshire,,,,The Royal,Restaurant/Cafe/Canteen,1,,,82445,,,55.78485900000000,2003/0649/COMM,787,EnvironmentalHealth@eastrenfrewshire.gov.uk,East Renfrewshire,http://www.eastrenfrewshire.gov.uk/,-4.32994800000000,G77 6LG,2013-10-16,fhis_pass_en-GB,Pass,,FHIS,
425291,On-Site Tyres (Scotland) Ltd 159 Glasgow Road Barrhead East Renfrewshire,,,,The Snack Box,Takeaway/sandwich shop,7844,,,82796,,,55.81015500000000,2011/1655/COMM,787,EnvironmentalHealth@eastrenfrewshire.gov.uk,East Renfrewshire,http://www.eastrenfrewshire.gov.uk/,-4.37988400000000,G78 1DT,2014-07-25,fhis_pass_en-GB,Pass,,FHIS,
425292,The Toby Carvery Glasgow Road Hurlet East Renfrewshire,,,,The Toby Carvery,Restaurant/Cafe/Canteen,1,,,82432,,,55.81680900000000,2003/0617/COMM,787,EnvironmentalHealth@eastrenfrewshire.gov.uk,East Renfrewshire,http://www.eastrenfrewshire.gov.uk/,-4.37417600000000,G53 7TG,2014-01-22,fhis_pass_en-GB,Pass,,FHIS,
425293,The Travellers Rest 11 - 13 Neilston Road Neilston East Renfrewshire,,,,The Travellers Rest,Restaurant/Cafe/Canteen,1,,,701391,,,55.78705100000000,2014/1938/COMM,787,EnvironmentalHealth@eastrenfrewshire.gov.uk,East Renfrewshire,http://www.eastrenfrewshire.gov.uk/,-4.42155800000000,G78 3NT,2014-10-01,fhis_pass_en-GB,Pass,,FHIS,
425294,The Wee Shop 32 Glasgow Road Barrhead East Renfrewshire,,,,The Wee Shop,Retailers - other,4613,,,82429,,,55.80554200000000,2003/0610/COMM,787,EnvironmentalHealth@eastrenfrewshire.gov.uk,East Renfrewshire,http://www.eastrenfrewshire.gov.uk/,-4.38137400000000,G78 1BU,2014-01-31,fhis_pass_en-GB,Pass,,FHIS,
425295,The White Cart 61 East Kilbride Road Busby East Renfrewshire,,,,The White Cart,Pub/bar/nightclub,7843,,,7451,,,55.78003400000000,03/00027/COMM,787,EnvironmentalHealth@eastrenfrewshire.gov.uk,East Renfrewshire,http://www.eastrenfrewshire.gov.uk/,-4.25958600000000,G76 8HX,2014-06-05,fhis_pass_en-GB,Pass,,FHIS,
425296,The Wine Sellar 10 Main Street Busby East Renfrewshire,,,,The Wine Seller,Retailers - other,4613,,,82406,,,55.78200500000000,2003/0524/COMM,787,EnvironmentalHealth@eastrenfrewshire.gov.uk,East Renfrewshire,http://www.eastrenfrewshire.gov.uk/,-4.26824900000000,G76 8DU,2012-09-05,fhis_pass_en-GB,Pass,,FHIS,
425297,Wishing Well Tearoom 63 Montgomery Street Eaglesham East Renfrewshire,,,,The Wishing Well,Restaurant/Cafe/Canteen,1,,,7519,,,55.73736200000000,03/00057/COMM,787,EnvironmentalHealth@eastrenfrewshire.gov.uk,East Renfrewshire,http://www.eastrenfrewshire.gov.uk/,-4.27950100000000,G76 0AU,2014-06-27,fhis_pass_en-GB,Pass,,FHIS,
425298,Thomson Brothers 168 Fenwick Road Giffnock East Renfrewshire,,,,Thomson Brothers,Manufacturers/packers,7839,,,7715,,,55.80284600000000,03/00174/COMM,787,EnvironmentalHealth@eastrenfrewshire.gov.uk,East Renfrewshire,http://www.eastrenfrewshire.gov.uk/,-4.29540700000000,G46 6XF,2013-09-18,fhis_pass_en-GB,Pass,,FHIS,
425299,Thomsons Coffee 5 Burnfield Avenue Giffnock East Renfrewshire,,,,Thomsons Coffee,Manufacturers/packers,7839,,,82381,,,55.80996900000000,2003/0469/COMM,787,EnvironmentalHealth@eastrenfrewshire.gov.uk,East Renfrewshire,http://www.eastrenfrewshire.gov.uk/,-4.30091800000000,G46 7TL,2011-03-01,fhis_pass_en-GB,Pass,,FHIS,
425300,29 Kennishead Road Thornliebank East Renfrewshire,,,,Thornliebank Bowling Club,Other catering premises,7841,,,82395,,,55.80803400000000,2003/0498/COMM,787,EnvironmentalHealth@eastrenfrewshire.gov.uk,East Renfrewshire,http://www.eastrenfrewshire.gov.uk/,-4.31875800000000,G46 8NX,2013-04-23,fhis_pass_en-GB,Pass,,FHIS,
425301,Thornliebank Parish 61 Spiersbridge Road Thornliebank East Renfrewshire,,,,Thornliebank Parish Church,Other catering premises,7841,,,82596,,,55.80114200000000,2006/1280/COMM,787,EnvironmentalHealth@eastrenfrewshire.gov.uk,East Renfrewshire,http://www.eastrenfrewshire.gov.uk/,-4.32107600000000,G46 7HT,2011-03-02,fhis_pass_en-GB,Pass,,FHIS,
425302,Thornliebank Primary School 129 Main Street Thornliebank East Renfrewshire,,,,Thornliebank Primary School,School/college/university,7845,,,41562,,,55.80934100000000,103/00021/COMM,787,EnvironmentalHealth@eastrenfrewshire.gov.uk,East Renfrewshire,http://www.eastrenfrewshire.gov.uk/,-4.31475000000000,G46 7RW,2013-12-04,fhis_pass_en-GB,Pass,,FHIS,
425303,1 Robslee Drive Giffnock East Renfrewshire,,,,Thornliebank Resource Centre,Hospitals/Childcare/Caring Premises,5,,,82533,,,55.80681900000000,2004/0926/COMM,787,EnvironmentalHealth@eastrenfrewshire.gov.uk,East Renfrewshire,http://www.eastrenfrewshire.gov.uk/,-4.30644500000000,G46 7BA,2014-03-07,fhis_pass_en-GB,Pass,,FHIS,
425304,49B Main Street Thornliebank East Renfrewshire,,,,Thorntree Hall,Other catering premises,7841,,,82473,,,55.80677700000000,2003/0707/COMM,787,EnvironmentalHealth@eastrenfrewshire.gov.uk,East Renfrewshire,http://www.eastrenfrewshire.gov.uk/,-4.31823600000000,G46 7SF,2012-08-14,fhis_pass_en-GB,Pass,,FHIS,
425305,Three In One Plus 232A Ayr Road Newton Mearns East Renfrewshire,,,,Three In One Plus,Takeaway/sandwich shop,7844,,,708556,,,55.77282800000000,2014/1945/COMM,787,EnvironmentalHealth@eastrenfrewshire.gov.uk,East Renfrewshire,http://www.eastrenfrewshire.gov.uk/,-4.33353500000000,G77 6AA,2014-10-31,fhis_pass_en-GB,Pass,,FHIS,
425306,Three In One Plus Central Buildings No 2 68 Busby Road Clarkston East Renfrewshire,,,,Three In One Plus,Takeaway/sandwich shop,7844,,,82790,,,55.78851900000000,2011/1630/COMM,787,EnvironmentalHealth@eastrenfrewshire.gov.uk,East Renfrewshire,http://www.eastrenfrewshire.gov.uk/,-4.27564600000000,G76 7AU,2014-01-22,fhis_pass_en-GB,Pass,,FHIS,
425307,Glasgow Hutchesons Aloysians Rugby Club Rugby Club 84 Braidholm Road Giffnock East Renfrewshire,,,,Tinto Tapas At GHA,Other catering premises,7841,,,655648,,,55.80868900000000,2014/1905/COMM,787,EnvironmentalHealth@eastrenfrewshire.gov.uk,East Renfrewshire,http://www.eastrenfrewshire.gov.uk/,-4.28084500000000,G46 6EB,2014-04-01,fhis_pass_en-GB,Pass,,FHIS,
425308,Toll Newsagents 4 Fenwick Place Giffnock East Renfrewshire,,,,Toll Newsagents,Retailers - other,4613,,,684033,,,55.79673000000000,2014/1924/COMM,787,EnvironmentalHealth@eastrenfrewshire.gov.uk,East Renfrewshire,http://www.eastrenfrewshire.gov.uk/,-4.30042400000000,G46 6UF,2014-06-09,fhis_pass_en-GB,Pass,,FHIS,
425309,Pizza Couture 136 Fenwick Road Giffnock East Renfrewshire,,,,Toni's Pizzeria,Takeaway/sandwich shop,7844,,,82378,,,55.80485800000000,2003/0465/COMM,787,EnvironmentalHealth@eastrenfrewshire.gov.uk,East Renfrewshire,http://www.eastrenfrewshire.gov.uk/,-4.29501500000000,G46 6XW,2014-08-06,fhis_pass_en-GB,Pass,,FHIS,
425310,Tribeca 1 Fenwick Road Giffnock East Renfrewshire,,,,Tribeca,Restaurant/Cafe/Canteen,1,,,668392,,,55.81215800000000,2013/1901/COMM,787,EnvironmentalHealth@eastrenfrewshire.gov.uk,East Renfrewshire,http://www.eastrenfrewshire.gov.uk/,-4.29198100000000,G46 6AU,2014-04-08,fhis_pass_en-GB,Pass,,FHIS,
425311,Trust Housing 7 Eastwood Crescent Thornliebank East Renfrewshire,,,,Trust Housing,Hospitals/Childcare/Caring Premises,5,,,82502,,,55.80783500000000,2003/0821/COMM,787,EnvironmentalHealth@eastrenfrewshire.gov.uk,East Renfrewshire,http://www.eastrenfrewshire.gov.uk/,-4.31737300000000,G46 8NS,2014-01-21,fhis_pass_en-GB,Pass,,FHIS,
425312,2 Station Road Giffnock East Renfrewshire,,,,Turban Tandoori,Restaurant/Cafe/Canteen,1,,,7736,,,55.80398300000000,03/00186/COMM,787,EnvironmentalHealth@eastrenfrewshire.gov.uk,East Renfrewshire,http://www.eastrenfrewshire.gov.uk/,-4.29421300000000,G46 6JF,2014-03-10,fhis_pass_en-GB,Pass,,FHIS,
425313,1 Lowndes Street Barrhead East Renfrewshire,,,,United Reformed Church,Other catering premises,7841,,,82487,,,55.79924600000000,2003/0780/COMM,787,EnvironmentalHealth@eastrenfrewshire.gov.uk,East Renfrewshire,http://www.eastrenfrewshire.gov.uk/,-4.38949400000000,G78 2QX,2014-03-07,fhis_pass_en-GB,Pass,,FHIS,
425314,United Services Club 64 Paisley Road Barrhead East Renfrewshire,,,,United Services Club,Other catering premises,7841,,,82481,,,55.80685000000000,2003/0739/COMM,787,EnvironmentalHealth@eastrenfrewshire.gov.uk,East Renfrewshire,http://www.eastrenfrewshire.gov.uk/,-4.39870500000000,G78 1NN,2012-11-07,fhis_pass_en-GB,Pass,,FHIS,
425315,Uplawmoor Hotel 66 Neilston Road Uplawmoor East Renfrewshire,,,,Uplawmoor Hotel,Hotel/bed & breakfast/guest house,7842,,,82398,,,55.76586100000000,2003/0504/COMM,787,EnvironmentalHealth@eastrenfrewshire.gov.uk,East Renfrewshire,http://www.eastrenfrewshire.gov.uk/,-4.49283000000000,G78 4AF,2014-03-14,fhis_pass_en-GB,Pass,,FHIS,
425316,Uplawmoor Primary School 23 Tannoch Road Uplawmoor East Renfrewshire,,,,Uplawmoor Primary School,School/college/university,7845,,,7744,,,55.76432700000000,03/00194/COMM,787,EnvironmentalHealth@eastrenfrewshire.gov.uk,East Renfrewshire,http://www.eastrenfrewshire.gov.uk/,-4.49400700000000,G78 4AD,2013-11-11,fhis_pass_en-GB,Pass,,FHIS,
425317,190 Fenwick Road Giffnock East Renfrewshire,,,,Valentini's,Takeaway/sandwich shop,7844,,,7824,,,55.80134900000000,03/00351/COMM,787,EnvironmentalHealth@eastrenfrewshire.gov.uk,East Renfrewshire,http://www.eastrenfrewshire.gov.uk/,-4.29565400000000,G46 6UE,2014-02-14,fhis_pass_en-GB,Pass,,FHIS,
425318,Valentinis 234 Ayr Road Newton Mearns East Renfrewshire,,,,Valentini's,Takeaway/sandwich shop,7844,,,7649,,,55.77282800000000,03/00119/COMM,787,EnvironmentalHealth@eastrenfrewshire.gov.uk,East Renfrewshire,http://www.eastrenfrewshire.gov.uk/,-4.33353500000000,G77 6AA,2013-08-27,fhis_pass_en-GB,Pass,,FHIS,
425319,Premier Express 50 Busby Road Clarkston East Renfrewshire,,,,Value Convenience Store,Retailers - other,4613,,,82534,,,55.78933200000000,2004/0952/COMM,787,EnvironmentalHealth@eastrenfrewshire.gov.uk,East Renfrewshire,http://www.eastrenfrewshire.gov.uk/,-4.27689000000000,G76 7XJ,2014-10-10,fhis_improvement_required_en-GB,Improvement Required,,FHIS,
425320,Victoria Stores 54 Paisley Road Barrhead East Renfrewshire,,,,Victoria Stores,Retailers - other,4613,,,7537,,,55.80561100000000,03/00063/COMM,787,EnvironmentalHealth@eastrenfrewshire.gov.uk,East Renfrewshire,http://www.eastrenfrewshire.gov.uk/,-4.39816600000000,G78 1ND,2014-01-14,fhis_pass_en-GB,Pass,,FHIS,
425321,The Village Bakers 7 Main Street Busby East Renfrewshire,,,,Village Bakers,Takeaway/sandwich shop,7844,,,82407,,,55.78235600000000,2003/0525/COMM,787,EnvironmentalHealth@eastrenfrewshire.gov.uk,East Renfrewshire,http://www.eastrenfrewshire.gov.uk/,-4.26774300000000,G76 8DS,2014-04-24,fhis_pass_en-GB,Pass,,FHIS,
425322,Flemings Bar And Grill 222 Ayr Road Newton Mearns East Renfrewshire,,,,Volare,Restaurant/Cafe/Canteen,1,,,668390,,,55.77369200000000,2013/1895/COMM,787,EnvironmentalHealth@eastrenfrewshire.gov.uk,East Renfrewshire,http://www.eastrenfrewshire.gov.uk/,-4.33063700000000,G77 6DR,2014-04-28,fhis_pass_en-GB,Pass,,FHIS,
425323,153 Burnfield Road Giffnock East Renfrewshire,,,,Wah May,Takeaway/sandwich shop,7844,,,668393,,,55.80976500000000,2014/1913/COMM,787,EnvironmentalHealth@eastrenfrewshire.gov.uk,East Renfrewshire,http://www.eastrenfrewshire.gov.uk/,-4.29978800000000,G46 7PR,2014-04-29,fhis_improvement_required_en-GB,Improvement Required,,FHIS,
425324,Waitrose 2 Greenlaw Place Newton Mearns East Renfrewshire,,,,Waitrose,Retailers - supermarkets/hypermarkets,7840,,,82786,,,55.78300600000000,2011/1619/COMM,787,EnvironmentalHealth@eastrenfrewshire.gov.uk,East Renfrewshire,http://www.eastrenfrewshire.gov.uk/,-4.34937500000000,G77 6GW,2012-11-26,fhis_pass_en-GB,Pass,,FHIS,
425325,Waterside Inn 24 Glasgow Road Hurlet East Renfrewshire,,,,Waterside Inn,Pub/bar/nightclub,7843,,,82431,,,55.81704200000000,2003/0615/COMM,787,EnvironmentalHealth@eastrenfrewshire.gov.uk,East Renfrewshire,http://www.eastrenfrewshire.gov.uk/,-4.37463700000000,G53 7TH,2014-03-05,fhis_pass_en-GB,Pass,,FHIS,
425326,Wellmeadow Lodge 100 Meadow Way Newton Mearns East Renfrewshire,,,,Wellmeadow Lodge,Hospitals/Childcare/Caring Premises,5,,,82410,,,55.78042300000000,2003/0537/COMM,787,EnvironmentalHealth@eastrenfrewshire.gov.uk,East Renfrewshire,http://www.eastrenfrewshire.gov.uk/,-4.33542500000000,G77 6XJ,2013-07-08,fhis_pass_en-GB,Pass,,FHIS,
425327,Westacres Nursing Home 3 Westacres Road Newton Mearns East Renfrewshire,,,,Westacres,Hospitals/Childcare/Caring Premises,5,,,82505,,,55.77418800000000,2003/0849/COMM,787,EnvironmentalHealth@eastrenfrewshire.gov.uk,East Renfrewshire,http://www.eastrenfrewshire.gov.uk/,-4.35225700000000,G77 6WW,2014-07-31,fhis_pass_en-GB,Pass,,FHIS,
425328,Westlea 3 Donnies Brae Barrhead East Renfrewshire,,,,Westlea Residential Lodge,Hospitals/Childcare/Caring Premises,5,,,7853,,,55.79122300000000,03/00393/COMM,787,EnvironmentalHealth@eastrenfrewshire.gov.uk,East Renfrewshire,http://www.eastrenfrewshire.gov.uk/,-4.41328200000000,G78 3PT,2014-06-13,fhis_pass_en-GB,Pass,,FHIS,
425329,Whitecraigs Bowling Club 67 Ayr Road Newton Mearns East Renfrewshire,,,,Whitecraigs Bowling Club,Other catering premises,7841,,,7579,,,55.78446400000000,03/00084/COMM,787,EnvironmentalHealth@eastrenfrewshire.gov.uk,East Renfrewshire,http://www.eastrenfrewshire.gov.uk/,-4.31182200000000,G46 6SR,2014-12-18,fhis_pass_en-GB,Pass,,FHIS,
425330,Whitecraigs Golf Club Ayr Road Newton Mearns East Renfrewshire,,,,Whitecraigs Golf Club,Other catering premises,7841,,,7391,,,55.78679400000000,03/00011/COMM,787,EnvironmentalHealth@eastrenfrewshire.gov.uk,East Renfrewshire,http://www.eastrenfrewshire.gov.uk/,-4.31028500000000,G46 6SW,2014-09-01,fhis_pass_en-GB,Pass,,FHIS,
425331,Whitecraigs Rugby Club Villa 201 Aurs Road Newton Mearns East Renfrewshire,,,,Whitecraigs Rugby Club,Other catering premises,7841,,,15,,,55.77821200000000,00/00002/COMM,787,EnvironmentalHealth@eastrenfrewshire.gov.uk,East Renfrewshire,http://www.eastrenfrewshire.gov.uk/,-4.35800100000000,G77 6PX,2012-08-13,fhis_pass_en-GB,Pass,,FHIS,
425332,Whitecraigs Tennis And Sports Club 22 Roddinghead Road Newton Mearns East Renfrewshire,,,,Whitecraigs Tennis Club,Other catering premises,7841,,,7562,,,55.78303500000000,03/00074/COMM,787,EnvironmentalHealth@eastrenfrewshire.gov.uk,East Renfrewshire,http://www.eastrenfrewshire.gov.uk/,-4.31036600000000,G46 6TN,2013-11-02,fhis_pass_en-GB,Pass,,FHIS,
425333,Whole Foods 134 Fenwick Road Giffnock East Renfrewshire,,,,Whole Foods Market,Retailers - other,4613,,,201787,,,55.80567900000000,2011/1670/COMM,787,EnvironmentalHealth@eastrenfrewshire.gov.uk,East Renfrewshire,http://www.eastrenfrewshire.gov.uk/,-4.29484000000000,G46 6XN,2014-08-19,fhis_pass_en-GB,Pass,,FHIS,
425334,Williamwood Golf Club House Clarkston Road Clarkston East Renfrewshire,,,,Williamwood Golf Club,Other catering premises,7841,,,7816,,,55.79595600000000,03/00336/COMM,787,EnvironmentalHealth@eastrenfrewshire.gov.uk,East Renfrewshire,http://www.eastrenfrewshire.gov.uk/,-4.27395800000000,G44 3YR,2014-02-27,fhis_pass_en-GB,Pass,,FHIS,
425335,Williamwood High School Eaglesham Road Clarkston East Renfrewshire,,,,Williamwood High School,School/college/university,7845,,,82599,,,55.77650500000000,2006/1286/COMM,787,EnvironmentalHealth@eastrenfrewshire.gov.uk,East Renfrewshire,http://www.eastrenfrewshire.gov.uk/,-4.27743300000000,G76 8RF,2014-09-25,fhis_pass_en-GB,Pass,,FHIS,
425336,Williamwood House 34 Strathtay Avenue Netherlee East Renfrewshire,,,,Williamwood House,Hospitals/Childcare/Caring Premises,5,,,82476,,,55.79949600000000,2003/0716/COMM,787,EnvironmentalHealth@eastrenfrewshire.gov.uk,East Renfrewshire,http://www.eastrenfrewshire.gov.uk/,-4.27451500000000,G44 3YA,2014-04-15,fhis_pass_en-GB,Pass,,FHIS,
425337,Williamwood News 43 Eastwoodmains Road Giffnock East Renfrewshire,,,,Williamwood News,Retailers - other,4613,,,7559,,,55.79495700000000,03/00073/COMM,787,EnvironmentalHealth@eastrenfrewshire.gov.uk,East Renfrewshire,http://www.eastrenfrewshire.gov.uk/,-4.29001300000000,G46 6PW,2011-07-21,fhis_pass_en-GB,Pass,,FHIS,
425338,Williamwood Parish Church 2 Vardar Avenue Clarkston East Renfrewshire,,,,Williamwood Parish Church,Other catering premises,7841,,,7774,,,55.79003200000000,03/00216/COMM,787,EnvironmentalHealth@eastrenfrewshire.gov.uk,East Renfrewshire,http://www.eastrenfrewshire.gov.uk/,-4.28852700000000,G76 7QP,2014-05-12,fhis_pass_en-GB,Pass,,FHIS,
425339,Wine Rack 3 - 5 Broomburn Drive Newton Mearns East Renfrewshire,,,,Wine Rack,Retailers - other,4613,,,7866,,,55.77459300000000,03/00414/COMM,787,EnvironmentalHealth@eastrenfrewshire.gov.uk,East Renfrewshire,http://www.eastrenfrewshire.gov.uk/,-4.31385200000000,G77 5JQ,2014-05-08,fhis_pass_en-GB,Pass,,FHIS,
425340,Woodfarm High School 54 Robslee Road Thornliebank East Renfrewshire,,,,Woodfarm High School,School/college/university,7845,,,82498,,,55.80042700000000,2003/0812/COMM,787,EnvironmentalHealth@eastrenfrewshire.gov.uk,East Renfrewshire,http://www.eastrenfrewshire.gov.uk/,-4.31145600000000,G46 7HQ,2013-02-27,fhis_pass_en-GB,Pass,,FHIS,
425341,18 Berryhill Drive Giffnock East Renfrewshire,,,,Woodfarm Pavilion,Other catering premises,7841,,,7868,,,55.80135300000000,03/00419/COMM,787,EnvironmentalHealth@eastrenfrewshire.gov.uk,East Renfrewshire,http://www.eastrenfrewshire.gov.uk/,-4.30267500000000,G46 7AA,2014-05-02,fhis_pass_en-GB,Pass,,FHIS,
425342,Zippy Gymnastics Academy Ltd 4B Burnfield Avenue Giffnock East Renfrewshire,,,,Zippy's Gymnastic Academy,Restaurant/Cafe/Canteen,1,,,82703,,,55.80996900000000,2009/1457/COMM,787,EnvironmentalHealth@eastrenfrewshire.gov.uk,East Renfrewshire,http://www.eastrenfrewshire.gov.uk/,-4.30091800000000,G46 7TL,2010-02-02,fhis_pass_en-GB,Pass,,FHIS,
425343,Zyka Unit 12 3 Greenlaw Place Newton Mearns East Renfrewshire,,,,Zyka,Restaurant/Cafe/Canteen,1,,,189990,,,55.78287800000000,2011/1605/COMM,787,EnvironmentalHealth@eastrenfrewshire.gov.uk,East Renfrewshire,http://www.eastrenfrewshire.gov.uk/,-4.34710300000000,G77 6GR,2014-12-03,fhis_pass_en-GB,Pass,,FHIS,
