,addressline1,addressline2,addressline3,addressline4,businessname,businesstype,businesstypeid,confidenceinmanagement,extractdate,fhrsid,hygiene,itemcount,latitude,localauthoritybusinessid,localauthoritycode,localauthorityemailaddress,localauthorityname,localauthoritywebsite,longitude,postcode,ratingdate,ratingkey,ratingvalue,returncode,schemetype,structural
452344,101-103 Commercial Street,Lerwick,Shetland,,A L Laing,Retailers - other,4613,,,408995,,,60.15311569000001,931,789,foodsafety@shetland.gov.uk,Shetland Islands,http://www.shetland.gov.uk/,-1.14247352000000,,2014-07-03,fhis_exempt_en-GB,Exempt,,FHIS,
452345,Aith,Bixter,Shetland,,Aith Junior High School,School/college/university,7845,,,408928,,,60.28456878662109,359,789,foodsafety@shetland.gov.uk,Shetland Islands,http://www.shetland.gov.uk/,-1.37879002094269,,2014-06-25,fhis_pass_en-GB,Pass,,FHIS,
452346,Aith,Shetland,,,Aith Junior High School Nursery,Hospitals/Childcare/Caring Premises,5,,,391211,,,60.28456878662110,23247,789,foodsafety@shetland.gov.uk,Shetland Islands,http://www.shetland.gov.uk/,-1.37879002094269,,2014-07-04,fhis_exempt_en-GB,Exempt,,FHIS,
452347,6 Clairmont Place,Lerwick,Shetland,,Alder Lodge Guest House,Hotel/bed & breakfast/guest house,7842,,,395944,,,60.15171600000000,23629,789,foodsafety@shetland.gov.uk,Shetland Islands,http://www.shetland.gov.uk/,-1.14505900000000,,2014-12-16,fhis_pass_en-GB,Pass,,FHIS,
452348,5-9 Browns Buildings,Burgh Road,Lerwick,,Alex Morrisons,Retailers - other,4613,,,680102,,,,24065,789,foodsafety@shetland.gov.uk,Shetland Islands,http://www.shetland.gov.uk/,,,2014-08-19,fhis_improvement_required_en-GB,Improvement Required,,FHIS,
452349,Upper Urafirth,Hillswick,Shetland,,Almara B&B,Hotel/bed & breakfast/guest house,7842,,,505822,,,,23888,789,foodsafety@shetland.gov.uk,Shetland Islands,http://www.shetland.gov.uk/,,,2013-05-16,fhis_pass_en-GB,Pass,,FHIS,
452350,49-53 Commercial Road,Lerwick,Shetland,,Anderson Butchers Limited,Manufacturers/packers,7839,,,707666,,,,24142,789,foodsafety@shetland.gov.uk,Shetland Islands,http://www.shetland.gov.uk/,,,,fhis_awaiting_inspection_en-GB,Awaiting Inspection,,FHIS,
452351,Brugarth,Whiteness,Shetland,,Anderson Butchers Limited,Manufacturers/packers,7839,,,408953,,,60.21760559082031,507,789,foodsafety@shetland.gov.uk,Shetland Islands,http://www.shetland.gov.uk/,-1.45045971870422,,2014-10-31,fhis_pass_en-GB,Pass,,FHIS,
452352,Twageos Road,Lerwick,Shetland,,Anderson High School,School/college/university,7845,,,408641,,,60.15000800000000,1350,789,foodsafety@shetland.gov.uk,Shetland Islands,http://www.shetland.gov.uk/,-1.13497200000000,,2014-01-14,fhis_pass_en-GB,Pass,,FHIS,
452353,Hamnavoe,Burra,Shetland,,Andrew Halcrow's Shop,Retailers - other,4613,,,391203,,,60.42340850830080,23210,789,foodsafety@shetland.gov.uk,Shetland Islands,http://www.shetland.gov.uk/,-1.09680998325348,,2012-04-18,fhis_improvement_required_en-GB,Improvement Required,,FHIS,
452354,9 South Road,Lerwick,Shetland,,Arisdale,Hotel/bed & breakfast/guest house,7842,,,408700,,,60.15050301000000,21128,789,foodsafety@shetland.gov.uk,Shetland Islands,http://www.shetland.gov.uk/,-1.15494958000000,,2013-04-01,fhis_exempt_en-GB,Exempt,,FHIS,
452355,Asta Golf Club,Asta,Scalloway,,Asta Golf Club,Pub/bar/nightclub,7843,,,408628,,,,1253,789,foodsafety@shetland.gov.uk,Shetland Islands,http://www.shetland.gov.uk/,,,2014-10-08,fhis_exempt_en-GB,Exempt,,FHIS,
452356,Auld Haa,Fair Isle,Shetland,,Auld Haa B&B,Hotel/bed & breakfast/guest house,7842,,,391204,,,60.21760559082031,23213,789,foodsafety@shetland.gov.uk,Shetland Islands,http://www.shetland.gov.uk/,-1.45045971870422,,2012-02-27,fhis_pass_en-GB,Pass,,FHIS,
452357,89 King Harald Street,Lerwick,Shetland,,Aurora Guest House,Hotel/bed & breakfast/guest house,7842,,,408694,,,60.15636921000000,19676,789,foodsafety@shetland.gov.uk,Shetland Islands,http://www.shetland.gov.uk/,-1.15054429000000,,2013-08-01,fhis_exempt_en-GB,Exempt,,FHIS,
452358,Aywick,East Yell,Shetland,,Aywick Shop,Retailers - other,4613,,,391148,,,60.15719985961914,116,789,foodsafety@shetland.gov.uk,Shetland Islands,http://www.shetland.gov.uk/,-1.15156996250153,,2014-08-18,fhis_exempt_en-GB,Exempt,,FHIS,
452359,Baltasound,Unst,Shetland,,Baltasound Hotel,Restaurant/Cafe/Canteen,1,,,391206,,,60.75777816772461,23227,789,foodsafety@shetland.gov.uk,Shetland Islands,http://www.shetland.gov.uk/,-0.86519998311996,,2013-03-26,fhis_improvement_required_en-GB,Improvement Required,,FHIS,
452360,Baltasound,Unst,Shetland,,Baltasound Junior High School,School/college/university,7845,,,391248,,,60.75777816772461,39,789,foodsafety@shetland.gov.uk,Shetland Islands,http://www.shetland.gov.uk/,-0.86519998311996,,2014-06-18,fhis_pass_en-GB,Pass,,FHIS,
452361,Baltasound Junior High School,Baltasound,Unst,,Baltasound Nursery,Hospitals/Childcare/Caring Premises,5,,,391223,,,60.75778500000000,23296,789,foodsafety@shetland.gov.uk,Shetland Islands,http://www.shetland.gov.uk/,-0.86520000000000,,2014-07-03,fhis_exempt_en-GB,Exempt,,FHIS,
452362,1-3 Commercial Road,Lerwick,Shetland,,Baroc,Restaurant/Cafe/Canteen,1,,,408738,,,60.15638530000000,22392,789,foodsafety@shetland.gov.uk,Shetland Islands,http://www.shetland.gov.uk/,-1.14458978000000,,2014-06-10,fhis_improvement_required_en-GB,Improvement Required,,FHIS,
452363,Gilbertson Road,Lerwick,Shetland,,Bells Brae Primary School,School/college/university,7845,,,391147,,,60.15306100000000,1086,789,foodsafety@shetland.gov.uk,Shetland Islands,http://www.shetland.gov.uk/,-1.15548300000000,,2013-12-10,fhis_pass_en-GB,Pass,,FHIS,
452364,Gilbertson Road,Lerwick,Shetland,,Bells Brae Primary School Nursery,Hospitals/Childcare/Caring Premises,5,,,408763,,,60.15306100000000,23249,789,foodsafety@shetland.gov.uk,Shetland Islands,http://www.shetland.gov.uk/,-1.15548300000000,,2012-11-12,fhis_pass_en-GB,Pass,,FHIS,
452365,Holmsgarth Berth 5,Lerwick,Shetland,,Bibby Stockholm,Hotel/bed & breakfast/guest house,7842,,,530831,,,,23911,789,foodsafety@shetland.gov.uk,Shetland Islands,http://www.shetland.gov.uk/,,,2014-09-08,fhis_pass_en-GB,Pass,,FHIS,
452366,Bigton Shop,Bigton,Shetland,,Bigton Community Shop,Retailers - other,4613,,,395945,,,59.97228000000000,23785,789,foodsafety@shetland.gov.uk,Shetland Islands,http://www.shetland.gov.uk/,-1.31547000000000,,2012-06-07,fhis_pass_en-GB,Pass,,FHIS,
452367,Unit 1 Blydoit Industrial Estate,Scalloway,Shetland,,Blydoit Fish Limited,Manufacturers/packers,7839,,,391183,,,60.13970800000000,22017,789,foodsafety@shetland.gov.uk,Shetland Islands,http://www.shetland.gov.uk/,-1.26438800000000,,2014-10-28,fhis_improvement_required_en-GB,Improvement Required,,FHIS,
452368,Rudda Park,Sound,Lerwick,,Blydoit Fish Ltd,Retailers - other,4613,,,408737,,,60.14477400000000,22391,789,foodsafety@shetland.gov.uk,Shetland Islands,http://www.shetland.gov.uk/,-1.16995600000000,,2014-06-02,fhis_improvement_required_en-GB,Improvement Required,,FHIS,
452369,5 Glen,Hamnavoe,Burra,,Boannie Isles,Other catering premises,7841,,,408803,,,60.10512000000000,23435,789,foodsafety@shetland.gov.uk,Shetland Islands,http://www.shetland.gov.uk/,-1.33610000000000,,2014-03-19,fhis_exempt_en-GB,Exempt,,FHIS,
452370,26 North Road,Lerwick,Shetland,,Bolts Mini Market,Retailers - other,4613,,,408631,,,60.15734151000000,1286,789,foodsafety@shetland.gov.uk,Shetland Islands,http://www.shetland.gov.uk/,-1.15535617000000,,2014-03-19,fhis_exempt_en-GB,Exempt,,FHIS,
452371,Brae,Shetland,,,Brae Garage,Retailers - other,4613,,,391188,,,60.39318084716797,22179,789,foodsafety@shetland.gov.uk,Shetland Islands,http://www.shetland.gov.uk/,-1.35031998157501,,2014-12-18,fhis_pass_en-GB,Pass,,FHIS,
452372,Brae,Shetland,,,Brae High School,School/college/university,7845,,,391239,,,60.39318084716797,237,789,foodsafety@shetland.gov.uk,Shetland Islands,http://www.shetland.gov.uk/,-1.35031998157501,,2014-11-18,fhis_pass_en-GB,Pass,,FHIS,
452373,Brae,Shetland,,,Brae High School Nursery,Hospitals/Childcare/Caring Premises,5,,,408765,,,60.39318084716797,23251,789,foodsafety@shetland.gov.uk,Shetland Islands,http://www.shetland.gov.uk/,-1.35031998157501,,2014-09-02,fhis_exempt_en-GB,Exempt,,FHIS,
452374,Brae,Shetland,,,Brae Hotel (Shetland) Ltd,Restaurant/Cafe/Canteen,1,,,408752,,,60.39318084716797,232,789,foodsafety@shetland.gov.uk,Shetland Islands,http://www.shetland.gov.uk/,-1.35031998157501,,2013-08-12,fhis_pass_en-GB,Pass,,FHIS,
452375,Old School,Brae,Shetland,,Brae Youth Centre,Retailers - other,4613,,,408744,,,,229,789,foodsafety@shetland.gov.uk,Shetland Islands,http://www.shetland.gov.uk/,,,2012-09-20,fhis_exempt_en-GB,Exempt,,FHIS,
452376,Braewick,Eshaness,Shetland,,Braewick Cafe & Campsite,Restaurant/Cafe/Canteen,1,,,391192,,,,22297,789,foodsafety@shetland.gov.uk,Shetland Islands,http://www.shetland.gov.uk/,,,2014-09-12,fhis_pass_and_eat_safe_en-GB,Pass and Eat Safe,,FHIS,
452377,43 Kanterstead Road,Lerwick,Shetland,,Breiview Guest House,Hotel/bed & breakfast/guest house,7842,,,391187,,,60.14400237000000,22137,789,foodsafety@shetland.gov.uk,Shetland Islands,http://www.shetland.gov.uk/,-1.16441288000000,,2014-07-04,fhis_exempt_en-GB,Exempt,,FHIS,
452378,Buness,Baltsound,Unst,,Buness House,Hotel/bed & breakfast/guest house,7842,,,395943,,,,1438,789,foodsafety@shetland.gov.uk,Shetland Islands,http://www.shetland.gov.uk/,,,2012-05-21,fhis_pass_en-GB,Pass,,FHIS,
452379,Old School,Hamnavoe,Burra,,Burra Playgroup,Hospitals/Childcare/Caring Premises,5,,,391213,,,,23253,789,foodsafety@shetland.gov.uk,Shetland Islands,http://www.shetland.gov.uk/,,,2014-07-04,fhis_exempt_en-GB,Exempt,,FHIS,
452380,Burrastow,Walls,Shetland,,Burrastow Guest House,Hotel/bed & breakfast/guest house,7842,,,391205,,,60.21760559082031,23221,789,foodsafety@shetland.gov.uk,Shetland Islands,http://www.shetland.gov.uk/,-1.45045971870422,,2014-07-03,fhis_exempt_en-GB,Exempt,,FHIS,
452381,Burravoe,Yell,Shetland,,Burravoe Primary School,School/college/university,7845,,,391159,,,60.38790512084961,127,789,foodsafety@shetland.gov.uk,Shetland Islands,http://www.shetland.gov.uk/,-1.34842598438263,,2014-07-03,fhis_exempt_en-GB,Exempt,,FHIS,
452382,Busta,Brae,Shetland,,Busta House Hotel Ltd,Restaurant/Cafe/Canteen,1,,,408913,,,60.38594818115230,246,789,foodsafety@shetland.gov.uk,Shetland Islands,http://www.shetland.gov.uk/,-1.37521994113922,,2014-01-31,fhis_pass_en-GB,Pass,,FHIS,
452383,Port Business Park,Gremista,Lerwick,,C.O.P.E. Ltd,Other catering premises,7841,,,391154,,,60.16634300000000,11963,789,foodsafety@shetland.gov.uk,Shetland Islands,http://www.shetland.gov.uk/,-1.16664000000000,,2014-03-28,fhis_pass_and_eat_safe_en-GB,Pass and Eat Safe,,FHIS,
452384,Walls,Shetland,,,Cafe in the Church,Restaurant/Cafe/Canteen,1,,,548030,,,60.22895050048828,321,789,foodsafety@shetland.gov.uk,Shetland Islands,http://www.shetland.gov.uk/,-1.56378996372223,,2014-11-03,fhis_pass_en-GB,Pass,,FHIS,
452385,Market Cross,Lerwick,Shetland,,Captain Flints,Pub/bar/nightclub,7843,,,408759,,,,23224,789,foodsafety@shetland.gov.uk,Shetland Islands,http://www.shetland.gov.uk/,,,2014-10-14,fhis_awaiting_inspection_en-GB,Awaiting Inspection,,FHIS,
452386,12 Colonial Place,Scatness,Virkie,,Catering by Theresa,Other catering premises,7841,,,680097,,,,17189,789,foodsafety@shetland.gov.uk,Shetland Islands,http://www.shetland.gov.uk/,,,2014-08-06,fhis_exempt_en-GB,Exempt,,FHIS,
452387,Central,Sandwick,Shetland,,Central Private Nursery & Out of School Club,Hospitals/Childcare/Caring Premises,5,,,408735,,,60.21760559082030,22376,789,foodsafety@shetland.gov.uk,Shetland Islands,http://www.shetland.gov.uk/,-1.45045971870422,,2013-04-01,fhis_exempt_en-GB,Exempt,,FHIS,
452388,6 Charlotte Street,Lerwick,Shetland,,Christine's Place,Hotel/bed & breakfast/guest house,7842,,,408712,,,60.15472312000000,22132,789,foodsafety@shetland.gov.uk,Shetland Islands,http://www.shetland.gov.uk/,-1.14535867000000,,2012-09-20,fhis_exempt_en-GB,Exempt,,FHIS,
452389,Harrison Square,Lerwick,Shetland,,Coffee & Keetchin,Restaurant/Cafe/Canteen,1,,,569737,,,60.15361700000000,23949,789,foodsafety@shetland.gov.uk,Shetland Islands,http://www.shetland.gov.uk/,-1.14303400000000,,2013-07-18,fhis_pass_en-GB,Pass,,FHIS,
452390,74-78 Commercial Street,Lerwick,Shetland,,Conochies,Retailers - other,4613,,,391238,,,60.15341207000001,23646,789,foodsafety@shetland.gov.uk,Shetland Islands,http://www.shetland.gov.uk/,-1.14328757000000,,2014-10-08,fhis_exempt_en-GB,Exempt,,FHIS,
452391,Fetlar General Merchants,Fetlar,Shetland,,Cosh Coffee Shop,Restaurant/Cafe/Canteen,1,,,448228,,,,23839,789,foodsafety@shetland.gov.uk,Shetland Islands,http://www.shetland.gov.uk/,,,2012-08-24,fhis_pass_en-GB,Pass,,FHIS,
452392,Cullivoe,Yell,Shetland,,Cullivoe Primary School,School/college/university,7845,,,408970,,,60.70349121093750,63,789,foodsafety@shetland.gov.uk,Shetland Islands,http://www.shetland.gov.uk/,-1.01514005661011,,2013-08-01,fhis_exempt_en-GB,Exempt,,FHIS,
452393,Cunningsburgh,Shetland,,,Cunningsburgh Nursery,Hospitals/Childcare/Caring Premises,5,,,391214,,,60.05395889282227,23254,789,foodsafety@shetland.gov.uk,Shetland Islands,http://www.shetland.gov.uk/,-1.22554004192352,,2014-08-18,fhis_exempt_en-GB,Exempt,,FHIS,
452394,Cunningsburgh,Shetland,,,Cunningsburgh Primary School,School/college/university,7845,,,391262,,,60.05395889282227,770,789,foodsafety@shetland.gov.uk,Shetland Islands,http://www.shetland.gov.uk/,-1.22554004192352,,2013-06-19,fhis_pass_en-GB,Pass,,FHIS,
452395,Cunningsburgh,Shetland,,,Cunningsburgh Public Hall,Other catering premises,7841,,,408983,,,60.05395889282227,781,789,foodsafety@shetland.gov.uk,Shetland Islands,http://www.shetland.gov.uk/,-1.22554004192352,,2014-10-21,fhis_improvement_required_en-GB,Improvement Required,,FHIS,
452396,Cunningsburgh,Shetland,,,Cunningsburgh Youth Club,Retailers - other,4613,,,408982,,,60.05395889282227,771,789,foodsafety@shetland.gov.uk,Shetland Islands,http://www.shetland.gov.uk/,-1.22554004192352,,2009-04-22,fhis_awaiting_inspection_en-GB,Awaiting Inspection,,FHIS,
452397,Market Cross,Lerwick,Shetland,,D & G Leslie,Retailers - other,4613,,,408760,,,,23225,789,foodsafety@shetland.gov.uk,Shetland Islands,http://www.shetland.gov.uk/,,,2013-10-17,fhis_improvement_required_en-GB,Improvement Required,,FHIS,
452398,6 Dunrossness Industrial Estate,Dunrossness,Shetland,,Da Keg,Retailers - other,4613,,,408809,,,,23450,789,foodsafety@shetland.gov.uk,Shetland Islands,http://www.shetland.gov.uk/,,,2013-05-01,fhis_exempt_en-GB,Exempt,,FHIS,
452399,Casho,Quarff,Shetland,,Da Lia B&B,Hotel/bed & breakfast/guest house,7842,,,505820,,,,23886,789,foodsafety@shetland.gov.uk,Shetland Islands,http://www.shetland.gov.uk/,,,2013-04-30,fhis_pass_en-GB,Pass,,FHIS,
452400,Clickimin Leisure Centre,Lochside,"Lerwick, Shetland",,Da Muckle Cafe,Restaurant/Cafe/Canteen,1,,,391228,,,60.14945142098569,23368,789,foodsafety@shetland.gov.uk,Shetland Islands,http://www.shetland.gov.uk/,-1.15915052861049,,2013-08-06,fhis_pass_en-GB,Pass,,FHIS,
452401,86 Commercial Street,Lerwick,Shetland,,Da Noost,Pub/bar/nightclub,7843,,,409001,,,60.15361145000001,990,789,foodsafety@shetland.gov.uk,Shetland Islands,http://www.shetland.gov.uk/,-1.14350930000000,,2014-10-14,fhis_exempt_en-GB,Exempt,,FHIS,
452402,13 Commercial Road,Lerwick,Shetland,,Da Wheel Bar,Pub/bar/nightclub,7843,,,408988,,,60.15666343000000,877,789,foodsafety@shetland.gov.uk,Shetland Islands,http://www.shetland.gov.uk/,-1.14483407000000,,2013-08-01,fhis_exempt_en-GB,Exempt,,FHIS,
452403,Hillswick Road,Brae,Shetland,,Delting Boating Club,Pub/bar/nightclub,7843,,,408665,,,60.47661000000000,1470,789,foodsafety@shetland.gov.uk,Shetland Islands,http://www.shetland.gov.uk/,-1.48744000000000,,2012-03-30,fhis_awaiting_inspection_en-GB,Awaiting Inspection,,FHIS,
452404,Mossbank Shop,North Lea,Firth,,Delting Site Services Ltd,Retailers - other,4613,,,680101,,,,24064,789,foodsafety@shetland.gov.uk,Shetland Islands,http://www.shetland.gov.uk/,,,2014-08-06,fhis_improvement_required_en-GB,Improvement Required,,FHIS,
452405,Kantersted Road,Sound,Lerwick,,Dragon House,Takeaway/sandwich shop,7844,,,408719,,,60.14489800000000,22220,789,foodsafety@shetland.gov.uk,Shetland Islands,http://www.shetland.gov.uk/,-1.16393600000000,,2014-10-29,fhis_pass_en-GB,Pass,,FHIS,
452406,Brae,Shetland,,,Drumquin Guest House Ltd.,Hotel/bed & breakfast/guest house,7842,,,408832,,,60.39318084716797,23616,789,foodsafety@shetland.gov.uk,Shetland Islands,http://www.shetland.gov.uk/,-1.35031998157501,,2014-03-18,fhis_pass_en-GB,Pass,,FHIS,
452407,Dunrossness Primary School,Dunrossness,Shetland,,Dunrossness Nursery,Hospitals/Childcare/Caring Premises,5,,,391215,,,,23255,789,foodsafety@shetland.gov.uk,Shetland Islands,http://www.shetland.gov.uk/,,,2014-10-07,fhis_exempt_en-GB,Exempt,,FHIS,
452408,Dunrossness,Shetland,,,Dunrossness Primary School,School/college/university,7845,,,391259,,,60.21760559082030,677,789,foodsafety@shetland.gov.uk,Shetland Islands,http://www.shetland.gov.uk/,-1.45045971870422,,2013-05-28,fhis_pass_en-GB,Pass,,FHIS,
452409,8 Clairmont Place,Lerwick,Shetland,,Eddlewood Guest House,Hotel/bed & breakfast/guest house,7842,,,680100,,,60.15171600000000,24063,789,foodsafety@shetland.gov.uk,Shetland Islands,http://www.shetland.gov.uk/,-1.14505900000000,,,fhis_awaiting_inspection_en-GB,Awaiting Inspection,,FHIS,
452410,Kantersted,Lerwick,Shetland,,Edward Thomason House,Hospitals/Childcare/Caring Premises,5,,,408629,,,60.21760559082031,1262,789,foodsafety@shetland.gov.uk,Shetland Islands,http://www.shetland.gov.uk/,-1.45045971870422,,2014-03-19,fhis_exempt_en-GB,Exempt,,FHIS,
452411,Aith,Shetland,,,Eid Community Co-operative Ltd,Retailers - other,4613,,,408726,,,60.28456878662110,22327,789,foodsafety@shetland.gov.uk,Shetland Islands,http://www.shetland.gov.uk/,-1.37879002094269,,2012-09-20,fhis_exempt_en-GB,Exempt,,FHIS,
452412,33 Commercial Road,Lerwick,Shetland,,Emma-Louise's The Coffee Shop,Restaurant/Cafe/Canteen,1,,,408892,,,60.15737879000000,23784,789,foodsafety@shetland.gov.uk,Shetland Islands,http://www.shetland.gov.uk/,-1.14833093000000,,2014-03-20,fhis_pass_en-GB,Pass,,FHIS,
452413,Braehoulland,Eshaness,Shetland,,Eshaness Community Centre,Other catering premises,7841,,,408695,,,60.15719985961914,197,789,foodsafety@shetland.gov.uk,Shetland Islands,http://www.shetland.gov.uk/,-1.15156996250153,,2014-09-02,fhis_exempt_en-GB,Exempt,,FHIS,
452414,42-44 Commercial Street,Lerwick,Shetland,,Faerdie-Maet,Takeaway/sandwich shop,7844,,,408987,,,,869,789,foodsafety@shetland.gov.uk,Shetland Islands,http://www.shetland.gov.uk/,,,2014-10-30,fhis_pass_en-GB,Pass,,FHIS,
452415,Fair Isle Bird Observatory,Fair Isle,Shetland,,Fair Isle Bird Observatory Trust,Restaurant/Cafe/Canteen,1,,,391260,,,59.53206000000000,708,789,foodsafety@shetland.gov.uk,Shetland Islands,http://www.shetland.gov.uk/,-1.62419000000000,,2014-10-08,fhis_pass_en-GB,Pass,,FHIS,
452416,Fair Isle,Shetland,,,Fair Isle Nursery,Hospitals/Childcare/Caring Premises,5,,,391216,,,59.53076553344727,23256,789,foodsafety@shetland.gov.uk,Shetland Islands,http://www.shetland.gov.uk/,-1.63574385643005,,2014-07-04,fhis_exempt_en-GB,Exempt,,FHIS,
452417,Fair Isle,Shetland,,,Fair Isle Primary School,School/college/university,7845,,,408979,,,59.53076553344727,706,789,foodsafety@shetland.gov.uk,Shetland Islands,http://www.shetland.gov.uk/,-1.63574385643005,,2014-10-08,fhis_pass_en-GB,Pass,,FHIS,
452418,The Wishart Anderson Care Ctre,Marrister,Whalsay,,Fernlea Care Centre,Hospitals/Childcare/Caring Premises,5,,,391162,,,60.35792160034180,1359,789,foodsafety@shetland.gov.uk,Shetland Islands,http://www.shetland.gov.uk/,-1.01101994514465,,2014-02-19,fhis_pass_en-GB,Pass,,FHIS,
452419,Gord,Fetlar,Shetland,,Fetlar General Merchants,Retailers - other,4613,,,391173,,,60.21760559082031,152,789,foodsafety@shetland.gov.uk,Shetland Islands,http://www.shetland.gov.uk/,-1.45045971870422,,2013-03-15,fhis_pass_en-GB,Pass,,FHIS,
452420,Beach of Houbie,Houbie,Fetlar,,Fetlar Interpretive Centre,Retailers - other,4613,,,408617,,,,11950,789,foodsafety@shetland.gov.uk,Shetland Islands,http://www.shetland.gov.uk/,,,2008-08-27,fhis_exempt_en-GB,Exempt,,FHIS,
452421,Fetlar,Shetland,,,Fetlar Primary School Nursery,Hospitals/Childcare/Caring Premises,5,,,408802,,,60.35103607177734,23406,789,foodsafety@shetland.gov.uk,Shetland Islands,http://www.shetland.gov.uk/,-1.42766964435577,,2012-09-20,fhis_exempt_en-GB,Exempt,,FHIS,
452422,181 Commercial Street,Lerwick,Shetland,,Fine Peerie Cake Shop,Manufacturers/packers,7839,,,391234,,,60.15610863000000,23639,789,foodsafety@shetland.gov.uk,Shetland Islands,http://www.shetland.gov.uk/,-1.14428517000000,,2014-05-27,fhis_pass_en-GB,Pass,,FHIS,
452423,Sea Road,Lerwick,Shetland,,Fjara Cafe Bar Ltd.,Restaurant/Cafe/Canteen,1,,,715495,,,60.14202500000000,24143,789,foodsafety@shetland.gov.uk,Shetland Islands,http://www.shetland.gov.uk/,-1.15980700000000,,,fhis_awaiting_inspection_en-GB,Awaiting Inspection,,FHIS,
452424,25 Commercial Road,Lerwick,Shetland,,Flames Grills & Bites,Restaurant/Cafe/Canteen,1,,,408834,,,60.15669644000000,23624,789,foodsafety@shetland.gov.uk,Shetland Islands,http://www.shetland.gov.uk/,-1.14489019000000,,2014-09-10,fhis_improvement_required_en-GB,Improvement Required,,FHIS,
452425,Marts Cafe,Staney Hill,Lerwick,,Food by Ms Beaton,Restaurant/Cafe/Canteen,1,,,391210,,,,23244,789,foodsafety@shetland.gov.uk,Shetland Islands,http://www.shetland.gov.uk/,,,2014-09-16,fhis_improvement_required_en-GB,Improvement Required,,FHIS,
452426,Saxa Vord Resort,Haroldswick,Unst,,Foords Chocolates,Manufacturers/packers,7839,,,408756,,,60.82876205444336,23214,789,foodsafety@shetland.gov.uk,Shetland Islands,http://www.shetland.gov.uk/,-0.83942198753357,,2013-12-12,fhis_improvement_required_en-GB,Improvement Required,,FHIS,
452427,2 Commercial Road,Lerwick,Shetland,,Fort Cafe and Takeaway,Takeaway/sandwich shop,7844,,,391266,,,60.15722500000000,898,789,foodsafety@shetland.gov.uk,Shetland Islands,http://www.shetland.gov.uk/,-1.14570100000000,,2014-03-20,fhis_improvement_required_en-GB,Improvement Required,,FHIS,
452428,1 Charlotte Street,Lerwick,Shetland,,Fort Charlotte Guest House,Hotel/bed & breakfast/guest house,7842,,,391186,,,60.15478671000001,22107,789,foodsafety@shetland.gov.uk,Shetland Islands,http://www.shetland.gov.uk/,-1.14403054000000,,2014-07-04,fhis_exempt_en-GB,Exempt,,FHIS,
452429,Brae,Shetland,,,Frankie's Fish & Chips,Restaurant/Cafe/Canteen,1,,,391221,,,60.39318084716797,23283,789,foodsafety@shetland.gov.uk,Shetland Islands,http://www.shetland.gov.uk/,-1.35031998157501,,2014-03-28,fhis_pass_and_eat_safe_en-GB,Pass and Eat Safe,,FHIS,
452430,Market Street,Lerwick,Shetland,,Garrison Theatre,Retailers - other,4613,,,408626,,,60.15618300000000,1213,789,foodsafety@shetland.gov.uk,Shetland Islands,http://www.shetland.gov.uk/,-1.14692500000000,,2008-05-20,fhis_exempt_en-GB,Exempt,,FHIS,
452431,Hillswick,Shetland,,,Gateside Pork and Produce,Farmers/growers,7838,,,605322,,,60.47660827636719,12912,789,foodsafety@shetland.gov.uk,Shetland Islands,http://www.shetland.gov.uk/,-1.48743999004364,,,fhis_awaiting_inspection_en-GB,Awaiting Inspection,,FHIS,
452432,Germatwatt Centre,Walls,Shetland,,Germatwatt Centre Trustees,Other catering premises,7841,,,535190,,,,23914,789,foodsafety@shetland.gov.uk,Shetland Islands,http://www.shetland.gov.uk/,,,2014-06-18,fhis_pass_en-GB,Pass,,FHIS,
452433,Fjael,Sandsound,Bixter,,Gillian Isbister (Childminding),Hospitals/Childcare/Caring Premises,5,,,715497,,,,24145,789,foodsafety@shetland.gov.uk,Shetland Islands,http://www.shetland.gov.uk/,,,,fhis_awaiting_inspection_en-GB,Awaiting Inspection,,FHIS,
452434,20 Knab Road,Lerwick,Shetland,,Glen Orchy Guest House,Hotel/bed & breakfast/guest house,7842,,,408624,,,60.14854844000001,1207,789,foodsafety@shetland.gov.uk,Shetland Islands,http://www.shetland.gov.uk/,-1.13945347000000,,2014-05-01,fhis_pass_en-GB,Pass,,FHIS,
452435,Hubie,Fetlar,Shetland,,Gord B & B,Hotel/bed & breakfast/guest house,7842,,,408916,,,60.21760559082031,2817,789,foodsafety@shetland.gov.uk,Shetland Islands,http://www.shetland.gov.uk/,-1.45045971870422,,2011-02-24,fhis_awaiting_inspection_en-GB,Awaiting Inspection,,FHIS,
452436,149 Commercial Street,Lerwick,Shetland,,Grand Hotel,Restaurant/Cafe/Canteen,1,,,408997,,,60.15383363000000,947,789,foodsafety@shetland.gov.uk,Shetland Islands,http://www.shetland.gov.uk/,-1.14365280000000,,2014-04-30,fhis_improvement_required_en-GB,Improvement Required,,FHIS,
452437,Holmsgarth Road,Lerwick,Shetland,,Grantfield Garage,Retailers - other,4613,,,391149,,,60.16308300000000,1175,789,foodsafety@shetland.gov.uk,Shetland Islands,http://www.shetland.gov.uk/,-1.15987100000000,,2014-05-13,fhis_exempt_en-GB,Exempt,,FHIS,
452438,Brae,Shetland,,,Greystones Guest House,Hotel/bed & breakfast/guest house,7842,,,408743,,,60.39318084716797,226,789,foodsafety@shetland.gov.uk,Shetland Islands,http://www.shetland.gov.uk/,-1.35031998157501,,2014-03-19,fhis_exempt_en-GB,Exempt,,FHIS,
452439,33 North Road,Lerwick,Shetland,,Gurkha Kitchen,Restaurant/Cafe/Canteen,1,,,391227,,,60.15740569000000,23340,789,foodsafety@shetland.gov.uk,Shetland Islands,http://www.shetland.gov.uk/,-1.15568570000000,,2014-05-28,fhis_improvement_required_en-GB,Improvement Required,,FHIS,
452440,Gutcher Ferry Terminal,Yell,Shetland,,Gutcher Goose Cafe,Restaurant/Cafe/Canteen,1,,,687305,,,,24088,789,foodsafety@shetland.gov.uk,Shetland Islands,http://www.shetland.gov.uk/,,,2014-06-18,fhis_improvement_required_en-GB,Improvement Required,,FHIS,
452441,Nord,Baltasound,Unst,,H Henderson General Merchants,Retailers - other,4613,,,391250,,,,42,789,foodsafety@shetland.gov.uk,Shetland Islands,http://www.shetland.gov.uk/,,,2014-08-12,fhis_exempt_en-GB,Exempt,,FHIS,
452442,Da Haaf Restaurant,NAFC Marine Centre,Port Arthur,,Haaf Catering,Restaurant/Cafe/Canteen,1,,,636587,,,,24049,789,foodsafety@shetland.gov.uk,Shetland Islands,http://www.shetland.gov.uk/,,,2014-03-05,fhis_pass_en-GB,Pass,,FHIS,
452443,New Street,Scalloway,Shetland,,Hai Yang Chinese Takeaway,Takeaway/sandwich shop,7844,,,408841,,,60.13624100000000,23681,789,foodsafety@shetland.gov.uk,Shetland Islands,http://www.shetland.gov.uk/,-1.27505700000000,,2014-12-11,fhis_improvement_required_en-GB,Improvement Required,,FHIS,
452444,Main Street,Scalloway,Shetland,,Hame Fae Hame,Hospitals/Childcare/Caring Premises,5,,,408782,,,60.13758800000000,23316,789,foodsafety@shetland.gov.uk,Shetland Islands,http://www.shetland.gov.uk/,-1.27842700000000,,2014-06-10,fhis_pass_en-GB,Pass,,FHIS,
452445,Hamnavoe,Burra,Shetland,,Hamnavoe Primary School,School/college/university,7845,,,391257,,,60.42340850830080,628,789,foodsafety@shetland.gov.uk,Shetland Islands,http://www.shetland.gov.uk/,-1.09680998325348,,2014-03-25,fhis_pass_en-GB,Pass,,FHIS,
452446,Unit 3J Toll Clock Shopping Centre,26 North Road,Lerwick,,Hand-Made Fish Co,Retailers - other,4613,,,391194,,,60.15182876586914,22317,789,foodsafety@shetland.gov.uk,Shetland Islands,http://www.shetland.gov.uk/,-1.14522004127502,,2014-08-12,fhis_pass_and_eat_safe_en-GB,Pass and Eat Safe,,FHIS,
452447,5 Sands of Sound,Lerwick,Shetland,,Hannah's Cakes and Bakes,Other catering premises,7841,,,442671,,,60.14265291000000,23829,789,foodsafety@shetland.gov.uk,Shetland Islands,http://www.shetland.gov.uk/,-1.16921759000000,,2014-03-29,fhis_exempt_en-GB,Exempt,,FHIS,
452448,59 Commercial Road,Lerwick,Shetland,,Happy Haddock Shetland Ltd,Takeaway/sandwich shop,7844,,,391198,,,60.15716736000000,22381,789,foodsafety@shetland.gov.uk,Shetland Islands,http://www.shetland.gov.uk/,-1.15009866000000,,2014-12-18,fhis_improvement_required_en-GB,Improvement Required,,FHIS,
452449,Walls,Shetland,,,Happyhansel Primary School,School/college/university,7845,,,391247,,,60.22895050048828,316,789,foodsafety@shetland.gov.uk,Shetland Islands,http://www.shetland.gov.uk/,-1.56378996372223,,2014-06-18,fhis_pass_en-GB,Pass,,FHIS,
452450,Happyhansel School,Walls,Shetland,,Happyhansel Primary School Nursery,Hospitals/Childcare/Caring Premises,5,,,391224,,,60.22895000000000,23297,789,foodsafety@shetland.gov.uk,Shetland Islands,http://www.shetland.gov.uk/,-1.56379000000000,,2011-12-01,fhis_pass_en-GB,Pass,,FHIS,
452451,7 Harrison Square,Lerwick,Shetland,,Harbour Fish & Chip Shop,Takeaway/sandwich shop,7844,,,391231,,,60.15361700000000,23444,789,foodsafety@shetland.gov.uk,Shetland Islands,http://www.shetland.gov.uk/,-1.14303400000000,,2014-11-20,fhis_pass_en-GB,Pass,,FHIS,
452452,Roadside Cottage,East Burrafirth,Bixter,,Hayfield Croft Produce,Farmers/growers,7838,,,569734,,,,23946,789,foodsafety@shetland.gov.uk,Shetland Islands,http://www.shetland.gov.uk/,,,2014-07-25,fhis_pass_en-GB,Pass,,FHIS,
452453,Bigton,Shetland,,,Hayhoull B & B,Hotel/bed & breakfast/guest house,7842,,,408812,,,59.97227859497070,23467,789,foodsafety@shetland.gov.uk,Shetland Islands,http://www.shetland.gov.uk/,-1.31546998023987,,2013-05-01,fhis_exempt_en-GB,Exempt,,FHIS,
452454,Shetland Museum & Archives,Hay's Dock,Lerwick,,Hay's Dock Cafe Restaurant,Restaurant/Cafe/Canteen,1,,,408727,,,,22339,789,foodsafety@shetland.gov.uk,Shetland Islands,http://www.shetland.gov.uk/,,,2014-01-10,fhis_pass_en-GB,Pass,,FHIS,
452455,12 Commercial Road,Lerwick,Shetland,,Health Craft,Retailers - other,4613,,,391267,,,60.15666068000001,901,789,foodsafety@shetland.gov.uk,Shetland Islands,http://www.shetland.gov.uk/,-1.14482939000000,,2014-05-13,fhis_exempt_en-GB,Exempt,,FHIS,
452456,6 Glenburn Road,Hamnavoe,Burra,,Hel's Kitchen,Other catering premises,7841,,,680096,,,,17106,789,foodsafety@shetland.gov.uk,Shetland Islands,http://www.shetland.gov.uk/,,,,fhis_awaiting_inspection_en-GB,Awaiting Inspection,,FHIS,
452457,Veensgarth,Tingwall,Shetland,,Herrislea House Hotel,Hotel/bed & breakfast/guest house,7842,,,408951,,,60.18252944946289,487,789,foodsafety@shetland.gov.uk,Shetland Islands,http://www.shetland.gov.uk/,-1.23113000392914,,2012-09-20,fhis_exempt_en-GB,Exempt,,FHIS,
452458,62-64 Commercial Street,Lerwick,Shetland,,High Level Music,Restaurant/Cafe/Canteen,1,,,680109,,,60.15315592000000,24072,789,foodsafety@shetland.gov.uk,Shetland Islands,http://www.shetland.gov.uk/,-1.14287585000000,,2014-08-11,fhis_pass_en-GB,Pass,,FHIS,
452459,Hillswick,Shetland,,,Hillswick Shop Limited,Retailers - other,4613,,,408792,,,60.47660827636719,23365,789,foodsafety@shetland.gov.uk,Shetland Islands,http://www.shetland.gov.uk/,-1.48743999004364,,2012-09-20,fhis_exempt_en-GB,Exempt,,FHIS,
452460,Hoswick,Sandwick,Shetland,,Hoswick Visitor Centre,Restaurant/Cafe/Canteen,1,,,408655,,,60.00000000000000,1418,789,foodsafety@shetland.gov.uk,Shetland Islands,http://www.shetland.gov.uk/,-1.26666605472565,,2014-08-26,fhis_improvement_required_en-GB,Improvement Required,,FHIS,
452461,North Gremista Industrial Esta,Lerwick,Shetland,,Hughson Brothers,Distributors/Transporters,7,,,408608,,,60.16415700000000,11553,789,foodsafety@shetland.gov.uk,Shetland Islands,http://www.shetland.gov.uk/,-1.16567100000000,,2013-02-19,fhis_awaiting_inspection_en-GB,Awaiting Inspection,,FHIS,
452462,East Isle,Skerries,Shetland,,Humphray & Co,Retailers - other,4613,,,408946,,,60.21760559082031,459,789,foodsafety@shetland.gov.uk,Shetland Islands,http://www.shetland.gov.uk/,-1.45045971870422,,2013-05-01,fhis_exempt_en-GB,Exempt,,FHIS,
452463,11 Hill Lane,Lerwick,Shetland,,Island Oven Shetland,Other catering premises,7841,,,707663,,,,24137,789,foodsafety@shetland.gov.uk,Shetland Islands,http://www.shetland.gov.uk/,,,2014-08-21,fhis_pass_en-GB,Pass,,FHIS,
452464,Old Infants School,King Harald Street,Lerwick,,Isles Haven Nursery,Hospitals/Childcare/Caring Premises,5,,,642659,,,,24057,789,foodsafety@shetland.gov.uk,Shetland Islands,http://www.shetland.gov.uk/,,,2014-05-12,fhis_pass_en-GB,Pass,,FHIS,
452465,King Harald Street,Lerwick,Shetland,,Islesburgh Complex,Restaurant/Cafe/Canteen,1,,,391201,,,60.15305600000000,22440,789,foodsafety@shetland.gov.uk,Shetland Islands,http://www.shetland.gov.uk/,-1.14864500000000,,2013-08-06,fhis_pass_en-GB,Pass,,FHIS,
452466,Islesburgh Community Centre,King Harald Street,Lerwick,,Islesburgh Out of School Club,Hospitals/Childcare/Caring Premises,5,,,408708,,,60.15305600000000,22038,789,foodsafety@shetland.gov.uk,Shetland Islands,http://www.shetland.gov.uk/,-1.14864500000000,,2013-05-01,fhis_exempt_en-GB,Exempt,,FHIS,
452467,Mid Yell,Yell,Shetland,,Isleshaven Care Centre,Hospitals/Childcare/Caring Premises,5,,,408599,,,60.52862800000000,106,789,foodsafety@shetland.gov.uk,Shetland Islands,http://www.shetland.gov.uk/,-1.17107300000000,,2014-02-25,fhis_improvement_required_en-GB,Improvement Required,,FHIS,
452468,26 Cairnfield Road,Lerwick,Shetland,,J & K Catering,Other catering premises,7841,,,408806,,,60.15062423000001,23440,789,foodsafety@shetland.gov.uk,Shetland Islands,http://www.shetland.gov.uk/,-1.15637432000000,,2014-10-08,fhis_exempt_en-GB,Exempt,,FHIS,
452469,41-45 Commercial Road,Lerwick,Shetland,,J J Taylor Newsagents,Retailers - other,4613,,,408784,,,60.15733769000001,23318,789,foodsafety@shetland.gov.uk,Shetland Islands,http://www.shetland.gov.uk/,-1.14865880000000,,2014-03-31,fhis_pass_en-GB,Pass,,FHIS,
452470,177 Commercial Street,Lerwick,Shetland,,J K Mainland Butchers,Manufacturers/packers,7839,,,408785,,,60.15508223000000,23324,789,foodsafety@shetland.gov.uk,Shetland Islands,http://www.shetland.gov.uk/,-1.14385459000000,,2014-09-02,fhis_improvement_required_en-GB,Improvement Required,,FHIS,
452471,Dunrossness,Shetland,,,J K Mainland Catering,Mobile caterer,7846,,,687303,,,60.21760559082030,17582,789,foodsafety@shetland.gov.uk,Shetland Islands,http://www.shetland.gov.uk/,-1.45045971870422,,2014-07-01,fhis_pass_en-GB,Pass,,FHIS,
452472,Shetland Gas Plant,Sullom Voe,Mossbank,,J Murphy & Sons Site Canteen,Restaurant/Cafe/Canteen,1,,,605325,,,,23992,789,foodsafety@shetland.gov.uk,Shetland Islands,http://www.shetland.gov.uk/,,,2013-11-11,fhis_improvement_required_en-GB,Improvement Required,,FHIS,
452473,25 Gremista Industrial Estate,Lerwick,Shetland,,J W Gray PLC  (main),Distributors/Transporters,7,,,408607,,,60.16415700000000,1132,789,foodsafety@shetland.gov.uk,Shetland Islands,http://www.shetland.gov.uk/,-1.16567100000000,,2012-01-13,fhis_exempt_en-GB,Exempt,,FHIS,
452474,Symbister,Whalsay,Shetland,,J W J (Whalsay) Ltd,Retailers - other,4613,,,408942,,,60.33982849121094,442,789,foodsafety@shetland.gov.uk,Shetland Islands,http://www.shetland.gov.uk/,-1.02214002609253,,2013-04-01,fhis_exempt_en-GB,Exempt,,FHIS,
452475,129 North Road,Lerwick,Shetland,,Jackie Kelly Catering,Other catering premises,7841,,,408697,,,60.16352952999999,20279,789,foodsafety@shetland.gov.uk,Shetland Islands,http://www.shetland.gov.uk/,-1.16221317000000,,2012-09-20,fhis_exempt_en-GB,Exempt,,FHIS,
452476,35-37 North Road,Lerwick,Shetland,,Jackys,Other catering premises,7841,,,617953,,,60.16082500000000,24023,789,foodsafety@shetland.gov.uk,Shetland Islands,http://www.shetland.gov.uk/,-1.15881900000000,,,fhis_awaiting_inspection_en-GB,Awaiting Inspection,,FHIS,
452477,35-37 North Road,Lerwick,Shetland,,Jacky's Cards & Gifts,Retailers - other,4613,,,408791,,,60.16082500000000,23361,789,foodsafety@shetland.gov.uk,Shetland Islands,http://www.shetland.gov.uk/,-1.15881900000000,,2013-05-01,fhis_exempt_en-GB,Exempt,,FHIS,
452478,Gressy Loan,Lerwick,Shetland,,Janet Courtney,School/college/university,7845,,,391166,,,60.14827400000000,1413,789,foodsafety@shetland.gov.uk,Shetland Islands,http://www.shetland.gov.uk/,-1.13633800000000,,2014-03-26,fhis_pass_en-GB,Pass,,FHIS,
452479,The Custodian,Jarlshof,Sumburgh,,Jarlshof,Retailers - other,4613,,,408702,,,,21526,789,foodsafety@shetland.gov.uk,Shetland Islands,http://www.shetland.gov.uk/,,,2008-05-02,fhis_exempt_en-GB,Exempt,,FHIS,
452480,Toab,Virkie,Sumburgh,,John Goudie,Retailers - other,4613,,,408973,,,59.88777160644531,663,789,foodsafety@shetland.gov.uk,Shetland Islands,http://www.shetland.gov.uk/,-1.30760002136230,,2013-03-08,fhis_pass_en-GB,Pass,,FHIS,
452481,Vidlin,Shetland,,,John I Herculson,Retailers - other,4613,,,391251,,,60.36901855468750,421,789,foodsafety@shetland.gov.uk,Shetland Islands,http://www.shetland.gov.uk/,-1.14039003849030,,2013-07-09,fhis_pass_en-GB,Pass,,FHIS,
452482,Cullister,Sandwick,Shetland,,Julie Halcrow Catering,Other catering premises,7841,,,391190,,,,22246,789,foodsafety@shetland.gov.uk,Shetland Islands,http://www.shetland.gov.uk/,,,2014-04-21,fhis_exempt_en-GB,Exempt,,FHIS,
452483,Sandness,Shetland,,,Kalfordhame B&B,Hotel/bed & breakfast/guest house,7842,,,408794,,,60.29880905151367,23396,789,foodsafety@shetland.gov.uk,Shetland Islands,http://www.shetland.gov.uk/,-1.65453004837036,,2013-05-01,fhis_exempt_en-GB,Exempt,,FHIS,
452484,Eric Gray Resource Centre,Kantersted Road,Lerwick,,Kantersted Kitchen,Hospitals/Childcare/Caring Premises,5,,,391151,,,60.14489800000000,1187,789,foodsafety@shetland.gov.uk,Shetland Islands,http://www.shetland.gov.uk/,-1.16393600000000,,2014-06-11,fhis_improvement_required_en-GB,Improvement Required,,FHIS,
452485,41a Burgh Road,Lerwick,Shetland,,Katja's Cakes - German Bakes,Retailers - other,4613,,,608548,,,,18558,789,foodsafety@shetland.gov.uk,Shetland Islands,http://www.shetland.gov.uk/,,,2013-11-14,fhis_exempt_en-GB,Exempt,,FHIS,
452486,Main Street,Scalloway,Shetland,,Kiln Bar,Pub/bar/nightclub,7843,,,408961,,,60.13758800000000,575,789,foodsafety@shetland.gov.uk,Shetland Islands,http://www.shetland.gov.uk/,-1.27842700000000,,2014-03-21,fhis_pass_en-GB,Pass,,FHIS,
452487,9b Gremista Industrial Estate,Lerwick,Shetland,,Knowles Food Services,Distributors/Transporters,7,,,408605,,,60.16415700000000,1124,789,foodsafety@shetland.gov.uk,Shetland Islands,http://www.shetland.gov.uk/,-1.16567100000000,,2014-08-12,fhis_exempt_en-GB,Exempt,,FHIS,
452488,20 Greenfield Place,Lerwick,Shetland,,Kveldsro House Hotel,Restaurant/Cafe/Canteen,1,,,408603,,,60.15163189000000,1091,789,foodsafety@shetland.gov.uk,Shetland Islands,http://www.shetland.gov.uk/,-1.13981638000000,,2013-07-18,fhis_improvement_required_en-GB,Improvement Required,,FHIS,
452489,15 Burgh Road,Lerwick,Shetland,,Laburnum House,Hospitals/Childcare/Caring Premises,5,,,391264,,,60.15327795999999,855,789,foodsafety@shetland.gov.uk,Shetland Islands,http://www.shetland.gov.uk/,-1.15084201000000,,2014-12-16,fhis_pass_en-GB,Pass,,FHIS,
452490,1 Lower Blackhill Industrial Est,Lerwick,Shetland,,Leask's Filling Station,Retailers - other,4613,,,408805,,,60.16959300000000,23439,789,foodsafety@shetland.gov.uk,Shetland Islands,http://www.shetland.gov.uk/,-1.16807800000000,,2014-03-19,fhis_exempt_en-GB,Exempt,,FHIS,
452491,Foula,Shetland,,,Leraback Bed and Breakfast,Hotel/bed & breakfast/guest house,7842,,,408937,,,60.13470077514648,4321,789,foodsafety@shetland.gov.uk,Shetland Islands,http://www.shetland.gov.uk/,-2.08465051651001,,2012-03-28,fhis_awaiting_inspection_en-GB,Awaiting Inspection,,FHIS,
452492,Quoys Road,Lerwick,Shetland,,Lerwick Baptist Church,Other catering premises,7841,,,511318,,,,23902,789,foodsafety@shetland.gov.uk,Shetland Islands,http://www.shetland.gov.uk/,,,2014-03-24,fhis_pass_en-GB,Pass,,FHIS,
452493,12a Commercial Street,Lerwick,Shetland,,Lerwick Boating Club,Pub/bar/nightclub,7843,,,408648,,,60.15258191000000,1381,789,foodsafety@shetland.gov.uk,Shetland Islands,http://www.shetland.gov.uk/,-1.13775135000000,,2011-01-10,fhis_awaiting_inspection_en-GB,Awaiting Inspection,,FHIS,
452494,Canteen of Lerwick Fish Traders,Gremista,Lerwick,,Lerwick Fish Traders Limited,Restaurant/Cafe/Canteen,1,,,391189,,,,22229,789,foodsafety@shetland.gov.uk,Shetland Islands,http://www.shetland.gov.uk/,,,2014-03-27,fhis_pass_and_eat_safe_en-GB,Pass and Eat Safe,,FHIS,
452495,Old Infant School,King Harald Street,Lerwick,,Lerwick Pre-School,Hospitals/Childcare/Caring Premises,5,,,408767,,,60.15305600000000,23261,789,foodsafety@shetland.gov.uk,Shetland Islands,http://www.shetland.gov.uk/,-1.14864500000000,,2013-02-28,fhis_pass_en-GB,Pass,,FHIS,
452496,11 Market Street,Lerwick,Shetland,,Life Skills Central Ltd.,Restaurant/Cafe/Canteen,1,,,408736,,,60.15602199000000,22390,789,foodsafety@shetland.gov.uk,Shetland Islands,http://www.shetland.gov.uk/,-1.14683930000000,,2013-04-01,fhis_exempt_en-GB,Exempt,,FHIS,
452497,South Light House,Fair Isle,Shetland,,Light House,Hotel/bed & breakfast/guest house,7842,,,391178,,,,17945,789,foodsafety@shetland.gov.uk,Shetland Islands,http://www.shetland.gov.uk/,,,2014-07-04,fhis_exempt_en-GB,Exempt,,FHIS,
452498,Mid Yell,Shetland,,,Linkshouse Stores Ltd,Retailers - other,4613,,,391202,,,60.59875106811523,23185,789,foodsafety@shetland.gov.uk,Shetland Islands,http://www.shetland.gov.uk/,-1.07490003108978,,2014-03-13,fhis_pass_en-GB,Pass,,FHIS,
452499,Tingwall School,Gott,Shetland,,Little Tikes Playgroup,Hospitals/Childcare/Caring Premises,5,,,391242,,,60.16669800000000,23750,789,foodsafety@shetland.gov.uk,Shetland Islands,http://www.shetland.gov.uk/,-1.23330000000000,,2013-11-05,fhis_pass_en-GB,Pass,,FHIS,
452500,Symbister,Whalsay,Shetland,,Livister Youth Centre,Other catering premises,7841,,,408938,,,60.33982849121094,433,789,foodsafety@shetland.gov.uk,Shetland Islands,http://www.shetland.gov.uk/,-1.02214002609253,,2010-08-12,fhis_awaiting_inspection_en-GB,Awaiting Inspection,,FHIS,
452501,North Lochside,Lerwick,Shetland,,Lochside Stores,Retailers - other,4613,,,408720,,,60.21760559082031,22226,789,foodsafety@shetland.gov.uk,Shetland Islands,http://www.shetland.gov.uk/,-1.45045971870422,,2014-03-18,fhis_improvement_required_en-GB,Improvement Required,,FHIS,
452502,59 Commercial Street,Lerwick,Shetland,,Lodberrie Deli,Takeaway/sandwich shop,7844,,,735397,,,60.15304603000000,24190,789,foodsafety@shetland.gov.uk,Shetland Islands,http://www.shetland.gov.uk/,-1.14019775000000,,,fhis_awaiting_inspection_en-GB,Awaiting Inspection,,FHIS,
452503,Hillswick Road,Brae,Shetland,,Lodge Delting,Pub/bar/nightclub,7843,,,408914,,,60.47661000000000,248,789,foodsafety@shetland.gov.uk,Shetland Islands,http://www.shetland.gov.uk/,-1.48744000000000,,2014-10-08,fhis_exempt_en-GB,Exempt,,FHIS,
452504,Vidlin,Shetland,,,Lunnasting Primary School,School/college/university,7845,,,391249,,,60.36901855468750,414,789,foodsafety@shetland.gov.uk,Shetland Islands,http://www.shetland.gov.uk/,-1.14039003849030,,2014-07-04,fhis_exempt_en-GB,Exempt,,FHIS,
452505,Mail,Bressay,Shetland,,Mail Shop,Retailers - other,4613,,,408964,,,60.03944015502930,590,789,foodsafety@shetland.gov.uk,Shetland Islands,http://www.shetland.gov.uk/,-1.23356997966766,,2014-03-27,fhis_pass_en-GB,Pass,,FHIS,
452506,2 Dunrossness Industrial Estate,Dunrossness,Shetland,,Mainlands Ltd,Retailers - other,4613,,,391258,,,,673,789,foodsafety@shetland.gov.uk,Shetland Islands,http://www.shetland.gov.uk/,,,2014-03-24,fhis_pass_en-GB,Pass,,FHIS,
452507,Gutter's Gaet,Lerwick,Shetland,,Mareel,Restaurant/Cafe/Canteen,1,,,408909,,,60.15183000000000,23810,789,foodsafety@shetland.gov.uk,Shetland Islands,http://www.shetland.gov.uk/,-1.14522000000000,,2014-04-25,fhis_pass_en-GB,Pass,,FHIS,
452508,Marina Business Park,Gremista,Lerwick,,McNabs Kippers,Manufacturers/packers,7839,,,408618,,,60.16842700000000,11953,789,foodsafety@shetland.gov.uk,Shetland Islands,http://www.shetland.gov.uk/,-1.16536300000000,,2014-03-04,fhis_improvement_required_en-GB,Improvement Required,,FHIS,
452509,Universal Fish Shop,Esplanade,Lerwick,,McNabs Kippers,Retailers - other,4613,,,408885,,,60.15438500000000,23775,789,foodsafety@shetland.gov.uk,Shetland Islands,http://www.shetland.gov.uk/,-1.14302800000000,,2014-02-06,fhis_pass_en-GB,Pass,,FHIS,
452510,Brae,Shetland,,,Mid Brae Inn,Pub/bar/nightclub,7843,,,408825,,,60.39318084716797,235,789,foodsafety@shetland.gov.uk,Shetland Islands,http://www.shetland.gov.uk/,-1.35031998157501,,2014-01-31,fhis_improvement_required_en-GB,Improvement Required,,FHIS,
452511,Hillend,Mid Yell,Shetland,,Mid Yell Boating Club,Pub/bar/nightclub,7843,,,409000,,,60.21760559082031,99,789,foodsafety@shetland.gov.uk,Shetland Islands,http://www.shetland.gov.uk/,-1.45045971870422,,2013-10-08,fhis_exempt_en-GB,Exempt,,FHIS,
452512,Mid Yell,Yell,Shetland,,Mid Yell Junior High School,School/college/university,7845,,,408827,,,60.52862800000000,23608,789,foodsafety@shetland.gov.uk,Shetland Islands,http://www.shetland.gov.uk/,-1.17107300000000,,2014-02-25,fhis_pass_en-GB,Pass,,FHIS,
452513,Mid Yell,Shetland,,,Mid Yell Nursery,Hospitals/Childcare/Caring Premises,5,,,408829,,,60.59875106811523,23610,789,foodsafety@shetland.gov.uk,Shetland Islands,http://www.shetland.gov.uk/,-1.07490003108978,,2013-10-01,fhis_exempt_en-GB,Exempt,,FHIS,
452514,North Dale,Fetlar,Shetland,,Midhouse Floreat,Manufacturers/packers,7839,,,621548,,,,12497,789,foodsafety@shetland.gov.uk,Shetland Islands,http://www.shetland.gov.uk/,,,,fhis_awaiting_inspection_en-GB,Awaiting Inspection,,FHIS,
452515,Upperton,Levenwick,Shetland,,Midway Stores,Retailers - other,4613,,,408981,,,60.21760559082031,712,789,foodsafety@shetland.gov.uk,Shetland Islands,http://www.shetland.gov.uk/,-1.45045971870422,,2014-03-24,fhis_improvement_required_en-GB,Improvement Required,,FHIS,
452516,Weisdale Mill,Weisdale,Shetland,,Mill Cafe,Restaurant/Cafe/Canteen,1,,,391171,,,60.26010131835938,1466,789,foodsafety@shetland.gov.uk,Shetland Islands,http://www.shetland.gov.uk/,-1.28810000419617,,2014-04-02,fhis_pass_en-GB,Pass,,FHIS,
452517,Burgh Road,Lerwick,Shetland,,Montfield Support Services,Hospitals/Childcare/Caring Premises,5,,,408813,,,60.15542400000000,23470,789,foodsafety@shetland.gov.uk,Shetland Islands,http://www.shetland.gov.uk/,-1.15171200000000,,2014-03-19,fhis_exempt_en-GB,Exempt,,FHIS,
452518,5 Mounthooly Street,Lerwick,Shetland,,Monty's,Restaurant/Cafe/Canteen,1,,,391156,,,60.15289816000000,1230,789,foodsafety@shetland.gov.uk,Shetland Islands,http://www.shetland.gov.uk/,-1.14295635000000,,2013-05-28,fhis_pass_en-GB,Pass,,FHIS,
452519,Queen's Lane,Lerwick,Shetland,,Morton Lodge No 89,Pub/bar/nightclub,7843,,,408634,,,60.15261700000000,1315,789,foodsafety@shetland.gov.uk,Shetland Islands,http://www.shetland.gov.uk/,-1.14155900000000,,2013-08-01,fhis_exempt_en-GB,Exempt,,FHIS,
452520,Mossbank Primary School,Mossbank,Shetland,,Mossbank Nursery,Hospitals/Childcare/Caring Premises,5,,,391217,,,,23265,789,foodsafety@shetland.gov.uk,Shetland Islands,http://www.shetland.gov.uk/,,,2014-07-03,fhis_exempt_en-GB,Exempt,,FHIS,
452521,Mossbank,Shetland,,,Mossbank Primary School,School/college/university,7845,,,391244,,,60.44620895385742,283,789,foodsafety@shetland.gov.uk,Shetland Islands,http://www.shetland.gov.uk/,-1.20480000972748,,2013-11-29,fhis_pass_en-GB,Pass,,FHIS,
452522,24 Braefield,Lerwick,Shetland,,Mr Stripey,Retailers - other,4613,,,535191,,,60.14348395000000,23915,789,foodsafety@shetland.gov.uk,Shetland Islands,http://www.shetland.gov.uk/,-1.16873822000000,,2013-03-26,fhis_pass_en-GB,Pass,,FHIS,
452523,3 Grodians,Lerwick,Shetland,,Mrs Angela McWilliam,Other catering premises,7841,,,642657,,,,24053,789,foodsafety@shetland.gov.uk,Shetland Islands,http://www.shetland.gov.uk/,,,,fhis_awaiting_inspection_en-GB,Awaiting Inspection,,FHIS,
452524,Upper Sound,Lerwick,Shetland,,Mrs Elizabeth Stark,Other catering premises,7841,,,408780,,,60.14254000000000,23295,789,foodsafety@shetland.gov.uk,Shetland Islands,http://www.shetland.gov.uk/,-1.18106700000000,,2012-09-20,fhis_exempt_en-GB,Exempt,,FHIS,
452525,Aithsetter,Cunningsburgh,,,Mrs H J Mackenzie,Farmers/growers,7838,,,703625,,,,23161,789,foodsafety@shetland.gov.uk,Shetland Islands,http://www.shetland.gov.uk/,,,,fhis_awaiting_inspection_en-GB,Awaiting Inspection,,FHIS,
452526,Bruary,East Isle,Skerries,,Mrs J K Johnson (B & B),Hotel/bed & breakfast/guest house,7842,,,408646,,,,1376,789,foodsafety@shetland.gov.uk,Shetland Islands,http://www.shetland.gov.uk/,,,2014-12-18,fhis_pass_en-GB,Pass,,FHIS,
452527,Twatt,Bixter,Shetland,,Ms Jacqueline Abernethy,Hospitals/Childcare/Caring Premises,5,,,707661,,,,14582,789,foodsafety@shetland.gov.uk,Shetland Islands,http://www.shetland.gov.uk/,,,,fhis_awaiting_inspection_en-GB,Awaiting Inspection,,FHIS,
452528,64 Breiwick Road,Lerwick,Shetland,,Ms Rena Mackay,Other catering premises,7841,,,548021,,,,18445,789,foodsafety@shetland.gov.uk,Shetland Islands,http://www.shetland.gov.uk/,,,2014-03-20,fhis_exempt_en-GB,Exempt,,FHIS,
452529,7 Stakkafletts,Fetlar,Shetland,,Ms Sarah L J St John-Smythe,Other catering premises,7841,,,408627,,,60.60295000000000,12460,789,foodsafety@shetland.gov.uk,Shetland Islands,http://www.shetland.gov.uk/,-0.89651000000000,,2013-05-01,fhis_exempt_en-GB,Exempt,,FHIS,
452530,7 Whitelaw Road,Aith,Shetland,,Ms Tonya Johnson - Childminder,Hospitals/Childcare/Caring Premises,5,,,520626,,,,23908,789,foodsafety@shetland.gov.uk,Shetland Islands,http://www.shetland.gov.uk/,,,,fhis_awaiting_inspection_en-GB,Awaiting Inspection,,FHIS,
452531,Holmsgarth Terminal,Lerwick,Shetland,,MV Hildasay,Other catering premises,7841,,,391233,,,60.16488200000000,23464,789,foodsafety@shetland.gov.uk,Shetland Islands,http://www.shetland.gov.uk/,-1.16699000000000,,2014-05-05,fhis_improvement_required_en-GB,Improvement Required,,FHIS,
452532,Holmsgarth Terminal,Holmsgarth Road,Lerwick,,MV Hjaltland,Other catering premises,7841,,,442669,,,60.16308300000000,23827,789,foodsafety@shetland.gov.uk,Shetland Islands,http://www.shetland.gov.uk/,-1.15987100000000,,2014-07-17,fhis_pass_en-GB,Pass,,FHIS,
452533,Holmsgarth Terminal,Holmsgarth Road,Lerwick,,MV Hrossey,Other catering premises,7841,,,442670,,,60.16308300000000,23828,789,foodsafety@shetland.gov.uk,Shetland Islands,http://www.shetland.gov.uk/,-1.15987100000000,,2014-04-27,fhis_pass_en-GB,Pass,,FHIS,
452534,East Shore,Virkie,Shetland,,Ness Boating Club,Pub/bar/nightclub,7843,,,408651,,,59.88623809814450,1385,789,foodsafety@shetland.gov.uk,Shetland Islands,http://www.shetland.gov.uk/,-1.28587996959686,,2014-03-19,fhis_exempt_en-GB,Exempt,,FHIS,
452535,Dunrossness Primary School,Dunrossness,Shetland,,Ness Out of School Club,Hospitals/Childcare/Caring Premises,5,,,408768,,,,23266,789,foodsafety@shetland.gov.uk,Shetland Islands,http://www.shetland.gov.uk/,,,2013-03-18,fhis_pass_en-GB,Pass,,FHIS,
452536,Skellister,South Nesting,,,Nesting Primary School Canteen,School/college/university,7845,,,391191,,,,22286,789,foodsafety@shetland.gov.uk,Shetland Islands,http://www.shetland.gov.uk/,,,2014-10-08,fhis_exempt_en-GB,Exempt,,FHIS,
452537,9 Charlotte Street,Lerwick,Shetland,,New Havly Cafe,Restaurant/Cafe/Canteen,1,,,680103,,,60.15472312000000,24066,789,foodsafety@shetland.gov.uk,Shetland Islands,http://www.shetland.gov.uk/,-1.14535867000000,,2015-01-12,fhis_pass_en-GB,Pass,,FHIS,
452538,Seafield Road,Lerwick,Shetland,,Newcraigielea,Hospitals/Childcare/Caring Premises,5,,,408732,,,60.14496200000000,22364,789,foodsafety@shetland.gov.uk,Shetland Islands,http://www.shetland.gov.uk/,-1.16192800000000,,2012-09-21,fhis_exempt_en-GB,Exempt,,FHIS,
452539,Gilbert Bain Hospital,South Road,Lerwick,,NHS Shetland,Hospitals/Childcare/Caring Premises,5,,,408895,,,,23789,789,foodsafety@shetland.gov.uk,Shetland Islands,http://www.shetland.gov.uk/,,,2013-08-20,fhis_pass_en-GB,Pass,,FHIS,
452540,9 Brentfield Place,Sandwick,Shetland,,Nonie's Cake Shop,Other catering premises,7841,,,511319,,,,23904,789,foodsafety@shetland.gov.uk,Shetland Islands,http://www.shetland.gov.uk/,,,,fhis_awaiting_inspection_en-GB,Awaiting Inspection,,FHIS,
452541,Baltasound,Unst,Shetland,,Nordalea Care Centre,Hospitals/Childcare/Caring Premises,5,,,391182,,,60.75777816772461,21793,789,foodsafety@shetland.gov.uk,Shetland Islands,http://www.shetland.gov.uk/,-0.86519998311996,,2013-12-12,fhis_pass_en-GB,Pass,,FHIS,
452542,60 St Olaf Street,Lerwick,Shetland,,Norlande B&B,Hotel/bed & breakfast/guest house,7842,,,511320,,,,23905,789,foodsafety@shetland.gov.uk,Shetland Islands,http://www.shetland.gov.uk/,,,2013-07-23,fhis_pass_en-GB,Pass,,FHIS,
452543,Brae,Shetland,,,North Haven Care Centre,Hospitals/Childcare/Caring Premises,5,,,408642,,,60.39318084716797,1358,789,foodsafety@shetland.gov.uk,Shetland Islands,http://www.shetland.gov.uk/,-1.35031998157501,,2013-11-11,fhis_improvement_required_en-GB,Improvement Required,,FHIS,
452544,12 Setters Hill Estate,Baltasound,Unst,,North Isles Childcare,Hospitals/Childcare/Caring Premises,5,,,391218,,,60.76291300000000,23267,789,foodsafety@shetland.gov.uk,Shetland Islands,http://www.shetland.gov.uk/,-0.86390100000000,,2011-11-22,fhis_pass_en-GB,Pass,,FHIS,
452545,Old School Building,Mid Yell,Yell,,North Isles Childcare - Yell,Hospitals/Childcare/Caring Premises,5,,,408835,,,,23625,789,foodsafety@shetland.gov.uk,Shetland Islands,http://www.shetland.gov.uk/,,,2013-03-26,fhis_pass_en-GB,Pass,,FHIS,
452546,Brae,Shetland,,,North Mainland Leisure Centre,Retailers - other,4613,,,408901,,,60.39318084716797,238,789,foodsafety@shetland.gov.uk,Shetland Islands,http://www.shetland.gov.uk/,-1.35031998157501,,2010-03-30,fhis_exempt_en-GB,Exempt,,FHIS,
452547,North Roe,,,,North Roe Primary School,School/college/university,7845,,,408680,,,60.58956909179688,160,789,foodsafety@shetland.gov.uk,Shetland Islands,http://www.shetland.gov.uk/,-1.33375000953674,,2012-09-21,fhis_exempt_en-GB,Exempt,,FHIS,
452548,Noss Farm,Scousburgh,Shetland,,Noss Farm (Shetland) Limited,Farmers/growers,7838,,,466452,,,,23850,789,foodsafety@shetland.gov.uk,Shetland Islands,http://www.shetland.gov.uk/,,,2014-09-22,fhis_pass_en-GB,Pass,,FHIS,
452549,Findlin's House,Hillswick,Shetland,,Oily Muggie,Retailers - other,4613,,,408788,,,60.21760559082030,23342,789,foodsafety@shetland.gov.uk,Shetland Islands,http://www.shetland.gov.uk/,-1.45045971870422,,2013-04-01,fhis_exempt_en-GB,Exempt,,FHIS,
452550,Old Haa,Burravoe,Yell,,Old Haa Museum,Restaurant/Cafe/Canteen,1,,,391155,,,60.49580001831055,123,789,foodsafety@shetland.gov.uk,Shetland Islands,http://www.shetland.gov.uk/,-1.05540001392365,,2014-12-18,fhis_pass_en-GB,Pass,,FHIS,
452551,Ollaberry,Shetland,,,Ollaberry Primary School,School/college/university,7845,,,408685,,,60.50753021240230,173,789,foodsafety@shetland.gov.uk,Shetland Islands,http://www.shetland.gov.uk/,-1.33585000038147,,2014-05-30,fhis_pass_en-GB,Pass,,FHIS,
452552,Northmavine Industrial Estate,Ollaberry,Shetland,,Ollaberry Shop,Retailers - other,4613,,,391158,,,,1261,789,foodsafety@shetland.gov.uk,Shetland Islands,http://www.shetland.gov.uk/,,,2014-07-04,fhis_exempt_en-GB,Exempt,,FHIS,
452553,Lidice,South Whiteness,Shetland,,Omaruru B&B,Hotel/bed & breakfast/guest house,7842,,,505821,,,,23887,789,foodsafety@shetland.gov.uk,Shetland Islands,http://www.shetland.gov.uk/,,,2013-05-13,fhis_pass_en-GB,Pass,,FHIS,
452554,Mobile Catering Van,Happy Hansel School House,Walls,,Only Foods and Sauces,Mobile caterer,7846,,,735398,,,,24192,789,foodsafety@shetland.gov.uk,Shetland Islands,http://www.shetland.gov.uk/,,,,fhis_awaiting_inspection_en-GB,Awaiting Inspection,,FHIS,
452555,Livister,Whalsay,Shetland,,Oot Ower Lounge,Pub/bar/nightclub,7843,,,408705,,,60.21760559082031,21792,789,foodsafety@shetland.gov.uk,Shetland Islands,http://www.shetland.gov.uk/,-1.45045971870422,,2013-04-01,fhis_exempt_en-GB,Exempt,,FHIS,
452556,14 Law Lane,Lerwick,Shetland,,Ortolan House (B & B),Other catering premises,7841,,,715498,,,,24147,789,foodsafety@shetland.gov.uk,Shetland Islands,http://www.shetland.gov.uk/,,,,fhis_awaiting_inspection_en-GB,Awaiting Inspection,,FHIS,
452557,Gord,Levenwick,Shetland,,Overtonlea Care Centre,Hospitals/Childcare/Caring Premises,5,,,391177,,,60.21760559082031,1788,789,foodsafety@shetland.gov.uk,Shetland Islands,http://www.shetland.gov.uk/,-1.45045971870422,,2014-05-13,fhis_pass_en-GB,Pass,,FHIS,
452558,Hagdale,Baltasound,Unst,,P & T Coaches,Retailers - other,4613,,,391196,,,,22359,789,foodsafety@shetland.gov.uk,Shetland Islands,http://www.shetland.gov.uk/,,,2013-12-12,fhis_pass_en-GB,Pass,,FHIS,
452559,88 Commercial Street,Lerwick,Shetland,,Paparazzi,Restaurant/Cafe/Canteen,1,,,408703,,,60.15366822000000,21788,789,foodsafety@shetland.gov.uk,Shetland Islands,http://www.shetland.gov.uk/,-1.14355445000000,,2014-02-03,fhis_pass_en-GB,Pass,,FHIS,
452560,The Bungalow,Baltasound,Unst,,Papyraceous Publications,Retailers - other,4613,,,595961,,,,23986,789,foodsafety@shetland.gov.uk,Shetland Islands,http://www.shetland.gov.uk/,,,2013-11-18,fhis_exempt_en-GB,Exempt,,FHIS,
452561,Trondra Public Hall,Glendale,Trondra,,Party In A Box,Other catering premises,7841,,,408795,,,,23397,789,foodsafety@shetland.gov.uk,Shetland Islands,http://www.shetland.gov.uk/,,,2013-05-01,fhis_exempt_en-GB,Exempt,,FHIS,
452562,11 Hill Lane,Lerwick,Shetland,,Peerie Foxes,Other catering premises,7841,,,707662,,,,24136,789,foodsafety@shetland.gov.uk,Shetland Islands,http://www.shetland.gov.uk/,,,2014-08-21,fhis_pass_en-GB,Pass,,FHIS,
452563,4-6 Fox Lane,Lerwick,Shetland,,Peerie Foxes,Hospitals/Childcare/Caring Premises,5,,,408884,,,60.15406000000000,23774,789,foodsafety@shetland.gov.uk,Shetland Islands,http://www.shetland.gov.uk/,-1.14405100000000,,2014-01-22,fhis_pass_en-GB,Pass,,FHIS,
452564,Esplanade,Lerwick,Shetland,,Peerie Shop Cafe,Restaurant/Cafe/Canteen,1,,,391153,,,60.15438500000000,11954,789,foodsafety@shetland.gov.uk,Shetland Islands,http://www.shetland.gov.uk/,-1.14302800000000,,2014-06-02,fhis_pass_en-GB,Pass,,FHIS,
452565,Brakefield,Uyeasound,Unst,,Peeriebitz,Other catering premises,7841,,,730158,,,,24187,789,foodsafety@shetland.gov.uk,Shetland Islands,http://www.shetland.gov.uk/,,,2014-12-18,fhis_exempt_en-GB,Exempt,,FHIS,
452566,The Esplanade,Lerwick,Shetland,,Phusiam,Restaurant/Cafe/Canteen,1,,,408787,,,60.15438500000000,23336,789,foodsafety@shetland.gov.uk,Shetland Islands,http://www.shetland.gov.uk/,-1.14302800000000,,2014-11-14,fhis_improvement_required_en-GB,Improvement Required,,FHIS,
452567,North House,Baltasound,Unst,,Pie In The Sky,Mobile caterer,7846,,,408911,,,,23812,789,foodsafety@shetland.gov.uk,Shetland Islands,http://www.shetland.gov.uk/,,,2013-06-13,fhis_pass_en-GB,Pass,,FHIS,
452568,Voe,Shetland,,,Pier Head Restaurant,Restaurant/Cafe/Canteen,1,,,408698,,,60.50971984863281,204,789,foodsafety@shetland.gov.uk,Shetland Islands,http://www.shetland.gov.uk/,-1.39576005935669,,2014-03-18,fhis_improvement_required_en-GB,Improvement Required,,FHIS,
452569,Aywick,Yell,Shetland,,Pinewood House,Hotel/bed & breakfast/guest house,7842,,,391237,,,60.56306076049805,23644,789,foodsafety@shetland.gov.uk,Shetland Islands,http://www.shetland.gov.uk/,-1.03169000148773,,2012-04-03,fhis_pass_en-GB,Pass,,FHIS,
452570,Tingwall,Shetland,,,Plantiecrub Enterprises,Retailers - other,4613,,,408619,,,60.16669845581055,11960,789,foodsafety@shetland.gov.uk,Shetland Islands,http://www.shetland.gov.uk/,-1.23329997062683,,2008-05-08,fhis_exempt_en-GB,Exempt,,FHIS,
452571,Sella Ness,Graven,Shetland,,Ports & Harbours,Takeaway/sandwich shop,7844,,,391167,,,60.21760559082031,1417,789,foodsafety@shetland.gov.uk,Shetland Islands,http://www.shetland.gov.uk/,-1.45045971870422,,2014-03-31,fhis_pass_en-GB,Pass,,FHIS,
452572,Uyeasound,Unst,Shetland,,Prestegaard B&B,Hotel/bed & breakfast/guest house,7842,,,408742,,,60.68965148925781,2249,789,foodsafety@shetland.gov.uk,Shetland Islands,http://www.shetland.gov.uk/,-0.91882997751236,,2012-09-20,fhis_exempt_en-GB,Exempt,,FHIS,
452573,Quam,West Sandwick,Yell,,Quam B&B,Hotel/bed & breakfast/guest house,7842,,,505824,,,,23890,789,foodsafety@shetland.gov.uk,Shetland Islands,http://www.shetland.gov.uk/,,,2013-06-20,fhis_pass_en-GB,Pass,,FHIS,
452574,24 Commercial Street,Lerwick,Shetland,,Queens Hotel Lerwick Ltd,Restaurant/Cafe/Canteen,1,,,408999,,,60.15264160000001,963,789,foodsafety@shetland.gov.uk,Shetland Islands,http://www.shetland.gov.uk/,-1.13839969000000,,2014-08-08,fhis_pass_en-GB,Pass,,FHIS,
452575,Cullivoe,Yell,Shetland,,R S Henderson,Retailers - other,4613,,,408976,,,60.70349121093750,69,789,foodsafety@shetland.gov.uk,Shetland Islands,http://www.shetland.gov.uk/,-1.01514005661011,,2013-01-24,fhis_pass_en-GB,Pass,,FHIS,
452576,26 Commercial Road,Lerwick,Shetland,,Raba Restaurant,Restaurant/Cafe/Canteen,1,,,408993,,,60.15669919000000,907,789,foodsafety@shetland.gov.uk,Shetland Islands,http://www.shetland.gov.uk/,-1.14489487000000,,2014-09-03,fhis_improvement_required_en-GB,Improvement Required,,FHIS,
452577,11 Charlotte Street,Lerwick,Shetland,,RAF Association Club,Pub/bar/nightclub,7843,,,391265,,,,865,789,foodsafety@shetland.gov.uk,Shetland Islands,http://www.shetland.gov.uk/,,,2014-09-02,fhis_exempt_en-GB,Exempt,,FHIS,
452578,29 Commercial Road,Lerwick,Shetland,,Red Dragon,Takeaway/sandwich shop,7844,,,408615,,,60.15670744000000,11921,789,foodsafety@shetland.gov.uk,Shetland Islands,http://www.shetland.gov.uk/,-1.14490890000000,,2014-06-04,fhis_improvement_required_en-GB,Improvement Required,,FHIS,
452579,20 Stanegarth,Lerwick,Shetland,,Relish,Retailers - other,4613,,,448227,,,60.16382000000000,21170,789,foodsafety@shetland.gov.uk,Shetland Islands,http://www.shetland.gov.uk/,-1.16183100000000,,2013-03-20,fhis_exempt_en-GB,Exempt,,FHIS,
452580,Commercial Street,Lerwick,Shetland,,RNLI Shop,Retailers - other,4613,,,408762,,,60.15310700000000,23246,789,foodsafety@shetland.gov.uk,Shetland Islands,http://www.shetland.gov.uk/,-1.14188500000000,,2014-12-18,fhis_exempt_en-GB,Exempt,,FHIS,
452581,Soundside,Weisdale,Shetland,,Robinson & Morrison Ltd,Retailers - other,4613,,,408955,,,60.21760559082031,513,789,foodsafety@shetland.gov.uk,Shetland Islands,http://www.shetland.gov.uk/,-1.45045971870422,,2013-10-08,fhis_pass_en-GB,Pass,,FHIS,
452582,Sandness,Shetland,,,Sandness Primary School,School/college/university,7845,,,391246,,,60.29880905151367,296,789,foodsafety@shetland.gov.uk,Shetland Islands,http://www.shetland.gov.uk/,-1.65453004837036,,2014-07-03,fhis_exempt_en-GB,Exempt,,FHIS,
452583,Stove,Sandwick,Shetland,,Sandwick Baking Company Ltd,Manufacturers/packers,7839,,,391261,,,60.00000000000000,736,789,foodsafety@shetland.gov.uk,Shetland Islands,http://www.shetland.gov.uk/,-1.25000000000000,,2014-08-11,fhis_pass_en-GB,Pass,,FHIS,
452584,Sandwick,Shetland,,,Sandwick Junior High School,School/college/university,7845,,,396732,,,60.00904846191406,739,789,foodsafety@shetland.gov.uk,Shetland Islands,http://www.shetland.gov.uk/,-1.24925994873047,,2014-06-03,fhis_pass_en-GB,Pass,,FHIS,
452585,Sandwick,Shetland,,,Sandwick Junior High School Nursery,Hospitals/Childcare/Caring Premises,5,,,408769,,,60.00904846191406,23269,789,foodsafety@shetland.gov.uk,Shetland Islands,http://www.shetland.gov.uk/,-1.24925994873047,,2012-09-20,fhis_exempt_en-GB,Exempt,,FHIS,
452586,Sandwick,Shetland,,,Sandwick Social Club,Pub/bar/nightclub,7843,,,391168,,,60.00904846191406,1427,789,foodsafety@shetland.gov.uk,Shetland Islands,http://www.shetland.gov.uk/,-1.24925994873047,,2014-09-02,fhis_exempt_en-GB,Exempt,,FHIS,
452587,2 North Road,Lerwick,Shetland,,Sarmile Take-Away Meal,Takeaway/sandwich shop,7844,,,408701,,,60.16082500000000,21510,789,foodsafety@shetland.gov.uk,Shetland Islands,http://www.shetland.gov.uk/,-1.15881900000000,,2014-03-26,fhis_improvement_required_en-GB,Improvement Required,,FHIS,
452588,Haroldswick,Unst,Shetland,,Saxa Vord Resort,Restaurant/Cafe/Canteen,1,,,687306,,,60.78781890869141,24089,789,foodsafety@shetland.gov.uk,Shetland Islands,http://www.shetland.gov.uk/,-0.83366000652313,,2014-06-18,fhis_improvement_required_en-GB,Improvement Required,,FHIS,
452589,Port Arthur,Scalloway,Shetland,,Scalloway Boating Club,Pub/bar/nightclub,7843,,,408652,,,60.21760559082031,1386,789,foodsafety@shetland.gov.uk,Shetland Islands,http://www.shetland.gov.uk/,-1.45045971870422,,2013-03-07,fhis_exempt_en-GB,Exempt,,FHIS,
452590,Main Street,Scalloway,Shetland,,Scalloway Hotel,Restaurant/Cafe/Canteen,1,,,408757,,,60.13758800000000,23217,789,foodsafety@shetland.gov.uk,Shetland Islands,http://www.shetland.gov.uk/,-1.27842700000000,,2014-03-17,fhis_pass_en-GB,Pass,,FHIS,
452591,Main Street,Scalloway,Shetland,,Scalloway Meat Company,Manufacturers/packers,7839,,,408684,,,60.13758800000000,1702,789,foodsafety@shetland.gov.uk,Shetland Islands,http://www.shetland.gov.uk/,-1.27842700000000,,2015-01-07,fhis_pass_en-GB,Pass,,FHIS,
452592,Unit 3L Toll Clock Shopping Centre,Lerwick,Shetland,,Scalloway Meat Company Ltd,Retailers - other,4613,,,680110,,,,24073,789,foodsafety@shetland.gov.uk,Shetland Islands,http://www.shetland.gov.uk/,,,2014-08-12,fhis_pass_en-GB,Pass,,FHIS,
452593,Main Street,Scalloway,Shetland,,Scalloway Pre-school,Hospitals/Childcare/Caring Premises,5,,,391219,,,60.13758800000000,23271,789,foodsafety@shetland.gov.uk,Shetland Islands,http://www.shetland.gov.uk/,-1.27842700000000,,2014-03-25,fhis_pass_en-GB,Pass,,FHIS,
452594,Scalloway,Shetland,,,Scalloway Primary School,School/college/university,7845,,,391255,,,60.13748931884766,579,789,foodsafety@shetland.gov.uk,Shetland Islands,http://www.shetland.gov.uk/,-1.27988004684448,,2014-03-25,fhis_pass_en-GB,Pass,,FHIS,
452595,Scalloway,Shetland,,,Scalloway School Nursery,Hospitals/Childcare/Caring Premises,5,,,408770,,,60.13748931884766,23270,789,foodsafety@shetland.gov.uk,Shetland Islands,http://www.shetland.gov.uk/,-1.27988004684448,,2012-09-20,fhis_exempt_en-GB,Exempt,,FHIS,
452596,New Road,Scalloway,Shetland,,Scalloway Swimming Pool,Retailers - other,4613,,,408666,,,60.13929400000000,1477,789,foodsafety@shetland.gov.uk,Shetland Islands,http://www.shetland.gov.uk/,-1.27377900000000,,2014-08-18,fhis_exempt_en-GB,Exempt,,FHIS,
452597,Scatsta Airport,Scatsta,Brae,,Scatsta Cafe Bar,Restaurant/Cafe/Canteen,1,,,680099,,,,24062,789,foodsafety@shetland.gov.uk,Shetland Islands,http://www.shetland.gov.uk/,,,2014-08-06,fhis_improvement_required_en-GB,Improvement Required,,FHIS,
452598,26 North Road,Lerwick,Shetland,,Scoop Wholefoods,Retailers - other,4613,,,391175,,,60.15734151000000,1707,789,foodsafety@shetland.gov.uk,Shetland Islands,http://www.shetland.gov.uk/,-1.15535617000000,,2011-07-12,fhis_pass_and_eat_safe_en-GB,Pass and Eat Safe,,FHIS,
452599,Scousburgh,Shetland,,,Setterbrae B&B,Hotel/bed & breakfast/guest house,7842,,,391176,,,59.94372940063477,17749,789,foodsafety@shetland.gov.uk,Shetland Islands,http://www.shetland.gov.uk/,-1.32580995559692,,2012-03-30,fhis_pass_en-GB,Pass,,FHIS,
452600,Toll Clock Shopping Centre,26 North Road,Lerwick,,Shetland Artisan Shop,Retailers - other,4613,,,735399,,,60.15734151000000,24193,789,foodsafety@shetland.gov.uk,Shetland Islands,http://www.shetland.gov.uk/,-1.15535617000000,,,fhis_awaiting_inspection_en-GB,Awaiting Inspection,,FHIS,
452601,Gremista,Lerwick,Shetland,,Shetland Catch Canteen,Restaurant/Cafe/Canteen,1,,,612494,,,60.17028045654297,24022,789,foodsafety@shetland.gov.uk,Shetland Islands,http://www.shetland.gov.uk/,-1.17250001430511,,2014-04-23,fhis_pass_en-GB,Pass,,FHIS,
452602,Skeld Creamery,Skeld,Shetland,,Shetland Cheese Ltd,Manufacturers/packers,7839,,,408831,,,60.21760559082030,23614,789,foodsafety@shetland.gov.uk,Shetland Islands,http://www.shetland.gov.uk/,-1.45045971870422,,2014-03-24,fhis_awaiting_inspection_en-GB,Awaiting Inspection,,FHIS,
452603,West Voe,Sumburgh,Shetland,,Shetland Christian Youth Camp,Other catering premises,7841,,,408709,,,60.05764007568359,22053,789,foodsafety@shetland.gov.uk,Shetland Islands,http://www.shetland.gov.uk/,-1.33914768695831,,2013-07-08,fhis_improvement_required_en-GB,Improvement Required,,FHIS,
452604,Gremista,Lerwick,Shetland,,Shetland College of Further Ed,Restaurant/Cafe/Canteen,1,,,408686,,,60.17028045654297,1734,789,foodsafety@shetland.gov.uk,Shetland Islands,http://www.shetland.gov.uk/,-1.17250001430511,,2014-12-16,fhis_pass_en-GB,Pass,,FHIS,
452605,Semblister,Bixter,Shetland,,Shetland Deli 1,Other catering premises,7841,,,595960,,,,23985,789,foodsafety@shetland.gov.uk,Shetland Islands,http://www.shetland.gov.uk/,,,2014-03-24,fhis_exempt_en-GB,Exempt,,FHIS,
452606,Laggan Tormore,Accommodation Facility,Sella Ness Industrial Estate,,Shetland FM,Restaurant/Cafe/Canteen,1,,,733832,,,,24188,789,foodsafety@shetland.gov.uk,Shetland Islands,http://www.shetland.gov.uk/,,,,fhis_awaiting_inspection_en-GB,Awaiting Inspection,,FHIS,
452607,14a Gremista Industrial Estate,Lerwick,Shetland,,Shetland Freezer Foods,Distributors/Transporters,7,,,408656,,,60.16415700000000,1424,789,foodsafety@shetland.gov.uk,Shetland Islands,http://www.shetland.gov.uk/,-1.16567100000000,,2012-09-21,fhis_exempt_en-GB,Exempt,,FHIS,
452608,Dale,Tingwall,Shetland,,Shetland Golf Club,Pub/bar/nightclub,7843,,,408657,,,60.21760559082031,1428,789,foodsafety@shetland.gov.uk,Shetland Islands,http://www.shetland.gov.uk/,-1.45045971870422,,2012-09-20,fhis_exempt_en-GB,Exempt,,FHIS,
452609,Ljogasund,Cullivoe,Yell,,Simply Sweet,Other catering premises,7841,,,408864,,,,23719,789,foodsafety@shetland.gov.uk,Shetland Islands,http://www.shetland.gov.uk/,,,2011-08-15,fhis_pass_en-GB,Pass,,FHIS,
452610,Maila,Garderhouse,Bixter,,Sizzle Sisters,Mobile caterer,7846,,,569738,,,,23950,789,foodsafety@shetland.gov.uk,Shetland Islands,http://www.shetland.gov.uk/,,,2013-07-15,fhis_awaiting_inspection_en-GB,Awaiting Inspection,,FHIS,
452611,Maila,Garderhouse,Bixter,,Sizzle Sisters,Mobile caterer,7846,,,681503,,,,24079,789,foodsafety@shetland.gov.uk,Shetland Islands,http://www.shetland.gov.uk/,,,,fhis_awaiting_inspection_en-GB,Awaiting Inspection,,FHIS,
452612,Skeld,Wester Skeld,Shetland,,Skeld Primary School,School/college/university,7845,,,408930,,,60.18833160400391,383,789,foodsafety@shetland.gov.uk,Shetland Islands,http://www.shetland.gov.uk/,-1.44000005722046,,2014-06-25,fhis_pass_en-GB,Pass,,FHIS,
452613,Skeld,Shetland,,,Skeld Primary School Nursery,Hospitals/Childcare/Caring Premises,5,,,408771,,,60.18833160400391,23272,789,foodsafety@shetland.gov.uk,Shetland Islands,http://www.shetland.gov.uk/,-1.44000005722046,,2014-12-18,fhis_exempt_en-GB,Exempt,,FHIS,
452614,Catfirth,South Nesting,Shetland,,Skellister Stores,Retailers - other,4613,,,530830,,,60.21760559082031,23910,789,foodsafety@shetland.gov.uk,Shetland Islands,http://www.shetland.gov.uk/,-1.45045971870422,,2013-04-11,fhis_pass_en-GB,Pass,,FHIS,
452615,Brunatwatt,Walls,Shetland,,Skeoverick,Hotel/bed & breakfast/guest house,7842,,,391165,,,60.21760559082031,14072,789,foodsafety@shetland.gov.uk,Shetland Islands,http://www.shetland.gov.uk/,-1.45045971870422,,2014-07-04,fhis_exempt_en-GB,Exempt,,FHIS,
452616,Bruary,Skerries,Shetland,,Skerries School,School/college/university,7845,,,408947,,,60.42396163940430,460,789,foodsafety@shetland.gov.uk,Shetland Islands,http://www.shetland.gov.uk/,-0.75572997331619,,2012-09-20,fhis_exempt_en-GB,Exempt,,FHIS,
452617,Skibhoul,Baltasound,Shetland,,Skibhoul Stores Bakery,Manufacturers/packers,7839,,,408919,,,60.21760559082031,31,789,foodsafety@shetland.gov.uk,Shetland Islands,http://www.shetland.gov.uk/,-1.45045971870422,,2013-06-13,fhis_pass_en-GB,Pass,,FHIS,
452618,26 North Road,Toll Clock Shopping Centre,Lerwick,,Skipidock Inn,Restaurant/Cafe/Canteen,1,,,408740,,,60.15734151000000,22409,789,foodsafety@shetland.gov.uk,Shetland Islands,http://www.shetland.gov.uk/,-1.15535617000000,,2014-02-24,fhis_pass_en-GB,Pass,,FHIS,
452619,Bibby Challenge,East Jetty,Blacksness,,Sodexo Remote Sites,Hotel/bed & breakfast/guest house,7842,,,558453,,,,23940,789,foodsafety@shetland.gov.uk,Shetland Islands,http://www.shetland.gov.uk/,,,2015-02-02,fhis_pass_en-GB,Pass,,FHIS,
452620,Gemini,Blacksness,Scalloway,,Sodexo Remote Sites,Hotel/bed & breakfast/guest house,7842,,,680111,,,,24074,789,foodsafety@shetland.gov.uk,Shetland Islands,http://www.shetland.gov.uk/,,,2014-08-15,fhis_pass_en-GB,Pass,,FHIS,
452621,Kalmar Accommodation Barge,Albert Dock,Lerwick,,Sodexo Remote Sites,Hotel/bed & breakfast/guest house,7842,,,558452,,,,23939,789,foodsafety@shetland.gov.uk,Shetland Islands,http://www.shetland.gov.uk/,,,2015-02-04,fhis_pass_en-GB,Pass,,FHIS,
452622,Ocean Endeavour,Cruise Ship,Victoria Pier,,Sodexo Remote Sites,Hotel/bed & breakfast/guest house,7842,,,631408,,,,24036,789,foodsafety@shetland.gov.uk,Shetland Islands,http://www.shetland.gov.uk/,,,2014-08-12,fhis_pass_en-GB,Pass,,FHIS,
452623,Sans Vitesse,Accomodation Barge,Victoria Pier,,Sodexo Remote Sites,Hotel/bed & breakfast/guest house,7842,,,605326,,,,23993,789,foodsafety@shetland.gov.uk,Shetland Islands,http://www.shetland.gov.uk/,,,2013-10-10,fhis_pass_en-GB,Pass,,FHIS,
452624,Sullom Voe Terminal,Mossbank,Shetland,,Sodexo Remote Sites,Restaurant/Cafe/Canteen,1,,,408649,,,60.46666717529297,1382,789,foodsafety@shetland.gov.uk,Shetland Islands,http://www.shetland.gov.uk/,-1.27499997615814,,2014-11-17,fhis_improvement_required_en-GB,Improvement Required,,FHIS,
452625,Sandwick,Shetland,,,Solbrekke B&B,Hotel/bed & breakfast/guest house,7842,,,391263,,,60.00904846191406,8165,789,foodsafety@shetland.gov.uk,Shetland Islands,http://www.shetland.gov.uk/,-1.24925994873047,,2014-05-12,fhis_exempt_en-GB,Exempt,,FHIS,
452626,34 King Harald Street,Lerwick,Shetland,,Solheim Guest House,Hotel/bed & breakfast/guest house,7842,,,408664,,,60.15215814000000,1463,789,foodsafety@shetland.gov.uk,Shetland Islands,http://www.shetland.gov.uk/,-1.14820540000000,,2012-10-17,fhis_pass_en-GB,Pass,,FHIS,
452627,Sound,Lerwick,Shetland,,Sound Primary School,School/college/university,7845,,,408636,,,60.14550018310547,1332,789,foodsafety@shetland.gov.uk,Shetland Islands,http://www.shetland.gov.uk/,-1.17153000831604,,2014-05-30,fhis_pass_en-GB,Pass,,FHIS,
452628,Sound,Lerwick,,,Sound Primary School Nursery,Hospitals/Childcare/Caring Premises,5,,,408772,,,60.16289901733400,23274,789,foodsafety@shetland.gov.uk,Shetland Islands,http://www.shetland.gov.uk/,-1.15925002098084,,2013-12-13,fhis_pass_en-GB,Pass,,FHIS,
452629,South Road,Lerwick,Shetland,,Sound Service Station,Retailers - other,4613,,,408638,,,60.14757600000000,1341,789,foodsafety@shetland.gov.uk,Shetland Islands,http://www.shetland.gov.uk/,-1.16447300000000,,2014-06-02,fhis_pass_en-GB,Pass,,FHIS,
452630,Shalders,Levenwick,Shetland,,South Shalders Guest House,Hotel/bed & breakfast/guest house,7842,,,548027,,,,23921,789,foodsafety@shetland.gov.uk,Shetland Islands,http://www.shetland.gov.uk/,,,2014-02-10,fhis_pass_en-GB,Pass,,FHIS,
452631,Scousburgh,Dunrossness,Shetland,,Spiggie Hotel,Restaurant/Cafe/Canteen,1,,,408751,,,60.21760559082030,23199,789,foodsafety@shetland.gov.uk,Shetland Islands,http://www.shetland.gov.uk/,-1.45045971870422,,2014-01-23,fhis_pass_en-GB,Pass,,FHIS,
452632,Baltasound,Unst,Shetland,,Springers Bar,Pub/bar/nightclub,7843,,,633963,,,60.75777816772461,24045,789,foodsafety@shetland.gov.uk,Shetland Islands,http://www.shetland.gov.uk/,-0.86519998311996,,2014-06-18,fhis_exempt_en-GB,Exempt,,FHIS,
452633,Hillswick,Shetland,,,St Magnus Bay Hotel,Restaurant/Cafe/Canteen,1,,,408750,,,60.47660827636719,23197,789,foodsafety@shetland.gov.uk,Shetland Islands,http://www.shetland.gov.uk/,-1.48743999004364,,2014-09-12,fhis_improvement_required_en-GB,Improvement Required,,FHIS,
452634,Stackhoull,Fair Isle,Shetland,,Stackhoull Stores,Retailers - other,4613,,,408978,,,60.34951019287109,705,789,foodsafety@shetland.gov.uk,Shetland Islands,http://www.shetland.gov.uk/,-1.23591005802155,,2014-10-08,fhis_pass_en-GB,Pass,,FHIS,
452635,41 Norstane,Lerwick,Shetland,,Staney Hill Shop,Retailers - other,4613,,,590908,,,60.16184915000000,23984,789,foodsafety@shetland.gov.uk,Shetland Islands,http://www.shetland.gov.uk/,-1.16670216000000,,2014-02-07,fhis_pass_en-GB,Pass,,FHIS,
452636,Sumburgh Hotel Catering,Sumburgh,Shetland,,Sumburgh Airport,Restaurant/Cafe/Canteen,1,,,408844,,,59.87094200000000,23697,789,foodsafety@shetland.gov.uk,Shetland Islands,http://www.shetland.gov.uk/,-1.28891100000000,,2014-07-08,fhis_pass_en-GB,Pass,,FHIS,
452637,Sumburgh Farm,Sumburgh,Shetland,,Sumburgh Farm,Manufacturers/packers,7839,,,408704,,,59.87094200000000,21791,789,foodsafety@shetland.gov.uk,Shetland Islands,http://www.shetland.gov.uk/,-1.28891100000000,,2014-07-04,fhis_exempt_en-GB,Exempt,,FHIS,
452638,Sumburgh,Shetland,,,Sumburgh Hotel,Restaurant/Cafe/Canteen,1,,,408971,,,59.87099838256836,633,789,foodsafety@shetland.gov.uk,Shetland Islands,http://www.shetland.gov.uk/,-1.28875005245209,,2013-08-07,fhis_improvement_required_en-GB,Improvement Required,,FHIS,
452639,Voe,Shetland,,,Tagon Stores,Retailers - other,4613,,,408891,,,60.50971984863281,23783,789,foodsafety@shetland.gov.uk,Shetland Islands,http://www.shetland.gov.uk/,-1.39576005935669,,2012-04-12,fhis_pass_en-GB,Pass,,FHIS,
452640,Sea Road,Lerwick,Shetland,,Taing House,Hospitals/Childcare/Caring Premises,5,,,408659,,,60.14202500000000,14414,789,foodsafety@shetland.gov.uk,Shetland Islands,http://www.shetland.gov.uk/,-1.15980700000000,,2015-01-14,fhis_pass_en-GB,Pass,,FHIS,
452641,Camp,Brae,Shetland,,Taj Tandoori,Takeaway/sandwich shop,7844,,,408839,,,60.21760559082031,23655,789,foodsafety@shetland.gov.uk,Shetland Islands,http://www.shetland.gov.uk/,-1.45045971870422,,2014-03-28,fhis_improvement_required_en-GB,Improvement Required,,FHIS,
452642,123 Commercial Street,Lerwick,Shetland,,Tatties & Point,Takeaway/sandwich shop,7844,,,730157,,,60.15337721000001,24152,789,foodsafety@shetland.gov.uk,Shetland Islands,http://www.shetland.gov.uk/,-1.14324734000000,,2015-01-05,fhis_improvement_required_en-GB,Improvement Required,,FHIS,
452643,South Road,Lerwick,Shetland,,Tesco Stores Ltd,Retailers - supermarkets/hypermarkets,7840,,,391207,,,60.14757600000000,23237,789,foodsafety@shetland.gov.uk,Shetland Islands,http://www.shetland.gov.uk/,-1.16447300000000,,2015-01-07,fhis_improvement_required_en-GB,Improvement Required,,FHIS,
452644,Harlsdale,Symbister,Whalsay,,Tetley and Anderson,Manufacturers/packers,7839,,,408944,,,,451,789,foodsafety@shetland.gov.uk,Shetland Islands,http://www.shetland.gov.uk/,,,2013-05-08,fhis_pass_en-GB,Pass,,FHIS,
452645,Bixter,Shetland,,,The Bixter Shop,Retailers - other,4613,,,636588,,,60.25426101684570,24050,789,foodsafety@shetland.gov.uk,Shetland Islands,http://www.shetland.gov.uk/,-1.40566003322601,,2014-03-24,fhis_pass_en-GB,Pass,,FHIS,
452646,Little Hamar,Baltasound,Unst,,The Bus Shelter Business,Other catering premises,7841,,,408741,,,,22430,789,foodsafety@shetland.gov.uk,Shetland Islands,http://www.shetland.gov.uk/,,,2013-10-08,fhis_exempt_en-GB,Exempt,,FHIS,
452647,Skellister,South Nesting,Shetland,,The Cafe Consulate,Mobile caterer,7846,,,391226,,,60.21760559082031,23326,789,foodsafety@shetland.gov.uk,Shetland Islands,http://www.shetland.gov.uk/,-1.45045971870422,,2014-08-18,fhis_exempt_en-GB,Exempt,,FHIS,
452648,Main Street,Scalloway,Shetland,,The Checkout,Retailers - other,4613,,,687304,,,60.13758800000000,24087,789,foodsafety@shetland.gov.uk,Shetland Islands,http://www.shetland.gov.uk/,-1.27842700000000,,2014-12-16,fhis_pass_en-GB,Pass,,FHIS,
452649,Hillside,Brae,Shetland,,The Co-operative Food,Retailers - supermarkets/hypermarkets,7840,,,391197,,,,22369,789,foodsafety@shetland.gov.uk,Shetland Islands,http://www.shetland.gov.uk/,,,2014-03-28,fhis_pass_en-GB,Pass,,FHIS,
452650,Holmsgarth Road,Lerwick,Shetland,,The Co-operative Food,Retailers - supermarkets/hypermarkets,7840,,,408610,,,60.16308300000000,1178,789,foodsafety@shetland.gov.uk,Shetland Islands,http://www.shetland.gov.uk/,-1.15987100000000,,2014-10-20,fhis_pass_en-GB,Pass,,FHIS,
452651,67 Commercial Road,Lerwick,Shetland,,The Douglas Arms,Pub/bar/nightclub,7843,,,408990,,,60.15709684999999,895,789,foodsafety@shetland.gov.uk,Shetland Islands,http://www.shetland.gov.uk/,-1.15086194000000,,2012-09-21,fhis_exempt_en-GB,Exempt,,FHIS,
452652,3 Commercial Road,Lerwick,Shetland,,The Great Wall,Restaurant/Cafe/Canteen,1,,,408616,,,60.15638530000000,11949,789,foodsafety@shetland.gov.uk,Shetland Islands,http://www.shetland.gov.uk/,-1.14458978000000,,2013-12-16,fhis_pass_en-GB,Pass,,FHIS,
452653,Hillend,Mid Yell,Yell,,The Hilltop Bar,Pub/bar/nightclub,7843,,,633964,,,,24046,789,foodsafety@shetland.gov.uk,Shetland Islands,http://www.shetland.gov.uk/,,,,fhis_awaiting_inspection_en-GB,Awaiting Inspection,,FHIS,
452654,15 South Road,Lerwick,Shetland,,The Lerwick Hotel,Restaurant/Cafe/Canteen,1,,,408637,,,60.15069034000000,1335,789,foodsafety@shetland.gov.uk,Shetland Islands,http://www.shetland.gov.uk/,-1.15432953000000,,2014-02-17,fhis_pass_en-GB,Pass,,FHIS,
452655,4 Mounthooly Street,Lerwick,Shetland,,The Lounge Bar,Pub/bar/nightclub,7843,,,391157,,,,1235,789,foodsafety@shetland.gov.uk,Shetland Islands,http://www.shetland.gov.uk/,,,2014-05-13,fhis_exempt_en-GB,Exempt,,FHIS,
452656,Brae,Shetland,,,The Moorfield Hotel,Hotel/bed & breakfast/guest house,7842,,,579768,,,60.39318084716797,23956,789,foodsafety@shetland.gov.uk,Shetland Islands,http://www.shetland.gov.uk/,-1.35031998157501,,2013-08-12,fhis_pass_and_eat_safe_en-GB,Pass and Eat Safe,,FHIS,
452657,2 Merran Moad Steps,Lerwick,Shetland,,The New Harbour Cafe,Restaurant/Cafe/Canteen,1,,,408824,,,60.15455600000000,23489,789,foodsafety@shetland.gov.uk,Shetland Islands,http://www.shetland.gov.uk/,-1.14345800000000,,2014-04-29,fhis_pass_en-GB,Pass,,FHIS,
452658,Toll Clock Shopping Centre,26 North Road,Lerwick,,The Olive Tree,Restaurant/Cafe/Canteen,1,,,391236,,,60.15734151000000,23643,789,foodsafety@shetland.gov.uk,Shetland Islands,http://www.shetland.gov.uk/,-1.15535617000000,,2014-09-05,fhis_pass_en-GB,Pass,,FHIS,
452659,47f St Olaf Street,Lerwick,Shetland,,The Relish Van,Mobile caterer,7846,,,617952,,,,20598,789,foodsafety@shetland.gov.uk,Shetland Islands,http://www.shetland.gov.uk/,,,2013-12-02,fhis_improvement_required_en-GB,Improvement Required,,FHIS,
452660,26 Commercial Road,Lerwick,Shetland,,The Royal British Legion,Pub/bar/nightclub,7843,,,408724,,,60.15669919000000,22315,789,foodsafety@shetland.gov.uk,Shetland Islands,http://www.shetland.gov.uk/,-1.14489487000000,,2012-09-20,fhis_exempt_en-GB,Exempt,,FHIS,
452661,Berry Road,Scalloway,Shetland,,The Royal British Legion,Pub/bar/nightclub,7843,,,408956,,,60.13904900000000,526,789,foodsafety@shetland.gov.uk,Shetland Islands,http://www.shetland.gov.uk/,-1.27591100000000,,2013-10-08,fhis_exempt_en-GB,Exempt,,FHIS,
452662,Saxa Vord Distillery,Haroldswick,Unst,,The Shetland Distillery Company,Manufacturers/packers,7839,,,701072,,,,24131,789,foodsafety@shetland.gov.uk,Shetland Islands,http://www.shetland.gov.uk/,,,,fhis_awaiting_inspection_en-GB,Awaiting Inspection,,FHIS,
452663,Esplanade,Lerwick,Shetland,,The Shetland Fudge Company Ltd,Manufacturers/packers,7839,,,701073,,,60.15438500000000,24132,789,foodsafety@shetland.gov.uk,Shetland Islands,http://www.shetland.gov.uk/,-1.14302800000000,,,fhis_awaiting_inspection_en-GB,Awaiting Inspection,,FHIS,
452664,Holmsgarth Road,Lerwick,Shetland,,The Shetland Hotel,Restaurant/Cafe/Canteen,1,,,408609,,,60.16308300000000,1177,789,foodsafety@shetland.gov.uk,Shetland Islands,http://www.shetland.gov.uk/,-1.15987100000000,,2014-02-25,fhis_pass_en-GB,Pass,,FHIS,
452665,Old Weighbridge,Gremista,Lerwick,,The Takeaway,Takeaway/sandwich shop,7844,,,391164,,,60.17043900000000,1388,789,foodsafety@shetland.gov.uk,Shetland Islands,http://www.shetland.gov.uk/,-1.16432600000000,,2015-02-02,fhis_pass_en-GB,Pass,,FHIS,
452666,Main Street,Scalloway,Shetland,,The Walter & Joan Gray,Hospitals/Childcare/Caring Premises,5,,,408960,,,60.13758800000000,568,789,foodsafety@shetland.gov.uk,Shetland Islands,http://www.shetland.gov.uk/,-1.27842700000000,,2013-07-22,fhis_pass_en-GB,Pass,,FHIS,
452667,113 Commercial Street,Lerwick,Shetland,,The Wine Shop,Retailers - other,4613,,,408996,,,60.15333027000000,936,789,foodsafety@shetland.gov.uk,Shetland Islands,http://www.shetland.gov.uk/,-1.14317358000000,,2010-03-30,fhis_exempt_en-GB,Exempt,,FHIS,
452668,Taits Place,Esplanade,Lerwick,,Thule Bar,Pub/bar/nightclub,7843,,,391145,,,,1028,789,foodsafety@shetland.gov.uk,Shetland Islands,http://www.shetland.gov.uk/,,,2014-07-03,fhis_exempt_en-GB,Exempt,,FHIS,
452669,Tingwall,Shetland,,,Tingwall Primary School Canteen,School/college/university,7845,,,391252,,,60.16669845581055,494,789,foodsafety@shetland.gov.uk,Shetland Islands,http://www.shetland.gov.uk/,-1.23329997062683,,2013-09-10,fhis_pass_en-GB,Pass,,FHIS,
452670,Lee,Hillswick,Shetland,,Toby's,Other catering premises,7841,,,408833,,,60.21760559082031,23617,789,foodsafety@shetland.gov.uk,Shetland Islands,http://www.shetland.gov.uk/,-1.45045971870422,,2013-04-01,fhis_exempt_en-GB,Exempt,,FHIS,
452671,Pierhead,Ulsta,Yell,,Ulsta Shop,Retailers - other,4613,,,408748,,,,23192,789,foodsafety@shetland.gov.uk,Shetland Islands,http://www.shetland.gov.uk/,,,2014-08-22,fhis_pass_en-GB,Pass,,FHIS,
452672,114 Commercial Street,Lerwick,Shetland,,Universal Stores,Retailers - other,4613,,,391144,,,60.15461504000001,1001,789,foodsafety@shetland.gov.uk,Shetland Islands,http://www.shetland.gov.uk/,-1.14385486000000,,2014-08-18,fhis_exempt_en-GB,Exempt,,FHIS,
452673,Baltasound,Unst,Shetland,,Unst Leisure Centre,Retailers - other,4613,,,408933,,,60.75777816772461,40,789,foodsafety@shetland.gov.uk,Shetland Islands,http://www.shetland.gov.uk/,-0.86519998311996,,2014-07-03,fhis_exempt_en-GB,Exempt,,FHIS,
452674,Fair Isle,Shetland,,,Upper Leogh,Hotel/bed & breakfast/guest house,7842,,,391225,,,59.53076553344727,23322,789,foodsafety@shetland.gov.uk,Shetland Islands,http://www.shetland.gov.uk/,-1.63574385643005,,2014-08-18,fhis_exempt_en-GB,Exempt,,FHIS,
452675,Urafirth,North Mavine,Shetland,,Urafirth Primary School,School/college/university,7845,,,408692,,,60.21760559082031,182,789,foodsafety@shetland.gov.uk,Shetland Islands,http://www.shetland.gov.uk/,-1.45045971870422,,2012-09-20,fhis_exempt_en-GB,Exempt,,FHIS,
452676,Nursery Class,Heylor,Urafirth,,Urafirth Primary School Nursery,Hospitals/Childcare/Caring Premises,5,,,408773,,,,23275,789,foodsafety@shetland.gov.uk,Shetland Islands,http://www.shetland.gov.uk/,,,2013-10-08,fhis_awaiting_inspection_en-GB,Awaiting Inspection,,FHIS,
452677,Muckle Roe,Brae,Shetland,,Vadsdal B&B,Hotel/bed & breakfast/guest house,7842,,,505823,,,60.39318084716797,23889,789,foodsafety@shetland.gov.uk,Shetland Islands,http://www.shetland.gov.uk/,-1.35031998157501,,2013-05-23,fhis_pass_en-GB,Pass,,FHIS,
452678,Gott,Shetland,,,Valley B&B,Hotel/bed & breakfast/guest house,7842,,,408678,,,60.19659042358398,15596,789,foodsafety@shetland.gov.uk,Shetland Islands,http://www.shetland.gov.uk/,-1.22220003604889,,2013-04-01,fhis_exempt_en-GB,Exempt,,FHIS,
452679,Valleyfield,Brae,Shetland,,Valleyfield Guest House,Hotel/bed & breakfast/guest house,7842,,,391193,,,60.21760559082031,223,789,foodsafety@shetland.gov.uk,Shetland Islands,http://www.shetland.gov.uk/,-1.45045971870422,,2014-07-04,fhis_exempt_en-GB,Exempt,,FHIS,
452680,Shurton Brae,Gulberwick,Shetland,,Virdafjell B&B,Hotel/bed & breakfast/guest house,7842,,,408683,,,60.21760559082031,16684,789,foodsafety@shetland.gov.uk,Shetland Islands,http://www.shetland.gov.uk/,-1.45045971870422,,2014-10-08,fhis_exempt_en-GB,Exempt,,FHIS,
452681,Bayhall,Walls,Shetland,,Walls Regatta Club,Pub/bar/nightclub,7843,,,408922,,,60.21760559082030,326,789,foodsafety@shetland.gov.uk,Shetland Islands,http://www.shetland.gov.uk/,-1.45045971870422,,2014-10-08,fhis_exempt_en-GB,Exempt,,FHIS,
452682,Springfield,Walls,Shetland,,Walls Shop,Retailers - other,4613,,,408717,,,60.21760559082031,22197,789,foodsafety@shetland.gov.uk,Shetland Islands,http://www.shetland.gov.uk/,-1.45045971870422,,2013-06-01,fhis_exempt_en-GB,Exempt,,FHIS,
452683,Walls,Shetland,,,Wastview Care Centre,Hospitals/Childcare/Caring Premises,5,,,391169,,,60.22895050048828,1448,789,foodsafety@shetland.gov.uk,Shetland Islands,http://www.shetland.gov.uk/,-1.56378996372223,,2014-06-18,fhis_pass_en-GB,Pass,,FHIS,
452684,Mossbank,Shetland,,,Welcome Inn,Pub/bar/nightclub,7843,,,391245,,,60.44620895385742,286,789,foodsafety@shetland.gov.uk,Shetland Islands,http://www.shetland.gov.uk/,-1.20480000972748,,2012-03-30,fhis_exempt_en-GB,Exempt,,FHIS,
452685,West Isle,Skerries,Shetland,,West Isle Shop,Retailers - other,4613,,,408948,,,60.21760559082031,461,789,foodsafety@shetland.gov.uk,Shetland Islands,http://www.shetland.gov.uk/,-1.45045971870422,,2012-09-20,fhis_exempt_en-GB,Exempt,,FHIS,
452686,Muckle Roe,Brae,Shetland,,Westayre B&B,Hotel/bed & breakfast/guest house,7842,,,391163,,,60.39318084716797,13669,789,foodsafety@shetland.gov.uk,Shetland Islands,http://www.shetland.gov.uk/,-1.35031998157501,,2014-08-12,fhis_exempt_en-GB,Exempt,,FHIS,
452687,Lower Sound,Lerwick,Shetland,,Westhall B&B,Hotel/bed & breakfast/guest house,7842,,,460496,,,,23822,789,foodsafety@shetland.gov.uk,Shetland Islands,http://www.shetland.gov.uk/,,,2012-10-18,fhis_pass_en-GB,Pass,,FHIS,
452688,Westings,Whiteness,Shetland,,Westings Inn,Hotel/bed & breakfast/guest house,7842,,,408718,,,60.21760559082030,22206,789,foodsafety@shetland.gov.uk,Shetland Islands,http://www.shetland.gov.uk/,-1.45045971870422,,2013-04-01,fhis_exempt_en-GB,Exempt,,FHIS,
452689,Symbister,Whalsay,,,Whalsay Boating & Sports Club,Pub/bar/nightclub,7843,,,408943,,,60.33982849121094,446,789,foodsafety@shetland.gov.uk,Shetland Islands,http://www.shetland.gov.uk/,-1.02214002609253,,2013-04-01,fhis_exempt_en-GB,Exempt,,FHIS,
452690,Skaw,Brough,Whalsay,,Whalsay Golf Club,Pub/bar/nightclub,7843,,,408639,,,60.37805938720703,1349,789,foodsafety@shetland.gov.uk,Shetland Islands,http://www.shetland.gov.uk/,-0.93022000789642,,2013-10-08,fhis_awaiting_inspection_en-GB,Awaiting Inspection,,FHIS,
452691,Gardentown,Symbister,Whalsay,,Whalsay Leisure Centre,Retailers - other,4613,,,408940,,,,440,789,foodsafety@shetland.gov.uk,Shetland Islands,http://www.shetland.gov.uk/,,,2014-07-04,fhis_exempt_en-GB,Exempt,,FHIS,
452692,Symbister Public Hall,Symbister,Whalsay,,Whalsay Playgroup,Hospitals/Childcare/Caring Premises,5,,,391220,,,60.33983100000000,23276,789,foodsafety@shetland.gov.uk,Shetland Islands,http://www.shetland.gov.uk/,-1.02214100000000,,2014-07-03,fhis_exempt_en-GB,Exempt,,FHIS,
452693,Symbister,Whalsay,Shetland,,Whalsay School,School/college/university,7845,,,408941,,,60.33982849121094,441,789,foodsafety@shetland.gov.uk,Shetland Islands,http://www.shetland.gov.uk/,-1.02214002609253,,2014-06-20,fhis_pass_en-GB,Pass,,FHIS,
452694,Symbister,Whalsay,Shetland,,Whalsay School Nursery,Hospitals/Childcare/Caring Premises,5,,,408774,,,60.33982849121094,23277,789,foodsafety@shetland.gov.uk,Shetland Islands,http://www.shetland.gov.uk/,-1.02214002609253,,2012-09-21,fhis_exempt_en-GB,Exempt,,FHIS,
452695,Strom,Whiteness,,,Whitedale Snooker Club,Pub/bar/nightclub,7843,,,391254,,,,511,789,foodsafety@shetland.gov.uk,Shetland Islands,http://www.shetland.gov.uk/,,,2014-08-18,fhis_exempt_en-GB,Exempt,,FHIS,
452696,Whiteness,Shetland,,,Whiteness Primary School,School/college/university,7845,,,391253,,,60.17815017700195,509,789,foodsafety@shetland.gov.uk,Shetland Islands,http://www.shetland.gov.uk/,-1.30642998218536,,2014-06-13,fhis_pass_en-GB,Pass,,FHIS,
452697,Whiteness,Shetland,,,Whiteness Primary School Nursery,Hospitals/Childcare/Caring Premises,5,,,408775,,,60.17815017700195,23278,789,foodsafety@shetland.gov.uk,Shetland Islands,http://www.shetland.gov.uk/,-1.30642998218536,,2013-04-01,fhis_exempt_en-GB,Exempt,,FHIS,
452698,Port Arthur,Scalloway,Shetland,,Windward B&B,Hotel/bed & breakfast/guest house,7842,,,391174,,,60.21760559082031,15909,789,foodsafety@shetland.gov.uk,Shetland Islands,http://www.shetland.gov.uk/,-1.45045971870422,,2014-09-02,fhis_exempt_en-GB,Exempt,,FHIS,
452699,Baltasound,Unst,Shetland,,Winwick House B&B,Hotel/bed & breakfast/guest house,7842,,,505825,,,60.75777816772461,23891,789,foodsafety@shetland.gov.uk,Shetland Islands,http://www.shetland.gov.uk/,-0.86519998311996,,2013-06-13,fhis_pass_en-GB,Pass,,FHIS,
452700,43 St Olaf Street,Lerwick,Shetland,,Woosung B&B,Hotel/bed & breakfast/guest house,7842,,,391170,,,60.15268332000001,1458,789,foodsafety@shetland.gov.uk,Shetland Islands,http://www.shetland.gov.uk/,-1.14720011000000,,2014-07-03,fhis_exempt_en-GB,Exempt,,FHIS,
452701,Cunningsburgh Hall,Cunningsburgh,Shetland,,WRVS Luncheon Club,Other catering premises,7841,,,558451,,,,23938,789,foodsafety@shetland.gov.uk,Shetland Islands,http://www.shetland.gov.uk/,,,2014-10-21,fhis_pass_en-GB,Pass,,FHIS,
452702,Mid Yell,Shetland,,,Yell Leisure Centre,Retailers - other,4613,,,408602,,,60.59875106811523,108,789,foodsafety@shetland.gov.uk,Shetland Islands,http://www.shetland.gov.uk/,-1.07490003108978,,2014-07-03,fhis_exempt_en-GB,Exempt,,FHIS,
