,addressline1,addressline2,addressline3,addressline4,businessname,businesstype,businesstypeid,confidenceinmanagement,extractdate,fhrsid,hygiene,itemcount,latitude,localauthoritybusinessid,localauthoritycode,localauthorityemailaddress,localauthorityname,localauthoritywebsite,longitude,postcode,ratingdate,ratingkey,ratingvalue,returncode,schemetype,structural
420135,40 North Bragar,Isle Of Lewis,,,40 North Limited,Retailers - other,4613,,,468614,,,58.33575200000000,LKKQK4RO01D00,791,eh@cne-siar.gov.uk,Comhairle nan Eilean Siar (Western Isles),http://www.cne-siar.gov.uk/foodsafety/food-hygiene-scheme.asp,-6.62182600000000,HS2 9DA,2014-09-30,fhis_pass_en-GB,Pass,,FHIS,
420136,A & C Maclean Shop,Castlebay,Isle Of Barra,,A & C Maclean,Retailers - other,4613,,,468400,,,56.95506400000000,0300000000005,791,eh@cne-siar.gov.uk,Comhairle nan Eilean Siar (Western Isles),http://www.cne-siar.gov.uk/foodsafety/food-hygiene-scheme.asp,-7.48833600000000,HS9 5XD,2013-08-30,fhis_pass_en-GB,Pass,,FHIS,
420137,A D Munro,Butcher,East Tarbert,Isle Of Harris,A D Munro,Retailers - other,4613,,,468432,,,57.89856200000000,0498000000000,791,eh@cne-siar.gov.uk,Comhairle nan Eilean Siar (Western Isles),http://www.cne-siar.gov.uk/foodsafety/food-hygiene-scheme.asp,-6.79613100000000,HS3 3DB,2014-10-31,fhis_improvement_required_en-GB,Improvement Required,,FHIS,
420138,A D's Takeaway,East Tarbert,Isle Of Harris,,A D's Takeaway,Takeaway/sandwich shop,7844,,,468436,,,57.89823000000000,0498020032001,791,eh@cne-siar.gov.uk,Comhairle nan Eilean Siar (Western Isles),http://www.cne-siar.gov.uk/foodsafety/food-hygiene-scheme.asp,-6.80250700000000,HS3 3DJ,2014-02-07,fhis_pass_en-GB,Pass,,FHIS,
420139,Luachair Cottage,East Tarbert,Tarbert,Isle Of Harris,Abdul Ghaffar,Manufacturers/packers,7839,,,505874,,,57.89856200000000,MDWCFDRO01D00,791,eh@cne-siar.gov.uk,Comhairle nan Eilean Siar (Western Isles),http://www.cne-siar.gov.uk/foodsafety/food-hygiene-scheme.asp,-6.79613100000000,HS3 3DB,2013-12-03,fhis_exempt_en-GB,Exempt,,FHIS,
420140,James Maclennan,Yard,Inaclete Road,Stornoway,Adventure Island,Restaurant/Cafe/Canteen,1,,,468633,,,58.20656500000000,LY3E45RO01D00,791,eh@cne-siar.gov.uk,Comhairle nan Eilean Siar (Western Isles),http://www.cne-siar.gov.uk/foodsafety/food-hygiene-scheme.asp,-6.38066400000000,HS1 2RB,2013-09-06,fhis_pass_en-GB,Pass,,FHIS,
420141,Highlands And Islands Airports Limited,Airport Terminal,Stornoway Airport,Melbost,Airport Cafe,Restaurant/Cafe/Canteen,1,,,468646,,,58.21403100000000,M1UGRHRO01D00,791,eh@cne-siar.gov.uk,Comhairle nan Eilean Siar (Western Isles),http://www.cne-siar.gov.uk/foodsafety/food-hygiene-scheme.asp,-6.32187400000000,HS2 0BN,2014-02-25,fhis_pass_en-GB,Pass,,FHIS,
420142,2 Inaclete Road,Stornoway,Isle Of Lewis,,Aladdin's Cave,Retailers - other,4613,,,296294,,,58.20656500000000,L56LPARO02C00,791,eh@cne-siar.gov.uk,Comhairle nan Eilean Siar (Western Isles),http://www.cne-siar.gov.uk/foodsafety/food-hygiene-scheme.asp,-6.38066400000000,HS1 2RB,2010-10-25,fhis_exempt_en-GB,Exempt,,FHIS,
420143,45 Westview Terrace,Stornoway,Isle Of Lewis,,Alex France & Sons,Retailers - other,4613,,,296277,,,58.21549900000000,1477000450000,791,eh@cne-siar.gov.uk,Comhairle nan Eilean Siar (Western Isles),http://www.cne-siar.gov.uk/foodsafety/food-hygiene-scheme.asp,-6.38186800000000,HS1 2HP,2014-12-08,fhis_pass_en-GB,Pass,,FHIS,
420144,Kildun,14 Goathill Road,Stornoway,Isle Of Lewis,Alexandra's Bed & Breakfast,Hotel/bed & breakfast/guest house,7842,,,626194,,,58.21352600000000,0593000142000,791,eh@cne-siar.gov.uk,Comhairle nan Eilean Siar (Western Isles),http://www.cne-siar.gov.uk/foodsafety/food-hygiene-scheme.asp,-6.37699000000000,HS1 2NL,2003-08-12,fhis_exempt_en-GB,Exempt,,FHIS,
420145,Deer Larder,Aline Lodge,Aline,Isle Of Lewis,Aline Lodge,Manufacturers/packers,7839,,,468348,,,58.00722500000000,0036000070000,791,eh@cne-siar.gov.uk,Comhairle nan Eilean Siar (Western Isles),http://www.cne-siar.gov.uk/foodsafety/food-hygiene-scheme.asp,-6.74861500000000,HS2 9JL,2014-11-18,fhis_exempt_en-GB,Exempt,,FHIS,
420146,20 Swordale,Point,Isle Of Lewis,,Alison M MacDonald,Manufacturers/packers,7839,,,682333,,,58.19449200000000,N35KOGRO01D00,791,eh@cne-siar.gov.uk,Comhairle nan Eilean Siar (Western Isles),http://www.cne-siar.gov.uk/foodsafety/food-hygiene-scheme.asp,-6.26492900000000,HS2 0BP,2014-03-21,fhis_exempt_en-GB,Exempt,,FHIS,
420147,Church Of Scotland,Leverburgh,Isle Of Harris,,Alzheimer Scotland Action On Dementia,Hospitals/Childcare/Caring Premises,5,,,468469,,,57.77140200000000,0820000010005,791,eh@cne-siar.gov.uk,Comhairle nan Eilean Siar (Western Isles),http://www.cne-siar.gov.uk/foodsafety/food-hygiene-scheme.asp,-7.01470800000000,HS5 3TS,2010-02-08,fhis_pass_en-GB,Pass,,FHIS,
420148,Am Politician,Balla,Eriskay,Isle Of South Uist,Am Politician,Pub/bar/nightclub,7843,,,468374,,,57.08231700000000,0120000000001,791,eh@cne-siar.gov.uk,Comhairle nan Eilean Siar (Western Isles),http://www.cne-siar.gov.uk/foodsafety/food-hygiene-scheme.asp,-7.30831200000000,HS8 5JL,2014-05-07,fhis_pass_en-GB,Pass,,FHIS,
420149,11 Esplanade Court,Quay Street,Stornoway,Isle Of Lewis,Amanda Claire MacDonald Darling/Kenny Morrison,Hotel/bed & breakfast/guest house,7842,,,468617,,,58.20818900000000,LLEH65RO01D00,791,eh@cne-siar.gov.uk,Comhairle nan Eilean Siar (Western Isles),http://www.cne-siar.gov.uk/foodsafety/food-hygiene-scheme.asp,-6.39122300000000,HS1 2XA,2011-05-20,fhis_pass_en-GB,Pass,,FHIS,
420150,Castle,Amhuinnsuidhe,Isle Of Harris,,Amhuinnsuidhe Castle,Hotel/bed & breakfast/guest house,7842,,,468349,,,57.96297800000000,0041020002000,791,eh@cne-siar.gov.uk,Comhairle nan Eilean Siar (Western Isles),http://www.cne-siar.gov.uk/foodsafety/food-hygiene-scheme.asp,-6.99500900000000,HS3 3AS,2014-11-04,fhis_pass_en-GB,Pass,,FHIS,
420151,Castle,Amhuinnsuidhe,Isle Of Harris,,Amhuinnsuidhe Castle Products Ltd,Manufacturers/packers,7839,,,468612,,,57.96297800000000,LJHSNIRO01D00,791,eh@cne-siar.gov.uk,Comhairle nan Eilean Siar (Western Isles),http://www.cne-siar.gov.uk/foodsafety/food-hygiene-scheme.asp,-6.99500900000000,HS3 3AS,2013-10-29,fhis_pass_en-GB,Pass,,FHIS,
420152,Co Chomunn Na Hearadh Ltd,Shop And Post Office,An Clachan,Leverburgh,An Clachan,Retailers - other,4613,,,468473,,,57.77140200000000,0820020213000,791,eh@cne-siar.gov.uk,Comhairle nan Eilean Siar (Western Isles),http://www.cne-siar.gov.uk/foodsafety/food-hygiene-scheme.asp,-7.01470800000000,HS5 3TS,2013-02-27,fhis_pass_en-GB,Pass,,FHIS,
420153,Nursery,Lews Castle College,Castle Grounds,Stornoway,An Cotan Childcare Centre,Hospitals/Childcare/Caring Premises,5,,,682324,,,,MSCSC1RO01D00,791,eh@cne-siar.gov.uk,Comhairle nan Eilean Siar (Western Isles),http://www.cne-siar.gov.uk/foodsafety/food-hygiene-scheme.asp,,,2014-04-15,fhis_pass_en-GB,Pass,,FHIS,
420154,Kenneth Street,Stornoway,Isle Of Lewis,,An Lanntair,Restaurant/Cafe/Canteen,1,,,296282,,,58.21066600000000,J1400QROD1000,791,eh@cne-siar.gov.uk,Comhairle nan Eilean Siar (Western Isles),http://www.cne-siar.gov.uk/foodsafety/food-hygiene-scheme.asp,-6.38796900000000,HS1 2DS,2014-06-12,fhis_pass_en-GB,Pass,,FHIS,
420155,Leverburgh,Isle Of Harris,,,Anchorage Restaurant,Restaurant/Cafe/Canteen,1,,,468471,,,57.76585500000000,0820020172000,791,eh@cne-siar.gov.uk,Comhairle nan Eilean Siar (Western Isles),http://www.cne-siar.gov.uk/foodsafety/food-hygiene-scheme.asp,-7.01983000000000,HS5 3UB,2014-05-08,fhis_pass_en-GB,Pass,,FHIS,
420156,Dunedin,Anderson Road,Stornoway,Isle Of Lewis,Anderson Road Nurseries,Manufacturers/packers,7839,,,296198,,,58.21509900000000,0042000002000,791,eh@cne-siar.gov.uk,Comhairle nan Eilean Siar (Western Isles),http://www.cne-siar.gov.uk/foodsafety/food-hygiene-scheme.asp,-6.37072500000000,HS1 2PG,,fhis_awaiting_inspection_en-GB,Awaiting Inspection,,FHIS,
420157,Garden Centre,Anderson Road,Stornoway,Isle Of Lewis,Anderson Road Nurseries,Retailers - other,4613,,,296197,,,58.21509900000000,0042000000000,791,eh@cne-siar.gov.uk,Comhairle nan Eilean Siar (Western Isles),http://www.cne-siar.gov.uk/foodsafety/food-hygiene-scheme.asp,-6.37072500000000,HS1 2PG,2010-05-27,fhis_exempt_en-GB,Exempt,,FHIS,
420158,Anglers Retreat,1 Ardmore,Eochar,Isle Of South Uist,Anglers Retreat Guest House,Hotel/bed & breakfast/guest house,7842,,,468353,,,57.39121700000000,0065000010000,791,eh@cne-siar.gov.uk,Comhairle nan Eilean Siar (Western Isles),http://www.cne-siar.gov.uk/foodsafety/food-hygiene-scheme.asp,-7.32759700000000,HS8 5QY,2013-11-25,fhis_pass_en-GB,Pass,,FHIS,
420159,Filling Station,Cannery Road,Stornoway,Isle Of Lewis,Angus Campbell Ltd,Retailers - other,4613,,,296205,,,58.20568700000000,0269000000007,791,eh@cne-siar.gov.uk,Comhairle nan Eilean Siar (Western Isles),http://www.cne-siar.gov.uk/foodsafety/food-hygiene-scheme.asp,-6.37246300000000,HS1 2SF,2013-06-14,fhis_pass_en-GB,Pass,,FHIS,
420160,Vehicle Reg G453 ESD - A Maclean,Leverburgh,Isle Of Harris,,Angus Maclean,Retailers - other,4613,,,468468,,,57.74406700000000,082000000T000,791,eh@cne-siar.gov.uk,Comhairle nan Eilean Siar (Western Isles),http://www.cne-siar.gov.uk/foodsafety/food-hygiene-scheme.asp,-6.98313600000000,HS5 3UE,2012-02-07,fhis_pass_en-GB,Pass,,FHIS,
420161,16A Knock,Point,Isle Of Lewis,,Angusina MacLeod,Manufacturers/packers,7839,,,568321,,,58.20246700000000,MP3MC0RO01D00,791,eh@cne-siar.gov.uk,Comhairle nan Eilean Siar (Western Isles),http://www.cne-siar.gov.uk/foodsafety/food-hygiene-scheme.asp,-6.26874900000000,HS2 0BW,2013-06-24,fhis_pass_en-GB,Pass,,FHIS,
420162,11 Battery Park Road,Stornoway,Isle Of Lewis,,Anna Margaret MacLeod,Hotel/bed & breakfast/guest house,7842,,,468658,,,58.20365700000000,M6BLU8RO01D00,791,eh@cne-siar.gov.uk,Comhairle nan Eilean Siar (Western Isles),http://www.cne-siar.gov.uk/foodsafety/food-hygiene-scheme.asp,-6.36948700000000,HS1 2RZ,2012-06-21,fhis_pass_en-GB,Pass,,FHIS,
420163,APC Church,72 Keith Street,Stornoway,Isle Of Lewis,APC Church,Other catering premises,7841,,,716021,,,58.21077100000000,NBP0TRRO01D00,791,eh@cne-siar.gov.uk,Comhairle nan Eilean Siar (Western Isles),http://www.cne-siar.gov.uk/foodsafety/food-hygiene-scheme.asp,-6.38597100000000,HS1 2JG,2014-09-25,fhis_pass_en-GB,Pass,,FHIS,
420164,Ard Na Mara,290 Kilpheder,Isle Of South Uist,,Ard Na Mara B&B,Hotel/bed & breakfast/guest house,7842,,,468463,,,57.15564200000000,0739002902000,791,eh@cne-siar.gov.uk,Comhairle nan Eilean Siar (Western Isles),http://www.cne-siar.gov.uk/foodsafety/food-hygiene-scheme.asp,-7.38180200000000,HS8 5TB,2013-12-11,fhis_pass_en-GB,Pass,,FHIS,
420165,Ardhasaig,Isle Of Harris,,,Ardhasaig Filling Station,Retailers - other,4613,,,605871,,,57.92101300000000,0053020032000,791,eh@cne-siar.gov.uk,Comhairle nan Eilean Siar (Western Isles),http://www.cne-siar.gov.uk/foodsafety/food-hygiene-scheme.asp,-6.84890300000000,HS3 3AJ,2013-10-02,fhis_pass_en-GB,Pass,,FHIS,
420166,Ardhasaig House,9 Ardhasaig,Isle Of Harris,,Ardhasaig House,Hotel/bed & breakfast/guest house,7842,,,468351,,,57.92101300000000,0053000090000,791,eh@cne-siar.gov.uk,Comhairle nan Eilean Siar (Western Isles),http://www.cne-siar.gov.uk/foodsafety/food-hygiene-scheme.asp,-6.84890300000000,HS3 3AJ,2014-06-09,fhis_improvement_required_en-GB,Improvement Required,,FHIS,
420167,Ardmaree Stores & Lobster Pot Tea Room,5A Ardmaree,Berneray,Isle Of North Uist,Ardmaree Stores And Lobster Pot Tea Room,Retailers - other,4613,,,468352,,,57.71204800000000,0059000002000,791,eh@cne-siar.gov.uk,Comhairle nan Eilean Siar (Western Isles),http://www.cne-siar.gov.uk/foodsafety/food-hygiene-scheme.asp,-7.18188900000000,HS6 5BJ,2014-06-06,fhis_pass_en-GB,Pass,,FHIS,
420168,29 Urquhart Gardens,Stornoway,Isle Of Lewis,,Ardmor,Hotel/bed & breakfast/guest house,7842,,,296276,,,58.22119900000000,1441000290000,791,eh@cne-siar.gov.uk,Comhairle nan Eilean Siar (Western Isles),http://www.cne-siar.gov.uk/foodsafety/food-hygiene-scheme.asp,-6.38922000000000,HS1 2TX,2010-08-24,fhis_pass_en-GB,Pass,,FHIS,
420169,Ardnastruban House,1 Ardnastruban,Grimsay,Isle Of North Uist,Ardnastruban House,Hotel/bed & breakfast/guest house,7842,,,468354,,,57.49629700000000,0070000010000,791,eh@cne-siar.gov.uk,Comhairle nan Eilean Siar (Western Isles),http://www.cne-siar.gov.uk/foodsafety/food-hygiene-scheme.asp,-7.26779200000000,HS6 5HT,2014-03-13,fhis_pass_en-GB,Pass,,FHIS,
420170,Ardseilach,Macdonald Road,Stornoway,Isle Of Lewis,Ardseileach Day Centre,Hospitals/Childcare/Caring Premises,5,,,296295,,,58.22094800000000,L5T48BRO02C00,791,eh@cne-siar.gov.uk,Comhairle nan Eilean Siar (Western Isles),http://www.cne-siar.gov.uk/foodsafety/food-hygiene-scheme.asp,-6.39546100000000,HS1 2YT,2010-07-14,fhis_pass_en-GB,Pass,,FHIS,
420171,Ardseilach,Macdonald Road,Stornoway,Isle Of Lewis,Ardseileach Hostel,Hospitals/Childcare/Caring Premises,5,,,296246,,,58.22094800000000,0902000002000,791,eh@cne-siar.gov.uk,Comhairle nan Eilean Siar (Western Isles),http://www.cne-siar.gov.uk/foodsafety/food-hygiene-scheme.asp,-6.39546100000000,HS1 2YT,2010-07-14,fhis_pass_en-GB,Pass,,FHIS,
420172,Askernish Golf Club,Golf Course,Askernish,Isle Of South Uist,Askernish Golf Club,Other catering premises,7841,,,468579,,,57.18713500000000,KDRJGHRO02A00,791,eh@cne-siar.gov.uk,Comhairle nan Eilean Siar (Western Isles),http://www.cne-siar.gov.uk/foodsafety/food-hygiene-scheme.asp,-7.39633800000000,HS8 5SY,2014-05-19,fhis_pass_en-GB,Pass,,FHIS,
420173,Guest House,5 Carnish,Uig,Isle Of Lewis,Auberge,Hotel/bed & breakfast/guest house,7842,,,468604,,,58.17607100000000,LGRFRNRO01D00,791,eh@cne-siar.gov.uk,Comhairle nan Eilean Siar (Western Isles),http://www.cne-siar.gov.uk/foodsafety/food-hygiene-scheme.asp,-7.04805800000000,HS2 9EX,2014-05-21,fhis_pass_en-GB,Pass,,FHIS,
420174,Avalon,12 West Tarbert,Isle Of Harris,,Avalon,Hotel/bed & breakfast/guest house,7842,,,468548,,,57.90173100000000,1476000120000,791,eh@cne-siar.gov.uk,Comhairle nan Eilean Siar (Western Isles),http://www.cne-siar.gov.uk/foodsafety/food-hygiene-scheme.asp,-6.81385700000000,HS3 3BG,2014-04-15,fhis_exempt_en-GB,Exempt,,FHIS,
420175,6 Horgabost,Isle Of Harris,,,B & B,Hotel/bed & breakfast/guest house,7842,,,468452,,,57.85791900000000,0665000060000,791,eh@cne-siar.gov.uk,Comhairle nan Eilean Siar (Western Isles),http://www.cne-siar.gov.uk/foodsafety/food-hygiene-scheme.asp,-6.97795000000000,HS3 3HR,2012-02-07,fhis_pass_en-GB,Pass,,FHIS,
420176,9 Stewart Drive,Stornoway,Isle Of Lewis,,B&B,Manufacturers/packers,7839,,,682325,,,58.22076300000000,MTQ867RO01D00,791,eh@cne-siar.gov.uk,Comhairle nan Eilean Siar (Western Isles),http://www.cne-siar.gov.uk/foodsafety/food-hygiene-scheme.asp,-6.39015400000000,HS1 2TU,2014-01-17,fhis_exempt_en-GB,Exempt,,FHIS,
420177,Ramadale,9 Goathill Crescent,Stornoway,Isle Of Lewis,B&B,Hotel/bed & breakfast/guest house,7842,,,716003,,,58.21265700000000,MSCTTSRO01D00,791,eh@cne-siar.gov.uk,Comhairle nan Eilean Siar (Western Isles),http://www.cne-siar.gov.uk/foodsafety/food-hygiene-scheme.asp,-6.38030800000000,HS1 2TA,2014-08-12,fhis_pass_en-GB,Pass,,FHIS,
420178,21 Baleshare,Isle Of North Uist,,,B&B Bagh Alluin,Hotel/bed & breakfast/guest house,7842,,,716015,,,57.53854600000000,N93ZG7RO02A00,791,eh@cne-siar.gov.uk,Comhairle nan Eilean Siar (Western Isles),http://www.cne-siar.gov.uk/foodsafety/food-hygiene-scheme.asp,-7.36306000000000,HS6 5HG,2014-07-03,fhis_pass_en-GB,Pass,,FHIS,
420179,Back Playgroup,Nursery,Back School,Vatisker,Back Croilegan,Hospitals/Childcare/Caring Premises,5,,,468655,,,58.27944300000000,M60K8XRO01D00,791,eh@cne-siar.gov.uk,Comhairle nan Eilean Siar (Western Isles),http://www.cne-siar.gov.uk/foodsafety/food-hygiene-scheme.asp,-6.30062700000000,HS2 0LB,2014-06-25,fhis_pass_en-GB,Pass,,FHIS,
420180,Back Pharmacy,Back,Isle Of Lewis,,Back Pharmacy,Retailers - other,4613,,,468358,,,58.27393100000000,0096000000015,791,eh@cne-siar.gov.uk,Comhairle nan Eilean Siar (Western Isles),http://www.cne-siar.gov.uk/foodsafety/food-hygiene-scheme.asp,-6.29502400000000,HS2 0JS,2010-09-28,fhis_exempt_en-GB,Exempt,,FHIS,
420181,Back School,Back,Isle Of Lewis,,Back School,School/college/university,7845,,,468357,,,58.27944300000000,0096000000012,791,eh@cne-siar.gov.uk,Comhairle nan Eilean Siar (Western Isles),http://www.cne-siar.gov.uk/foodsafety/food-hygiene-scheme.asp,-6.30062700000000,HS2 0LB,2013-06-20,fhis_pass_en-GB,Pass,,FHIS,
420182,11 Upper Carloway,Isle Of Lewis,,,Back To Back II - The Blue Pig Studio,Retailers - other,4613,,,468595,,,58.28665700000000,L2203IRO01D00,791,eh@cne-siar.gov.uk,Comhairle nan Eilean Siar (Western Isles),http://www.cne-siar.gov.uk/foodsafety/food-hygiene-scheme.asp,-6.76713000000000,HS2 9AG,2014-04-15,fhis_pass_en-GB,Pass,,FHIS,
420183,Baile Na Cille Guest House,Timsgarry,Uig,Isle Of Lewis,Baile Na Cille,Hotel/bed & breakfast/guest house,7842,,,468540,,,58.19662600000000,1364020072000,791,eh@cne-siar.gov.uk,Comhairle nan Eilean Siar (Western Isles),http://www.cne-siar.gov.uk/foodsafety/food-hygiene-scheme.asp,-7.01512800000000,HS2 9JD,2014-05-21,fhis_improvement_required_en-GB,Improvement Required,,FHIS,
420184,Balivanich Community Association,Community Centre,Tindill Close,Balivanich,Balivanich Community Hall,Other catering premises,7841,,,468580,,,,KHBG4JRO02C00,791,eh@cne-siar.gov.uk,Comhairle nan Eilean Siar (Western Isles),http://www.cne-siar.gov.uk/foodsafety/food-hygiene-scheme.asp,,HS7 5LG,2013-09-20,fhis_exempt_en-GB,Exempt,,FHIS,
420185,Balivanich Primary School,Balivanich,Isle Of Benbecula,,Balivanich Primary School (Main Kitchen),School/college/university,7845,,,468628,,,57.47132500000000,LRV7WCRO01D00,791,eh@cne-siar.gov.uk,Comhairle nan Eilean Siar (Western Isles),http://www.cne-siar.gov.uk/foodsafety/food-hygiene-scheme.asp,-7.37163700000000,HS7 5LA,2014-09-09,fhis_pass_en-GB,Pass,,FHIS,
420186,Balivanich Primary School,Balivanich,Isle Of Benbecula,,Balivanich Primary School (Nursery),School/college/university,7845,,,535820,,,57.47132500000000,MJV13DRO02A00,791,eh@cne-siar.gov.uk,Comhairle nan Eilean Siar (Western Isles),http://www.cne-siar.gov.uk/foodsafety/food-hygiene-scheme.asp,-7.37163700000000,HS7 5LA,2014-09-09,fhis_improvement_required_en-GB,Improvement Required,,FHIS,
420187,Balivanich Primary School,Balivanich,Isle Of Benbecula,,Balivanich Primary School (Teabar),School/college/university,7845,,,535819,,,57.47132500000000,MJV0Y1RO02A00,791,eh@cne-siar.gov.uk,Comhairle nan Eilean Siar (Western Isles),http://www.cne-siar.gov.uk/foodsafety/food-hygiene-scheme.asp,-7.37163700000000,HS7 5LA,2014-09-09,fhis_improvement_required_en-GB,Improvement Required,,FHIS,
420188,8 Cromwell Street,Stornoway,Isle Of Lewis,,Baltic Bookshop,Retailers - other,4613,,,296215,,,58.20872100000000,0421000080000,791,eh@cne-siar.gov.uk,Comhairle nan Eilean Siar (Western Isles),http://www.cne-siar.gov.uk/foodsafety/food-hygiene-scheme.asp,-6.38805200000000,HS1 2DA,2010-05-27,fhis_exempt_en-GB,Exempt,,FHIS,
420189,29 Church Street,Stornoway,Isle Of Lewis,,Bangla Spice/Istanbul/Bombay Bistro,Restaurant/Cafe/Canteen,1,,,296289,,,58.21025900000000,L20DFERO01D00,791,eh@cne-siar.gov.uk,Comhairle nan Eilean Siar (Western Isles),http://www.cne-siar.gov.uk/foodsafety/food-hygiene-scheme.asp,-6.38674200000000,HS1 2JD,2014-01-31,fhis_pass_en-GB,Pass,,FHIS,
420190,26 Newton Street,Stornoway,Isle Of Lewis,,Barbara Burns Bed And Breakfast,Hotel/bed & breakfast/guest house,7842,,,468644,,,58.20559400000000,M1AV72RO01D00,791,eh@cne-siar.gov.uk,Comhairle nan Eilean Siar (Western Isles),http://www.cne-siar.gov.uk/foodsafety/food-hygiene-scheme.asp,-6.38040800000000,HS1 2RE,2012-04-17,fhis_pass_en-GB,Pass,,FHIS,
420191,Highlands And Islands Airports Limited,Barra Airport,Eoligarry,Isle Of Barra,Barra Airport Cafe,Restaurant/Cafe/Canteen,1,,,468442,,,57.04278500000000,0514000002003,791,eh@cne-siar.gov.uk,Comhairle nan Eilean Siar (Western Isles),http://www.cne-siar.gov.uk/foodsafety/food-hygiene-scheme.asp,-7.43139800000000,HS9 5YD,2014-01-17,fhis_pass_en-GB,Pass,,FHIS,
420192,Learning Centre,Castlebay,Isle Of Barra,,Barra Day Centre,Hospitals/Childcare/Caring Premises,5,,,468559,,,56.95506400000000,IK6SO7RO61000,791,eh@cne-siar.gov.uk,Comhairle nan Eilean Siar (Western Isles),http://www.cne-siar.gov.uk/foodsafety/food-hygiene-scheme.asp,-7.48833600000000,HS9 5XD,2010-09-08,fhis_pass_en-GB,Pass,,FHIS,
420193,Kinloch,63 Tangasdale,Isle Of Barra,,Barra Pizza,Takeaway/sandwich shop,7844,,,682331,,,56.96959300000000,N283U9RO02A00,791,eh@cne-siar.gov.uk,Comhairle nan Eilean Siar (Western Isles),http://www.cne-siar.gov.uk/foodsafety/food-hygiene-scheme.asp,-7.51603700000000,HS9 5XW,2014-05-07,fhis_pass_en-GB,Pass,,FHIS,
420194,Fuaran Nan Carn,Leanish,Castlebay,Isle Of Barra,Barra Snack Bar,Mobile caterer,7846,,,468588,,,56.96487700000000,L0YQ3WRO02A00,791,eh@cne-siar.gov.uk,Comhairle nan Eilean Siar (Western Isles),http://www.cne-siar.gov.uk/foodsafety/food-hygiene-scheme.asp,-7.43299000000000,HS9 5UW,2014-07-01,fhis_improvement_required_en-GB,Improvement Required,,FHIS,
420195,Barratlantic Limited,Factory,Ardveenish,Northbay,Barratlantic Ltd,Manufacturers/packers,7839,,,468355,,,57.00363500000000,0076000000002,791,eh@cne-siar.gov.uk,Comhairle nan Eilean Siar (Western Isles),http://www.cne-siar.gov.uk/foodsafety/food-hygiene-scheme.asp,-7.41899500000000,HS9 5YA,2014-11-12,fhis_exempt_en-GB,Exempt,,FHIS,
420196,Community Centre,Barvas,Isle Of Lewis,,Barvas & Brue Community Centre,Other catering premises,7841,,,682315,,,58.34779600000000,0136020022000,791,eh@cne-siar.gov.uk,Comhairle nan Eilean Siar (Western Isles),http://www.cne-siar.gov.uk/foodsafety/food-hygiene-scheme.asp,-6.51695800000000,HS2 0RA,2014-04-17,fhis_pass_en-GB,Pass,,FHIS,
420197,The Factory,Breasclete,Isle Of Lewis,,BASF Pharma (Callanish) Ltd,Manufacturers/packers,7839,,,468567,,,58.21644900000000,JKE3AMROD1000,791,eh@cne-siar.gov.uk,Comhairle nan Eilean Siar (Western Isles),http://www.cne-siar.gov.uk/foodsafety/food-hygiene-scheme.asp,-6.74445000000000,HS2 9ED,2013-06-11,fhis_exempt_en-GB,Exempt,,FHIS,
420198,35 Bayhead,Stornoway,Isle Of Lewis,,Bayhead Gift House,Retailers - other,4613,,,296202,,,58.21333100000000,0151000350000,791,eh@cne-siar.gov.uk,Comhairle nan Eilean Siar (Western Isles),http://www.cne-siar.gov.uk/foodsafety/food-hygiene-scheme.asp,-6.38633800000000,HS1 2DX,2014-11-06,fhis_pass_en-GB,Pass,,FHIS,
420199,Bayhead,Isle Of North Uist,,,Bayhead Stores,Retailers - other,4613,,,468379,,,57.58692900000000,0150020072000,791,eh@cne-siar.gov.uk,Comhairle nan Eilean Siar (Western Isles),http://www.cne-siar.gov.uk/foodsafety/food-hygiene-scheme.asp,-7.44377800000000,HS6 5DS,2014-04-02,fhis_pass_en-GB,Pass,,FHIS,
420200,Brookside Cottage,Finsbay,Isle Of Harris,,Bays Of Chocolate,Manufacturers/packers,7839,,,716001,,,57.77432200000000,0531020032000,791,eh@cne-siar.gov.uk,Comhairle nan Eilean Siar (Western Isles),http://www.cne-siar.gov.uk/foodsafety/food-hygiene-scheme.asp,-6.92278500000000,HS3 3JD,2014-07-24,fhis_exempt_en-GB,Exempt,,FHIS,
420201,Bayview,Kentangaval,Castlebay,Isle Of Barra,Bayview,Manufacturers/packers,7839,,,642667,,,56.95823000000000,MZUYPMRO02A00,791,eh@cne-siar.gov.uk,Comhairle nan Eilean Siar (Western Isles),http://www.cne-siar.gov.uk/foodsafety/food-hygiene-scheme.asp,-7.50247500000000,HS9 5XL,2014-01-17,fhis_pass_en-GB,Pass,,FHIS,
420202,Caravan Park,Horgabost,Isle Of Harris,,Beach Shop - Traigh Horgabost Campsite,Retailers - other,4613,,,468662,,,57.85791900000000,M6YFDYRO01D00,791,eh@cne-siar.gov.uk,Comhairle nan Eilean Siar (Western Isles),http://www.cne-siar.gov.uk/foodsafety/food-hygiene-scheme.asp,-6.97795000000000,HS3 3HR,2012-07-09,fhis_pass_en-GB,Pass,,FHIS,
420203,37 Newmarket,Isle Of Lewis,,,Becky's Cakes And Bakes,Manufacturers/packers,7839,,,505864,,,58.23061000000000,M6C8JERO01D00,791,eh@cne-siar.gov.uk,Comhairle nan Eilean Siar (Western Isles),http://www.cne-siar.gov.uk/foodsafety/food-hygiene-scheme.asp,-6.38494500000000,HS2 0DT,2012-06-27,fhis_pass_en-GB,Pass,,FHIS,
420204,9 Liniclate,Creagorry,Isle Of Benbecula,,Bed & Breakfast,Hotel/bed & breakfast/guest house,7842,,,468479,,,57.42308700000000,0836000090000,791,eh@cne-siar.gov.uk,Comhairle nan Eilean Siar (Western Isles),http://www.cne-siar.gov.uk/foodsafety/food-hygiene-scheme.asp,-7.33640900000000,HS7 5PY,2012-02-21,fhis_pass_en-GB,Pass,,FHIS,
420205,Northbay House,Loch Na Hobe,Balnabodach,Northbay,Bed & Breakfast,Hotel/bed & breakfast/guest house,7842,,,468376,,,56.98741400000000,0127020002000,791,eh@cne-siar.gov.uk,Comhairle nan Eilean Siar (Western Isles),http://www.cne-siar.gov.uk/foodsafety/food-hygiene-scheme.asp,-7.41348300000000,HS9 5UT,2014-09-10,fhis_pass_en-GB,Pass,,FHIS,
420206,19/20,St Brendan Road,Castlebay,Isle Of Barra,Bed And Breakfast,Hotel/bed & breakfast/guest house,7842,,,468528,,,56.95463500000000,1313000193020,791,eh@cne-siar.gov.uk,Comhairle nan Eilean Siar (Western Isles),http://www.cne-siar.gov.uk/foodsafety/food-hygiene-scheme.asp,-7.49952300000000,HS9 5XJ,2013-08-13,fhis_pass_en-GB,Pass,,FHIS,
420207,Benview,5 Leverburgh,Isle Of Harris,,Ben View,Hotel/bed & breakfast/guest house,7842,,,468639,,,57.76993300000000,LZFXLDRO01D00,791,eh@cne-siar.gov.uk,Comhairle nan Eilean Siar (Western Isles),http://www.cne-siar.gov.uk/foodsafety/food-hygiene-scheme.asp,-7.00931800000000,HS5 3TL,2012-02-07,fhis_pass_en-GB,Pass,,FHIS,
420208,Ben View,9 Knockintorran,Bayhead,Isle Of North Uist,Ben View B&B,Hotel/bed & breakfast/guest house,7842,,,716025,,,57.58854200000000,NCEQMSRO02A00,791,eh@cne-siar.gov.uk,Comhairle nan Eilean Siar (Western Isles),http://www.cne-siar.gov.uk/foodsafety/food-hygiene-scheme.asp,-7.46349300000000,HS6 5ED,2014-09-17,fhis_pass_en-GB,Pass,,FHIS,
420209,Terminal Building,Benbecula Airport,Balivanich,Isle Of Benbecula,Benbecula Airport Catering,Restaurant/Cafe/Canteen,1,,,468369,,,57.47357800000000,0116020072003,791,eh@cne-siar.gov.uk,Comhairle nan Eilean Siar (Western Isles),http://www.cne-siar.gov.uk/foodsafety/food-hygiene-scheme.asp,-7.37325500000000,HS7 5LW,2013-11-28,fhis_pass_en-GB,Pass,,FHIS,
420210,Bernera Community Centre,Breaclete,Bernera,Isle Of Lewis,Bernera Community Centre,Other catering premises,7841,,,468382,,,58.22866900000000,0215000000000,791,eh@cne-siar.gov.uk,Comhairle nan Eilean Siar (Western Isles),http://www.cne-siar.gov.uk/foodsafety/food-hygiene-scheme.asp,-6.84052200000000,HS2 9LT,2013-08-27,fhis_pass_en-GB,Pass,,FHIS,
420211,Bernera School,Breaclete,Bernera,Isle Of Lewis,Bernera School,School/college/university,7845,,,468383,,,58.22866900000000,0215000000004,791,eh@cne-siar.gov.uk,Comhairle nan Eilean Siar (Western Isles),http://www.cne-siar.gov.uk/foodsafety/food-hygiene-scheme.asp,-6.84052200000000,HS2 9LT,2010-09-28,fhis_pass_en-GB,Pass,,FHIS,
420212,20 Springfield Road,Stornoway,Isle Of Lewis,,Bethesda Nursing Home And Hospice,Hospitals/Childcare/Caring Premises,5,,,296275,,,58.21233700000000,1304000202000,791,eh@cne-siar.gov.uk,Comhairle nan Eilean Siar (Western Isles),http://www.cne-siar.gov.uk/foodsafety/food-hygiene-scheme.asp,-6.37338400000000,HS1 2PS,2014-06-12,fhis_pass_en-GB,Pass,,FHIS,
420213,Beul Na Mara,12 Seilebost,Isle Of Harris,,Beul Na Mara,Hotel/bed & breakfast/guest house,7842,,,468561,,,57.86790000000000,IQD8QEROD1000,791,eh@cne-siar.gov.uk,Comhairle nan Eilean Siar (Western Isles),http://www.cne-siar.gov.uk/foodsafety/food-hygiene-scheme.asp,-6.93994300000000,HS3 3HP,2012-08-16,fhis_pass_en-GB,Pass,,FHIS,
420214,Blackhouse,Arnol,Isle Of Lewis,,Black House Visitors Centre,Retailers - other,4613,,,468356,,,58.34236300000000,0087000000000,791,eh@cne-siar.gov.uk,Comhairle nan Eilean Siar (Western Isles),http://www.cne-siar.gov.uk/foodsafety/food-hygiene-scheme.asp,-6.59566400000000,HS2 9DB,2013-09-16,fhis_pass_en-GB,Pass,,FHIS,
420215,Rathad Shim,Stornoway,Isle Of Lewis,,Blar Buidhe Care Home - HC-One,Hospitals/Childcare/Caring Premises,5,,,296261,,,58.21387300000000,1150000000000,791,eh@cne-siar.gov.uk,Comhairle nan Eilean Siar (Western Isles),http://www.cne-siar.gov.uk/foodsafety/food-hygiene-scheme.asp,-6.36161000000000,HS1 2UT,2014-06-12,fhis_pass_en-GB,Pass,,FHIS,
420216,Bonnieview,19 Carinish,Isle Of North Uist,,Bonnieview,Hotel/bed & breakfast/guest house,7842,,,468394,,,57.52641000000000,0276000190000,791,eh@cne-siar.gov.uk,Comhairle nan Eilean Siar (Western Isles),http://www.cne-siar.gov.uk/foodsafety/food-hygiene-scheme.asp,-7.31630700000000,HS6 5EJ,2013-12-11,fhis_pass_en-GB,Pass,,FHIS,
420217,4 Cromwell Street,Stornoway,Isle Of Lewis,,Boots The Chemist,Retailers - other,4613,,,296214,,,58.20872100000000,0421000040000,791,eh@cne-siar.gov.uk,Comhairle nan Eilean Siar (Western Isles),http://www.cne-siar.gov.uk/foodsafety/food-hygiene-scheme.asp,-6.38805200000000,HS1 2DA,2010-05-27,fhis_exempt_en-GB,Exempt,,FHIS,
420218,Borrisdale House,3 Borrisdale,Isle Of Harris,,Borrisdale House,Hotel/bed & breakfast/guest house,7842,,,568316,,,57.74406700000000,MJV6NCRO01D00,791,eh@cne-siar.gov.uk,Comhairle nan Eilean Siar (Western Isles),http://www.cne-siar.gov.uk/foodsafety/food-hygiene-scheme.asp,-6.98313600000000,HS5 3UE,2013-04-11,fhis_pass_en-GB,Pass,,FHIS,
420219,Borrodale Hotel,Daliburgh,Lochboisdale,Isle Of South Uist,Borrodale Hotel,Hotel/bed & breakfast/guest house,7842,,,468424,,,57.16512600000000,0441020132000,791,eh@cne-siar.gov.uk,Comhairle nan Eilean Siar (Western Isles),http://www.cne-siar.gov.uk/foodsafety/food-hygiene-scheme.asp,-7.37220100000000,HS8 5SS,2014-08-13,fhis_improvement_required_en-GB,Improvement Required,,FHIS,
420220,5 Torlum,Benbecula,Isle Of South Uist,,Borve Guest House,Hotel/bed & breakfast/guest house,7842,,,468544,,,57.43389900000000,1396000050000,791,eh@cne-siar.gov.uk,Comhairle nan Eilean Siar (Western Isles),http://www.cne-siar.gov.uk/foodsafety/food-hygiene-scheme.asp,-7.36148100000000,HS7 5PP,2012-02-21,fhis_pass_en-GB,Pass,,FHIS,
420221,Borve Country House Hotel,Borve,Isle Of Lewis,,Borve House Hotel,Hotel/bed & breakfast/guest house,7842,,,468584,,,58.41501000000000,KNG7NHRO01D00,791,eh@cne-siar.gov.uk,Comhairle nan Eilean Siar (Western Isles),http://www.cne-siar.gov.uk/foodsafety/food-hygiene-scheme.asp,-6.44138600000000,HS2 0RX,2013-08-20,fhis_pass_en-GB,Pass,,FHIS,
420222,Borve Lodge Estate,Borve,Isle Of Harris,,Borve Lodge Foods,Farmers/growers,7838,,,505867,,,57.84283500000000,M7CQJ0RO01D00,791,eh@cne-siar.gov.uk,Comhairle nan Eilean Siar (Western Isles),http://www.cne-siar.gov.uk/foodsafety/food-hygiene-scheme.asp,-7.00160900000000,HS3 3HT,2012-08-29,fhis_exempt_en-GB,Exempt,,FHIS,
420223,Filling Station,Fivepenny Borve,Isle Of Lewis,,Borve Mini Market,Retailers - other,4613,,,468447,,,58.41501000000000,0533020022000,791,eh@cne-siar.gov.uk,Comhairle nan Eilean Siar (Western Isles),http://www.cne-siar.gov.uk/foodsafety/food-hygiene-scheme.asp,-6.44138600000000,HS2 0RX,2013-08-20,fhis_pass_en-GB,Pass,,FHIS,
420224,Brae Lea House,Lasgair,Lochboisdale,Isle Of South Uist,Brae Lea House B&B,Hotel/bed & breakfast/guest house,7842,,,468504,,,57.15822300000000,1043020012000,791,eh@cne-siar.gov.uk,Comhairle nan Eilean Siar (Western Isles),http://www.cne-siar.gov.uk/foodsafety/food-hygiene-scheme.asp,-7.31320100000000,HS8 5TW,2013-12-11,fhis_pass_en-GB,Pass,,FHIS,
420225,Community Centre,Breasclete,Isle Of Lewis,,Breaclete Community Centre,Other catering premises,7841,,,468597,,,58.21644900000000,L2CVSKRO01D00,791,eh@cne-siar.gov.uk,Comhairle nan Eilean Siar (Western Isles),http://www.cne-siar.gov.uk/foodsafety/food-hygiene-scheme.asp,-6.74445000000000,HS2 9ED,2014-04-15,fhis_pass_en-GB,Pass,,FHIS,
420226,Breasclete School,Breasclete,Isle Of Lewis,,Breasclete School,School/college/university,7845,,,468384,,,58.21644900000000,0219000000001,791,eh@cne-siar.gov.uk,Comhairle nan Eilean Siar (Western Isles),http://www.cne-siar.gov.uk/foodsafety/food-hygiene-scheme.asp,-6.74445000000000,HS2 9ED,2013-09-16,fhis_pass_en-GB,Pass,,FHIS,
420227,3 An Goirtean,Brevig,Brevig,Castlebay,Brevig Bakery,Manufacturers/packers,7839,,,682340,,,56.96307100000000,N5ILFWRO02A00,791,eh@cne-siar.gov.uk,Comhairle nan Eilean Siar (Western Isles),http://www.cne-siar.gov.uk/foodsafety/food-hygiene-scheme.asp,-7.44137600000000,HS9 5UA,2014-05-07,fhis_pass_en-GB,Pass,,FHIS,
420228,Bridge Community Centre,Bayhead,Stornoway,Isle Of Lewis,Bridge Centre Cafe,Restaurant/Cafe/Canteen,1,,,682339,,,58.21226000000000,N5GWSPRO01D00,791,eh@cne-siar.gov.uk,Comhairle nan Eilean Siar (Western Isles),http://www.cne-siar.gov.uk/foodsafety/food-hygiene-scheme.asp,-6.38767100000000,HS1 2DU,2014-04-23,fhis_pass_en-GB,Pass,,FHIS,
420229,14B Back,Isle Of Lewis,,,Broad Bay House,Hotel/bed & breakfast/guest house,7842,,,468565,,,58.28250600000000,JD3LVZROD1000,791,eh@cne-siar.gov.uk,Comhairle nan Eilean Siar (Western Isles),http://www.cne-siar.gov.uk/foodsafety/food-hygiene-scheme.asp,-6.29246200000000,HS2 0LQ,2010-10-05,fhis_pass_en-GB,Pass,,FHIS,
420230,Burnside,2 Borve,Berneray,Isle Of North Uist,Burnside B&B,Hotel/bed & breakfast/guest house,7842,,,582469,,,57.71204800000000,0195000022000,791,eh@cne-siar.gov.uk,Comhairle nan Eilean Siar (Western Isles),http://www.cne-siar.gov.uk/foodsafety/food-hygiene-scheme.asp,-7.18188900000000,HS6 5BJ,2013-06-24,fhis_pass_en-GB,Pass,,FHIS,
420231,Burnside,Bunavoneader,Isle Of Harris,,Burnside Home Produce,Manufacturers/packers,7839,,,505857,,,57.93323100000000,LDTRUARO01D00,791,eh@cne-siar.gov.uk,Comhairle nan Eilean Siar (Western Isles),http://www.cne-siar.gov.uk/foodsafety/food-hygiene-scheme.asp,-6.84698600000000,HS3 3AL,2010-10-05,fhis_exempt_en-GB,Exempt,,FHIS,
420232,Canteen,Knock School,Knock,Point,Buth An Rubha,Restaurant/Cafe/Canteen,1,,,682329,,,,N0FD92RO01D00,791,eh@cne-siar.gov.uk,Comhairle nan Eilean Siar (Western Isles),http://www.cne-siar.gov.uk/foodsafety/food-hygiene-scheme.asp,,,2014-07-08,fhis_pass_en-GB,Pass,,FHIS,
420233,Coop Shop,Castlebay,Isle Of Barra,,Buth Bharraigh,Retailers - other,4613,,,568319,,,56.95520700000000,MN8YL7RO02A00,791,eh@cne-siar.gov.uk,Comhairle nan Eilean Siar (Western Isles),http://www.cne-siar.gov.uk/foodsafety/food-hygiene-scheme.asp,-7.48939500000000,HS9 5XD,2013-05-29,fhis_pass_en-GB,Pass,,FHIS,
420234,Buth Sgalpaigh Ltd,Scalpay Mini Market,Scalpay,Isle Of Harris,Buth Scalpaigh Limited,Retailers - other,4613,,,468649,,,57.87176600000000,M1YPH6RO01D00,791,eh@cne-siar.gov.uk,Comhairle nan Eilean Siar (Western Isles),http://www.cne-siar.gov.uk/foodsafety/food-hygiene-scheme.asp,-6.69837000000000,HS4 3XU,2014-02-07,fhis_pass_en-GB,Pass,,FHIS,
420235,Post Office,North Tolsta,Isle Of Lewis,,Buth Tholastaidh Limited,Retailers - other,4613,,,468589,,,58.34815800000000,L20DUDRO01D00,791,eh@cne-siar.gov.uk,Comhairle nan Eilean Siar (Western Isles),http://www.cne-siar.gov.uk/foodsafety/food-hygiene-scheme.asp,-6.21202500000000,HS2 0NL,2014-01-31,fhis_pass_en-GB,Pass,,FHIS,
420236,Pier Road,Leverburgh,Isle Of Harris,,Butty Bus,Mobile caterer,7846,,,468605,,,57.76585500000000,LHOT3QRO01D00,791,eh@cne-siar.gov.uk,Comhairle nan Eilean Siar (Western Isles),http://www.cne-siar.gov.uk/foodsafety/food-hygiene-scheme.asp,-7.01983000000000,HS5 3UB,2014-05-14,fhis_pass_en-GB,Pass,,FHIS,
420237,Perceval Road,Stornoway,Isle Of Lewis,,Cabarfeidh Hotel,Hotel/bed & breakfast/guest house,7842,,,296255,,,58.21988800000000,1103000002000,791,eh@cne-siar.gov.uk,Comhairle nan Eilean Siar (Western Isles),http://www.cne-siar.gov.uk/foodsafety/food-hygiene-scheme.asp,-6.38709700000000,HS1 2EU,2014-11-13,fhis_pass_en-GB,Pass,,FHIS,
420238,Community Centre,Vatersay,Isle Of Barra,,Cafe,Restaurant/Cafe/Canteen,1,,,568312,,,56.91946600000000,1451020000000,791,eh@cne-siar.gov.uk,Comhairle nan Eilean Siar (Western Isles),http://www.cne-siar.gov.uk/foodsafety/food-hygiene-scheme.asp,-7.53540900000000,HS9 5YW,2013-05-29,fhis_pass_en-GB,Pass,,FHIS,
420239,Cafe Kismul,Castlebay,Isle Of Barra,,Cafe Kismul,Restaurant/Cafe/Canteen,1,,,468402,,,56.95506400000000,0300000001006,791,eh@cne-siar.gov.uk,Comhairle nan Eilean Siar (Western Isles),http://www.cne-siar.gov.uk/foodsafety/food-hygiene-scheme.asp,-7.48833600000000,HS9 5XD,2014-05-14,fhis_improvement_required_en-GB,Improvement Required,,FHIS,
420240,Cafe Sonas,Port Of Ness,Ness,Isle Of Lewis,Cafe Sonas,Restaurant/Cafe/Canteen,1,,,505877,,,58.49226100000000,MF8GQORO01D00,791,eh@cne-siar.gov.uk,Comhairle nan Eilean Siar (Western Isles),http://www.cne-siar.gov.uk/foodsafety/food-hygiene-scheme.asp,-6.23102800000000,HS2 0XA,2014-04-01,fhis_pass_en-GB,Pass,,FHIS,
420241,Comhairle Nan Eilean Siar,Sandwick Road,Stornoway,Isle Of Lewis,Cafeteria,Restaurant/Cafe/Canteen,1,,,296265,,,58.20914300000000,1202000000004,791,eh@cne-siar.gov.uk,Comhairle nan Eilean Siar (Western Isles),http://www.cne-siar.gov.uk/foodsafety/food-hygiene-scheme.asp,-6.37892000000000,HS1 2BW,2014-09-12,fhis_pass_en-GB,Pass,,FHIS,
420242,James St,Stornoway,Isle Of Lewis,,Caladh Inn,Hotel/bed & breakfast/guest house,7842,,,296235,,,58.20818600000000,0703020012000,791,eh@cne-siar.gov.uk,Comhairle nan Eilean Siar (Western Isles),http://www.cne-siar.gov.uk/foodsafety/food-hygiene-scheme.asp,-6.38321500000000,HS1 2QN,2014-02-26,fhis_pass_en-GB,Pass,,FHIS,
420243,Calanais Visitors Centre,Callanish,Isle Of Lewis,,Calanais Visitors Centre,Restaurant/Cafe/Canteen,1,,,468387,,,58.19941700000000,0258000000006,791,eh@cne-siar.gov.uk,Comhairle nan Eilean Siar (Western Isles),http://www.cne-siar.gov.uk/foodsafety/food-hygiene-scheme.asp,-6.73682400000000,HS2 9DY,2014-05-28,fhis_pass_en-GB,Pass,,FHIS,
420244,13 Callanish,Isle Of Lewis,,,Callanish Bed And Breakfast,Hotel/bed & breakfast/guest house,7842,,,468388,,,58.19941700000000,0258000132000,791,eh@cne-siar.gov.uk,Comhairle nan Eilean Siar (Western Isles),http://www.cne-siar.gov.uk/foodsafety/food-hygiene-scheme.asp,-6.73682400000000,HS2 9DY,2011-08-09,fhis_pass_en-GB,Pass,,FHIS,
420245,Chip Shop,33 Point Street,Stornoway,Isle Of Lewis,Cameron's Chip Shop,Takeaway/sandwich shop,7844,,,605874,,,58.20816000000000,MLGN52RO01D00,791,eh@cne-siar.gov.uk,Comhairle nan Eilean Siar (Western Isles),http://www.cne-siar.gov.uk/foodsafety/food-hygiene-scheme.asp,-6.38920900000000,HS1 2XF,2013-09-18,fhis_pass_and_eat_safe_en-GB,Pass and Eat Safe,,FHIS,
420246,Caolas Gallery,11 Kyles Scalpay,Isle Of Harris,,Caolas Gallery,Restaurant/Cafe/Canteen,1,,,505878,,,57.88455300000000,MF8I93RO01D00,791,eh@cne-siar.gov.uk,Comhairle nan Eilean Siar (Western Isles),http://www.cne-siar.gov.uk/foodsafety/food-hygiene-scheme.asp,-6.70235500000000,HS3 3BS,2012-08-16,fhis_pass_en-GB,Pass,,FHIS,
420247,Carinish Hall,Carinish,Isle Of North Uist,,Carinish Hall,Other catering premises,7841,,,468392,,,57.53721200000000,0276000000000,791,eh@cne-siar.gov.uk,Comhairle nan Eilean Siar (Western Isles),http://www.cne-siar.gov.uk/foodsafety/food-hygiene-scheme.asp,-7.32047800000000,HS6 5EN,2014-09-29,fhis_exempt_en-GB,Exempt,,FHIS,
420248,Carinish School,Carinish,Isle Of North Uist,,Carinish Primary School,School/college/university,7845,,,468393,,,57.52641000000000,0276000000001,791,eh@cne-siar.gov.uk,Comhairle nan Eilean Siar (Western Isles),http://www.cne-siar.gov.uk/foodsafety/food-hygiene-scheme.asp,-7.31630700000000,HS6 5EJ,2013-03-04,fhis_exempt_en-GB,Exempt,,FHIS,
420249,Care Unit,1 Lios Na Glibe,Carloway,Isle Of Lewis,Carloway Care Unit,Hospitals/Childcare/Caring Premises,5,,,468483,,,58.28003800000000,0846000010000,791,eh@cne-siar.gov.uk,Comhairle nan Eilean Siar (Western Isles),http://www.cne-siar.gov.uk/foodsafety/food-hygiene-scheme.asp,-6.76564100000000,HS2 9AU,2013-09-16,fhis_pass_en-GB,Pass,,FHIS,
420250,15 Keith Street,Stornoway,Isle Of Lewis,,Carlton Tavern,Pub/bar/nightclub,7843,,,296224,,,58.20832300000000,0544000190000,791,eh@cne-siar.gov.uk,Comhairle nan Eilean Siar (Western Isles),http://www.cne-siar.gov.uk/foodsafety/food-hygiene-scheme.asp,-6.38471400000000,HS1 2QG,2013-11-28,fhis_pass_en-GB,Pass,,FHIS,
420251,Carminish House,1A Strond,Isle Of Harris,,Carminish House B&B,Hotel/bed & breakfast/guest house,7842,,,468635,,,57.75176500000000,LY3UMURO01D00,791,eh@cne-siar.gov.uk,Comhairle nan Eilean Siar (Western Isles),http://www.cne-siar.gov.uk/foodsafety/food-hygiene-scheme.asp,-7.00030300000000,HS5 3UD,2012-05-30,fhis_pass_en-GB,Pass,,FHIS,
420252,9 Airidh A' Bhreide,North Tolsta,Isle Of Lewis,,Caroline's Cupcakes,Manufacturers/packers,7839,,,505861,,,58.34655400000000,M6BK7JRO01D00,791,eh@cne-siar.gov.uk,Comhairle nan Eilean Siar (Western Isles),http://www.cne-siar.gov.uk/foodsafety/food-hygiene-scheme.asp,-6.21404000000000,HS2 0NE,2012-06-21,fhis_pass_en-GB,Pass,,FHIS,
420253,Castlebay Hotel,Castlebay,Isle Of Barra,,Castlebay Hotel,Hotel/bed & breakfast/guest house,7842,,,468404,,,56.95506400000000,0300020242000,791,eh@cne-siar.gov.uk,Comhairle nan Eilean Siar (Western Isles),http://www.cne-siar.gov.uk/foodsafety/food-hygiene-scheme.asp,-7.48833600000000,HS9 5XD,2013-10-23,fhis_pass_en-GB,Pass,,FHIS,
420254,Castlebay Community School,Castlebay,Isle Of Barra,,Castlebay Secondary School,School/college/university,7845,,,468406,,,56.95506400000000,0300020372001,791,eh@cne-siar.gov.uk,Comhairle nan Eilean Siar (Western Isles),http://www.cne-siar.gov.uk/foodsafety/food-hygiene-scheme.asp,-7.48833600000000,HS9 5XD,2013-08-16,fhis_pass_en-GB,Pass,,FHIS,
420255,Ceann Na Pairce,3 Nunton,Balivanich,Isle Of Benbecula,Ceann Na Pairc Guest House,Hotel/bed & breakfast/guest house,7842,,,468581,,,57.45778300000000,KIZ1QDRO02A00,791,eh@cne-siar.gov.uk,Comhairle nan Eilean Siar (Western Isles),http://www.cne-siar.gov.uk/foodsafety/food-hygiene-scheme.asp,-7.39639400000000,HS7 5LU,2014-05-05,fhis_pass_en-GB,Pass,,FHIS,
420256,Cearn Shulaisgeir,Stornoway,Isle Of Lewis,,Cearns Community Shop,Retailers - other,4613,,,296207,,,58.22244900000000,0322020012000,791,eh@cne-siar.gov.uk,Comhairle nan Eilean Siar (Western Isles),http://www.cne-siar.gov.uk/foodsafety/food-hygiene-scheme.asp,-6.39210100000000,HS1 2YN,2014-11-06,fhis_pass_en-GB,Pass,,FHIS,
420257,Ceol Na Mara,1A Aignish,Point,Isle Of Lewis,Ceol Na Mara,Hotel/bed & breakfast/guest house,7842,,,468347,,,58.20812200000000,0012000012000,791,eh@cne-siar.gov.uk,Comhairle nan Eilean Siar (Western Isles),http://www.cne-siar.gov.uk/foodsafety/food-hygiene-scheme.asp,-6.27655000000000,HS2 0PB,2012-07-10,fhis_pass_en-GB,Pass,,FHIS,
420258,7 Diracleit,Isle Of Harris,,,Ceol Na Marra,Hotel/bed & breakfast/guest house,7842,,,468562,,,57.89063200000000,ITJOZ7ROD1000,791,eh@cne-siar.gov.uk,Comhairle nan Eilean Siar (Western Isles),http://www.cne-siar.gov.uk/foodsafety/food-hygiene-scheme.asp,-6.79434600000000,HS3 3DP,2010-05-12,fhis_pass_en-GB,Pass,,FHIS,
420259,Matheson Road,Stornoway,Isle Of Lewis,,Charles MacLeod,Manufacturers/packers,7839,,,296247,,,58.21535200000000,0945000000001,791,eh@cne-siar.gov.uk,Comhairle nan Eilean Siar (Western Isles),http://www.cne-siar.gov.uk/foodsafety/food-hygiene-scheme.asp,-6.38430400000000,HS1 2LB,2014-05-14,fhis_pass_en-GB,Pass,,FHIS,
420260,25 Plasterfield,Stornoway,Isle Of Lewis,,Chipstix,Mobile caterer,7846,,,468664,,,58.21184100000000,M7CJYKRO01D00,791,eh@cne-siar.gov.uk,Comhairle nan Eilean Siar (Western Isles),http://www.cne-siar.gov.uk/foodsafety/food-hygiene-scheme.asp,-6.35609500000000,HS1 2UX,2012-07-12,fhis_pass_en-GB,Pass,,FHIS,
420261,Glendale,5 New Street,Back,Isle Of Lewis,Chris Hammacott,Manufacturers/packers,7839,,,568317,,,58.28849300000000,MLE68NRO01D00,791,eh@cne-siar.gov.uk,Comhairle nan Eilean Siar (Western Isles),http://www.cne-siar.gov.uk/foodsafety/food-hygiene-scheme.asp,-6.30454400000000,HS2 0LH,2013-05-20,fhis_exempt_en-GB,Exempt,,FHIS,
420262,4 North Locheynort,Isle Of South Uist,,,Chrisella P's Cakes,Manufacturers/packers,7839,,,582477,,,57.23493900000000,MRF6RWRO02A00,791,eh@cne-siar.gov.uk,Comhairle nan Eilean Siar (Western Isles),http://www.cne-siar.gov.uk/foodsafety/food-hygiene-scheme.asp,-7.33904700000000,HS8 5SN,2013-08-08,fhis_exempt_en-GB,Exempt,,FHIS,
420263,St Columbas Church,Lewis Street,Stornoway,Isle Of Lewis,Church Of Scotland - St Columbas Church Hall,Other catering premises,7841,,,535813,,,58.20958800000000,0826000000000,791,eh@cne-siar.gov.uk,Comhairle nan Eilean Siar (Western Isles),http://www.cne-siar.gov.uk/foodsafety/food-hygiene-scheme.asp,-6.38401900000000,HS1 2JF,2013-01-31,fhis_exempt_en-GB,Exempt,,FHIS,
420264,6 Church Street,Stornoway,Isle Of Lewis,,Church Street Chip Shop,Takeaway/sandwich shop,7844,,,296208,,,58.20990700000000,0338000060000,791,eh@cne-siar.gov.uk,Comhairle nan Eilean Siar (Western Isles),http://www.cne-siar.gov.uk/foodsafety/food-hygiene-scheme.asp,-6.38807900000000,HS1 2DH,2013-07-02,fhis_pass_en-GB,Pass,,FHIS,
420265,Clachan Stores,Clachan,Locheport,Isle Of North Uist,Clachan Stores,Retailers - other,4613,,,468410,,,57.55245000000000,0348000002000,791,eh@cne-siar.gov.uk,Comhairle nan Eilean Siar (Western Isles),http://www.cne-siar.gov.uk/foodsafety/food-hygiene-scheme.asp,-7.33467400000000,HS6 5HD,2014-04-02,fhis_pass_en-GB,Pass,,FHIS,
420266,Maol Buidhe,70 Tangasdale,Isle Of Barra,,Claire Frances,Manufacturers/packers,7839,,,626095,,,56.96959300000000,MZSPJHRO02A00,791,eh@cne-siar.gov.uk,Comhairle nan Eilean Siar (Western Isles),http://www.cne-siar.gov.uk/foodsafety/food-hygiene-scheme.asp,-7.51603700000000,HS9 5XW,2014-01-17,fhis_pass_en-GB,Pass,,FHIS,
420267,Clan MacQuarrie Community Centre,Borve,Isle Of Lewis,,Clan MacQuarrie Community Centre,Other catering premises,7841,,,468583,,,58.41501000000000,KK7D8ORO01D00,791,eh@cne-siar.gov.uk,Comhairle nan Eilean Siar (Western Isles),http://www.cne-siar.gov.uk/foodsafety/food-hygiene-scheme.asp,-6.44138600000000,HS2 0RX,2012-06-18,fhis_pass_en-GB,Pass,,FHIS,
420268,44 Balallan,Lochs,Isle Of Lewis,,Clearview B&B,Hotel/bed & breakfast/guest house,7842,,,468363,,,58.08982600000000,0103000442000,791,eh@cne-siar.gov.uk,Comhairle nan Eilean Siar (Western Isles),http://www.cne-siar.gov.uk/foodsafety/food-hygiene-scheme.asp,-6.61853200000000,HS2 9PT,2014-04-14,fhis_exempt_en-GB,Exempt,,FHIS,
420269,Number One,Pier,King Edward Wharf,South Beach,"Clipper Ranger, Ro Ro Ferry",Restaurant/Cafe/Canteen,1,,,716016,,,,NACPS7RO01D00,791,eh@cne-siar.gov.uk,Comhairle nan Eilean Siar (Western Isles),http://www.cne-siar.gov.uk/foodsafety/food-hygiene-scheme.asp,,,2014-07-30,fhis_pass_en-GB,Pass,,FHIS,
420270,9 Upper Aird,Point,Isle Of Lewis,,Cloud 9 Cakes,Manufacturers/packers,7839,,,468600,,,58.24321300000000,L4U44NRO02C00,791,eh@cne-siar.gov.uk,Comhairle nan Eilean Siar (Western Isles),http://www.cne-siar.gov.uk/foodsafety/food-hygiene-scheme.asp,-6.16014300000000,HS2 0EU,2012-10-10,fhis_pass_en-GB,Pass,,FHIS,
420271,Cnoc Na Uamha,Scalpay,Isle Of Harris,,Cnoc Na Uamha B&B,Hotel/bed & breakfast/guest house,7842,,,468645,,,57.87176600000000,M1NS2VRO01D00,791,eh@cne-siar.gov.uk,Comhairle nan Eilean Siar (Western Isles),http://www.cne-siar.gov.uk/foodsafety/food-hygiene-scheme.asp,-6.69837000000000,HS4 3XU,2012-05-23,fhis_pass_en-GB,Pass,,FHIS,
420272,Cnoc Nan Uan,12 Tigharry,Isle Of North Uist,,Cnoc Nan Uan,Retailers - other,4613,,,505860,,,57.61640500000000,LSL5J5RO02A00,791,eh@cne-siar.gov.uk,Comhairle nan Eilean Siar (Western Isles),http://www.cne-siar.gov.uk/foodsafety/food-hygiene-scheme.asp,-7.50178300000000,HS6 5DE,2014-09-17,fhis_pass_en-GB,Pass,,FHIS,
420273,Cnoc Nan Uan,12 Tigharry,Isle Of North Uist,,Cnoc Nan Uan B&B,Hotel/bed & breakfast/guest house,7842,,,716014,,,57.61640500000000,N93YLSRO02A00,791,eh@cne-siar.gov.uk,Comhairle nan Eilean Siar (Western Isles),http://www.cne-siar.gov.uk/foodsafety/food-hygiene-scheme.asp,-7.50178300000000,HS6 5DE,2014-07-03,fhis_pass_en-GB,Pass,,FHIS,
420274,Co Chomunn Eriskay,Shop And Post Office,Rubha Ban,Eriskay,Co Chomunn Eriskay,Retailers - other,4613,,,468445,,,57.08587700000000,0518020012002,791,eh@cne-siar.gov.uk,Comhairle nan Eilean Siar (Western Isles),http://www.cne-siar.gov.uk/foodsafety/food-hygiene-scheme.asp,-7.30055800000000,HS8 5JH,2012-02-22,fhis_pass_en-GB,Pass,,FHIS,
420275,Cobhar Bharraidh Daycare Centre,Kentangaval,Castlebay,Isle Of Barra,Cobhair Bharraidh Daycare Centre,Hospitals/Childcare/Caring Premises,5,,,468459,,,56.95823000000000,0722020012001,791,eh@cne-siar.gov.uk,Comhairle nan Eilean Siar (Western Isles),http://www.cne-siar.gov.uk/foodsafety/food-hygiene-scheme.asp,-7.50247500000000,HS9 5XL,2011-04-19,fhis_exempt_en-GB,Exempt,,FHIS,
420276,Co Chomunn Iochdar,Carnan Store,Carnan,Eochar,Co-Chomunn An Iochdair,Retailers - other,4613,,,468398,,,57.39864100000000,0287020052000,791,eh@cne-siar.gov.uk,Comhairle nan Eilean Siar (Western Isles),http://www.cne-siar.gov.uk/foodsafety/food-hygiene-scheme.asp,-7.35069800000000,HS8 5QX,2012-02-22,fhis_exempt_en-GB,Exempt,,FHIS,
420277,3 Kenneth Street,Stornoway,Isle Of Lewis,,Coffee Pot,Restaurant/Cafe/Canteen,1,,,296238,,,58.20826500000000,0718000032000,791,eh@cne-siar.gov.uk,Comhairle nan Eilean Siar (Western Isles),http://www.cne-siar.gov.uk/foodsafety/food-hygiene-scheme.asp,-6.38668300000000,HS1 2DP,2013-12-03,fhis_pass_en-GB,Pass,,FHIS,
420278,Cafe,Old Cross School,Cross,Ness,Comunn Eachdraidh Nis,Restaurant/Cafe/Canteen,1,,,505865,,,,M6MUE1RO01D00,791,eh@cne-siar.gov.uk,Comhairle nan Eilean Siar (Western Isles),http://www.cne-siar.gov.uk/foodsafety/food-hygiene-scheme.asp,,,2014-04-29,fhis_pass_en-GB,Pass,,FHIS,
420279,Cothrom Limited,Training Centre,Ormiclate,Isle Of South Uist,Cothrom Ltd,Hospitals/Childcare/Caring Premises,5,,,468577,,,57.25836700000000,K9G3DRRO01D00,791,eh@cne-siar.gov.uk,Comhairle nan Eilean Siar (Western Isles),http://www.cne-siar.gov.uk/foodsafety/food-hygiene-scheme.asp,-7.39276200000000,HS8 5SB,2014-01-23,fhis_pass_en-GB,Pass,,FHIS,
420280,12 Francis Street,Stornoway,Isle Of Lewis,,County Hotel,Hotel/bed & breakfast/guest house,7842,,,296223,,,58.20879900000000,0544000120000,791,eh@cne-siar.gov.uk,Comhairle nan Eilean Siar (Western Isles),http://www.cne-siar.gov.uk/foodsafety/food-hygiene-scheme.asp,-6.38657900000000,HS1 2XB,2014-03-19,fhis_pass_en-GB,Pass,,FHIS,
420281,Post Office,Amhuinnsuidhe,Isle Of Harris,,Craft Shop,Retailers - other,4613,,,468603,,,57.96297800000000,LB22KKRO01D00,791,eh@cne-siar.gov.uk,Comhairle nan Eilean Siar (Western Isles),http://www.cne-siar.gov.uk/foodsafety/food-hygiene-scheme.asp,-6.99500900000000,HS3 3AS,2010-09-22,fhis_exempt_en-GB,Exempt,,FHIS,
420282,Craigard Hotel,Castlebay,Isle Of Barra,,Craigard Hotel,Hotel/bed & breakfast/guest house,7842,,,468403,,,56.95506400000000,0300020132000,791,eh@cne-siar.gov.uk,Comhairle nan Eilean Siar (Western Isles),http://www.cne-siar.gov.uk/foodsafety/food-hygiene-scheme.asp,-7.48833600000000,HS9 5XD,2014-05-07,fhis_pass_en-GB,Pass,,FHIS,
420283,15 Griminish,Creagorry,Isle Of Benbecula,,Creag Liath B&B,Hotel/bed & breakfast/guest house,7842,,,468650,,,57.44236200000000,M3PGCSRO02A00,791,eh@cne-siar.gov.uk,Comhairle nan Eilean Siar (Western Isles),http://www.cne-siar.gov.uk/foodsafety/food-hygiene-scheme.asp,-7.35125700000000,HS7 5QA,2012-04-24,fhis_pass_en-GB,Pass,,FHIS,
420284,Creagan,16B Callanish,Isle Of Lewis,,Creagan Bed & Breakfast,Hotel/bed & breakfast/guest house,7842,,,716008,,,58.19941700000000,N6RALURO01D00,791,eh@cne-siar.gov.uk,Comhairle nan Eilean Siar (Western Isles),http://www.cne-siar.gov.uk/foodsafety/food-hygiene-scheme.asp,-6.73682400000000,HS2 9DY,2014-06-19,fhis_pass_en-GB,Pass,,FHIS,
420285,Criterion Bar,32 Point Street,Stornoway,Isle Of Lewis,Criterion Bar,Pub/bar/nightclub,7843,,,296258,,,58.20816000000000,1119000320000,791,eh@cne-siar.gov.uk,Comhairle nan Eilean Siar (Western Isles),http://www.cne-siar.gov.uk/foodsafety/food-hygiene-scheme.asp,-6.38920900000000,HS1 2XF,2012-06-27,fhis_pass_en-GB,Pass,,FHIS,
420286,36 Northton,Isle Of Harris,,,Croft 36,Manufacturers/packers,7839,,,505856,,,57.79657700000000,LDQ5UDRO01D00,791,eh@cne-siar.gov.uk,Comhairle nan Eilean Siar (Western Isles),http://www.cne-siar.gov.uk/foodsafety/food-hygiene-scheme.asp,-7.06547400000000,HS3 3JA,2014-12-12,fhis_pass_en-GB,Pass,,FHIS,
420287,Iochdar School,Buaile Dubh,Eochar,Isle Of South Uist,Croileagan An Iochdar,Hospitals/Childcare/Caring Premises,5,,,468386,,,57.39227100000000,0238020012002,791,eh@cne-siar.gov.uk,Comhairle nan Eilean Siar (Western Isles),http://www.cne-siar.gov.uk/foodsafety/food-hygiene-scheme.asp,-7.35106700000000,HS8 5RQ,2014-01-23,fhis_pass_en-GB,Pass,,FHIS,
420288,Croileagan An Tairbeart,West Tarbert,Isle Of Harris,,Croileagan An Tairbeart,Hospitals/Childcare/Caring Premises,5,,,468547,,,57.90173100000000,1476000000006,791,eh@cne-siar.gov.uk,Comhairle nan Eilean Siar (Western Isles),http://www.cne-siar.gov.uk/foodsafety/food-hygiene-scheme.asp,-6.81385700000000,HS3 3BG,2014-01-22,fhis_pass_en-GB,Pass,,FHIS,
420289,Schoolhouse,Dunskellar,Sollas,Isle Of North Uist,Croileagan Dhunsgealair,Hospitals/Childcare/Caring Premises,5,,,468429,,,57.65011600000000,0482000002000,791,eh@cne-siar.gov.uk,Comhairle nan Eilean Siar (Western Isles),http://www.cne-siar.gov.uk/foodsafety/food-hygiene-scheme.asp,-7.34447200000000,HS6 5BS,2012-11-12,fhis_pass_en-GB,Pass,,FHIS,
420290,Former School,Shawbost,Isle Of Lewis,,Croileagan Old School Shawbost,Hospitals/Childcare/Caring Premises,5,,,468521,,,58.32716000000000,1252000000006,791,eh@cne-siar.gov.uk,Comhairle nan Eilean Siar (Western Isles),http://www.cne-siar.gov.uk/foodsafety/food-hygiene-scheme.asp,-6.68213800000000,HS2 9BQ,2014-04-17,fhis_improvement_required_en-GB,Improvement Required,,FHIS,
420291,3 Cuithir,Castlebay,Isle Of Barra,,Croitear Og,Manufacturers/packers,7839,,,642666,,,57.00071500000000,MZUXWURO02A00,791,eh@cne-siar.gov.uk,Comhairle nan Eilean Siar (Western Isles),http://www.cne-siar.gov.uk/foodsafety/food-hygiene-scheme.asp,-7.48338200000000,HS9 5XZ,2014-01-17,fhis_pass_en-GB,Pass,,FHIS,
420292,Cross Inn,24 Cross,Ness,Isle Of Lewis,Cross Inn,Hotel/bed & breakfast/guest house,7842,,,468421,,,58.47278800000000,0425000242000,791,eh@cne-siar.gov.uk,Comhairle nan Eilean Siar (Western Isles),http://www.cne-siar.gov.uk/foodsafety/food-hygiene-scheme.asp,-6.28366500000000,HS2 0SN,2014-10-28,fhis_pass_en-GB,Pass,,FHIS,
420293,Post Office & Shop,Cross,Ness,Isle Of Lewis,Cross Post Office,Retailers - other,4613,,,468420,,,58.47278800000000,0425000000001,791,eh@cne-siar.gov.uk,Comhairle nan Eilean Siar (Western Isles),http://www.cne-siar.gov.uk/foodsafety/food-hygiene-scheme.asp,-6.28366500000000,HS2 0SN,2010-10-15,fhis_exempt_en-GB,Exempt,,FHIS,
420294,Cross Stores,7 Cross Skigersta Road,Ness,Isle Of Lewis,Cross Stores,Retailers - other,4613,,,468422,,,58.47465900000000,0426000072000,791,eh@cne-siar.gov.uk,Comhairle nan Eilean Siar (Western Isles),http://www.cne-siar.gov.uk/foodsafety/food-hygiene-scheme.asp,-6.27125800000000,HS2 0TD,2013-08-13,fhis_pass_en-GB,Pass,,FHIS,
420295,43 Vatisker,Back,Isle Of Lewis,,Crowberry,Other catering premises,7841,,,468578,,,58.27944300000000,KC0ZGCRO01D00,791,eh@cne-siar.gov.uk,Comhairle nan Eilean Siar (Western Isles),http://www.cne-siar.gov.uk/foodsafety/food-hygiene-scheme.asp,-6.30062700000000,HS2 0LB,2012-05-28,fhis_pass_en-GB,Pass,,FHIS,
420296,Cuanna House,29 Francis Street,Stornoway,Isle Of Lewis,Cuanna House,Hotel/bed & breakfast/guest house,7842,,,296225,,,58.20922500000000,0544000292000,791,eh@cne-siar.gov.uk,Comhairle nan Eilean Siar (Western Isles),http://www.cne-siar.gov.uk/foodsafety/food-hygiene-scheme.asp,-6.38359900000000,HS1 2NF,2010-05-14,fhis_pass_en-GB,Pass,,FHIS,
420297,CWS Shop,Sollas,Isle Of North Uist,,CWS Ltd,Retailers - supermarkets/hypermarkets,7840,,,468525,,,57.65011600000000,1278000000000,791,eh@cne-siar.gov.uk,Comhairle nan Eilean Siar (Western Isles),http://www.cne-siar.gov.uk/foodsafety/food-hygiene-scheme.asp,-7.34447200000000,HS6 5BS,2014-06-06,fhis_pass_en-GB,Pass,,FHIS,
420298,Island Road,Stornoway,Isle Of Lewis,,D R Macleod,Distributors/Transporters,7,,,296233,,,58.20724400000000,0696020012000,791,eh@cne-siar.gov.uk,Comhairle nan Eilean Siar (Western Isles),http://www.cne-siar.gov.uk/foodsafety/food-hygiene-scheme.asp,-6.37791900000000,HS1 2RD,2012-02-02,fhis_pass_en-GB,Pass,,FHIS,
420299,DR Macleod,Haulage Yard Warehouse And Office,Stromban,Lochmaddy,D R MacLeod Ltd,Distributors/Transporters,7,,,468634,,,57.59794600000000,LY3OZSRO01D00,791,eh@cne-siar.gov.uk,Comhairle nan Eilean Siar (Western Isles),http://www.cne-siar.gov.uk/foodsafety/food-hygiene-scheme.asp,-7.18400700000000,HS6 5AH,2012-02-21,fhis_exempt_en-GB,Exempt,,FHIS,
420300,WISP - Daliburgh School,Daliburgh,Lochboisdale,Isle Of South Uist,Daliburgh School Canteen,School/college/university,7845,,,468665,,,,M8QYVURO02A00,791,eh@cne-siar.gov.uk,Comhairle nan Eilean Siar (Western Isles),http://www.cne-siar.gov.uk/foodsafety/food-hygiene-scheme.asp,,,2014-09-05,fhis_pass_en-GB,Pass,,FHIS,
420301,The Dark Island,Liniclate,Benbecula,Isle Of South Uist,Dark Island Hotel,Hotel/bed & breakfast/guest house,7842,,,468480,,,57.42558100000000,0836020022000,791,eh@cne-siar.gov.uk,Comhairle nan Eilean Siar (Western Isles),http://www.cne-siar.gov.uk/foodsafety/food-hygiene-scheme.asp,-7.35857700000000,HS7 5PJ,2014-08-22,fhis_pass_en-GB,Pass,,FHIS,
420302,Storas Uibhist Ltd,Deer Larder,Askernish,Isle Of South Uist,Deer Larder,Manufacturers/packers,7839,,,716018,,,,NALVQ1RO02A00,791,eh@cne-siar.gov.uk,Comhairle nan Eilean Siar (Western Isles),http://www.cne-siar.gov.uk/foodsafety/food-hygiene-scheme.asp,,,2014-08-13,fhis_exempt_en-GB,Exempt,,FHIS,
420303,18 North Beach,Stornoway,Isle Of Lewis,,Delights (Outer Hebrides) Ltd,Retailers - other,4613,,,296296,,,58.20862800000000,LD0G0SRO02C00,791,eh@cne-siar.gov.uk,Comhairle nan Eilean Siar (Western Isles),http://www.cne-siar.gov.uk/foodsafety/food-hygiene-scheme.asp,-6.38892600000000,HS1 2XQ,2012-11-21,fhis_pass_en-GB,Pass,,FHIS,
420304,5 Bank Street,Stornoway,Isle Of Lewis,,Digby Chick,Restaurant/Cafe/Canteen,1,,,296200,,,58.20839900000000,0129000050000,791,eh@cne-siar.gov.uk,Comhairle nan Eilean Siar (Western Isles),http://www.cne-siar.gov.uk/foodsafety/food-hygiene-scheme.asp,-6.38930700000000,HS1 2XG,2014-11-21,fhis_pass_en-GB,Pass,,FHIS,
420305,Doune Braes Hotel,Doune Carloway,Isle Of Lewis,,Doune Braes Hotel,Hotel/bed & breakfast/guest house,7842,,,468427,,,58.26443000000000,0449020052000,791,eh@cne-siar.gov.uk,Comhairle nan Eilean Siar (Western Isles),http://www.cne-siar.gov.uk/foodsafety/food-hygiene-scheme.asp,-6.78248800000000,HS2 9AA,2014-02-12,fhis_pass_en-GB,Pass,,FHIS,
420306,Post Office,4 Drinishader,Isle Of Harris,,Drinishader Post Office,Retailers - other,4613,,,468652,,,57.85221500000000,M5K146RO01D00,791,eh@cne-siar.gov.uk,Comhairle nan Eilean Siar (Western Isles),http://www.cne-siar.gov.uk/foodsafety/food-hygiene-scheme.asp,-6.76685300000000,HS3 3DX,2012-05-30,fhis_pass_en-GB,Pass,,FHIS,
420307,Balmerino Drive,Stornoway,Isle Of Lewis,,Dun Berisay,Hospitals/Childcare/Caring Premises,5,,,296199,,,58.21416100000000,0124000002000,791,eh@cne-siar.gov.uk,Comhairle nan Eilean Siar (Western Isles),http://www.cne-siar.gov.uk/foodsafety/food-hygiene-scheme.asp,-6.37867000000000,HS1 2TD,2013-11-28,fhis_pass_en-GB,Pass,,FHIS,
420308,51 Westview Terrace,Stornoway,Isle Of Lewis,,Dun Eisdean,Hospitals/Childcare/Caring Premises,5,,,296279,,,58.21704700000000,1477000512000,791,eh@cne-siar.gov.uk,Comhairle nan Eilean Siar (Western Isles),http://www.cne-siar.gov.uk/foodsafety/food-hygiene-scheme.asp,-6.37842900000000,HS1 2LD,2013-11-28,fhis_pass_en-GB,Pass,,FHIS,
420309,The Bunkhouse,Dunard,Castlebay,Isle Of Barra,Dunard Hostel & Lodge,Hotel/bed & breakfast/guest house,7842,,,582472,,,56.95520700000000,M3PHUDRO02A00,791,eh@cne-siar.gov.uk,Comhairle nan Eilean Siar (Western Isles),http://www.cne-siar.gov.uk/foodsafety/food-hygiene-scheme.asp,-7.48939500000000,HS9 5XD,2013-07-26,fhis_pass_en-GB,Pass,,FHIS,
420310,18 Plantation Road,Stornoway,Isle Of Lewis,,Dunroamin B&B,Hotel/bed & breakfast/guest house,7842,,,468511,,,58.21280500000000,1115000180000,791,eh@cne-siar.gov.uk,Comhairle nan Eilean Siar (Western Isles),http://www.cne-siar.gov.uk/foodsafety/food-hygiene-scheme.asp,-6.38489300000000,HS1 2JS,2012-05-24,fhis_pass_en-GB,Pass,,FHIS,
420311,Dusary Shop,4 Claddach Kyles,Isle Of North Uist,,Dusary Shop,Retailers - other,4613,,,468430,,,57.57483800000000,0483000002000,791,eh@cne-siar.gov.uk,Comhairle nan Eilean Siar (Western Isles),http://www.cne-siar.gov.uk/foodsafety/food-hygiene-scheme.asp,-7.40270200000000,HS6 5EW,2014-06-19,fhis_pass_en-GB,Pass,,FHIS,
420312,Westview,Aird,Uig,Isle Of Lewis,Edge Of The Earth B&B,Hotel/bed & breakfast/guest house,7842,,,682342,,,58.23205100000000,N618UARO01D00,791,eh@cne-siar.gov.uk,Comhairle nan Eilean Siar (Western Isles),http://www.cne-siar.gov.uk/foodsafety/food-hygiene-scheme.asp,-7.02916100000000,HS2 9JA,2014-05-21,fhis_pass_en-GB,Pass,,FHIS,
420313,New Wine Church,37 - 39 Point Street,Stornoway,Isle Of Lewis,Eilean Siar Foodbank,Hospitals/Childcare/Caring Premises,5,,,505876,,,58.20816000000000,MF8EX0RO01D00,791,eh@cne-siar.gov.uk,Comhairle nan Eilean Siar (Western Isles),http://www.cne-siar.gov.uk/foodsafety/food-hygiene-scheme.asp,-6.38920900000000,HS1 2XF,2014-11-21,fhis_pass_en-GB,Pass,,FHIS,
420314,Eishken Lodge,Eishken,Lochs,Isle Of Lewis,Eishken Deer Larder,Manufacturers/packers,7839,,,468440,,,58.01665800000000,0506040062000,791,eh@cne-siar.gov.uk,Comhairle nan Eilean Siar (Western Isles),http://www.cne-siar.gov.uk/foodsafety/food-hygiene-scheme.asp,-6.52904700000000,HS2 9LQ,2014-05-05,fhis_exempt_en-GB,Exempt,,FHIS,
420315,Endeavour,2 Castlebay,Isle Of Barra,,Endeavour Bed & Breakfast,Hotel/bed & breakfast/guest house,7842,,,716013,,,56.95520700000000,N93WIORO02A00,791,eh@cne-siar.gov.uk,Comhairle nan Eilean Siar (Western Isles),http://www.cne-siar.gov.uk/foodsafety/food-hygiene-scheme.asp,-7.48939500000000,HS9 5XD,2014-07-01,fhis_exempt_en-GB,Exempt,,FHIS,
420316,Sandwick Road,Stornoway,Isle Of Lewis,,Engebrets Ltd,Retailers - other,4613,,,296266,,,58.20767100000000,1202020012000,791,eh@cne-siar.gov.uk,Comhairle nan Eilean Siar (Western Isles),http://www.cne-siar.gov.uk/foodsafety/food-hygiene-scheme.asp,-6.37018500000000,HS1 2SL,2014-10-14,fhis_pass_en-GB,Pass,,FHIS,
420317,Care Unit,1 Rubha Doigheag,Eochar,Isle Of South Uist,Eochdar Care Unit,Hospitals/Childcare/Caring Premises,5,,,568311,,,57.39210100000000,1185000010000,791,eh@cne-siar.gov.uk,Comhairle nan Eilean Siar (Western Isles),http://www.cne-siar.gov.uk/foodsafety/food-hygiene-scheme.asp,-7.34132600000000,HS8 5RL,2013-04-16,fhis_pass_en-GB,Pass,,FHIS,
420318,Eoligarry School,Eoligarry,Isle Of Barra,,Eoligarry School,School/college/university,7845,,,468441,,,57.04278500000000,0514000000002,791,eh@cne-siar.gov.uk,Comhairle nan Eilean Siar (Western Isles),http://www.cne-siar.gov.uk/foodsafety/food-hygiene-scheme.asp,-7.43139800000000,HS9 5YD,2014-03-04,fhis_pass_en-GB,Pass,,FHIS,
420319,Tearoom,10A Eoropie,Ness,Isle Of Lewis,Eoropie Tearoom,Restaurant/Cafe/Canteen,1,,,468630,,,58.50258600000000,LUI828RO01D00,791,eh@cne-siar.gov.uk,Comhairle nan Eilean Siar (Western Isles),http://www.cne-siar.gov.uk/foodsafety/food-hygiene-scheme.asp,-6.26460500000000,HS2 0XH,2013-09-12,fhis_pass_en-GB,Pass,,FHIS,
420320,13 South Beach,Stornoway,Isle Of Lewis,,Era,Pub/bar/nightclub,7843,,,296270,,,58.20815500000000,1281000132000,791,eh@cne-siar.gov.uk,Comhairle nan Eilean Siar (Western Isles),http://www.cne-siar.gov.uk/foodsafety/food-hygiene-scheme.asp,-6.38908900000000,HS1 2BE,,fhis_awaiting_inspection_en-GB,Awaiting Inspection,,FHIS,
420321,Community Hall,Rubha Ban,Eriskay,Isle Of South Uist,Eriskay Community Hall,Other catering premises,7841,,,468444,,,57.08587700000000,0518020012001,791,eh@cne-siar.gov.uk,Comhairle nan Eilean Siar (Western Isles),http://www.cne-siar.gov.uk/foodsafety/food-hygiene-scheme.asp,-7.30055800000000,HS8 5JH,2012-02-22,fhis_exempt_en-GB,Exempt,,FHIS,
420322,Eriskay School,Balla,Eriskay,Isle Of South Uist,Eriskay School,School/college/university,7845,,,468443,,,57.08597600000000,0518000000000,791,eh@cne-siar.gov.uk,Comhairle nan Eilean Siar (Western Isles),http://www.cne-siar.gov.uk/foodsafety/food-hygiene-scheme.asp,-7.30691900000000,HS8 5JJ,2012-02-22,fhis_pass_en-GB,Pass,,FHIS,
420323,Failte,Unit 7 And 8,Lochboisdale Pier Development,Lochboisdale,Failte,Retailers - other,4613,,,468648,,,57.15294600000000,M1Y4X5RO02A00,791,eh@cne-siar.gov.uk,Comhairle nan Eilean Siar (Western Isles),http://www.cne-siar.gov.uk/foodsafety/food-hygiene-scheme.asp,-7.30649800000000,HS8 5TP,2014-05-01,fhis_pass_en-GB,Pass,,FHIS,
420324,Fernlea,9 Matheson Road,Stornoway,Isle Of Lewis,Fernlea Guest House,Hotel/bed & breakfast/guest house,7842,,,296248,,,58.21051300000000,0945000092000,791,eh@cne-siar.gov.uk,Comhairle nan Eilean Siar (Western Isles),http://www.cne-siar.gov.uk/foodsafety/food-hygiene-scheme.asp,-6.38196900000000,HS1 2NQ,2011-06-17,fhis_pass_en-GB,Pass,,FHIS,
420325,First Fruits,Tarbert,Isle Of Harris,,First Fruits Tearoom,Restaurant/Cafe/Canteen,1,,,468536,,,57.89778100000000,1357020032000,791,eh@cne-siar.gov.uk,Comhairle nan Eilean Siar (Western Isles),http://www.cne-siar.gov.uk/foodsafety/food-hygiene-scheme.asp,-6.79867900000000,HS3 3DG,2014-09-17,fhis_improvement_required_en-GB,Improvement Required,,FHIS,
420326,4 Flodabay,Isle Of Harris,,,Flodabay Farm,Hotel/bed & breakfast/guest house,7842,,,468576,,,57.79434700000000,K990P3RO01400,791,eh@cne-siar.gov.uk,Comhairle nan Eilean Siar (Western Isles),http://www.cne-siar.gov.uk/foodsafety/food-hygiene-scheme.asp,-6.88543700000000,HS3 3HA,2014-06-23,fhis_pass_en-GB,Pass,,FHIS,
420327,Free Church,Back,Isle Of Lewis,,Free Church Back,Restaurant/Cafe/Canteen,1,,,626085,,,58.27725100000000,0096000000001,791,eh@cne-siar.gov.uk,Comhairle nan Eilean Siar (Western Isles),http://www.cne-siar.gov.uk/foodsafety/food-hygiene-scheme.asp,-6.29334500000000,HS2 0LN,2013-11-25,fhis_exempt_en-GB,Exempt,,FHIS,
420328,29 Garrabost,Point,Isle Of Lewis,,Free Range Eggs,Manufacturers/packers,7839,,,468599,,,58.22014500000000,L30RLNRO02C00,791,eh@cne-siar.gov.uk,Comhairle nan Eilean Siar (Western Isles),http://www.cne-siar.gov.uk/foodsafety/food-hygiene-scheme.asp,-6.22884700000000,HS2 0PW,2014-11-19,fhis_pass_en-GB,Pass,,FHIS,
420329,Perceval Road,Stornoway,Isle Of Lewis,,Fusion Far East Takeaway,Takeaway/sandwich shop,7844,,,296284,,,58.21988800000000,JD3KY9ROD1000,791,eh@cne-siar.gov.uk,Comhairle nan Eilean Siar (Western Isles),http://www.cne-siar.gov.uk/foodsafety/food-hygiene-scheme.asp,-6.38709700000000,HS1 2EU,2014-11-04,fhis_improvement_required_en-GB,Improvement Required,,FHIS,
420330,10 Bells Road,Stornoway,Isle Of Lewis,,Gaelpak Foods,Retailers - other,4613,,,296291,,,58.20677900000000,L20GFARO01D00,791,eh@cne-siar.gov.uk,Comhairle nan Eilean Siar (Western Isles),http://www.cne-siar.gov.uk/foodsafety/food-hygiene-scheme.asp,-6.37992300000000,HS1 2RA,2010-09-23,fhis_exempt_en-GB,Exempt,,FHIS,
420331,Galson Farm,38 South Galson,Ness,Isle Of Lewis,Galson Farm Guesthouse,Hotel/bed & breakfast/guest house,7842,,,468527,,,58.44137000000000,1290000380000,791,eh@cne-siar.gov.uk,Comhairle nan Eilean Siar (Western Isles),http://www.cne-siar.gov.uk/foodsafety/food-hygiene-scheme.asp,-6.39265800000000,HS2 0SH,2014-11-17,fhis_pass_en-GB,Pass,,FHIS,
420332,9 Callanish,Isle Of Lewis,,,Gealabhat,Hotel/bed & breakfast/guest house,7842,,,682323,,,58.19941700000000,MSCRYURO01D00,791,eh@cne-siar.gov.uk,Comhairle nan Eilean Siar (Western Isles),http://www.cne-siar.gov.uk/foodsafety/food-hygiene-scheme.asp,-6.73682400000000,HS2 9DY,2014-04-24,fhis_pass_en-GB,Pass,,FHIS,
420333,Urras Nan Gearranan,Resource Centre,7 Gearranan Village,Gearranan,Gearrannan Village Ltd,Restaurant/Cafe/Canteen,1,,,468448,,,58.29493600000000,0550000070000,791,eh@cne-siar.gov.uk,Comhairle nan Eilean Siar (Western Isles),http://www.cne-siar.gov.uk/foodsafety/food-hygiene-scheme.asp,-6.78411700000000,HS2 9AL,2013-09-16,fhis_pass_en-GB,Pass,,FHIS,
420334,1A Lochganvich,Lochganvich,Isle Of Lewis,,"Ghinda, Bed   Breakfast",Hotel/bed & breakfast/guest house,7842,,,605873,,,58.17401300000000,JNA99ZRO01D00,791,eh@cne-siar.gov.uk,Comhairle nan Eilean Siar (Western Isles),http://www.cne-siar.gov.uk/foodsafety/food-hygiene-scheme.asp,-6.60842300000000,HS2 9DT,2013-09-06,fhis_pass_en-GB,Pass,,FHIS,
420335,Gledfield,5 Balallan,Lochs,Isle Of Lewis,Gledfield,Hotel/bed & breakfast/guest house,7842,,,468362,,,58.09331900000000,0103000050000,791,eh@cne-siar.gov.uk,Comhairle nan Eilean Siar (Western Isles),http://www.cne-siar.gov.uk/foodsafety/food-hygiene-scheme.asp,-6.59262300000000,HS2 9PN,2014-04-14,fhis_exempt_en-GB,Exempt,,FHIS,
420336,Community Shop,Cearn Shulaisgeir,Stornoway,Isle Of Lewis,Glitter Island Cakes - Ceilidh House Drop In Centre,Manufacturers/packers,7839,,,682341,,,58.22244900000000,N5IR80RO01D00,791,eh@cne-siar.gov.uk,Comhairle nan Eilean Siar (Western Isles),http://www.cne-siar.gov.uk/foodsafety/food-hygiene-scheme.asp,-6.39210100000000,HS1 2YN,2013-11-12,fhis_exempt_en-GB,Exempt,,FHIS,
420337,Gordon Diesel Service,Back,Isle Of Lewis,,Gordon Diesel Service,Retailers - other,4613,,,468360,,,58.27565000000000,0096020082000,791,eh@cne-siar.gov.uk,Comhairle nan Eilean Siar (Western Isles),http://www.cne-siar.gov.uk/foodsafety/food-hygiene-scheme.asp,-6.30243700000000,HS2 0JY,2013-03-28,fhis_pass_en-GB,Pass,,FHIS,
420338,Seaview,Breasclete,Isle Of Lewis,,Gourmet Street Food,Mobile caterer,7846,,,682345,,,58.21644900000000,N81NZQRO01D00,791,eh@cne-siar.gov.uk,Comhairle nan Eilean Siar (Western Isles),http://www.cne-siar.gov.uk/foodsafety/food-hygiene-scheme.asp,-6.74445000000000,HS2 9ED,2014-05-21,fhis_pass_en-GB,Pass,,FHIS,
420339,Grianamul,Castlebay,Isle Of Barra,,Grianamul B&B,Hotel/bed & breakfast/guest house,7842,,,582470,,,56.95823000000000,0300020392000,791,eh@cne-siar.gov.uk,Comhairle nan Eilean Siar (Western Isles),http://www.cne-siar.gov.uk/foodsafety/food-hygiene-scheme.asp,-7.50247500000000,HS9 5XL,2013-06-24,fhis_pass_en-GB,Pass,,FHIS,
420340,29 Inaclete Road,Stornoway,Isle Of Lewis,,Grillburger Frozen Foods,Distributors/Transporters,7,,,296229,,,58.20656500000000,0683000290000,791,eh@cne-siar.gov.uk,Comhairle nan Eilean Siar (Western Isles),http://www.cne-siar.gov.uk/foodsafety/food-hygiene-scheme.asp,-6.38066400000000,HS1 2RB,2010-09-22,fhis_exempt_en-GB,Exempt,,FHIS,
420341,Grogarry Lodge,Grogarry,Isle Of South Uist,,Grogarry Lodge,Other catering premises,7841,,,505852,,,57.33233500000000,0631020002000,791,eh@cne-siar.gov.uk,Comhairle nan Eilean Siar (Western Isles),http://www.cne-siar.gov.uk/foodsafety/food-hygiene-scheme.asp,-7.36355800000000,HS8 5RR,,fhis_awaiting_inspection_en-GB,Awaiting Inspection,,FHIS,
420342,Hal O' The Wynd,2 Newton Street,Stornoway,Isle Of Lewis,Hal O' The Wynd Guest House,Hotel/bed & breakfast/guest house,7842,,,296250,,,58.20559400000000,1019000022000,791,eh@cne-siar.gov.uk,Comhairle nan Eilean Siar (Western Isles),http://www.cne-siar.gov.uk/foodsafety/food-hygiene-scheme.asp,-6.38040800000000,HS1 2RE,2013-11-14,fhis_pass_en-GB,Pass,,FHIS,
420343,Hamersay House Hotel,Lochmaddy,Isle Of North Uist,,Hamersay House Hotel,Hotel/bed & breakfast/guest house,7842,,,605872,,,57.60493700000000,IM6QF4RO41000,791,eh@cne-siar.gov.uk,Comhairle nan Eilean Siar (Western Isles),http://www.cne-siar.gov.uk/foodsafety/food-hygiene-scheme.asp,-7.16210700000000,HS6 5AE,2014-09-12,fhis_pass_en-GB,Pass,,FHIS,
420344,Harbour Seafoods,Esplanade Quay,Stornoway,Isle Of Lewis,Harbour Seafoods,Retailers - other,4613,,,296240,,,58.20788900000000,0740000000005,791,eh@cne-siar.gov.uk,Comhairle nan Eilean Siar (Western Isles),http://www.cne-siar.gov.uk/foodsafety/food-hygiene-scheme.asp,-6.39159500000000,HS1 2XS,2013-11-26,fhis_pass_en-GB,Pass,,FHIS,
420345,Harris Disability Group,Tarbert,Isle Of Harris,,Harris Disabled Group,Retailers - other,4613,,,468533,,,57.89778100000000,1357000000002,791,eh@cne-siar.gov.uk,Comhairle nan Eilean Siar (Western Isles),http://www.cne-siar.gov.uk/foodsafety/food-hygiene-scheme.asp,-6.79867900000000,HS3 3DG,2012-02-02,fhis_exempt_en-GB,Exempt,,FHIS,
420346,Harris Garage Company Limited,Filling Station,Scott Road,Tarbert,Harris Garage Filling Station,Retailers - other,4613,,,582480,,,57.89974700000000,MSCRCSRO01D00,791,eh@cne-siar.gov.uk,Comhairle nan Eilean Siar (Western Isles),http://www.cne-siar.gov.uk/foodsafety/food-hygiene-scheme.asp,-6.80284500000000,HS3 3DL,2013-10-02,fhis_pass_en-GB,Pass,,FHIS,
420347,Harris Hotel,Tarbert,Isle Of Harris,,Harris Hotel,Hotel/bed & breakfast/guest house,7842,,,468537,,,57.89974700000000,1357020112000,791,eh@cne-siar.gov.uk,Comhairle nan Eilean Siar (Western Isles),http://www.cne-siar.gov.uk/foodsafety/food-hygiene-scheme.asp,-6.80284500000000,HS3 3DL,2014-02-07,fhis_pass_en-GB,Pass,,FHIS,
420348,Harris House,Tarbert,Isle Of Harris,,Harris House,Hospitals/Childcare/Caring Premises,5,,,468535,,,57.89947700000000,1357000000010,791,eh@cne-siar.gov.uk,Comhairle nan Eilean Siar (Western Isles),http://www.cne-siar.gov.uk/foodsafety/food-hygiene-scheme.asp,-6.79571300000000,HS3 3DD,2014-11-25,fhis_pass_en-GB,Pass,,FHIS,
420349,Heathbank Hotel,Northbay,Isle Of Barra,,Heathbank Hotel,Hotel/bed & breakfast/guest house,7842,,,468503,,,56.99994400000000,1029020072000,791,eh@cne-siar.gov.uk,Comhairle nan Eilean Siar (Western Isles),http://www.cne-siar.gov.uk/foodsafety/food-hygiene-scheme.asp,-7.42419600000000,HS9 5YQ,2012-09-19,fhis_pass_en-GB,Pass,,FHIS,
420350,Heather View,55 North Galson,Isle Of Lewis,,Heatherview B&B,Hotel/bed & breakfast/guest house,7842,,,642668,,,58.44396900000000,N22C0VRO01D00,791,eh@cne-siar.gov.uk,Comhairle nan Eilean Siar (Western Isles),http://www.cne-siar.gov.uk/foodsafety/food-hygiene-scheme.asp,-6.37898600000000,HS2 0SJ,2014-02-12,fhis_pass_en-GB,Pass,,FHIS,
420351,20 Balivanich,Isle Of Benbecula,,,Hebridean Eggs,Manufacturers/packers,7839,,,626093,,,57.47132500000000,MZ4PPGRO02A00,791,eh@cne-siar.gov.uk,Comhairle nan Eilean Siar (Western Isles),http://www.cne-siar.gov.uk/foodsafety/food-hygiene-scheme.asp,-7.37163700000000,HS7 5LA,2015-01-20,fhis_exempt_en-GB,Exempt,,FHIS,
420352,61 Bayhead,Stornoway,Isle Of Lewis,,Hebridean Guesthouse,Hotel/bed & breakfast/guest house,7842,,,296203,,,58.21442100000000,0151000612000,791,eh@cne-siar.gov.uk,Comhairle nan Eilean Siar (Western Isles),http://www.cne-siar.gov.uk/foodsafety/food-hygiene-scheme.asp,-6.38575700000000,HS1 2DZ,2010-05-11,fhis_pass_en-GB,Pass,,FHIS,
420353,Workshop And Cafe,Garryganichy,Eochar,Isle Of South Uist,Hebridean Jewellery,Restaurant/Cafe/Canteen,1,,,468449,,,57.39864100000000,0552000002001,791,eh@cne-siar.gov.uk,Comhairle nan Eilean Siar (Western Isles),http://www.cne-siar.gov.uk/foodsafety/food-hygiene-scheme.asp,-7.35069800000000,HS8 5QX,2014-05-09,fhis_pass_en-GB,Pass,,FHIS,
420354,Goat Island,Stornoway,Isle Of Lewis,,Hebridean Marine Services,Manufacturers/packers,7839,,,626086,,,58.20249300000000,0594000002000,791,eh@cne-siar.gov.uk,Comhairle nan Eilean Siar (Western Isles),http://www.cne-siar.gov.uk/foodsafety/food-hygiene-scheme.asp,-6.38217200000000,HS1 2RS,2014-10-02,fhis_exempt_en-GB,Exempt,,FHIS,
420355,Hebridean Mussels,Dispatch Centre,Earshader,Uig,Hebridean Mussels,Manufacturers/packers,7839,,,682336,,,,N53FPERO01D00,791,eh@cne-siar.gov.uk,Comhairle nan Eilean Siar (Western Isles),http://www.cne-siar.gov.uk/foodsafety/food-hygiene-scheme.asp,,,2014-03-26,fhis_exempt_en-GB,Exempt,,FHIS,
420356,3 An Goirtean,Brevig,Castlebay,Isle Of Barra,Hebridean Preserves & Pastries,Manufacturers/packers,7839,,,568314,,,56.96307100000000,M7CMCJRO01D00,791,eh@cne-siar.gov.uk,Comhairle nan Eilean Siar (Western Isles),http://www.cne-siar.gov.uk/foodsafety/food-hygiene-scheme.asp,-7.44137600000000,HS9 5UA,2013-05-28,fhis_pass_en-GB,Pass,,FHIS,
420357,Units 3   4,Habost Workshops,Habost,Lochs,Hebridean Sea Salt,Manufacturers/packers,7839,,,468656,,,58.08487900000000,M6BKVERO01D00,791,eh@cne-siar.gov.uk,Comhairle nan Eilean Siar (Western Isles),http://www.cne-siar.gov.uk/foodsafety/food-hygiene-scheme.asp,-6.53758600000000,HS2 9QB,2014-02-05,fhis_pass_en-GB,Pass,,FHIS,
420358,Earshader,Uig,Isle Of Lewis,,Hebridean Seafoods Ltd,Manufacturers/packers,7839,,,468431,,,58.20228300000000,0489000001000,791,eh@cne-siar.gov.uk,Comhairle nan Eilean Siar (Western Isles),http://www.cne-siar.gov.uk/foodsafety/food-hygiene-scheme.asp,-6.82988600000000,HS2 9LP,2013-06-06,fhis_exempt_en-GB,Exempt,,FHIS,
420359,The Hebridean Seaweed Co Ltd,Seaweed Factory,Arnish,Isle Of Lewis,Hebridean Seaweed Company Ltd,Manufacturers/packers,7839,,,468585,,,58.18927200000000,KODFXARO01D00,791,eh@cne-siar.gov.uk,Comhairle nan Eilean Siar (Western Isles),http://www.cne-siar.gov.uk/foodsafety/food-hygiene-scheme.asp,-6.37541500000000,HS2 9JY,2013-02-21,fhis_exempt_en-GB,Exempt,,FHIS,
420360,Hebridean Smokehouse Ltd,Fish Processing And Smokehouse,Clachan,Locheport,Hebridean Smokehouse Ltd,Manufacturers/packers,7839,,,468411,,,57.55245000000000,0348000002001,791,eh@cne-siar.gov.uk,Comhairle nan Eilean Siar (Western Isles),http://www.cne-siar.gov.uk/foodsafety/food-hygiene-scheme.asp,-7.33467400000000,HS6 5HD,2014-11-13,fhis_exempt_en-GB,Exempt,,FHIS,
420361,Hebridean Toffee,Factory,Castlebay,Isle Of Barra,Hebridean Toffee,Manufacturers/packers,7839,,,468401,,,56.95506400000000,0300000000014,791,eh@cne-siar.gov.uk,Comhairle nan Eilean Siar (Western Isles),http://www.cne-siar.gov.uk/foodsafety/food-hygiene-scheme.asp,-7.48833600000000,HS9 5XD,2013-08-16,fhis_pass_en-GB,Pass,,FHIS,
420362,11 Urquhart Gardens,Stornoway,Isle Of Lewis,,Hebridean Vending,Retailers - other,4613,,,468642,,,58.22119900000000,M1AUOTRO01D00,791,eh@cne-siar.gov.uk,Comhairle nan Eilean Siar (Western Isles),http://www.cne-siar.gov.uk/foodsafety/food-hygiene-scheme.asp,-6.38922000000000,HS1 2TX,2012-03-14,fhis_exempt_en-GB,Exempt,,FHIS,
420363,10 Laxay,Lochs,Isle Of Lewis,,Hebri-Delight,Manufacturers/packers,7839,,,468556,,,58.10348000000000,IEKZ4MROD1000,791,eh@cne-siar.gov.uk,Comhairle nan Eilean Siar (Western Isles),http://www.cne-siar.gov.uk/foodsafety/food-hygiene-scheme.asp,-6.52848600000000,HS2 9PJ,2014-12-12,fhis_exempt_en-GB,Exempt,,FHIS,
420364,Caberfeidh,19A Seilebost,Isle Of Harris,,Hebrides Art,Restaurant/Cafe/Canteen,1,,,468606,,,57.86790000000000,LHOUZGRO01D00,791,eh@cne-siar.gov.uk,Comhairle nan Eilean Siar (Western Isles),http://www.cne-siar.gov.uk/foodsafety/food-hygiene-scheme.asp,-6.93994300000000,HS3 3HP,2011-05-20,fhis_exempt_en-GB,Exempt,,FHIS,
420365,Flat C,24 Newton Street,Stornoway,Isle Of Lewis,Helene La Grange,Manufacturers/packers,7839,,,568318,,,58.20559400000000,MMFPNLRO01D00,791,eh@cne-siar.gov.uk,Comhairle nan Eilean Siar (Western Isles),http://www.cne-siar.gov.uk/foodsafety/food-hygiene-scheme.asp,-6.38040800000000,HS1 2RE,2013-04-19,fhis_pass_en-GB,Pass,,FHIS,
420366,Western Isles District British Red Cross,7 Bayhead,Stornoway,Isle Of Lewis,Help In The Home/Independent Living,Other catering premises,7841,,,682344,,,58.21226000000000,N79QL3RO01D00,791,eh@cne-siar.gov.uk,Comhairle nan Eilean Siar (Western Isles),http://www.cne-siar.gov.uk/foodsafety/food-hygiene-scheme.asp,-6.38767100000000,HS1 2DU,2013-10-07,fhis_exempt_en-GB,Exempt,,FHIS,
420367,452 North Lochboisdale,Isle Of South Uist,,,Heron Point B&B,Hotel/bed & breakfast/guest house,7842,,,468613,,,57.16057100000000,LJUEB6RO02A00,791,eh@cne-siar.gov.uk,Comhairle nan Eilean Siar (Western Isles),http://www.cne-siar.gov.uk/foodsafety/food-hygiene-scheme.asp,-7.33818300000000,HS8 5TN,2014-05-05,fhis_pass_en-GB,Pass,,FHIS,
420368,6 Aird Na Cille,Scalpay,Isle Of Harris,,Highcroft B&B,Hotel/bed & breakfast/guest house,7842,,,468637,,,57.86790100000000,LZC6FRRO01D00,791,eh@cne-siar.gov.uk,Comhairle nan Eilean Siar (Western Isles),http://www.cne-siar.gov.uk/foodsafety/food-hygiene-scheme.asp,-6.70193400000000,HS4 3YB,2012-05-23,fhis_pass_en-GB,Pass,,FHIS,
420369,3 Lacklee,Isle Of Harris,,,Hillcraft Of Harris,Manufacturers/packers,7839,,,505868,,,57.82844900000000,M7CRC3RO01D00,791,eh@cne-siar.gov.uk,Comhairle nan Eilean Siar (Western Isles),http://www.cne-siar.gov.uk/foodsafety/food-hygiene-scheme.asp,-6.83891500000000,HS3 3EH,2012-08-08,fhis_exempt_en-GB,Exempt,,FHIS,
420370,Hillside,25 Glen,Castlebay,Isle Of Barra,Hillside Bed & Breakfast,Hotel/bed & breakfast/guest house,7842,,,716012,,,56.95596900000000,N93VV4RO02A00,791,eh@cne-siar.gov.uk,Comhairle nan Eilean Siar (Western Isles),http://www.cne-siar.gov.uk/foodsafety/food-hygiene-scheme.asp,-7.48046400000000,HS9 5UQ,2014-07-01,fhis_pass_en-GB,Pass,,FHIS,
420371,Holmview,18 Braighe Road,Branahuie,Branahuie,Holmview,Hotel/bed & breakfast/guest house,7842,,,682327,,,58.20500400000000,MZ2SANRO01D00,791,eh@cne-siar.gov.uk,Comhairle nan Eilean Siar (Western Isles),http://www.cne-siar.gov.uk/foodsafety/food-hygiene-scheme.asp,-6.31172900000000,HS2 0BQ,2014-03-14,fhis_pass_en-GB,Pass,,FHIS,
420372,Home Of Rest,Ferry Road,Leverburgh,Isle Of Harris,Home Of Rest Residential Home,Hospitals/Childcare/Caring Premises,5,,,468446,,,57.76767300000000,0524020032000,791,eh@cne-siar.gov.uk,Comhairle nan Eilean Siar (Western Isles),http://www.cne-siar.gov.uk/foodsafety/food-hygiene-scheme.asp,-7.01594100000000,HS5 3UA,2014-01-22,fhis_pass_en-GB,Pass,,FHIS,
420373,Ionad Na Seann Sgoil,North Shawbost,Isle Of Lewis,,Horshader Community Development,Retailers - supermarkets/hypermarkets,7840,,,716006,,,58.32716000000000,N3GVV3RO01D00,791,eh@cne-siar.gov.uk,Comhairle nan Eilean Siar (Western Isles),http://www.cne-siar.gov.uk/foodsafety/food-hygiene-scheme.asp,-6.68213800000000,HS2 9BQ,2014-07-11,fhis_pass_en-GB,Pass,,FHIS,
420374,Macleod's Motel,Pier Road,Tarbert,Isle Of Harris,Hotel Hebrides,Hotel/bed & breakfast/guest house,7842,,,468509,,,57.89778100000000,1111000000001,791,eh@cne-siar.gov.uk,Comhairle nan Eilean Siar (Western Isles),http://www.cne-siar.gov.uk/foodsafety/food-hygiene-scheme.asp,-6.79867900000000,HS3 3DG,2013-12-11,fhis_pass_en-GB,Pass,,FHIS,
420375,Rosslea,North Dell,Ness,Isle Of Lewis,Iced Gems,Manufacturers/packers,7839,,,716009,,,58.46933400000000,N7OK1DRO01D00,791,eh@cne-siar.gov.uk,Comhairle nan Eilean Siar (Western Isles),http://www.cne-siar.gov.uk/foodsafety/food-hygiene-scheme.asp,-6.29254700000000,HS2 0SW,2014-07-15,fhis_pass_en-GB,Pass,,FHIS,
420376,Iochdar School,Buaile Dubh,Eochar,Isle Of South Uist,Iochdar School,School/college/university,7845,,,468385,,,57.39227100000000,0238020012001,791,eh@cne-siar.gov.uk,Comhairle nan Eilean Siar (Western Isles),http://www.cne-siar.gov.uk/foodsafety/food-hygiene-scheme.asp,-7.35106700000000,HS8 5RQ,2013-10-30,fhis_pass_en-GB,Pass,,FHIS,
420377,8 Balallan,Lochs,Isle Of Lewis,,Island Arts,Manufacturers/packers,7839,,,682314,,,58.09319600000000,0103000080000,791,eh@cne-siar.gov.uk,Comhairle nan Eilean Siar (Western Isles),http://www.cne-siar.gov.uk/foodsafety/food-hygiene-scheme.asp,-6.59303100000000,HS2 9PN,2014-04-14,fhis_pass_en-GB,Pass,,FHIS,
420378,Island Deli & Coffee Bar,Cafe,Balivanich,Isle Of Benbecula,Island Deli & Coffee Bar,Restaurant/Cafe/Canteen,1,,,568315,,,57.47132500000000,MIIS76RO02A00,791,eh@cne-siar.gov.uk,Comhairle nan Eilean Siar (Western Isles),http://www.cne-siar.gov.uk/foodsafety/food-hygiene-scheme.asp,-7.37163700000000,HS7 5LA,2014-11-25,fhis_pass_en-GB,Pass,,FHIS,
420379,Isle Of Barra Hotel,Tangasdale,Isle Of Barra,,Isle Of Barra Beach Hotel,Hotel/bed & breakfast/guest house,7842,,,468532,,,56.96959300000000,1352020022000,791,eh@cne-siar.gov.uk,Comhairle nan Eilean Siar (Western Isles),http://www.cne-siar.gov.uk/foodsafety/food-hygiene-scheme.asp,-7.51603700000000,HS9 5XW,2013-05-29,fhis_pass_en-GB,Pass,,FHIS,
420380,Isle Of Benbecula House Hotel,Creagorry,Benbecula,Isle Of South Uist,Isle Of Benbecula House Hotel,Hotel/bed & breakfast/guest house,7842,,,468418,,,57.41391100000000,0411020042000,791,eh@cne-siar.gov.uk,Comhairle nan Eilean Siar (Western Isles),http://www.cne-siar.gov.uk/foodsafety/food-hygiene-scheme.asp,-7.33590400000000,HS7 5PG,2014-08-21,fhis_improvement_required_en-GB,Improvement Required,,FHIS,
420381,Isle Of Harris Inn,Tarbert,Isle Of Harris,,Isle Of Harris Inn,Pub/bar/nightclub,7843,,,468534,,,57.89947700000000,1357000000003,791,eh@cne-siar.gov.uk,Comhairle nan Eilean Siar (Western Isles),http://www.cne-siar.gov.uk/foodsafety/food-hygiene-scheme.asp,-6.79571300000000,HS3 3DD,2014-10-03,fhis_improvement_required_en-GB,Improvement Required,,FHIS,
420382,24 Vatisker,Back,Isle Of Lewis,,Isle Of Lewis Cheese Co.,Manufacturers/packers,7839,,,682328,,,58.27393100000000,MZP622RO01D00,791,eh@cne-siar.gov.uk,Comhairle nan Eilean Siar (Western Isles),http://www.cne-siar.gov.uk/foodsafety/food-hygiene-scheme.asp,-6.29502400000000,HS2 0JS,2014-02-26,fhis_exempt_en-GB,Exempt,,FHIS,
420383,Sample Site,Pacific Oysters,Loch Leurbost,Crossbost,Isle Of Lewis Oysters,Manufacturers/packers,7839,,,468569,,,,JLQDGDRO41000,791,eh@cne-siar.gov.uk,Comhairle nan Eilean Siar (Western Isles),http://www.cne-siar.gov.uk/foodsafety/food-hygiene-scheme.asp,,,2012-05-09,fhis_exempt_en-GB,Exempt,,FHIS,
420384,Cafeteria,Ferry Terminal,Shell Street,Stornoway,J N Catering,Restaurant/Cafe/Canteen,1,,,535818,,,58.20682800000000,MJN9G1RO01D00,791,eh@cne-siar.gov.uk,Comhairle nan Eilean Siar (Western Isles),http://www.cne-siar.gov.uk/foodsafety/food-hygiene-scheme.asp,-6.38660800000000,HS1 2AE,2014-02-25,fhis_pass_en-GB,Pass,,FHIS,
420385,16 Torquil Terrace,Stornoway,Isle Of Lewis,,Jadvigas Cakes,Manufacturers/packers,7839,,,505870,,,58.21731700000000,MCNGQURO01D00,791,eh@cne-siar.gov.uk,Comhairle nan Eilean Siar (Western Isles),http://www.cne-siar.gov.uk/foodsafety/food-hygiene-scheme.asp,-6.38442800000000,HS1 2EG,2012-11-05,fhis_exempt_en-GB,Exempt,,FHIS,
420386,5 Stewart Drive,Stornoway,Isle Of Lewis,,Jannel B&B,Hotel/bed & breakfast/guest house,7842,,,296280,,,58.22076300000000,IME2RGRO41000,791,eh@cne-siar.gov.uk,Comhairle nan Eilean Siar (Western Isles),http://www.cne-siar.gov.uk/foodsafety/food-hygiene-scheme.asp,-6.39015400000000,HS1 2TU,2011-06-17,fhis_pass_en-GB,Pass,,FHIS,
420387,12B Lower Sandwick,Isle Of Lewis,,,Jill's Cakes,Manufacturers/packers,7839,,,626089,,,58.20203100000000,MW5QVFRO01D00,791,eh@cne-siar.gov.uk,Comhairle nan Eilean Siar (Western Isles),http://www.cne-siar.gov.uk/foodsafety/food-hygiene-scheme.asp,-6.35787300000000,HS2 0AE,2013-11-21,fhis_exempt_en-GB,Exempt,,FHIS,
420388,Macaulay Road,Stornoway,Isle Of Lewis,,Joe Black Limited,Distributors/Transporters,7,,,296241,,,58.21988800000000,0898000000000,791,eh@cne-siar.gov.uk,Comhairle nan Eilean Siar (Western Isles),http://www.cne-siar.gov.uk/foodsafety/food-hygiene-scheme.asp,-6.38709700000000,HS1 2EU,2014-03-19,fhis_exempt_en-GB,Exempt,,FHIS,
420389,Butchers,20 Claypark Road,Garrabost,Point,John Campbell (Butchers),Manufacturers/packers,7839,,,468413,,,58.21439700000000,0366000200000,791,eh@cne-siar.gov.uk,Comhairle nan Eilean Siar (Western Isles),http://www.cne-siar.gov.uk/foodsafety/food-hygiene-scheme.asp,-6.24702500000000,HS2 0PJ,2014-07-11,fhis_pass_en-GB,Pass,,FHIS,
420390,Vehicle Reg  PX53 EOO,20 Claypark Road,Garrabost,Point,John Campbell (Butchers),Mobile caterer,7846,,,468414,,,58.21439700000000,036600020T001,791,eh@cne-siar.gov.uk,Comhairle nan Eilean Siar (Western Isles),http://www.cne-siar.gov.uk/foodsafety/food-hygiene-scheme.asp,-6.24702500000000,HS2 0PJ,2013-11-11,fhis_pass_en-GB,Pass,,FHIS,
420391,28 South Dell,Ness,Isle Of Lewis,,John Macfarlane,Retailers - other,4613,,,468526,,,58.46816600000000,1287000282000,791,eh@cne-siar.gov.uk,Comhairle nan Eilean Siar (Western Isles),http://www.cne-siar.gov.uk/foodsafety/food-hygiene-scheme.asp,-6.31284600000000,HS2 0SP,2014-05-19,fhis_pass_en-GB,Pass,,FHIS,
420392,31 Cromwell Street,Stornoway,Isle Of Lewis,,K J Macdonald,Retailers - other,4613,,,296218,,,58.20932200000000,0421000310000,791,eh@cne-siar.gov.uk,Comhairle nan Eilean Siar (Western Isles),http://www.cne-siar.gov.uk/foodsafety/food-hygiene-scheme.asp,-6.38836500000000,HS1 2DD,2010-09-28,fhis_exempt_en-GB,Exempt,,FHIS,
420393,Portacabin,The Nicolson Institute,4 Springfield Road,Stornoway,Kabin,Restaurant/Cafe/Canteen,1,,,716002,,,,MSCMHRRO01D00,791,eh@cne-siar.gov.uk,Comhairle nan Eilean Siar (Western Isles),http://www.cne-siar.gov.uk/foodsafety/food-hygiene-scheme.asp,,,2014-10-02,fhis_pass_en-GB,Pass,,FHIS,
420394,Grimsay Church,Scotvein,Grimsay,Isle Of North Uist,Kallin Canteen,Restaurant/Cafe/Canteen,1,,,733510,,,57.48577800000000,NI7R9ARO02A00,791,eh@cne-siar.gov.uk,Comhairle nan Eilean Siar (Western Isles),http://www.cne-siar.gov.uk/foodsafety/food-hygiene-scheme.asp,-7.23953900000000,HS6 5JA,2015-01-08,fhis_pass_en-GB,Pass,,FHIS,
420395,Kallin Shellfish,Kallin,Grimsay,Isle Of North Uist,Kallin Shellfish,Manufacturers/packers,7839,,,468458,,,57.48005100000000,0707020052001,791,eh@cne-siar.gov.uk,Comhairle nan Eilean Siar (Western Isles),http://www.cne-siar.gov.uk/foodsafety/food-hygiene-scheme.asp,-7.20998300000000,HS6 5HY,2014-05-15,fhis_pass_en-GB,Pass,,FHIS,
420396,34 Perceval Road South,Stornoway,Isle Of Lewis,,Kandy Kritters,Manufacturers/packers,7839,,,296299,,,58.21734800000000,LKKR1WRO01D00,791,eh@cne-siar.gov.uk,Comhairle nan Eilean Siar (Western Isles),http://www.cne-siar.gov.uk/foodsafety/food-hygiene-scheme.asp,-6.37647300000000,HS1 2TW,2013-05-23,fhis_exempt_en-GB,Exempt,,FHIS,
420397,16 Garrygall,Castlebay,Isle Of Barra,,Karen MacLean,Manufacturers/packers,7839,,,582481,,,56.95776300000000,MSLG72RO02A00,791,eh@cne-siar.gov.uk,Comhairle nan Eilean Siar (Western Isles),http://www.cne-siar.gov.uk/foodsafety/food-hygiene-scheme.asp,-7.46911400000000,HS9 5UH,2013-08-30,fhis_exempt_en-GB,Exempt,,FHIS,
420398,4 Rathad Na Muilne,Stornoway,Isle Of Lewis,,Karen Spruce,Manufacturers/packers,7839,,,682335,,,58.22179400000000,N3GV6ORO01D00,791,eh@cne-siar.gov.uk,Comhairle nan Eilean Siar (Western Isles),http://www.cne-siar.gov.uk/foodsafety/food-hygiene-scheme.asp,-6.39389500000000,HS1 2TZ,2014-04-01,fhis_exempt_en-GB,Exempt,,FHIS,
420399,6 Sand Street,Stornoway,Isle Of Lewis,,Karina's Cakes,Manufacturers/packers,7839,,,505875,,,58.21907000000000,MEV7CGRO01D00,791,eh@cne-siar.gov.uk,Comhairle nan Eilean Siar (Western Isles),http://www.cne-siar.gov.uk/foodsafety/food-hygiene-scheme.asp,-6.37397500000000,HS1 2UE,2014-09-02,fhis_pass_en-GB,Pass,,FHIS,
420400,Karingeidha,Daliburgh,Lochboisdale,Isle Of South Uist,Karingeidha B&B,Hotel/bed & breakfast/guest house,7842,,,582471,,,57.16606500000000,0441000022000,791,eh@cne-siar.gov.uk,Comhairle nan Eilean Siar (Western Isles),http://www.cne-siar.gov.uk/foodsafety/food-hygiene-scheme.asp,-7.37296700000000,HS8 5SS,2013-06-07,fhis_pass_en-GB,Pass,,FHIS,
420401,10 Luskentyre,Isle Of Harris,,,Kathleen MacLeod,Manufacturers/packers,7839,,,468555,,,57.88512000000000,IAMJIGROD1000,791,eh@cne-siar.gov.uk,Comhairle nan Eilean Siar (Western Isles),http://www.cne-siar.gov.uk/foodsafety/food-hygiene-scheme.asp,-6.94524900000000,HS3 3HL,2014-04-14,fhis_exempt_en-GB,Exempt,,FHIS,
420402,Kilbride Shellfish Limited,Saltabhaig Shellfish Store,Ludaig,East Kilbride,Kilbride Shellfish Ltd,Manufacturers/packers,7839,,,535814,,,57.10367900000000,KKCX36RO01400,791,eh@cne-siar.gov.uk,Comhairle nan Eilean Siar (Western Isles),http://www.cne-siar.gov.uk/foodsafety/food-hygiene-scheme.asp,-7.33457500000000,HS8 5TS,2012-11-14,fhis_exempt_en-GB,Exempt,,FHIS,
420403,3D Kyles Flodda,Balivanich,Isle Of Benbecula,,Kyles Flodda B&B,Hotel/bed & breakfast/guest house,7842,,,535816,,,57.47726400000000,M3PH14RO02A00,791,eh@cne-siar.gov.uk,Comhairle nan Eilean Siar (Western Isles),http://www.cne-siar.gov.uk/foodsafety/food-hygiene-scheme.asp,-7.28455600000000,HS7 5QR,2012-04-24,fhis_pass_en-GB,Pass,,FHIS,
420404,Langass Lodge,Langass,Isle Of North Uist,,Langass Lodge Deer Larder,Manufacturers/packers,7839,,,716026,,,57.56579600000000,NCERPARO02A00,791,eh@cne-siar.gov.uk,Comhairle nan Eilean Siar (Western Isles),http://www.cne-siar.gov.uk/foodsafety/food-hygiene-scheme.asp,-7.29264000000000,HS6 5HA,2014-09-17,fhis_exempt_en-GB,Exempt,,FHIS,
420405,Langass Lodge,Langass,Isle Of North Uist,,Langass Lodge Ltd,Hotel/bed & breakfast/guest house,7842,,,468489,,,57.56579600000000,0856020032000,791,eh@cne-siar.gov.uk,Comhairle nan Eilean Siar (Western Isles),http://www.cne-siar.gov.uk/foodsafety/food-hygiene-scheme.asp,-7.29264000000000,HS6 5HA,2013-10-10,fhis_pass_en-GB,Pass,,FHIS,
420406,Langracleit,Kendibig,Isle Of Harris,,Langracleit,Hotel/bed & breakfast/guest house,7842,,,468408,,,57.88428200000000,0308020002000,791,eh@cne-siar.gov.uk,Comhairle nan Eilean Siar (Western Isles),http://www.cne-siar.gov.uk/foodsafety/food-hygiene-scheme.asp,-6.81307300000000,HS3 3HQ,2010-05-12,fhis_pass_en-GB,Pass,,FHIS,
420407,Lawrence's,Unit 3,Lochboisdale Pier Development,Lochboisdale,Lawrence's,Retailers - other,4613,,,468486,,,57.15294600000000,0850020382000,791,eh@cne-siar.gov.uk,Comhairle nan Eilean Siar (Western Isles),http://www.cne-siar.gov.uk/foodsafety/food-hygiene-scheme.asp,-7.30649800000000,HS8 5TP,2014-06-11,fhis_pass_en-GB,Pass,,FHIS,
420408,Laxdale School,Laxdale,Isle Of Lewis,,Laxdale School,School/college/university,7845,,,468466,,,58.23151300000000,0802000000001,791,eh@cne-siar.gov.uk,Comhairle nan Eilean Siar (Western Isles),http://www.cne-siar.gov.uk/foodsafety/food-hygiene-scheme.asp,-6.38978000000000,HS2 0DY,2014-11-04,fhis_pass_en-GB,Pass,,FHIS,
420409,Leumadair Guest House,7A Callanish,Isle Of Lewis,,Leumadair Guesthouse,Hotel/bed & breakfast/guest house,7842,,,468570,,,58.19941700000000,JN9W6SRO01D00,791,eh@cne-siar.gov.uk,Comhairle nan Eilean Siar (Western Isles),http://www.cne-siar.gov.uk/foodsafety/food-hygiene-scheme.asp,-6.73682400000000,HS2 9DY,2013-05-07,fhis_pass_en-GB,Pass,,FHIS,
420410,Leverhulme Memorial School,Leverburgh,Isle Of Harris,,Leverhulme Memorial School,School/college/university,7845,,,468467,,,57.77140200000000,0820000000008,791,eh@cne-siar.gov.uk,Comhairle nan Eilean Siar (Western Isles),http://www.cne-siar.gov.uk/foodsafety/food-hygiene-scheme.asp,-7.01470800000000,HS5 3TS,2014-10-07,fhis_pass_en-GB,Pass,,FHIS,
420411,19 Inaclete Road,Stornoway,Isle Of Lewis,,Lewis & Harris Rangers Sports & Social Club,Pub/bar/nightclub,7843,,,296228,,,58.20656500000000,0683000190000,791,eh@cne-siar.gov.uk,Comhairle nan Eilean Siar (Western Isles),http://www.cne-siar.gov.uk/foodsafety/food-hygiene-scheme.asp,-6.38066400000000,HS1 2RB,2010-10-29,fhis_pass_en-GB,Pass,,FHIS,
420412,Civic Area,Perceval Square,Cromwell Street,Stornoway,Lewis And Harris Horticultural Producers Group,Mobile caterer,7846,,,468663,,,,M6ZTQLRO01D00,791,eh@cne-siar.gov.uk,Comhairle nan Eilean Siar (Western Isles),http://www.cne-siar.gov.uk/foodsafety/food-hygiene-scheme.asp,,,2012-07-28,fhis_pass_en-GB,Pass,,FHIS,
420413,North Beach,Stornoway,Isle Of Lewis,,Lewis Bar,Pub/bar/nightclub,7843,,,296254,,,58.20831600000000,1032009102001,791,eh@cne-siar.gov.uk,Comhairle nan Eilean Siar (Western Isles),http://www.cne-siar.gov.uk/foodsafety/food-hygiene-scheme.asp,-6.39118800000000,HS1 2XP,2014-06-20,fhis_pass_en-GB,Pass,,FHIS,
420414,Dohkema,Tong,Isle Of Lewis,,Lewis Caterers,Other catering premises,7841,,,468543,,,58.24386900000000,1392020122000,791,eh@cne-siar.gov.uk,Comhairle nan Eilean Siar (Western Isles),http://www.cne-siar.gov.uk/foodsafety/food-hygiene-scheme.asp,-6.34411700000000,HS2 0HS,2013-09-25,fhis_pass_en-GB,Pass,,FHIS,
420415,Island Road,Stornoway,Isle Of Lewis,,Lewis Crofters Ltd,Retailers - other,4613,,,296232,,,58.20724400000000,0696020002000,791,eh@cne-siar.gov.uk,Comhairle nan Eilean Siar (Western Isles),http://www.cne-siar.gov.uk/foodsafety/food-hygiene-scheme.asp,-6.37791900000000,HS1 2RD,2012-01-31,fhis_exempt_en-GB,Exempt,,FHIS,
420416,Lewis Car Club,Kart Track,Creed Enterprise Park,Lochs Road,Lewis Karting Centre,Retailers - other,4613,,,468495,,,58.19356200000000,0871020082000,791,eh@cne-siar.gov.uk,Comhairle nan Eilean Siar (Western Isles),http://www.cne-siar.gov.uk/foodsafety/food-hygiene-scheme.asp,-6.42954200000000,HS2 9JB,2011-09-07,fhis_exempt_en-GB,Exempt,,FHIS,
420417,15A New Garrabost,Point,Isle Of Lewis,,Lewis Larder,Other catering premises,7841,,,296301,,,58.21621500000000,LRTJ9ARO01D00,791,eh@cne-siar.gov.uk,Comhairle nan Eilean Siar (Western Isles),http://www.cne-siar.gov.uk/foodsafety/food-hygiene-scheme.asp,-6.24267600000000,HS2 0PR,2014-11-13,fhis_pass_en-GB,Pass,,FHIS,
420418,Mussel Farm,Marine Site,Creag An Rainich Loch Leurbost,Crossbost,Lewis Mussels,Manufacturers/packers,7839,,,468557,,,,IHB2LYRO41000,791,eh@cne-siar.gov.uk,Comhairle nan Eilean Siar (Western Isles),http://www.cne-siar.gov.uk/foodsafety/food-hygiene-scheme.asp,,,2014-02-11,fhis_exempt_en-GB,Exempt,,FHIS,
420419,Stornoway Old Peoples Association,Community Centre,Bayhead Embankment,Bayhead,Lewis Retirement Centre,Restaurant/Cafe/Canteen,1,,,716005,,,58.21226000000000,N0EZIORO01D00,791,eh@cne-siar.gov.uk,Comhairle nan Eilean Siar (Western Isles),http://www.cne-siar.gov.uk/foodsafety/food-hygiene-scheme.asp,-6.38767100000000,HS1 2DU,2014-07-03,fhis_improvement_required_en-GB,Improvement Required,,FHIS,
420420,Cothrom Limited,Training Centre,Ormiclate,Isle Of South Uist,Lifeskills Cafe,Restaurant/Cafe/Canteen,1,,,468636,,,57.25836700000000,LYZ9WPRO02A00,791,eh@cne-siar.gov.uk,Comhairle nan Eilean Siar (Western Isles),http://www.cne-siar.gov.uk/foodsafety/food-hygiene-scheme.asp,-7.39276200000000,HS8 5SB,2012-02-22,fhis_exempt_en-GB,Exempt,,FHIS,
420421,10A Aignish,Point,Isle Of Lewis,,Limelite Catering Chefs,Other catering premises,7841,,,682326,,,58.20812200000000,MXLOVXRO01D00,791,eh@cne-siar.gov.uk,Comhairle nan Eilean Siar (Western Isles),http://www.cne-siar.gov.uk/foodsafety/food-hygiene-scheme.asp,-6.27655000000000,HS2 0PB,2013-12-03,fhis_pass_en-GB,Pass,,FHIS,
420422,Lionacleit School,Liniclate,Creagorry,Isle Of Benbecula,Lionacleit School,School/college/university,7845,,,468481,,,57.42558100000000,0836020062000,791,eh@cne-siar.gov.uk,Comhairle nan Eilean Siar (Western Isles),http://www.cne-siar.gov.uk/foodsafety/food-hygiene-scheme.asp,-7.35857700000000,HS7 5PJ,2014-09-09,fhis_pass_en-GB,Pass,,FHIS,
420423,School,Lionel,Ness,Isle Of Lewis,Lionel School,School/college/university,7845,,,468482,,,58.48923800000000,0843000000001,791,eh@cne-siar.gov.uk,Comhairle nan Eilean Siar (Western Isles),http://www.cne-siar.gov.uk/foodsafety/food-hygiene-scheme.asp,-6.24249700000000,HS2 0XB,2014-11-17,fhis_pass_en-GB,Pass,,FHIS,
420424,Sea View,Lochboisdale,Isle Of South Uist,,Lite Bite,Mobile caterer,7846,,,468485,,,57.15480100000000,0850020072000,791,eh@cne-siar.gov.uk,Comhairle nan Eilean Siar (Western Isles),http://www.cne-siar.gov.uk/foodsafety/food-hygiene-scheme.asp,-7.31304000000000,HS8 5TH,2012-09-20,fhis_pass_en-GB,Pass,,FHIS,
420425,Little Lochies,Playgroup,Sgoil Nan Loch,Cameron Terrace,Little Lochies Playgroup,Hospitals/Childcare/Caring Premises,5,,,468391,,,58.15658800000000,0265000002002,791,eh@cne-siar.gov.uk,Comhairle nan Eilean Siar (Western Isles),http://www.cne-siar.gov.uk/foodsafety/food-hygiene-scheme.asp,-6.49731700000000,HS2 9PE,2010-10-26,fhis_pass_en-GB,Pass,,FHIS,
420426,19 Fivepenny,Ness,Isle Of Lewis,,Loch Beag Bed And Breakfast,Hotel/bed & breakfast/guest house,7842,,,468582,,,58.50071000000000,KJY4PWRO01D00,791,eh@cne-siar.gov.uk,Comhairle nan Eilean Siar (Western Isles),http://www.cne-siar.gov.uk/foodsafety/food-hygiene-scheme.asp,-6.25233500000000,HS2 0XG,2012-03-01,fhis_pass_en-GB,Pass,,FHIS,
420427,Loch Croistean,Uig,Isle Of Lewis,,Loch Croistean Guest Centre,Restaurant/Cafe/Canteen,1,,,468575,,,58.16779900000000,K98KIYRO01D00,791,eh@cne-siar.gov.uk,Comhairle nan Eilean Siar (Western Isles),http://www.cne-siar.gov.uk/foodsafety/food-hygiene-scheme.asp,-6.91226200000000,HS2 9EP,2013-12-10,fhis_pass_en-GB,Pass,,FHIS,
420428,Loch Duart Artisan Smokehouse,The Pier,Lochcarnan,Isle Of South Uist,Loch Duart Artisan Smokehouse,Manufacturers/packers,7839,,,468488,,,57.37001900000000,0852020012003,791,eh@cne-siar.gov.uk,Comhairle nan Eilean Siar (Western Isles),http://www.cne-siar.gov.uk/foodsafety/food-hygiene-scheme.asp,-7.28877100000000,HS8 5PD,2014-11-13,fhis_exempt_en-GB,Exempt,,FHIS,
420429,Shieldinish,Lochs,Isle Of Lewis,,Loch Erisort Inn,Hotel/bed & breakfast/guest house,7842,,,468523,,,58.08156100000000,1257000000000,791,eh@cne-siar.gov.uk,Comhairle nan Eilean Siar (Western Isles),http://www.cne-siar.gov.uk/foodsafety/food-hygiene-scheme.asp,-6.61552600000000,HS2 9RA,2014-04-11,fhis_pass_en-GB,Pass,,FHIS,
420430,22A Breasclete,Isle Of Lewis,,,Loch Roag Guest House,Hotel/bed & breakfast/guest house,7842,,,682321,,,58.22083300000000,ML18S4RO01D00,791,eh@cne-siar.gov.uk,Comhairle nan Eilean Siar (Western Isles),http://www.cne-siar.gov.uk/foodsafety/food-hygiene-scheme.asp,-6.74776300000000,HS2 9EF,2014-04-24,fhis_pass_en-GB,Pass,,FHIS,
420431,2 Bowglass,Isle Of Harris,,,Loch Seaforth House B&B,Hotel/bed & breakfast/guest house,7842,,,468659,,,58.00661800000000,M6C0D5RO01D00,791,eh@cne-siar.gov.uk,Comhairle nan Eilean Siar (Western Isles),http://www.cne-siar.gov.uk/foodsafety/food-hygiene-scheme.asp,-6.75353400000000,HS3 3AD,2012-08-08,fhis_pass_en-GB,Pass,,FHIS,
420432,Lochboisdale Hotel,Lochboisdale,Isle Of South Uist,,Lochboisdale Hotel,Hotel/bed & breakfast/guest house,7842,,,468484,,,57.15480100000000,0850020012000,791,eh@cne-siar.gov.uk,Comhairle nan Eilean Siar (Western Isles),http://www.cne-siar.gov.uk/foodsafety/food-hygiene-scheme.asp,-7.31304000000000,HS8 5TH,2014-05-01,fhis_pass_en-GB,Pass,,FHIS,
420433,Lochmaddy Hotel,Lochmaddy,Isle Of North Uist,,Lochmaddy Hotel,Hotel/bed & breakfast/guest house,7842,,,468493,,,57.60124700000000,0862020022000,791,eh@cne-siar.gov.uk,Comhairle nan Eilean Siar (Western Isles),http://www.cne-siar.gov.uk/foodsafety/food-hygiene-scheme.asp,-7.16387900000000,HS6 5AA,2014-09-29,fhis_pass_en-GB,Pass,,FHIS,
420434,School,Lochmaddy,Isle Of North Uist,,Lochmaddy School,School/college/university,7845,,,468492,,,57.60124700000000,0862000000015,791,eh@cne-siar.gov.uk,Comhairle nan Eilean Siar (Western Isles),http://www.cne-siar.gov.uk/foodsafety/food-hygiene-scheme.asp,-7.16387900000000,HS6 5AA,2013-12-03,fhis_pass_en-GB,Pass,,FHIS,
420435,Lochs Community School,Cameron Terrace,Leurbost,Lochs,Lochs Area School,School/college/university,7845,,,468390,,,58.15658800000000,0265000002001,791,eh@cne-siar.gov.uk,Comhairle nan Eilean Siar (Western Isles),http://www.cne-siar.gov.uk/foodsafety/food-hygiene-scheme.asp,-6.49731700000000,HS2 9PE,2013-11-21,fhis_pass_en-GB,Pass,,FHIS,
420436,Lochs Services Limited,Filling Station,Cameron Terrace,Leurbost,Lochs Services Ltd,Retailers - other,4613,,,468389,,,58.15658800000000,0265000000000,791,eh@cne-siar.gov.uk,Comhairle nan Eilean Siar (Western Isles),http://www.cne-siar.gov.uk/foodsafety/food-hygiene-scheme.asp,-6.49731700000000,HS2 9PE,2013-06-05,fhis_pass_en-GB,Pass,,FHIS,
420437,Lovats Shop,1 Winfield Way,Balivanich,Isle Of Benbecula,Lovats,Retailers - other,4613,,,468367,,,57.47308000000000,0116000002010,791,eh@cne-siar.gov.uk,Comhairle nan Eilean Siar (Western Isles),http://www.cne-siar.gov.uk/foodsafety/food-hygiene-scheme.asp,-7.38846600000000,HS7 5LH,2014-06-25,fhis_pass_en-GB,Pass,,FHIS,
420438,Lovats Shop,Carnan,Eochar,Isle Of South Uist,Lovats Store,Retailers - other,4613,,,468399,,,57.39690700000000,0287020062000,791,eh@cne-siar.gov.uk,Comhairle nan Eilean Siar (Western Isles),http://www.cne-siar.gov.uk/foodsafety/food-hygiene-scheme.asp,-7.33114200000000,HS8 5RH,2013-10-30,fhis_pass_en-GB,Pass,,FHIS,
420439,Low Flyer,Balivanich,Benbecula,Isle Of South Uist,Low Flyer,Pub/bar/nightclub,7843,,,468372,,,57.47132500000000,0116020132002,791,eh@cne-siar.gov.uk,Comhairle nan Eilean Siar (Western Isles),http://www.cne-siar.gov.uk/foodsafety/food-hygiene-scheme.asp,-7.37163700000000,HS7 5LA,2014-08-21,fhis_pass_en-GB,Pass,,FHIS,
420440,6 Braighe Road,Branahuie,Isle Of Lewis,,Macaulay Farm Free Range Eggs,Manufacturers/packers,7839,,,468596,,,58.20493800000000,L2CUZNRO01D00,791,eh@cne-siar.gov.uk,Comhairle nan Eilean Siar (Western Isles),http://www.cne-siar.gov.uk/foodsafety/food-hygiene-scheme.asp,-6.31233400000000,HS2 0BQ,2011-09-16,fhis_exempt_en-GB,Exempt,,FHIS,
420441,Shop And Post Office,Scalpay,Isle Of Harris,,Macdonald Stores & PO,Retailers - other,4613,,,468517,,,57.87176600000000,1213020562000,791,eh@cne-siar.gov.uk,Comhairle nan Eilean Siar (Western Isles),http://www.cne-siar.gov.uk/foodsafety/food-hygiene-scheme.asp,-6.69837000000000,HS4 3XU,2011-12-09,fhis_exempt_en-GB,Exempt,,FHIS,
420442,Ard Gharbh,12 Uachdar,Balivanich,Isle Of Benbecula,Machair LIFE+ Goosemeat Dinners Project,Manufacturers/packers,7839,,,626094,,,57.47464700000000,MZ4WHLRO02A00,791,eh@cne-siar.gov.uk,Comhairle nan Eilean Siar (Western Isles),http://www.cne-siar.gov.uk/foodsafety/food-hygiene-scheme.asp,-7.33970200000000,HS7 5LY,2013-12-12,fhis_exempt_en-GB,Exempt,,FHIS,
420443,41 Point Street,Stornoway,Isle Of Lewis,,Mackinnon's Bakery,Takeaway/sandwich shop,7844,,,296260,,,58.20816000000000,1119000412000,791,eh@cne-siar.gov.uk,Comhairle nan Eilean Siar (Western Isles),http://www.cne-siar.gov.uk/foodsafety/food-hygiene-scheme.asp,-6.38920900000000,HS1 2XF,2013-12-02,fhis_pass_en-GB,Pass,,FHIS,
420444,Plasterfield,Stornoway,Isle Of Lewis,,Mackinnon's Bakery,Manufacturers/packers,7839,,,296257,,,58.21258544921875,1117000000000,791,eh@cne-siar.gov.uk,Comhairle nan Eilean Siar (Western Isles),http://www.cne-siar.gov.uk/foodsafety/food-hygiene-scheme.asp,-6.35826539993286,HS1 2UR,2014-11-06,fhis_improvement_required_en-GB,Improvement Required,,FHIS,
420445,35 Cromwell Street,Stornoway,Isle Of Lewis,,Maclean Mair Nicolson & Co,Retailers - other,4613,,,296219,,,58.20932200000000,0421000350000,791,eh@cne-siar.gov.uk,Comhairle nan Eilean Siar (Western Isles),http://www.cne-siar.gov.uk/foodsafety/food-hygiene-scheme.asp,-6.38836500000000,HS1 2DD,2010-10-13,fhis_exempt_en-GB,Exempt,,FHIS,
420446,Uachdar,Balivanich,Isle Of Benbecula,,Maclean's Bakery,Manufacturers/packers,7839,,,468545,,,57.47464700000000,1411000092001,791,eh@cne-siar.gov.uk,Comhairle nan Eilean Siar (Western Isles),http://www.cne-siar.gov.uk/foodsafety/food-hygiene-scheme.asp,-7.33970200000000,HS7 5LY,2014-10-15,fhis_pass_en-GB,Pass,,FHIS,
420447,MacLeans Cottage Bakery,41 Winfield Way,Balivanich,Isle Of Benbecula,MacLeans Cottage Bakery,Takeaway/sandwich shop,7844,,,468622,,,57.47308000000000,LN56OERO02A00,791,eh@cne-siar.gov.uk,Comhairle nan Eilean Siar (Western Isles),http://www.cne-siar.gov.uk/foodsafety/food-hygiene-scheme.asp,-7.38846600000000,HS7 5LH,2014-09-10,fhis_pass_en-GB,Pass,,FHIS,
420448,Maclennans Supermarket Ltd,2 Balivanich,Isle Of Benbecula,,MacLennan's Supermarket,Retailers - other,4613,,,468365,,,57.47132500000000,0116000002004,791,eh@cne-siar.gov.uk,Comhairle nan Eilean Siar (Western Isles),http://www.cne-siar.gov.uk/foodsafety/food-hygiene-scheme.asp,-7.37163700000000,HS7 5LA,2014-10-20,fhis_pass_en-GB,Pass,,FHIS,
420449,17 Church Street,Stornoway,Isle Of Lewis,,Macleod & Macleod,Manufacturers/packers,7839,,,296209,,,58.20990700000000,0338000170000,791,eh@cne-siar.gov.uk,Comhairle nan Eilean Siar (Western Isles),http://www.cne-siar.gov.uk/foodsafety/food-hygiene-scheme.asp,-6.38807900000000,HS1 2DH,2013-05-30,fhis_pass_en-GB,Pass,,FHIS,
420450,38 Springfield Road,Stornoway,Isle Of Lewis,,Maggie's B&B,Hotel/bed & breakfast/guest house,7842,,,296303,,,58.21362000000000,LVKMSMRO01D00,791,eh@cne-siar.gov.uk,Comhairle nan Eilean Siar (Western Isles),http://www.cne-siar.gov.uk/foodsafety/food-hygiene-scheme.asp,-6.37110500000000,HS1 2PP,2012-01-31,fhis_pass_en-GB,Pass,,FHIS,
420451,8 Brue,Isle Of Lewis,,,Mairi Paterson Ward,Manufacturers/packers,7839,,,626092,,,58.35570400000000,MXNNFKRO01D00,791,eh@cne-siar.gov.uk,Comhairle nan Eilean Siar (Western Isles),http://www.cne-siar.gov.uk/foodsafety/food-hygiene-scheme.asp,-6.55313300000000,HS2 0QW,2013-09-25,fhis_exempt_en-GB,Exempt,,FHIS,
420452,Filling Station & Shop,64 - 68 Bayhead,Stornoway,Isle Of Lewis,Manor Filling Station,Retailers - other,4613,,,296283,,,58.21442100000000,J70OXGROD1000,791,eh@cne-siar.gov.uk,Comhairle nan Eilean Siar (Western Isles),http://www.cne-siar.gov.uk/foodsafety/food-hygiene-scheme.asp,-6.38575700000000,HS1 2DZ,2013-06-26,fhis_pass_en-GB,Pass,,FHIS,
420453,52 Macaulay Road,Stornoway,Isle Of Lewis,,Manor House,Hotel/bed & breakfast/guest house,7842,,,626196,,,58.22125600000000,0898000520000,791,eh@cne-siar.gov.uk,Comhairle nan Eilean Siar (Western Isles),http://www.cne-siar.gov.uk/foodsafety/food-hygiene-scheme.asp,-6.38680600000000,HS1 2TT,2001-07-17,fhis_exempt_en-GB,Exempt,,FHIS,
420454,Lodge Fortrose Masonic Hall,57 Kenneth Street,Stornoway,Isle Of Lewis,Masonic Hall,Pub/bar/nightclub,7843,,,296239,,,58.21066600000000,0718000570000,791,eh@cne-siar.gov.uk,Comhairle nan Eilean Siar (Western Isles),http://www.cne-siar.gov.uk/foodsafety/food-hygiene-scheme.asp,-6.38796900000000,HS1 2DS,,fhis_awaiting_inspection_en-GB,Awaiting Inspection,,FHIS,
420455,13 Cromwell Street,Stornoway,Isle Of Lewis,,Mc'Neils,Pub/bar/nightclub,7843,,,296212,,,58.20872100000000,0421000000000,791,eh@cne-siar.gov.uk,Comhairle nan Eilean Siar (Western Isles),http://www.cne-siar.gov.uk/foodsafety/food-hygiene-scheme.asp,-6.38805200000000,HS1 2DA,,fhis_awaiting_inspection_en-GB,Awaiting Inspection,,FHIS,
420456,12 Battery Road,Stornoway,Isle Of Lewis,,Mikes Munchies - M4 VTD,Mobile caterer,7846,,,296302,,,58.20512800000000,LVKGPYRO01D00,791,eh@cne-siar.gov.uk,Comhairle nan Eilean Siar (Western Isles),http://www.cne-siar.gov.uk/foodsafety/food-hygiene-scheme.asp,-6.37484700000000,HS1 2RP,2014-11-11,fhis_pass_en-GB,Pass,,FHIS,
420457,Sample Site,Creag An Rainich,Loch Leurbost,Crossbost,MJ Macdonald,Manufacturers/packers,7839,,,468568,,,,JLQDE2RO41000,791,eh@cne-siar.gov.uk,Comhairle nan Eilean Siar (Western Isles),http://www.cne-siar.gov.uk/foodsafety/food-hygiene-scheme.asp,,,2014-02-11,fhis_pass_en-GB,Pass,,FHIS,
420458,Dusary Shop,4 Claddach Kyles,Isle Of North Uist,,Mobile Shop Reg No. N790 BDT,Retailers - other,4613,,,468554,,,57.57483800000000,I9W771RO61000,791,eh@cne-siar.gov.uk,Comhairle nan Eilean Siar (Western Isles),http://www.cne-siar.gov.uk/foodsafety/food-hygiene-scheme.asp,-7.40270200000000,HS6 5EW,2014-06-19,fhis_pass_en-GB,Pass,,FHIS,
420459,Morrison Shellfish Ltd,The Pier Sponish,Lochmaddy,Isle Of North Uist,Morrison Shellfish Ltd,Manufacturers/packers,7839,,,716029,,,57.61033700000000,NE9IIRRO02A00,791,eh@cne-siar.gov.uk,Comhairle nan Eilean Siar (Western Isles),http://www.cne-siar.gov.uk/foodsafety/food-hygiene-scheme.asp,-7.15744300000000,HS6 5AF,2014-10-22,fhis_exempt_en-GB,Exempt,,FHIS,
420460,Morven Gallery,Barvas,Isle Of Lewis,,Morven Gallery,Restaurant/Cafe/Canteen,1,,,468378,,,58.36645900000000,0136020112001,791,eh@cne-siar.gov.uk,Comhairle nan Eilean Siar (Western Isles),http://www.cne-siar.gov.uk/foodsafety/food-hygiene-scheme.asp,-6.50753600000000,HS2 0QX,2014-09-30,fhis_pass_en-GB,Pass,,FHIS,
420461,68A Tangasdale,Isle Of Barra,,,Ms Marion MacNeil,Retailers - other,4613,,,505859,,,56.96959300000000,LS8ARRRO02A00,791,eh@cne-siar.gov.uk,Comhairle nan Eilean Siar (Western Isles),http://www.cne-siar.gov.uk/foodsafety/food-hygiene-scheme.asp,-7.51603700000000,HS9 5XW,2011-11-01,fhis_exempt_en-GB,Exempt,,FHIS,
420462,Ferry Terminal,Pier Road,Tarbert,Isle Of Harris,MV Hebrides,Restaurant/Cafe/Canteen,1,,,468510,,,57.89778100000000,1111000001006,791,eh@cne-siar.gov.uk,Comhairle nan Eilean Siar (Western Isles),http://www.cne-siar.gov.uk/foodsafety/food-hygiene-scheme.asp,-6.79867900000000,HS3 3DG,2014-08-25,fhis_pass_en-GB,Pass,,FHIS,
420463,Caledonian Macbrayne Limited,Shell Street,Stornoway,Isle Of Lewis,MV Isle Of Lewis,Restaurant/Cafe/Canteen,1,,,296231,,,58.20682800000000,0688020012003,791,eh@cne-siar.gov.uk,Comhairle nan Eilean Siar (Western Isles),http://www.cne-siar.gov.uk/foodsafety/food-hygiene-scheme.asp,-6.38660800000000,HS1 2AE,2014-03-25,fhis_pass_en-GB,Pass,,FHIS,
420464,1 Village Street,St Kilda,Isle Of Harris,,National Trust For Scotland,Restaurant/Cafe/Canteen,1,,,468571,,,,JYL4IJRO02A00,791,eh@cne-siar.gov.uk,Comhairle nan Eilean Siar (Western Isles),http://www.cne-siar.gov.uk/foodsafety/food-hygiene-scheme.asp,,,2014-02-24,fhis_pass_en-GB,Pass,,FHIS,
420465,Ness F.C. Social Club,Machair,Fivepenny,Ness,Ness F C Social Club,Pub/bar/nightclub,7843,,,468498,,,58.48923800000000,0903000000000,791,eh@cne-siar.gov.uk,Comhairle nan Eilean Siar (Western Isles),http://www.cne-siar.gov.uk/foodsafety/food-hygiene-scheme.asp,-6.24249700000000,HS2 0XB,2012-11-02,fhis_pass_en-GB,Pass,,FHIS,
420466,12 Cromwell Street,Stornoway,Isle Of Lewis,,New Golden Ocean,Restaurant/Cafe/Canteen,1,,,296216,,,58.20872100000000,0421000120000,791,eh@cne-siar.gov.uk,Comhairle nan Eilean Siar (Western Isles),http://www.cne-siar.gov.uk/foodsafety/food-hygiene-scheme.asp,-6.38805200000000,HS1 2DA,2013-11-28,fhis_pass_en-GB,Pass,,FHIS,
420467,28 South Beach,Stornoway,Isle Of Lewis,,New Island Star,Takeaway/sandwich shop,7844,,,296272,,,58.20810600000000,1281000280000,791,eh@cne-siar.gov.uk,Comhairle nan Eilean Siar (Western Isles),http://www.cne-siar.gov.uk/foodsafety/food-hygiene-scheme.asp,-6.38606800000000,HS1 2BN,2013-06-03,fhis_pass_en-GB,Pass,,FHIS,
420468,5 Macgregor Park,Newvalley,Isle Of Lewis,,Nice And Chilled,Mobile caterer,7846,,,716007,,,58.21996900000000,N6R9P9RO01D00,791,eh@cne-siar.gov.uk,Comhairle nan Eilean Siar (Western Isles),http://www.cne-siar.gov.uk/foodsafety/food-hygiene-scheme.asp,-6.41235000000000,HS2 0EH,2014-07-11,fhis_pass_en-GB,Pass,,FHIS,
420469,24 Crossbost,Lochs,Isle Of Lewis,,Norman Mackinnon,Manufacturers/packers,7839,,,682338,,,58.13324800000000,N5GU4MRO01D00,791,eh@cne-siar.gov.uk,Comhairle nan Eilean Siar (Western Isles),http://www.cne-siar.gov.uk/foodsafety/food-hygiene-scheme.asp,-6.42911100000000,HS2 9NP,2014-03-13,fhis_exempt_en-GB,Exempt,,FHIS,
420470,Officers Quarters RA Range,Balivanich,Benbecula,Isle Of South Uist,Officers Mess (Congreve House),Pub/bar/nightclub,7843,,,468370,,,57.47132500000000,0116020092003,791,eh@cne-siar.gov.uk,Comhairle nan Eilean Siar (Western Isles),http://www.cne-siar.gov.uk/foodsafety/food-hygiene-scheme.asp,-7.37163700000000,HS7 5LA,2014-03-24,fhis_pass_and_eat_safe_en-GB,Pass and Eat Safe,,FHIS,
420471,5B Balla,Eriskay,Isle Of South Uist,,Oir Na Mara B&B,Hotel/bed & breakfast/guest house,7842,,,468610,,,57.08231700000000,LI3IXKRO02A00,791,eh@cne-siar.gov.uk,Comhairle nan Eilean Siar (Western Isles),http://www.cne-siar.gov.uk/foodsafety/food-hygiene-scheme.asp,-7.30831200000000,HS8 5JL,2014-04-04,fhis_pass_en-GB,Pass,,FHIS,
420472,Oiteag Na Mara,Bruernish,Northbay,Isle Of Barra,Oiteag Na Mara B&B,Hotel/bed & breakfast/guest house,7842,,,716020,,,56.99398700000000,NB7VZZRO02A00,791,eh@cne-siar.gov.uk,Comhairle nan Eilean Siar (Western Isles),http://www.cne-siar.gov.uk/foodsafety/food-hygiene-scheme.asp,-7.40279900000000,HS9 5UY,2014-08-26,fhis_pass_en-GB,Pass,,FHIS,
420473,Orasay Inn,1 Lochcarnan,Isle Of South Uist,,Orasay Inn,Hotel/bed & breakfast/guest house,7842,,,468487,,,57.37001900000000,0852000012000,791,eh@cne-siar.gov.uk,Comhairle nan Eilean Siar (Western Isles),http://www.cne-siar.gov.uk/foodsafety/food-hygiene-scheme.asp,-7.28877100000000,HS8 5PD,2014-06-05,fhis_pass_en-GB,Pass,,FHIS,
420474,Ospadal Uibhist Agus Bharraigh,Balivanich,Benbecula,Isle Of South Uist,Ospadal Uibhist Agus Bharraigh,Hospitals/Childcare/Caring Premises,5,,,468366,,,57.47132500000000,0116000002009,791,eh@cne-siar.gov.uk,Comhairle nan Eilean Siar (Western Isles),http://www.cne-siar.gov.uk/foodsafety/food-hygiene-scheme.asp,-7.37163700000000,HS7 5LA,2014-03-25,fhis_improvement_required_en-GB,Improvement Required,,FHIS,
420475,Paible School,Bayhead,Isle Of North Uist,,Paible School,School/college/university,7845,,,468380,,,57.58392400000000,0150020102000,791,eh@cne-siar.gov.uk,Comhairle nan Eilean Siar (Western Isles),http://www.cne-siar.gov.uk/foodsafety/food-hygiene-scheme.asp,-7.44250700000000,HS6 5DX,2014-01-09,fhis_pass_en-GB,Pass,,FHIS,
420476,Scotia Ceramics Limited,Coll Pottery,22A Coll,Isle Of Lewis,Paint A Pot,Restaurant/Cafe/Canteen,1,,,582476,,,58.27442200000000,MR9ORPRO01D00,791,eh@cne-siar.gov.uk,Comhairle nan Eilean Siar (Western Isles),http://www.cne-siar.gov.uk/foodsafety/food-hygiene-scheme.asp,-6.30846600000000,HS2 0JP,2014-07-01,fhis_pass_en-GB,Pass,,FHIS,
420477,Pairc An T-srath,Borve,Isle Of Harris,,Pairc An T-Srath,Hotel/bed & breakfast/guest house,7842,,,468590,,,57.84283500000000,L21RRARO01D00,791,eh@cne-siar.gov.uk,Comhairle nan Eilean Siar (Western Isles),http://www.cne-siar.gov.uk/foodsafety/food-hygiene-scheme.asp,-7.00160900000000,HS3 3HT,2014-04-16,fhis_pass_en-GB,Pass,,FHIS,
420478,Pairc Primary,Gravir,Lochs,Isle Of Lewis,Pairc Primary School,School/college/university,7845,,,468451,,,58.04878200000000,0604020112000,791,eh@cne-siar.gov.uk,Comhairle nan Eilean Siar (Western Isles),http://www.cne-siar.gov.uk/foodsafety/food-hygiene-scheme.asp,-6.42933800000000,HS2 9QX,2013-12-11,fhis_pass_en-GB,Pass,,FHIS,
420479,30 James St,Stornoway,Isle Of Lewis,,Park Guest House,Restaurant/Cafe/Canteen,1,,,296234,,,58.20818600000000,0703000302000,791,eh@cne-siar.gov.uk,Comhairle nan Eilean Siar (Western Isles),http://www.cne-siar.gov.uk/foodsafety/food-hygiene-scheme.asp,-6.38321500000000,HS1 2QN,2014-11-10,fhis_pass_en-GB,Pass,,FHIS,
420480,Parkview Stores,East Tarbert,Isle Of Harris,,Parkview Stores,Retailers - other,4613,,,468433,,,57.89823000000000,0498000000002,791,eh@cne-siar.gov.uk,Comhairle nan Eilean Siar (Western Isles),http://www.cne-siar.gov.uk/foodsafety/food-hygiene-scheme.asp,-6.80250700000000,HS3 3DJ,2013-08-15,fhis_pass_en-GB,Pass,,FHIS,
420481,39 Keith Street,Stornoway,Isle Of Lewis,,Peggy's Pantry,Restaurant/Cafe/Canteen,1,,,682322,,,58.20965000000000,MSCP2PRO01D00,791,eh@cne-siar.gov.uk,Comhairle nan Eilean Siar (Western Isles),http://www.cne-siar.gov.uk/foodsafety/food-hygiene-scheme.asp,-6.38535500000000,HS1 2JA,2014-05-02,fhis_pass_en-GB,Pass,,FHIS,
420482,Peking Cuisine,30 Church Street,Stornoway,Isle Of Lewis,Peking Cuisine,Takeaway/sandwich shop,7844,,,642669,,,58.21025900000000,N2OJ1ORO01D00,791,eh@cne-siar.gov.uk,Comhairle nan Eilean Siar (Western Isles),http://www.cne-siar.gov.uk/foodsafety/food-hygiene-scheme.asp,-6.38674200000000,HS1 2JD,2014-01-30,fhis_pass_en-GB,Pass,,FHIS,
420483,44 Crossbost,Lochs,Isle Of Lewis,,Penuel,Hotel/bed & breakfast/guest house,7842,,,468551,,,58.13324800000000,I1I5WWROD1000,791,eh@cne-siar.gov.uk,Comhairle nan Eilean Siar (Western Isles),http://www.cne-siar.gov.uk/foodsafety/food-hygiene-scheme.asp,-6.42911100000000,HS2 9NP,2010-05-06,fhis_pass_en-GB,Pass,,FHIS,
420484,3 Churchill Drive,Stornoway,Isle Of Lewis,,Perkins Place,Retailers - other,4613,,,505862,,,58.21222500000000,M6BRQORO01D00,791,eh@cne-siar.gov.uk,Comhairle nan Eilean Siar (Western Isles),http://www.cne-siar.gov.uk/foodsafety/food-hygiene-scheme.asp,-6.37613100000000,HS1 2NP,2012-06-22,fhis_pass_en-GB,Pass,,FHIS,
420485,30 Knock,Point,Isle Of Lewis,,Piece Of Cake,Manufacturers/packers,7839,,,535821,,,58.20246700000000,MJYDQHRO01D00,791,eh@cne-siar.gov.uk,Comhairle nan Eilean Siar (Western Isles),http://www.cne-siar.gov.uk/foodsafety/food-hygiene-scheme.asp,-6.26874900000000,HS2 0BW,2013-02-25,fhis_exempt_en-GB,Exempt,,FHIS,
420486,Planasker,Marvig,Lochs,Isle Of Lewis,Planasker Old School,Hotel/bed & breakfast/guest house,7842,,,468564,,,58.08348300000000,JC437UROD1000,791,eh@cne-siar.gov.uk,Comhairle nan Eilean Siar (Western Isles),http://www.cne-siar.gov.uk/foodsafety/food-hygiene-scheme.asp,-6.39109600000000,HS2 9QP,2010-06-23,fhis_pass_en-GB,Pass,,FHIS,
420487,14 North Beach,Stornoway,Isle Of Lewis,,Pointers,Restaurant/Cafe/Canteen,1,,,296252,,,58.20838800000000,1032000140000,791,eh@cne-siar.gov.uk,Comhairle nan Eilean Siar (Western Isles),http://www.cne-siar.gov.uk/foodsafety/food-hygiene-scheme.asp,-6.38988500000000,HS1 2XJ,2010-11-09,fhis_exempt_en-GB,Exempt,,FHIS,
420488,Polachar Inn,Polachar,Lochboisdale,Isle Of South Uist,Polochar Inn,Hotel/bed & breakfast/guest house,7842,,,468512,,,57.10664100000000,1120000002000,791,eh@cne-siar.gov.uk,Comhairle nan Eilean Siar (Western Isles),http://www.cne-siar.gov.uk/foodsafety/food-hygiene-scheme.asp,-7.36609300000000,HS8 5TT,2014-04-03,fhis_pass_en-GB,Pass,,FHIS,
420489,Polybox,Marybank Ind Estate,Marybank,Isle Of Lewis,Polybox,Manufacturers/packers,7839,,,468499,,,58.21887700000000,0940000000001,791,eh@cne-siar.gov.uk,Comhairle nan Eilean Siar (Western Isles),http://www.cne-siar.gov.uk/foodsafety/food-hygiene-scheme.asp,-6.40699900000000,HS2 0DB,2012-08-08,fhis_exempt_en-GB,Exempt,,FHIS,
420490,Post Office,14 New Garrabost,Point,Isle Of Lewis,Post Office,Retailers - other,4613,,,468502,,,58.21679400000000,099100014A000,791,eh@cne-siar.gov.uk,Comhairle nan Eilean Siar (Western Isles),http://www.cne-siar.gov.uk/foodsafety/food-hygiene-scheme.asp,-6.23470200000000,HS2 0PL,2010-07-28,fhis_exempt_en-GB,Exempt,,FHIS,
420491,Post Office,5 Upper Aird,Point,Isle Of Lewis,Post Office,Retailers - other,4613,,,468546,,,58.24321300000000,1422000050001,791,eh@cne-siar.gov.uk,Comhairle nan Eilean Siar (Western Isles),http://www.cne-siar.gov.uk/foodsafety/food-hygiene-scheme.asp,-6.16014300000000,HS2 0EU,2010-07-28,fhis_exempt_en-GB,Exempt,,FHIS,
420492,Post Office,Kenneth Drive,Lochboisdale,Isle Of South Uist,Post Office & Internet Cafe,Restaurant/Cafe/Canteen,1,,,468620,,,57.15436600000000,LM2GL1RO02A00,791,eh@cne-siar.gov.uk,Comhairle nan Eilean Siar (Western Isles),http://www.cne-siar.gov.uk/foodsafety/food-hygiene-scheme.asp,-7.30802600000000,HS8 5TJ,2014-11-18,fhis_pass_en-GB,Pass,,FHIS,
420493,Post Office,13 Callanish,Isle Of Lewis,,Post Office And Shop,Retailers - other,4613,,,468625,,,58.19941700000000,LQFCY4RO01400,791,eh@cne-siar.gov.uk,Comhairle nan Eilean Siar (Western Isles),http://www.cne-siar.gov.uk/foodsafety/food-hygiene-scheme.asp,-6.73682400000000,HS2 9DY,2014-04-15,fhis_pass_en-GB,Pass,,FHIS,
420494,Primrose Villa,31 Lewis Street,Stornoway,Isle Of Lewis,"Primrose Villa, Bed And Breakfast",Hotel/bed & breakfast/guest house,7842,,,626195,,,58.21191800000000,0826000312000,791,eh@cne-siar.gov.uk,Comhairle nan Eilean Siar (Western Isles),http://www.cne-siar.gov.uk/foodsafety/food-hygiene-scheme.asp,-6.38558400000000,HS1 2JL,2002-06-17,fhis_exempt_en-GB,Exempt,,FHIS,
420495,7 Bank Street,Stornoway,Isle Of Lewis,,Pronto Pizzas,Takeaway/sandwich shop,7844,,,296201,,,58.20839900000000,0129000070000,791,eh@cne-siar.gov.uk,Comhairle nan Eilean Siar (Western Isles),http://www.cne-siar.gov.uk/foodsafety/food-hygiene-scheme.asp,-6.38930700000000,HS1 2XG,2014-07-14,fhis_pass_en-GB,Pass,,FHIS,
420496,15 Cromwell Street,Stornoway,Isle Of Lewis,,Public Library,Restaurant/Cafe/Canteen,1,,,296217,,,58.20872100000000,0421000150000,791,eh@cne-siar.gov.uk,Comhairle nan Eilean Siar (Western Isles),http://www.cne-siar.gov.uk/foodsafety/food-hygiene-scheme.asp,-6.38805200000000,HS1 2DA,2014-11-21,fhis_pass_en-GB,Pass,,FHIS,
420497,Radar Station,Village Street,St Kilda,Isle Of Harris,Puff Inn Bar & Kitchen,Pub/bar/nightclub,7843,,,468529,,,,1323020002002,791,eh@cne-siar.gov.uk,Comhairle nan Eilean Siar (Western Isles),http://www.cne-siar.gov.uk/foodsafety/food-hygiene-scheme.asp,,,2014-02-21,fhis_pass_en-GB,Pass,,FHIS,
420498,Ravenrock Seaproducts Ltd,57B Leurbost,Lochs,Isle Of Lewis,Ravenrock Seaproducts Ltd,Manufacturers/packers,7839,,,468497,,,58.14204400000000,089200057B000,791,eh@cne-siar.gov.uk,Comhairle nan Eilean Siar (Western Isles),http://www.cne-siar.gov.uk/foodsafety/food-hygiene-scheme.asp,-6.45541000000000,HS2 9NS,2014-02-11,fhis_exempt_en-GB,Exempt,,FHIS,
420499,Ravenspoint,Kershader,Lochs,Isle Of Lewis,Ravenspoint,Restaurant/Cafe/Canteen,1,,,468461,,,58.08923600000000,0730000000000,791,eh@cne-siar.gov.uk,Comhairle nan Eilean Siar (Western Isles),http://www.cne-siar.gov.uk/foodsafety/food-hygiene-scheme.asp,-6.51473800000000,HS2 9QA,2014-11-25,fhis_pass_en-GB,Pass,,FHIS,
420500,24 Vatisker,Back,Isle Of Lewis,,Ravenstar Bed & Breakfast,Hotel/bed & breakfast/guest house,7842,,,468566,,,58.27393100000000,JD3NN3ROD1000,791,eh@cne-siar.gov.uk,Comhairle nan Eilean Siar (Western Isles),http://www.cne-siar.gov.uk/foodsafety/food-hygiene-scheme.asp,-6.29502400000000,HS2 0JS,2014-04-16,fhis_exempt_en-GB,Exempt,,FHIS,
420501,Redburn House,Lochmaddy,Isle Of North Uist,,Redburn House,Hotel/bed & breakfast/guest house,7842,,,626088,,,,MW3SY6RO02A00,791,eh@cne-siar.gov.uk,Comhairle nan Eilean Siar (Western Isles),http://www.cne-siar.gov.uk/foodsafety/food-hygiene-scheme.asp,,,2013-08-15,fhis_pass_en-GB,Pass,,FHIS,
420502,Lews Castle College,Castle Grounds,Stornoway,Isle Of Lewis,Refectory,School/college/university,7845,,,468477,,,58.21300600000000,0827020032000,791,eh@cne-siar.gov.uk,Comhairle nan Eilean Siar (Western Isles),http://www.cne-siar.gov.uk/foodsafety/food-hygiene-scheme.asp,-6.39654000000000,HS2 0XR,2014-12-08,fhis_pass_en-GB,Pass,,FHIS,
420503,Cromwell Street Quay,Stornoway,Isle Of Lewis,,RNLI,Retailers - other,4613,,,468419,,,58.20949400000000,0418000000002,791,eh@cne-siar.gov.uk,Comhairle nan Eilean Siar (Western Isles),http://www.cne-siar.gov.uk/foodsafety/food-hygiene-scheme.asp,-6.38911900000000,HS1 2DF,2012-03-15,fhis_exempt_en-GB,Exempt,,FHIS,
420504,Tarmasaig House,West Tarbert,Isle Of Harris,,Robin Robertson,Manufacturers/packers,7839,,,505858,,,57.90173100000000,LDTU85RO01D00,791,eh@cne-siar.gov.uk,Comhairle nan Eilean Siar (Western Isles),http://www.cne-siar.gov.uk/foodsafety/food-hygiene-scheme.asp,-6.81385700000000,HS3 3BG,2012-10-10,fhis_exempt_en-GB,Exempt,,FHIS,
420505,Lower Barvas,Barvas,Isle Of Lewis,,Rockvilla B&B,Hotel/bed & breakfast/guest house,7842,,,468496,,,58.35737900000000,0874020072000,791,eh@cne-siar.gov.uk,Comhairle nan Eilean Siar (Western Isles),http://www.cne-siar.gov.uk/foodsafety/food-hygiene-scheme.asp,-6.51327300000000,HS2 0QY,2014-04-15,fhis_pass_en-GB,Pass,,FHIS,
420506,Rodel Hotel,Rodel,Isle Of Harris,,Rodel Hotel,Hotel/bed & breakfast/guest house,7842,,,468513,,,57.74728800000000,1178020002000,791,eh@cne-siar.gov.uk,Comhairle nan Eilean Siar (Western Isles),http://www.cne-siar.gov.uk/foodsafety/food-hygiene-scheme.asp,-6.96804900000000,HS5 3TW,2013-07-30,fhis_pass_en-GB,Pass,,FHIS,
420507,81 Cromwell Street,Stornoway,Isle Of Lewis,,Royal Hotel,Hotel/bed & breakfast/guest house,7842,,,296221,,,58.21045300000000,0421008350000,791,eh@cne-siar.gov.uk,Comhairle nan Eilean Siar (Western Isles),http://www.cne-siar.gov.uk/foodsafety/food-hygiene-scheme.asp,-6.38841900000000,HS1 2DG,2014-02-27,fhis_pass_en-GB,Pass,,FHIS,
420508,Free Presbyterian,Manse,East Tarbert,Tarbert,Ruth Jardine,Manufacturers/packers,7839,,,605876,,,57.89747400000000,MUSXUBRO01D00,791,eh@cne-siar.gov.uk,Comhairle nan Eilean Siar (Western Isles),http://www.cne-siar.gov.uk/foodsafety/food-hygiene-scheme.asp,-6.79776000000000,HS3 3DF,2013-10-02,fhis_exempt_en-GB,Exempt,,FHIS,
420509,The Salvation Army Hall,59 Bayhead,Stornoway,Isle Of Lewis,Salvation Army Lunch Club/Breakfast Club,Restaurant/Cafe/Canteen,1,,,682316,,,58.21442100000000,0151000590000,791,eh@cne-siar.gov.uk,Comhairle nan Eilean Siar (Western Isles),http://www.cne-siar.gov.uk/foodsafety/food-hygiene-scheme.asp,-6.38575700000000,HS1 2DZ,2014-05-27,fhis_pass_en-GB,Pass,,FHIS,
420510,6 Scaristavore,Isle Of Harris,,,Sandview House B&B,Hotel/bed & breakfast/guest house,7842,,,468519,,,57.83172900000000,1218000060000,791,eh@cne-siar.gov.uk,Comhairle nan Eilean Siar (Western Isles),http://www.cne-siar.gov.uk/foodsafety/food-hygiene-scheme.asp,-7.03413700000000,HS3 3HX,2010-06-14,fhis_pass_en-GB,Pass,,FHIS,
420511,Cotton Hill,51A Leurbost,Lochs,Isle Of Lewis,Sarah MacDonald,Manufacturers/packers,7839,,,505866,,,58.14204400000000,M6XTQHRO01D00,791,eh@cne-siar.gov.uk,Comhairle nan Eilean Siar (Western Isles),http://www.cne-siar.gov.uk/foodsafety/food-hygiene-scheme.asp,-6.45541000000000,HS2 9NS,2012-08-02,fhis_exempt_en-GB,Exempt,,FHIS,
420512,Mainland Address,Sandwick Road,Stornoway,Isle Of Lewis,SC Foods - Mobile Fish Van BK60,Other catering premises,7841,,,682319,,,,MCNVRERO01D00,791,eh@cne-siar.gov.uk,Comhairle nan Eilean Siar (Western Isles),http://www.cne-siar.gov.uk/foodsafety/food-hygiene-scheme.asp,,,2013-08-21,fhis_pass_en-GB,Pass,,FHIS,
420513,Scarista House,Scarista,Isle Of Harris,,Scarista House,Hotel/bed & breakfast/guest house,7842,,,468518,,,57.83172900000000,1215020022000,791,eh@cne-siar.gov.uk,Comhairle nan Eilean Siar (Western Isles),http://www.cne-siar.gov.uk/foodsafety/food-hygiene-scheme.asp,-7.03413700000000,HS3 3HX,2014-05-14,fhis_pass_en-GB,Pass,,FHIS,
420514,The Nicolson Institute,4 Springfield Road,Stornoway,Isle Of Lewis,School Catering Department,School/college/university,7845,,,468666,,,58.20918600000000,MAC43TRO01D00,791,eh@cne-siar.gov.uk,Comhairle nan Eilean Siar (Western Isles),http://www.cne-siar.gov.uk/foodsafety/food-hygiene-scheme.asp,-6.38080000000000,HS1 2PZ,2014-11-10,fhis_pass_en-GB,Pass,,FHIS,
420515,37 Cromwell Street,Stornoway,Isle Of Lewis,,Scottish Co-op,Retailers - supermarkets/hypermarkets,7840,,,296220,,,58.20932200000000,0421000370000,791,eh@cne-siar.gov.uk,Comhairle nan Eilean Siar (Western Isles),http://www.cne-siar.gov.uk/foodsafety/food-hygiene-scheme.asp,-6.38836500000000,HS1 2DD,2013-05-08,fhis_pass_en-GB,Pass,,FHIS,
420516,CWS Retail,Coop Store,Creagorry,Isle Of Benbecula,Scottish Co-op,Retailers - supermarkets/hypermarkets,7840,,,468417,,,57.41391100000000,0411020032001,791,eh@cne-siar.gov.uk,Comhairle nan Eilean Siar (Western Isles),http://www.cne-siar.gov.uk/foodsafety/food-hygiene-scheme.asp,-7.33590400000000,HS7 5PG,2014-04-16,fhis_pass_en-GB,Pass,,FHIS,
420517,Daliburgh,Lochboisdale,Isle Of South Uist,,Scottish Co-op,Retailers - supermarkets/hypermarkets,7840,,,468425,,,57.16512600000000,0441020190000,791,eh@cne-siar.gov.uk,Comhairle nan Eilean Siar (Western Isles),http://www.cne-siar.gov.uk/foodsafety/food-hygiene-scheme.asp,-7.37220100000000,HS8 5SS,2013-10-30,fhis_pass_en-GB,Pass,,FHIS,
420518,The Co-operative Group,Supermarket,Castlebay,Isle Of Barra,Scottish Co-operative,Retailers - supermarkets/hypermarkets,7840,,,535815,,,56.95506400000000,KQQABZRO01D00,791,eh@cne-siar.gov.uk,Comhairle nan Eilean Siar (Western Isles),http://www.cne-siar.gov.uk/foodsafety/food-hygiene-scheme.asp,-7.48833600000000,HS9 5XD,2013-02-08,fhis_pass_en-GB,Pass,,FHIS,
420519,Fish Processing Factory,Marybank Industrial Estate,Marybank,Isle Of Lewis,Scottish Salmon Co Ltd,Manufacturers/packers,7839,,,468618,,,58.21887700000000,LM24ZIRO01D00,791,eh@cne-siar.gov.uk,Comhairle nan Eilean Siar (Western Isles),http://www.cne-siar.gov.uk/foodsafety/food-hygiene-scheme.asp,-6.40699900000000,HS2 0DB,2014-02-25,fhis_exempt_en-GB,Exempt,,FHIS,
420520,3A Aird,Uig,Isle Of Lewis,,SEAcroft,Hotel/bed & breakfast/guest house,7842,,,682334,,,58.23205100000000,N3BBDCRO01D00,791,eh@cne-siar.gov.uk,Comhairle nan Eilean Siar (Western Isles),http://www.cne-siar.gov.uk/foodsafety/food-hygiene-scheme.asp,-7.02916100000000,HS2 9JA,2014-02-28,fhis_pass_en-GB,Pass,,FHIS,
420521,Seaforth,Ardvourlie,Isle Of Harris,,Seaforth Guest House,Hotel/bed & breakfast/guest house,7842,,,468598,,,58.00195000000000,L2YXFERO02C00,791,eh@cne-siar.gov.uk,Comhairle nan Eilean Siar (Western Isles),http://www.cne-siar.gov.uk/foodsafety/food-hygiene-scheme.asp,-6.75567500000000,HS3 3AB,2010-06-14,fhis_pass_en-GB,Pass,,FHIS,
420522,11A Ardmhor,Northbay,Isle Of Barra,,Sealladh Na Mara B&B,Hotel/bed & breakfast/guest house,7842,,,716019,,,57.01167900000000,NB7UAKRO02A00,791,eh@cne-siar.gov.uk,Comhairle nan Eilean Siar (Western Isles),http://www.cne-siar.gov.uk/foodsafety/food-hygiene-scheme.asp,-7.42607400000000,HS9 5YB,2014-08-26,fhis_pass_en-GB,Pass,,FHIS,
420523,Seallam,Northton,Isle Of Harris,,Seallam,Restaurant/Cafe/Canteen,1,,,468508,,,57.79657700000000,1053020022001,791,eh@cne-siar.gov.uk,Comhairle nan Eilean Siar (Western Isles),http://www.cne-siar.gov.uk/foodsafety/food-hygiene-scheme.asp,-7.06547400000000,HS3 3JA,2014-05-14,fhis_pass_en-GB,Pass,,FHIS,
420524,16 Backhill,Berneray,Isle Of North Uist,,Sealview Bed & Breakfast,Hotel/bed & breakfast/guest house,7842,,,468573,,,57.71737900000000,K06SMNRO02C00,791,eh@cne-siar.gov.uk,Comhairle nan Eilean Siar (Western Isles),http://www.cne-siar.gov.uk/foodsafety/food-hygiene-scheme.asp,-7.17323600000000,HS6 5BD,2014-03-13,fhis_pass_en-GB,Pass,,FHIS,
420525,Seaside Villa 1/22,Back,Isle Of Lewis,,Seaside Villa,Hotel/bed & breakfast/guest house,7842,,,468359,,,58.28250600000000,0096001222000,791,eh@cne-siar.gov.uk,Comhairle nan Eilean Siar (Western Isles),http://www.cne-siar.gov.uk/foodsafety/food-hygiene-scheme.asp,-6.29246200000000,HS2 0LQ,2010-10-01,fhis_pass_en-GB,Pass,,FHIS,
420526,Creagorry Motors,Seaview Filling Station,Balivanich,Isle Of Benbecula,Seaview Filling Station Ltd,Retailers - other,4613,,,468364,,,57.47132500000000,0116000002001,791,eh@cne-siar.gov.uk,Comhairle nan Eilean Siar (Western Isles),http://www.cne-siar.gov.uk/foodsafety/food-hygiene-scheme.asp,-7.37163700000000,HS7 5LA,2014-04-22,fhis_exempt_en-GB,Exempt,,FHIS,
420527,Residential Accomodation,R A Range Hebrides,Balivanich,Isle Of Benbecula,Sergeants Mess (St Barbara's),Pub/bar/nightclub,7843,,,468371,,,57.47132500000000,0116020092007,791,eh@cne-siar.gov.uk,Comhairle nan Eilean Siar (Western Isles),http://www.cne-siar.gov.uk/foodsafety/food-hygiene-scheme.asp,-7.37163700000000,HS7 5LA,2014-01-16,fhis_pass_and_eat_safe_en-GB,Pass and Eat Safe,,FHIS,
420528,Sgoil An Rubha,New Garrabost,Point,Isle Of Lewis,Sgoil An Rubha,Restaurant/Cafe/Canteen,1,,,468627,,,58.21451400000000,LRTOWCRO01D00,791,eh@cne-siar.gov.uk,Comhairle nan Eilean Siar (Western Isles),http://www.cne-siar.gov.uk/foodsafety/food-hygiene-scheme.asp,-6.23216300000000,HS2 0PX,2014-10-02,fhis_pass_en-GB,Pass,,FHIS,
420529,Breasclete,Isle Of Lewis,,,Sgoil Araich Bhreascelit,Hospitals/Childcare/Caring Premises,5,,,468553,,,58.21644900000000,I94S1KROD1000,791,eh@cne-siar.gov.uk,Comhairle nan Eilean Siar (Western Isles),http://www.cne-siar.gov.uk/foodsafety/food-hygiene-scheme.asp,-6.74445000000000,HS2 9ED,2014-04-15,fhis_pass_en-GB,Pass,,FHIS,
420530,Sgoil An Taobh Siar,Lower Barvas,Isle Of Lewis,,Sgoill An Taobh Siar Canteen,School/college/university,7845,,,568320,,,58.34779600000000,MOYN2VRO01D00,791,eh@cne-siar.gov.uk,Comhairle nan Eilean Siar (Western Isles),http://www.cne-siar.gov.uk/foodsafety/food-hygiene-scheme.asp,-6.51695800000000,HS2 0RA,2014-11-07,fhis_pass_en-GB,Pass,,FHIS,
420531,The Old School,North Shawbost,Isle Of Lewis,,Shawbost Old School,Restaurant/Cafe/Canteen,1,,,468563,,,58.32716000000000,J1VFYDROD1000,791,eh@cne-siar.gov.uk,Comhairle nan Eilean Siar (Western Isles),http://www.cne-siar.gov.uk/foodsafety/food-hygiene-scheme.asp,-6.68213800000000,HS2 9BQ,2014-05-28,fhis_pass_en-GB,Pass,,FHIS,
420532,PO & Shop,15 North Shawbost,Isle Of Lewis,,Shawbost Post Office,Retailers - other,4613,,,468505,,,58.33026700000000,1046000152000,791,eh@cne-siar.gov.uk,Comhairle nan Eilean Siar (Western Isles),http://www.cne-siar.gov.uk/foodsafety/food-hygiene-scheme.asp,-6.66900600000000,HS2 9BD,2013-09-16,fhis_pass_en-GB,Pass,,FHIS,
420533,Shawbost School,Shawbost,Isle Of Lewis,,Shawbost School,School/college/university,7845,,,468522,,,58.32716000000000,1252000000007,791,eh@cne-siar.gov.uk,Comhairle nan Eilean Siar (Western Isles),http://www.cne-siar.gov.uk/foodsafety/food-hygiene-scheme.asp,-6.68213800000000,HS2 9BQ,2014-11-07,fhis_pass_en-GB,Pass,,FHIS,
420534,Sir Edward Scott School,West Tarbert,Tarbert,Isle Of Harris,Sir Edward Scott School,School/college/university,7845,,,682343,,,57.88455300000000,N66RP6RO01D00,791,eh@cne-siar.gov.uk,Comhairle nan Eilean Siar (Western Isles),http://www.cne-siar.gov.uk/foodsafety/food-hygiene-scheme.asp,-6.70235500000000,HS3 3BS,2014-05-06,fhis_pass_en-GB,Pass,,FHIS,
420535,4 Geocrab,Isle Of Harris,,,Skoon Art Cafe,Restaurant/Cafe/Canteen,1,,,468450,,,57.81439500000000,0578000040000,791,eh@cne-siar.gov.uk,Comhairle nan Eilean Siar (Western Isles),http://www.cne-siar.gov.uk/foodsafety/food-hygiene-scheme.asp,-6.85821700000000,HS3 3HB,2014-04-14,fhis_pass_en-GB,Pass,,FHIS,
420536,51 Westview Terrace,Stornoway,Isle Of Lewis,,Solas Day Centre,Hospitals/Childcare/Caring Premises,5,,,296278,,,58.21704700000000,1477000510002,791,eh@cne-siar.gov.uk,Comhairle nan Eilean Siar (Western Isles),http://www.cne-siar.gov.uk/foodsafety/food-hygiene-scheme.asp,-6.37842900000000,HS1 2LD,2010-12-08,fhis_exempt_en-GB,Exempt,,FHIS,
420537,Sorrel Cottage,2B Glen Kyles,Leverburgh,Isle Of Harris,Sorrel Cottage B&B,Hotel/bed & breakfast/guest house,7842,,,468611,,,57.77885500000000,LIVDDIRO01D00,791,eh@cne-siar.gov.uk,Comhairle nan Eilean Siar (Western Isles),http://www.cne-siar.gov.uk/foodsafety/food-hygiene-scheme.asp,-7.03725100000000,HS5 3TY,2011-03-24,fhis_pass_en-GB,Pass,,FHIS,
420538,Soval Lodge,Valtos Farm,Laxay,Lochs,Soval Lodge,Hotel/bed & breakfast/guest house,7842,,,468667,,,58.10348000000000,MBMWHSRO01D00,791,eh@cne-siar.gov.uk,Comhairle nan Eilean Siar (Western Isles),http://www.cne-siar.gov.uk/foodsafety/food-hygiene-scheme.asp,-6.52848600000000,HS2 9PJ,2014-07-31,fhis_pass_en-GB,Pass,,FHIS,
420539,Seaglen Cottage,3 Glen Tolsta,Tolsta,Isle Of Lewis,Spotlight Food,Other catering premises,7841,,,682332,,,58.32040100000000,N35JM3RO01D00,791,eh@cne-siar.gov.uk,Comhairle nan Eilean Siar (Western Isles),http://www.cne-siar.gov.uk/foodsafety/food-hygiene-scheme.asp,-6.23047400000000,HS2 0ND,2013-12-12,fhis_pass_en-GB,Pass,,FHIS,
420540,St Brendans Home & Hospice,Horve,Castlebay,Isle Of Barra,St Brendan's,Hospitals/Childcare/Caring Premises,5,,,468453,,,56.95352100000000,0669020062000,791,eh@cne-siar.gov.uk,Comhairle nan Eilean Siar (Western Isles),http://www.cne-siar.gov.uk/foodsafety/food-hygiene-scheme.asp,-7.49743100000000,HS9 5XE,2014-08-26,fhis_pass_en-GB,Pass,,FHIS,
420541,8 Cannery Road,Stornoway,Isle Of Lewis,,Stag Bakeries,Manufacturers/packers,7839,,,296287,,,58.20568700000000,KFKV9FRO01400,791,eh@cne-siar.gov.uk,Comhairle nan Eilean Siar (Western Isles),http://www.cne-siar.gov.uk/foodsafety/food-hygiene-scheme.asp,-6.37246300000000,HS1 2SF,2014-10-22,fhis_pass_en-GB,Pass,,FHIS,
420542,13 South Beach,Stornoway,Isle Of Lewis,,Star Inn,Pub/bar/nightclub,7843,,,296269,,,58.20815500000000,1281000130000,791,eh@cne-siar.gov.uk,Comhairle nan Eilean Siar (Western Isles),http://www.cne-siar.gov.uk/foodsafety/food-hygiene-scheme.asp,-6.38908900000000,HS1 2BE,2012-06-27,fhis_pass_en-GB,Pass,,FHIS,
420543,South Ford,Creagorry,Isle Of Benbecula,,Stellamaris Trading,Manufacturers/packers,7839,,,468415,,,57.41391100000000,0411020002003,791,eh@cne-siar.gov.uk,Comhairle nan Eilean Siar (Western Isles),http://www.cne-siar.gov.uk/foodsafety/food-hygiene-scheme.asp,-7.33590400000000,HS7 5PG,2014-07-07,fhis_exempt_en-GB,Exempt,,FHIS,
420544,29 Kenneth Street,Stornoway,Isle Of Lewis,,Stornoway Bed And Breakfast,Hotel/bed & breakfast/guest house,7842,,,296290,,,58.20955700000000,L20G53RO01D00,791,eh@cne-siar.gov.uk,Comhairle nan Eilean Siar (Western Isles),http://www.cne-siar.gov.uk/foodsafety/food-hygiene-scheme.asp,-6.38781400000000,HS1 2DR,2010-06-16,fhis_pass_en-GB,Pass,,FHIS,
420545,Stornoway Primary School,Jamieson Drive,Stornoway,Isle Of Lewis,Stornoway Childcare Centre,Hospitals/Childcare/Caring Premises,5,,,535822,,,58.21624700000000,MK0SO1RO01D00,791,eh@cne-siar.gov.uk,Comhairle nan Eilean Siar (Western Isles),http://www.cne-siar.gov.uk/foodsafety/food-hygiene-scheme.asp,-6.37920000000000,HS1 2LE,2013-01-17,fhis_pass_en-GB,Pass,,FHIS,
420546,Stornoway Fish Mart,Esplanade Quay,Stornoway,Isle Of Lewis,Stornoway Fish Mart,Distributors/Transporters,7,,,468464,,,,0740000000002,791,eh@cne-siar.gov.uk,Comhairle nan Eilean Siar (Western Isles),http://www.cne-siar.gov.uk/foodsafety/food-hygiene-scheme.asp,,,2012-05-23,fhis_pass_en-GB,Pass,,FHIS,
420547,South Beach Quay,Stornoway,Isle Of Lewis,,Stornoway Fish Smokers,Manufacturers/packers,7839,,,296230,,,58.20697600000000,0688000112000,791,eh@cne-siar.gov.uk,Comhairle nan Eilean Siar (Western Isles),http://www.cne-siar.gov.uk/foodsafety/food-hygiene-scheme.asp,-6.38466700000000,HS1 2BS,2013-11-26,fhis_exempt_en-GB,Exempt,,FHIS,
420548,Stornoway Golf Club,Castle Grounds,Stornoway,Isle Of Lewis,Stornoway Golf Club,Pub/bar/nightclub,7843,,,468476,,,58.21591900000000,0827020002000,791,eh@cne-siar.gov.uk,Comhairle nan Eilean Siar (Western Isles),http://www.cne-siar.gov.uk/foodsafety/food-hygiene-scheme.asp,-6.39579300000000,HS2 0XP,2013-06-28,fhis_pass_en-GB,Pass,,FHIS,
420549,Jamieson Drive,Stornoway,Isle Of Lewis,,Stornoway Primary Nursery,Hospitals/Childcare/Caring Premises,5,,,296297,,,58.21624700000000,LDTWMERO01D00,791,eh@cne-siar.gov.uk,Comhairle nan Eilean Siar (Western Isles),http://www.cne-siar.gov.uk/foodsafety/food-hygiene-scheme.asp,-6.37920000000000,HS1 2LE,2012-06-13,fhis_pass_en-GB,Pass,,FHIS,
420550,Jamieson Drive,Stornoway,Isle Of Lewis,,Stornoway Primary School,School/college/university,7845,,,296236,,,58.21624700000000,0704000000000,791,eh@cne-siar.gov.uk,Comhairle nan Eilean Siar (Western Isles),http://www.cne-siar.gov.uk/foodsafety/food-hygiene-scheme.asp,-6.37920000000000,HS1 2LE,2014-05-07,fhis_pass_en-GB,Pass,,FHIS,
420551,South Beach Quay,Stornoway,Isle Of Lewis,,Stornoway Sea Angling Club,Pub/bar/nightclub,7843,,,296267,,,58.20676800000000,1280000000003,791,eh@cne-siar.gov.uk,Comhairle nan Eilean Siar (Western Isles),http://www.cne-siar.gov.uk/foodsafety/food-hygiene-scheme.asp,-6.38471000000000,HS1 2BT,,fhis_awaiting_inspection_en-GB,Awaiting Inspection,,FHIS,
420552,Struan House,Knockintorran,Bayhead,Isle Of North Uist,Struan House B&B,Hotel/bed & breakfast/guest house,7842,,,716023,,,57.58854200000000,NCB2L5RO02A00,791,eh@cne-siar.gov.uk,Comhairle nan Eilean Siar (Western Isles),http://www.cne-siar.gov.uk/foodsafety/food-hygiene-scheme.asp,-7.46349300000000,HS6 5ED,2014-09-12,fhis_pass_en-GB,Pass,,FHIS,
420553,Ionad Spors Leodhais,7 Springfield Road,Stornoway,Isle Of Lewis,Strupag,Restaurant/Cafe/Canteen,1,,,296298,,,58.21008400000000,LKKQAFRO01D00,791,eh@cne-siar.gov.uk,Comhairle nan Eilean Siar (Western Isles),http://www.cne-siar.gov.uk/foodsafety/food-hygiene-scheme.asp,-6.37927500000000,HS1 2PZ,2014-10-01,fhis_pass_en-GB,Pass,,FHIS,
420554,28 North Beach,Stornoway,Isle Of Lewis,,Stuart David Whisker,Other catering premises,7841,,,505863,,,58.20862800000000,M6C86LRO01D00,791,eh@cne-siar.gov.uk,Comhairle nan Eilean Siar (Western Isles),http://www.cne-siar.gov.uk/foodsafety/food-hygiene-scheme.asp,-6.38892600000000,HS1 2XQ,2013-12-02,fhis_pass_en-GB,Pass,,FHIS,
420555,3 Crowlista,Uig,Isle Of Lewis,,Suainaval,Hotel/bed & breakfast/guest house,7842,,,468643,,,58.19326500000000,M1AUX7RO01D00,791,eh@cne-siar.gov.uk,Comhairle nan Eilean Siar (Western Isles),http://www.cne-siar.gov.uk/foodsafety/food-hygiene-scheme.asp,-7.03782500000000,HS2 9JF,2012-05-04,fhis_pass_en-GB,Pass,,FHIS,
420556,6A Sand Street,Stornoway,Isle Of Lewis,,Sula Sgeir B&B,Hotel/bed & breakfast/guest house,7842,,,296264,,,58.21907000000000,119700006A000,791,eh@cne-siar.gov.uk,Comhairle nan Eilean Siar (Western Isles),http://www.cne-siar.gov.uk/foodsafety/food-hygiene-scheme.asp,-6.37397500000000,HS1 2UE,2010-05-19,fhis_pass_en-GB,Pass,,FHIS,
420557,Sunnyhill Bakery,East Tarbert,Isle Of Harris,,Sunnyhill Bakery,Manufacturers/packers,7839,,,468434,,,57.89893600000000,0498000000008,791,eh@cne-siar.gov.uk,Comhairle nan Eilean Siar (Western Isles),http://www.cne-siar.gov.uk/foodsafety/food-hygiene-scheme.asp,-6.79123100000000,HS3 3DA,2013-11-28,fhis_pass_en-GB,Pass,,FHIS,
420558,4 Francis Street,Stornoway,Isle Of Lewis,,Superdrug Stores Plc,Retailers - other,4613,,,296281,,,58.20842200000000,ITC4Q2ROD1000,791,eh@cne-siar.gov.uk,Comhairle nan Eilean Siar (Western Isles),http://www.cne-siar.gov.uk/foodsafety/food-hygiene-scheme.asp,-6.38758900000000,HS1 2XD,2010-05-27,fhis_exempt_en-GB,Exempt,,FHIS,
420559,Sutherland Game And Shellfish Ltd,Creagorry,Benbecula,Isle Of South Uist,Sutherland Game And Shellfish Ltd Creagorry Benbecula,Manufacturers/packers,7839,,,468416,,,57.41391100000000,041102000A000,791,eh@cne-siar.gov.uk,Comhairle nan Eilean Siar (Western Isles),http://www.cne-siar.gov.uk/foodsafety/food-hygiene-scheme.asp,-7.33590400000000,HS7 5PG,2014-07-05,fhis_exempt_en-GB,Exempt,,FHIS,
420560,Shop And Filling Station,28 Swainbost,Ness,Isle Of Lewis,Swainbost Shop,Retailers - other,4613,,,468531,,,58.48076600000000,1348000280000,791,eh@cne-siar.gov.uk,Comhairle nan Eilean Siar (Western Isles),http://www.cne-siar.gov.uk/foodsafety/food-hygiene-scheme.asp,-6.26879000000000,HS2 0TA,2013-03-11,fhis_pass_en-GB,Pass,,FHIS,
420561,50 Church Street,Stornoway,Isle Of Lewis,,T A Centre,Other catering premises,7841,,,468409,,,58.21076700000000,0338000500000,791,eh@cne-siar.gov.uk,Comhairle nan Eilean Siar (Western Isles),http://www.cne-siar.gov.uk/foodsafety/food-hygiene-scheme.asp,-6.38424900000000,HS1 2LS,2013-12-03,fhis_pass_en-GB,Pass,,FHIS,
420562,Taigh A Chridhe Uile Naomh,Daliburgh,Lochboisdale,Isle Of South Uist,Taigh A Chridhe Uile Naomh - Uist House,Hospitals/Childcare/Caring Premises,5,,,468574,,,57.16512600000000,K1BTZVRO01400,791,eh@cne-siar.gov.uk,Comhairle nan Eilean Siar (Western Isles),http://www.cne-siar.gov.uk/foodsafety/food-hygiene-scheme.asp,-7.37220100000000,HS8 5SS,2014-06-18,fhis_pass_en-GB,Pass,,FHIS,
420563,11 Laxay,Lochs,Isle Of Lewis,,Taigh Chailean,Hotel/bed & breakfast/guest house,7842,,,582473,,,58.10348000000000,MKDJKFRO01D00,791,eh@cne-siar.gov.uk,Comhairle nan Eilean Siar (Western Isles),http://www.cne-siar.gov.uk/foodsafety/food-hygiene-scheme.asp,-6.52848600000000,HS2 9PJ,2013-07-02,fhis_pass_en-GB,Pass,,FHIS,
420564,Taigh Chearsabhaigh,Lochmaddy,Isle Of North Uist,,Taigh Chearsabhaigh,Restaurant/Cafe/Canteen,1,,,468490,,,57.60124700000000,0862000000002,791,eh@cne-siar.gov.uk,Comhairle nan Eilean Siar (Western Isles),http://www.cne-siar.gov.uk/foodsafety/food-hygiene-scheme.asp,-7.16387900000000,HS6 5AA,2014-05-02,fhis_pass_en-GB,Pass,,FHIS,
420565,9 Luskentyre,Isle Of Harris,,,Taigh Mo Shenair,Hotel/bed & breakfast/guest house,7842,,,716022,,,57.88512000000000,NBQN5BRO01D00,791,eh@cne-siar.gov.uk,Comhairle nan Eilean Siar (Western Isles),http://www.cne-siar.gov.uk/foodsafety/food-hygiene-scheme.asp,-6.94524900000000,HS3 3HL,2014-09-02,fhis_pass_en-GB,Pass,,FHIS,
420566,Dunskellar Old School,Sollas,Isle Of North Uist,,Taigh Sgire Sholais,Restaurant/Cafe/Canteen,1,,,468651,,,57.65011600000000,M4S5A0RO02A00,791,eh@cne-siar.gov.uk,Comhairle nan Eilean Siar (Western Isles),http://www.cne-siar.gov.uk/foodsafety/food-hygiene-scheme.asp,-7.34447200000000,HS6 5BS,2012-08-22,fhis_pass_en-GB,Pass,,FHIS,
420567,Talk Talk,Gleann Seileach Business Park,Willowglen,Stornoway,Talk Talk Call Centre,Restaurant/Cafe/Canteen,1,,,468549,,,58.22011500000000,1484520002000,791,eh@cne-siar.gov.uk,Comhairle nan Eilean Siar (Western Isles),http://www.cne-siar.gov.uk/foodsafety/food-hygiene-scheme.asp,-6.40110200000000,HS1 2QP,2012-02-28,fhis_exempt_en-GB,Exempt,,FHIS,
420568,Barra Childrens Centre,Barra Pre School,Castlebay,Isle Of Barra,Tartan Table Cafe,Restaurant/Cafe/Canteen,1,,,568310,,,56.95520700000000,0300020412001,791,eh@cne-siar.gov.uk,Comhairle nan Eilean Siar (Western Isles),http://www.cne-siar.gov.uk/foodsafety/food-hygiene-scheme.asp,-7.48939500000000,HS9 5XD,2014-11-12,fhis_improvement_required_en-GB,Improvement Required,,FHIS,
420569,Taylor Hill,Kintuliveg,Leverburgh,Isle Of Harris,Taylor Hill B&B,Hotel/bed & breakfast/guest house,7842,,,468624,,,57.77516900000000,LNVDP8RO01D00,791,eh@cne-siar.gov.uk,Comhairle nan Eilean Siar (Western Isles),http://www.cne-siar.gov.uk/foodsafety/food-hygiene-scheme.asp,-7.02634600000000,HS5 3TX,2012-02-07,fhis_pass_en-GB,Pass,,FHIS,
420570,4B Knock,Point,Isle Of Lewis,,Tea Time Treats,Manufacturers/packers,7839,,,716027,,,58.20246700000000,NDYBOYRO01D00,791,eh@cne-siar.gov.uk,Comhairle nan Eilean Siar (Western Isles),http://www.cne-siar.gov.uk/foodsafety/food-hygiene-scheme.asp,-6.26874900000000,HS2 0BW,2014-09-11,fhis_pass_en-GB,Pass,,FHIS,
420571,Macgillivray Visitors Centre,Northton,Isle Of Harris,,Temple Park Coffee Shop,Restaurant/Cafe/Canteen,1,,,468616,,,57.79657700000000,LL387MRO01D00,791,eh@cne-siar.gov.uk,Comhairle nan Eilean Siar (Western Isles),http://www.cne-siar.gov.uk/foodsafety/food-hygiene-scheme.asp,-7.06547400000000,HS3 3JA,2011-09-22,fhis_exempt_en-GB,Exempt,,FHIS,
420572,Temple View Hotel,Carinish,Isle Of North Uist,,Temple View Hotel,Hotel/bed & breakfast/guest house,7842,,,468395,,,57.52641000000000,0276020062000,791,eh@cne-siar.gov.uk,Comhairle nan Eilean Siar (Western Isles),http://www.cne-siar.gov.uk/foodsafety/food-hygiene-scheme.asp,-7.31630700000000,HS6 5EJ,2013-10-10,fhis_pass_en-GB,Pass,,FHIS,
420573,Shell Street,Stornoway,Isle Of Lewis,,Tesco Stores Ltd,Retailers - supermarkets/hypermarkets,7840,,,296286,,,58.20697600000000,KAYAU4RO01D00,791,eh@cne-siar.gov.uk,Comhairle nan Eilean Siar (Western Isles),http://www.cne-siar.gov.uk/foodsafety/food-hygiene-scheme.asp,-6.38466700000000,HS1 2BS,2014-07-08,fhis_pass_en-GB,Pass,,FHIS,
420574,40 Northton,Isle Of Harris,,,Tetherstone B&B,Hotel/bed & breakfast/guest house,7842,,,468638,,,57.79657700000000,LZFKU5RO01D00,791,eh@cne-siar.gov.uk,Comhairle nan Eilean Siar (Western Isles),http://www.cne-siar.gov.uk/foodsafety/food-hygiene-scheme.asp,-7.06547400000000,HS3 3JA,2012-02-07,fhis_pass_en-GB,Pass,,FHIS,
420575,27 Church Street,Stornoway,Isle Of Lewis,,Thai Cafe,Restaurant/Cafe/Canteen,1,,,296210,,,58.21025900000000,0338000272000,791,eh@cne-siar.gov.uk,Comhairle nan Eilean Siar (Western Isles),http://www.cne-siar.gov.uk/foodsafety/food-hygiene-scheme.asp,-6.38674200000000,HS1 2JD,2014-01-30,fhis_pass_en-GB,Pass,,FHIS,
420576,The Acres,Island Road,Stornoway,Isle Of Lewis,The Acres,Retailers - other,4613,,,733509,,,58.20706200000000,NGH9ADRO01D00,791,eh@cne-siar.gov.uk,Comhairle nan Eilean Siar (Western Isles),http://www.cne-siar.gov.uk/foodsafety/food-hygiene-scheme.asp,-6.37692500000000,HS1 2RD,2014-11-19,fhis_pass_en-GB,Pass,,FHIS,
420577,Factory Furniture Direct,6A Inaclete Road,Stornoway,Isle Of Lewis,The Acres Cafe,Restaurant/Cafe/Canteen,1,,,582475,,,58.20656500000000,MO9Y87RO01D00,791,eh@cne-siar.gov.uk,Comhairle nan Eilean Siar (Western Isles),http://www.cne-siar.gov.uk/foodsafety/food-hygiene-scheme.asp,-6.38066400000000,HS1 2RB,2013-06-26,fhis_pass_en-GB,Pass,,FHIS,
420578,Bays Community Centre,Lacklee,Isle Of Harris,,The Bays Cafe,Restaurant/Cafe/Canteen,1,,,468465,,,57.82844900000000,0788000072000,791,eh@cne-siar.gov.uk,Comhairle nan Eilean Siar (Western Isles),http://www.cne-siar.gov.uk/foodsafety/food-hygiene-scheme.asp,-6.83891500000000,HS3 3EH,2010-06-14,fhis_pass_en-GB,Pass,,FHIS,
420579,The Cauldron Craft Shop,Leverburgh,Isle Of Harris,,The Cauldron Craft Shop,Retailers - other,4613,,,468472,,,57.77140200000000,0820020202000,791,eh@cne-siar.gov.uk,Comhairle nan Eilean Siar (Western Isles),http://www.cne-siar.gov.uk/foodsafety/food-hygiene-scheme.asp,-7.01470800000000,HS5 3TS,2014-03-18,fhis_pass_en-GB,Pass,,FHIS,
420580,Low Flyer,Balivanich,Isle Of Benbecula,,The Chinese Takeaway,Takeaway/sandwich shop,7844,,,468654,,,57.47132500000000,M5Z3QGRO02A00,791,eh@cne-siar.gov.uk,Comhairle nan Eilean Siar (Western Isles),http://www.cne-siar.gov.uk/foodsafety/food-hygiene-scheme.asp,-7.37163700000000,HS7 5LA,2014-01-27,fhis_pass_en-GB,Pass,,FHIS,
420581,Perceval Road,Stornoway,Isle Of Lewis,,The Corner Shop,Retailers - other,4613,,,296256,,,58.21900500000000,1103000002001,791,eh@cne-siar.gov.uk,Comhairle nan Eilean Siar (Western Isles),http://www.cne-siar.gov.uk/foodsafety/food-hygiene-scheme.asp,-6.38190900000000,HS1 2UG,2010-10-13,fhis_exempt_en-GB,Exempt,,FHIS,
420582,6A Perceval Road,Stornoway,Isle Of Lewis,,The Crofthouse,Hotel/bed & breakfast/guest house,7842,,,296300,,,58.21900500000000,LNWTKNRO01D00,791,eh@cne-siar.gov.uk,Comhairle nan Eilean Siar (Western Isles),http://www.cne-siar.gov.uk/foodsafety/food-hygiene-scheme.asp,-6.38190900000000,HS1 2UG,2011-08-09,fhis_pass_en-GB,Pass,,FHIS,
420583,The Decca Station,Lionel,Ness,Isle Of Lewis,The Decca,Hotel/bed & breakfast/guest house,7842,,,468632,,,,LXA81KRO01D00,791,eh@cne-siar.gov.uk,Comhairle nan Eilean Siar (Western Isles),http://www.cne-siar.gov.uk/foodsafety/food-hygiene-scheme.asp,,,2013-12-11,fhis_pass_en-GB,Pass,,FHIS,
420584,Balranald Hebridean Holidays,Caravan Park,17 Hougharry,Isle Of North Uist,The Dunes Catering,Mobile caterer,7846,,,682320,,,57.60882900000000,MK83Y1RO02A00,791,eh@cne-siar.gov.uk,Comhairle nan Eilean Siar (Western Isles),http://www.cne-siar.gov.uk/foodsafety/food-hygiene-scheme.asp,-7.51695000000000,HS6 5DL,2014-06-24,fhis_pass_en-GB,Pass,,FHIS,
420585,59 Cromwell Street,Stornoway,Isle Of Lewis,,The Good Food Boutique,Retailers - other,4613,,,296293,,,58.20932200000000,L4U2CJRO02C00,791,eh@cne-siar.gov.uk,Comhairle nan Eilean Siar (Western Isles),http://www.cne-siar.gov.uk/foodsafety/food-hygiene-scheme.asp,-6.38836500000000,HS1 2DD,2014-01-15,fhis_pass_en-GB,Pass,,FHIS,
420586,16 Doig Crescent,Stornoway,Isle Of Lewis,,The Hebridean Biscuit Company,Manufacturers/packers,7839,,,716010,,,58.21318500000000,N7ZKW1RO01D00,791,eh@cne-siar.gov.uk,Comhairle nan Eilean Siar (Western Isles),http://www.cne-siar.gov.uk/foodsafety/food-hygiene-scheme.asp,-6.37435700000000,HS1 2NW,2014-07-01,fhis_pass_en-GB,Pass,,FHIS,
420587,Caladh Trust,Community Rooms,East Camp,Balivanich,The Hebridean Farm Shop,Manufacturers/packers,7839,,,682330,,,57.47132500000000,N0IXKERO02A00,791,eh@cne-siar.gov.uk,Comhairle nan Eilean Siar (Western Isles),http://www.cne-siar.gov.uk/foodsafety/food-hygiene-scheme.asp,-7.37163700000000,HS7 5LA,2014-06-11,fhis_pass_en-GB,Pass,,FHIS,
420588,49 Springfield Road,Stornoway,Isle Of Lewis,,The Hebridean Tea Store,Retailers - other,4613,,,605875,,,58.21233700000000,MSYX8PRO01D00,791,eh@cne-siar.gov.uk,Comhairle nan Eilean Siar (Western Isles),http://www.cne-siar.gov.uk/foodsafety/food-hygiene-scheme.asp,-6.37338400000000,HS1 2PS,2014-12-08,fhis_exempt_en-GB,Exempt,,FHIS,
420589,Macaulay Road,Stornoway,Isle Of Lewis,,The Hospital Shop,Retailers - other,4613,,,296244,,,58.22109400000000,0898020022002,791,eh@cne-siar.gov.uk,Comhairle nan Eilean Siar (Western Isles),http://www.cne-siar.gov.uk/foodsafety/food-hygiene-scheme.asp,-6.38443400000000,HS1 2AF,2014-09-29,fhis_pass_en-GB,Pass,,FHIS,
420590,The Workshop,80 Newmarket,Isle Of Lewis,,The Hungry Fox Snack Bar,Mobile caterer,7846,,,468601,,,58.24253100000000,L5AO54RO02C00,791,eh@cne-siar.gov.uk,Comhairle nan Eilean Siar (Western Isles),http://www.cne-siar.gov.uk/foodsafety/food-hygiene-scheme.asp,-6.39131400000000,HS2 0ED,2012-02-27,fhis_pass_en-GB,Pass,,FHIS,
420591,Balallan School,Balallan,Lochs,Isle Of Lewis,The Old School Tearoom,Restaurant/Cafe/Canteen,1,,,716004,,,58.09331900000000,MVSQEYRO01D00,791,eh@cne-siar.gov.uk,Comhairle nan Eilean Siar (Western Isles),http://www.cne-siar.gov.uk/foodsafety/food-hygiene-scheme.asp,-6.59262300000000,HS2 9PN,2014-06-12,fhis_pass_en-GB,Pass,,FHIS,
420592,Old Schoolhouse,Finsbay,Isle Of Harris,,The Old Schoolhouse,Hotel/bed & breakfast/guest house,7842,,,682318,,,57.77432200000000,LZJILPRO01D00,791,eh@cne-siar.gov.uk,Comhairle nan Eilean Siar (Western Isles),http://www.cne-siar.gov.uk/foodsafety/food-hygiene-scheme.asp,-6.92278500000000,HS3 3JD,2014-03-18,fhis_pass_en-GB,Pass,,FHIS,
420593,Middlequarter,Sollas,Isle Of North Uist,,The Rowan Tree B&B,Hotel/bed & breakfast/guest house,7842,,,468609,,,57.64743000000000,LI3FRPRO02A00,791,eh@cne-siar.gov.uk,Comhairle nan Eilean Siar (Western Isles),http://www.cne-siar.gov.uk/foodsafety/food-hygiene-scheme.asp,-7.35878000000000,HS6 5BU,2014-04-02,fhis_pass_en-GB,Pass,,FHIS,
420594,Fish Factory,Arnish,Isle Of Lewis,,The Scottish Salmon Company,Manufacturers/packers,7839,,,468657,,,,M6BLAGRO01D00,791,eh@cne-siar.gov.uk,Comhairle nan Eilean Siar (Western Isles),http://www.cne-siar.gov.uk/foodsafety/food-hygiene-scheme.asp,,HS2 9JZ,2012-06-14,fhis_exempt_en-GB,Exempt,,FHIS,
420595,23B Claddach Baleshare,Isle Of North Uist,,,The Ships Wheel B&B,Hotel/bed & breakfast/guest house,7842,,,716024,,,57.53721200000000,NCEP3FRO02A00,791,eh@cne-siar.gov.uk,Comhairle nan Eilean Siar (Western Isles),http://www.cne-siar.gov.uk/foodsafety/food-hygiene-scheme.asp,-7.32047800000000,HS6 5EN,2014-09-17,fhis_pass_en-GB,Pass,,FHIS,
420596,General Merchant,Lochmaddy,Isle Of North Uist,,The Shop,Retailers - other,4613,,,468491,,,57.60124700000000,0862000000008,791,eh@cne-siar.gov.uk,Comhairle nan Eilean Siar (Western Isles),http://www.cne-siar.gov.uk/foodsafety/food-hygiene-scheme.asp,-7.16387900000000,HS6 5AA,2014-05-02,fhis_pass_en-GB,Pass,,FHIS,
420597,Stepping Stone Restaurant,Balivanich,Benbecula,Isle Of South Uist,The Stepping Stone,Restaurant/Cafe/Canteen,1,,,468373,,,57.47132500000000,0116020182004,791,eh@cne-siar.gov.uk,Comhairle nan Eilean Siar (Western Isles),http://www.cne-siar.gov.uk/foodsafety/food-hygiene-scheme.asp,-7.37163700000000,HS7 5LA,2014-08-22,fhis_pass_en-GB,Pass,,FHIS,
420598,35 Point Street,Stornoway,Isle Of Lewis,,The Stornoway Chippy,Takeaway/sandwich shop,7844,,,716028,,,58.20816000000000,NE5K2RRO01D00,791,eh@cne-siar.gov.uk,Comhairle nan Eilean Siar (Western Isles),http://www.cne-siar.gov.uk/foodsafety/food-hygiene-scheme.asp,-6.38920900000000,HS1 2XF,2014-09-29,fhis_pass_en-GB,Pass,,FHIS,
420599,75 Cromwell Street,Stornoway,Isle Of Lewis,,The Sweet Shop,Retailers - other,4613,,,582474,,,58.21045300000000,MLPG06RO01D00,791,eh@cne-siar.gov.uk,Comhairle nan Eilean Siar (Western Isles),http://www.cne-siar.gov.uk/foodsafety/food-hygiene-scheme.asp,-6.38841900000000,HS1 2DG,2013-06-25,fhis_pass_en-GB,Pass,,FHIS,
420600,Matheson Road,Stornoway,Isle Of Lewis,,The Trading Post,Retailers - other,4613,,,296249,,,58.21535200000000,0945020002000,791,eh@cne-siar.gov.uk,Comhairle nan Eilean Siar (Western Isles),http://www.cne-siar.gov.uk/foodsafety/food-hygiene-scheme.asp,-6.38430400000000,HS1 2LB,2010-04-08,fhis_pass_en-GB,Pass,,FHIS,
420601,81 Newmarket,Isle Of Lewis,,,The Wee Fudge Firm,Manufacturers/packers,7839,,,626087,,,58.24253100000000,MURRZ7RO01D00,791,eh@cne-siar.gov.uk,Comhairle nan Eilean Siar (Western Isles),http://www.cne-siar.gov.uk/foodsafety/food-hygiene-scheme.asp,-6.39131400000000,HS2 0ED,2013-10-10,fhis_pass_en-GB,Pass,,FHIS,
420602,Back,Isle Of Lewis,,,The White House,Retailers - other,4613,,,568313,,,58.27565000000000,M1YIT6RO01D00,791,eh@cne-siar.gov.uk,Comhairle nan Eilean Siar (Western Isles),http://www.cne-siar.gov.uk/foodsafety/food-hygiene-scheme.asp,-6.30243700000000,HS2 0JY,2013-05-20,fhis_pass_en-GB,Pass,,FHIS,
420603,35 Coll,Isle Of Lewis,,,Thirty Five,Hotel/bed & breakfast/guest house,7842,,,468629,,,58.27792000000000,LRV8UFRO01D00,791,eh@cne-siar.gov.uk,Comhairle nan Eilean Siar (Western Isles),http://www.cne-siar.gov.uk/foodsafety/food-hygiene-scheme.asp,-6.32123500000000,HS2 0LP,2012-02-08,fhis_pass_en-GB,Pass,,FHIS,
420604,Thistlecroft,28 Lower,Sandwick,Isle Of Lewis,Thistlecroft,Manufacturers/packers,7839,,,505855,,,58.20203100000000,J2A7NFRO10000,791,eh@cne-siar.gov.uk,Comhairle nan Eilean Siar (Western Isles),http://www.cne-siar.gov.uk/foodsafety/food-hygiene-scheme.asp,-6.35787300000000,HS2 0AE,2012-05-23,fhis_pass_en-GB,Pass,,FHIS,
420605,Tigh An Eilein,5A Flodabay,Isle Of Harris,,Tigh An Eilein B&B,Hotel/bed & breakfast/guest house,7842,,,468641,,,57.79434700000000,M0U80TRO01D00,791,eh@cne-siar.gov.uk,Comhairle nan Eilean Siar (Western Isles),http://www.cne-siar.gov.uk/foodsafety/food-hygiene-scheme.asp,-6.88543700000000,HS3 3HA,2012-05-29,fhis_pass_en-GB,Pass,,FHIS,
420606,Tigh Na Mara,East Tarbert,Isle Of Harris,,Tigh Na Mara B&B,Hotel/bed & breakfast/guest house,7842,,,468435,,,57.89856200000000,0498020012000,791,eh@cne-siar.gov.uk,Comhairle nan Eilean Siar (Western Isles),http://www.cne-siar.gov.uk/foodsafety/food-hygiene-scheme.asp,-6.79613100000000,HS3 3DB,2010-05-18,fhis_pass_en-GB,Pass,,FHIS,
420607,Tigh-Na-Mara,Castlebay,Isle Of Barra,,Tigh Na Mara B&B,Hotel/bed & breakfast/guest house,7842,,,468405,,,56.95520700000000,0300020312000,791,eh@cne-siar.gov.uk,Comhairle nan Eilean Siar (Western Isles),http://www.cne-siar.gov.uk/foodsafety/food-hygiene-scheme.asp,-7.48939500000000,HS9 5XD,2013-06-25,fhis_pass_en-GB,Pass,,FHIS,
420608,Schoolhouse,North Tolsta,Isle Of Lewis,,Tolsta Ragdolls Playgroup,Hospitals/Childcare/Caring Premises,5,,,468507,,,58.34613400000000,1052020232000,791,eh@cne-siar.gov.uk,Comhairle nan Eilean Siar (Western Isles),http://www.cne-siar.gov.uk/foodsafety/food-hygiene-scheme.asp,-6.21369900000000,HS2 0NH,2014-06-25,fhis_pass_en-GB,Pass,,FHIS,
420609,School,North Tolsta,Isle Of Lewis,,Tolsta School,School/college/university,7845,,,468506,,,58.34613400000000,1052000002003,791,eh@cne-siar.gov.uk,Comhairle nan Eilean Siar (Western Isles),http://www.cne-siar.gov.uk/foodsafety/food-hygiene-scheme.asp,-6.21369900000000,HS2 0NH,2014-06-25,fhis_pass_en-GB,Pass,,FHIS,
420610,Tong Primary School,Tong,Isle Of Lewis,,Tong Primary School,School/college/university,7845,,,468542,,,58.24545700000000,1392000000002,791,eh@cne-siar.gov.uk,Comhairle nan Eilean Siar (Western Isles),http://www.cne-siar.gov.uk/foodsafety/food-hygiene-scheme.asp,-6.34765400000000,HS2 0HJ,2013-06-25,fhis_pass_en-GB,Pass,,FHIS,
420611,Tong Shop,Tong,Isle Of Lewis,,Tong Shop,Retailers - other,4613,,,716017,,,58.24545700000000,NACWDDRO01D00,791,eh@cne-siar.gov.uk,Comhairle nan Eilean Siar (Western Isles),http://www.cne-siar.gov.uk/foodsafety/food-hygiene-scheme.asp,-6.34765400000000,HS2 0HJ,2014-08-26,fhis_pass_en-GB,Pass,,FHIS,
420612,32 James St,Stornoway,Isle Of Lewis,,Tower Guest House,Hotel/bed & breakfast/guest house,7842,,,468454,,,58.20818600000000,0703000322000,791,eh@cne-siar.gov.uk,Comhairle nan Eilean Siar (Western Isles),http://www.cne-siar.gov.uk/foodsafety/food-hygiene-scheme.asp,-6.38321500000000,HS1 2QN,2014-05-07,fhis_pass_en-GB,Pass,,FHIS,
420613,Trionaid,Carinish,Isle Of North Uist,,Trianaid Residential Home,Hospitals/Childcare/Caring Premises,5,,,468396,,,57.52641000000000,0276020092000,791,eh@cne-siar.gov.uk,Comhairle nan Eilean Siar (Western Isles),http://www.cne-siar.gov.uk/foodsafety/food-hygiene-scheme.asp,-7.31630700000000,HS6 5EJ,2012-11-12,fhis_pass_en-GB,Pass,,FHIS,
420614,28 Matheson Road,Stornoway,Isle Of Lewis,,Trust Sheltered Housing,Hospitals/Childcare/Caring Premises,5,,,468500,,,58.21410600000000,0945000280000,791,eh@cne-siar.gov.uk,Comhairle nan Eilean Siar (Western Isles),http://www.cne-siar.gov.uk/foodsafety/food-hygiene-scheme.asp,-6.38445700000000,HS1 2LA,2012-02-28,fhis_pass_en-GB,Pass,,FHIS,
420615,Bridge Community Centre,Bayhead,Stornoway,Isle Of Lewis,Tuckshop At Bridge Youth Club,Restaurant/Cafe/Canteen,1,,,642665,,,58.21226000000000,M3I7AURO01D00,791,eh@cne-siar.gov.uk,Comhairle nan Eilean Siar (Western Isles),http://www.cne-siar.gov.uk/foodsafety/food-hygiene-scheme.asp,-6.38767100000000,HS1 2DU,2014-02-26,fhis_pass_en-GB,Pass,,FHIS,
420616,The Old Manse,Scalpay,Isle Of Harris,,Two Harbours (B&B),Hotel/bed & breakfast/guest house,7842,,,716011,,,57.87242500000000,N8WZP0RO01D00,791,eh@cne-siar.gov.uk,Comhairle nan Eilean Siar (Western Isles),http://www.cne-siar.gov.uk/foodsafety/food-hygiene-scheme.asp,-6.69903100000000,HS4 3XU,2014-06-12,fhis_pass_en-GB,Pass,,FHIS,
420617,Community Centre,Eireastadh,Crowlista,Uig,Uig Community Centre Cafe,Other catering premises,7841,,,468438,,,58.19982300000000,0504000000007,791,eh@cne-siar.gov.uk,Comhairle nan Eilean Siar (Western Isles),http://www.cne-siar.gov.uk/foodsafety/food-hygiene-scheme.asp,-7.01344900000000,HS2 9JE,2013-05-07,fhis_pass_en-GB,Pass,,FHIS,
420618,Timsgarry Filling Station,Timsgarry,Uig,Isle Of Lewis,Uig Community Co-op,Retailers - other,4613,,,468541,,,58.19662600000000,1364020082000,791,eh@cne-siar.gov.uk,Comhairle nan Eilean Siar (Western Isles),http://www.cne-siar.gov.uk/foodsafety/food-hygiene-scheme.asp,-7.01512800000000,HS2 9JD,2014-10-29,fhis_pass_en-GB,Pass,,FHIS,
420619,Uig Lodge,Timsgarry,Uig,Isle Of Lewis,Uig Lodge Lettings,Hotel/bed & breakfast/guest house,7842,,,505872,,,58.19103900000000,MD7YVSRO01D00,791,eh@cne-siar.gov.uk,Comhairle nan Eilean Siar (Western Isles),http://www.cne-siar.gov.uk/foodsafety/food-hygiene-scheme.asp,-7.01009700000000,HS2 9ET,2012-10-25,fhis_improvement_required_en-GB,Improvement Required,,FHIS,
420620,Uig Lodge,Timsgarry,Uig,Isle Of Lewis,Uig Lodge Smoked Salmon,Manufacturers/packers,7839,,,468539,,,58.19103900000000,1364020002000,791,eh@cne-siar.gov.uk,Comhairle nan Eilean Siar (Western Isles),http://www.cne-siar.gov.uk/foodsafety/food-hygiene-scheme.asp,-7.01009700000000,HS2 9ET,2014-10-29,fhis_pass_en-GB,Pass,,FHIS,
420621,Uig Primary School,Eireastadh,Crowlista,Uig,Uig Primary School,School/college/university,7845,,,468437,,,58.19982300000000,0504000000003,791,eh@cne-siar.gov.uk,Comhairle nan Eilean Siar (Western Isles),http://www.cne-siar.gov.uk/foodsafety/food-hygiene-scheme.asp,-7.01344900000000,HS2 9JE,2013-08-27,fhis_pass_en-GB,Pass,,FHIS,
420622,11 Kneep,Uig,Isle Of Lewis,,Uig Seafare Ltd,Manufacturers/packers,7839,,,468572,,,58.22144200000000,K038NLRO01400,791,eh@cne-siar.gov.uk,Comhairle nan Eilean Siar (Western Isles),http://www.cne-siar.gov.uk/foodsafety/food-hygiene-scheme.asp,-6.94693600000000,HS2 9HS,2013-11-15,fhis_exempt_en-GB,Exempt,,FHIS,
420623,Uist Fish Marketing,Kallin Harbour,Kallin,Grimsay,Uist Fish Marketing Ltd,Manufacturers/packers,7839,,,468455,,,57.48005100000000,0707020042000,791,eh@cne-siar.gov.uk,Comhairle nan Eilean Siar (Western Isles),http://www.cne-siar.gov.uk/foodsafety/food-hygiene-scheme.asp,-7.20998300000000,HS6 5HY,2012-09-18,fhis_exempt_en-GB,Exempt,,FHIS,
420624,Urachadh Uibhist,Claddach Kirkibost,Isle Of North Uist,,Urachadh Uibhist,Restaurant/Cafe/Canteen,1,,,468412,,,57.56533000000000,0360020102000,791,eh@cne-siar.gov.uk,Comhairle nan Eilean Siar (Western Isles),http://www.cne-siar.gov.uk/foodsafety/food-hygiene-scheme.asp,-7.38452500000000,HS6 5EP,2014-06-24,fhis_pass_en-GB,Pass,,FHIS,
420625,Kildonan,Isle Of South Uist,,,Urras Eachraidh Uibhist A Deas,Restaurant/Cafe/Canteen,1,,,468462,,,57.22253700000000,0734000002001,791,eh@cne-siar.gov.uk,Comhairle nan Eilean Siar (Western Isles),http://www.cne-siar.gov.uk/foodsafety/food-hygiene-scheme.asp,-7.41245400000000,HS8 5RZ,2014-06-11,fhis_improvement_required_en-GB,Improvement Required,,FHIS,
420626,5 Francis Street,Stornoway,Isle Of Lewis,,W J Macdonald,Manufacturers/packers,7839,,,296222,,,58.20842200000000,0544000050000,791,eh@cne-siar.gov.uk,Comhairle nan Eilean Siar (Western Isles),http://www.cne-siar.gov.uk/foodsafety/food-hygiene-scheme.asp,-6.38758900000000,HS1 2XD,2013-11-27,fhis_exempt_en-GB,Exempt,,FHIS,
420627,William Stewart,Kallin Harbour,Kallin,Grimsay,W Stewart (Live Fish) Ltd,Manufacturers/packers,7839,,,468456,,,57.48005100000000,0707020042001,791,eh@cne-siar.gov.uk,Comhairle nan Eilean Siar (Western Isles),http://www.cne-siar.gov.uk/foodsafety/food-hygiene-scheme.asp,-7.20998300000000,HS6 5HY,2012-09-19,fhis_exempt_en-GB,Exempt,,FHIS,
420628,Welcome Inn Filling Station & Shop,Barvas,Isle Of Lewis,,Welcome Inn Filling Station,Retailers - other,4613,,,468377,,,58.34789300000000,0136020032000,791,eh@cne-siar.gov.uk,Comhairle nan Eilean Siar (Western Isles),http://www.cne-siar.gov.uk/foodsafety/food-hygiene-scheme.asp,-6.51727800000000,HS2 0RA,2014-09-30,fhis_pass_en-GB,Pass,,FHIS,
420629,Macaulay Road,Stornoway,Isle Of Lewis,,Western Isles Hospital,Hospitals/Childcare/Caring Premises,5,,,296243,,,58.22109400000000,0898020022000,791,eh@cne-siar.gov.uk,Comhairle nan Eilean Siar (Western Isles),http://www.cne-siar.gov.uk/foodsafety/food-hygiene-scheme.asp,-6.38443400000000,HS1 2AF,2014-09-12,fhis_pass_en-GB,Pass,,FHIS,
420630,Westford Inn,Claddach Kirkibost,Isle Of North Uist,,Westford Inn,Pub/bar/nightclub,7843,,,682317,,,57.56533000000000,0360020012000,791,eh@cne-siar.gov.uk,Comhairle nan Eilean Siar (Western Isles),http://www.cne-siar.gov.uk/foodsafety/food-hygiene-scheme.asp,-7.38452500000000,HS6 5EP,2014-06-19,fhis_pass_en-GB,Pass,,FHIS,
420631,34 Newton Street,Stornoway,Isle Of Lewis,,Westwinds B&B,Hotel/bed & breakfast/guest house,7842,,,296251,,,58.20501300000000,1019000340000,791,eh@cne-siar.gov.uk,Comhairle nan Eilean Siar (Western Isles),http://www.cne-siar.gov.uk/foodsafety/food-hygiene-scheme.asp,-6.37636600000000,HS1 2RW,2011-06-17,fhis_pass_en-GB,Pass,,FHIS,
420632,11 Upper Shader,Isle Of Lewis,,,White House B&B,Hotel/bed & breakfast/guest house,7842,,,468640,,,58.39826300000000,M0U7STRO01D00,791,eh@cne-siar.gov.uk,Comhairle nan Eilean Siar (Western Isles),http://www.cne-siar.gov.uk/foodsafety/food-hygiene-scheme.asp,-6.47675800000000,HS2 0RQ,2012-05-08,fhis_pass_en-GB,Pass,,FHIS,
420633,Wild West Foods (UK) Ltd 2/3,Eireastadh,Crowlista,Uig,Wild West Foods (UK) Ltd,Manufacturers/packers,7839,,,468439,,,58.20021600000000,0504000002003,791,eh@cne-siar.gov.uk,Comhairle nan Eilean Siar (Western Isles),http://www.cne-siar.gov.uk/foodsafety/food-hygiene-scheme.asp,-7.01077800000000,HS2 9JG,2014-02-28,fhis_exempt_en-GB,Exempt,,FHIS,
420634,Bells Road,Stornoway,Isle Of Lewis,,Williamson Whole Sale Fruit & Veg,Distributors/Transporters,7,,,296204,,,58.20746900000000,0162000000000,791,eh@cne-siar.gov.uk,Comhairle nan Eilean Siar (Western Isles),http://www.cne-siar.gov.uk/foodsafety/food-hygiene-scheme.asp,-6.38210400000000,HS1 2QT,2014-05-07,fhis_pass_en-GB,Pass,,FHIS,
420635,Woodland Centre,Castle Grounds,Stornoway,Isle Of Lewis,Woodland Centre,Restaurant/Cafe/Canteen,1,,,468475,,,58.21591900000000,0827000002004,791,eh@cne-siar.gov.uk,Comhairle nan Eilean Siar (Western Isles),http://www.cne-siar.gov.uk/foodsafety/food-hygiene-scheme.asp,-6.39579300000000,HS2 0XP,2014-04-22,fhis_pass_en-GB,Pass,,FHIS,
420636,R A Range Hebrides,Balivanich,Isle Of Benbecula,,XL Leisure Naafi JRC,Restaurant/Cafe/Canteen,1,,,568309,,,57.47132500000000,0116020092009,791,eh@cne-siar.gov.uk,Comhairle nan Eilean Siar (Western Isles),http://www.cne-siar.gov.uk/foodsafety/food-hygiene-scheme.asp,-7.37163700000000,HS7 5LA,2013-06-27,fhis_pass_en-GB,Pass,,FHIS,
420637,YESSS Electrical Ltd,Caberfeidh Road,Stornoway,Isle Of Lewis,YESSS Electrical,Retailers - other,4613,,,682337,,,58.20558000000000,N59HPHRO01400,791,eh@cne-siar.gov.uk,Comhairle nan Eilean Siar (Western Isles),http://www.cne-siar.gov.uk/foodsafety/food-hygiene-scheme.asp,-6.37267100000000,HS1 2SE,2014-03-24,fhis_pass_en-GB,Pass,,FHIS,
