,addressline1,addressline2,addressline3,addressline4,businessname,businesstype,businesstypeid,confidenceinmanagement,extractdate,fhrsid,hygiene,itemcount,latitude,localauthoritybusinessid,localauthoritycode,localauthorityemailaddress,localauthorityname,localauthoritywebsite,longitude,postcode,ratingdate,ratingkey,ratingvalue,returncode,schemetype,structural
399843,,21 BRIDGE STREET,COMBER,DOWN,*dazell*,Retailers - other,4613,10,,655686,10,,54.55094800000000,18/5224/5790/0001,802,environmental.health@ards-council.gov.uk,Ards,http://www.ards-council.gov.uk,-5.74353100000000,BT23 5AT,2014-03-21,fhrs_3_en-GB,3,,FHRS,10
399844,FIRST COMBER PRES. CHURCH HALL,65-67 HIGH STREET,COMBER,DOWN,1ST COMBER CATERING TEAM,Restaurant/Cafe/Canteen,1,5,,76848,0,,54.54975500000000,18/5226/2850/0001,802,environmental.health@ards-council.gov.uk,Ards,http://www.ards-council.gov.uk,-5.74803200000000,BT23 5HJ,2012-10-23,fhrs_5_en-GB,5,,FHRS,0
399845,,11A MAIN STREET,GREYABBEY,DOWN,A CAKE FOR ALL SEASONS,Restaurant/Cafe/Canteen,1,5,,655690,0,,54.53510200000000,18/5726/3210/0001,802,environmental.health@ards-council.gov.uk,Ards,http://www.ards-council.gov.uk,-5.56054100000000,BT22 2NE,2014-03-19,fhrs_5_en-GB,5,,FHRS,5
399846,,11A NEW STREET,DONAGHADEE,DOWN,A SLICE OF HEAVEN,Restaurant/Cafe/Canteen,1,0,,76921,5,,54.64192100000000,18/5727/5480/0001,802,environmental.health@ards-council.gov.uk,Ards,http://www.ards-council.gov.uk,-5.53543200000000,BT21 0AG,2014-08-08,fhrs_5_en-GB,5,,FHRS,5
399847,,,,,A WALK IN THE CLOUDS,Other catering premises,7841,0,,726269,0,,,18/5222/9470/0001,802,environmental.health@ards-council.gov.uk,Ards,http://www.ards-council.gov.uk,,,2014-12-03,fhrs_5_en-GB,5,,FHRS,0
399848,ABBEY PRIMARY SCHOOL,90 MOVILLA ROAD,NEWTOWNARDS,DOWN,ABBEY PRIMARY SCHOOL - KITCHEN,School/college/university,7845,5,,67200,0,,54.59494200000000,15/1219/0090/0001,802,environmental.health@ards-council.gov.uk,Ards,http://www.ards-council.gov.uk,-5.66638700000000,BT23 8RQ,2013-06-11,fhrs_5_en-GB,5,,FHRS,0
399849,ABBEYFIELD,156 UPPER GREENWELL STREET,NEWTOWNARDS,DOWN,ABBEYFIELD,Hospitals/Childcare/Caring Premises,5,0,,58442,0,,54.59096800000000,13/0971/0156/000X,802,environmental.health@ards-council.gov.uk,Ards,http://www.ards-council.gov.uk,-5.68447000000000,BT23 8LY,2013-10-02,fhrs_5_en-GB,5,,FHRS,5
399850,ABBEYFIELD,9 PARADE,DONAGHADEE,DOWN,ABBEYFIELD,Hospitals/Childcare/Caring Premises,5,5,,27285,0,,54.64279300000000,08/1369/0009/000X,802,environmental.health@ards-council.gov.uk,Ards,http://www.ards-council.gov.uk,-5.53632400000000,BT21 0AE,2014-02-24,fhrs_5_en-GB,5,,FHRS,0
399851,APARTMENT 1 HAMILTON HOUSE,1 BARNAGH CLOSE,DONAGHADEE,DOWN,ABBEYFIELD,Hospitals/Childcare/Caring Premises,5,5,,27092,0,,54.64122500000000,08/0168/0001/0006,802,environmental.health@ards-council.gov.uk,Ards,http://www.ards-council.gov.uk,-5.54012200000000,BT21 0AL,2013-10-25,fhrs_5_en-GB,5,,FHRS,5
399852,,,,,ABBIE'S,Other catering premises,7841,0,,726271,0,,,18/5237/6070/0001,802,environmental.health@ards-council.gov.uk,Ards,http://www.ards-council.gov.uk,,,2014-12-03,fhrs_5_en-GB,5,,FHRS,0
399853,,22A THE SQUARE,PORTAFERRY,DOWN,ADAIRS GUESTHOUSE,Hotel/bed & breakfast/guest house,7842,5,,70791,0,,54.38170200000000,16/1729/0022/0000,802,environmental.health@ards-council.gov.uk,Ards,http://www.ards-council.gov.uk,-5.54768200000000,BT22 1LW,2012-08-03,fhrs_5_en-GB,5,,FHRS,0
399854,,16 COMBER ROAD,KILLINCHY,DOWN,AIKEN'S,Retailers - supermarkets/hypermarkets,7840,5,,49414,0,,54.47315200000000,11/0644/0016/0008,802,environmental.health@ards-council.gov.uk,Ards,http://www.ards-council.gov.uk,-5.69031500000000,BT23 6PA,2014-08-14,fhrs_5_en-GB,5,,FHRS,5
399855,,24 MILL STREET,NEWTOWNARDS,DOWN,AKASH INDIAN TAKEAWAY,Takeaway/sandwich shop,7844,5,,23745,0,,54.59362400000000,07/124X/0024/0001,802,environmental.health@ards-council.gov.uk,Ards,http://www.ards-council.gov.uk,-5.69982500000000,BT23 4LW,2013-05-16,fhrs_5_en-GB,5,,FHRS,5
399856,,STALLS CONWAY SQUARE,NEWTOWNARDS,CO DOWN,ALAN McKINNEY,Retailers - other,4613,5,,12795,0,,54.59347200000000,04/0220/0094/0003,802,environmental.health@ards-council.gov.uk,Ards,http://www.ards-council.gov.uk,-5.69658400000000,BT23 4DA,2014-01-11,fhrs_5_en-GB,5,,FHRS,5
399857,ALEXANDER DICKSON PRIMARY SCHO,COMBER ROAD,BALLYGOWAN,DOWN,ALEXANDER DICKSON PRIMARY SCHOOL,School/college/university,7845,0,,352767,0,,54.50297200000000,01/0496/0020/0301,802,environmental.health@ards-council.gov.uk,Ards,http://www.ards-council.gov.uk,-5.78911300000000,BT23 5TN,2014-05-21,fhrs_5_en-GB,5,,FHRS,0
399858,,11 REGENT STREET,NEWTOWNARDS,DOWN,ALL SEASONS,Retailers - other,4613,0,,13287,5,,54.59421500000000,04/1456/0011/0000,802,environmental.health@ards-council.gov.uk,Ards,http://www.ards-council.gov.uk,-5.69787300000000,BT23 4AB,2011-12-20,fhrs_5_en-GB,5,,FHRS,5
399859,,,,,ALLERGY FREE BAKED BY ME,Other catering premises,7841,5,,375386,0,,,18/5218/0010/0001,802,environmental.health@ards-council.gov.uk,Ards,http://www.ards-council.gov.uk,,,2012-05-15,fhrs_5_en-GB,5,,FHRS,0
399860,BOOTS,104-108 FRANCES STREET,NEWTOWNARDS,DOWN,ALLIANCE PHARMACY,Other catering premises,7841,,,76888,,,54.59348700000000,18/5233/5890/0001,802,environmental.health@ards-council.gov.uk,Ards,http://www.ards-council.gov.uk,-5.68983600000000,BT23 7DY,2011-12-20,fhrs_exempt_en-GB,Exempt,,FHRS,
399861,UNIT 3 STONEGATE SHOPPING CENT,STRATHEDEN HEIGHTS,NEWTOWNARDS,DOWN,ALLIANCE PHARMACY,Other catering premises,7841,,,76935,,,54.59535400000000,18/5873/2190/0001,802,environmental.health@ards-council.gov.uk,Ards,http://www.ards-council.gov.uk,-5.66538800000000,BT23 8ZE,2011-12-20,fhrs_exempt_en-GB,Exempt,,FHRS,
399862,,4A HIGH STREET,DONAGHADEE,CO DOWN,AL'S BARGAIN BASEMENT,Retailers - other,4613,,,732636,,,54.64235000000000,CLOSED3132,802,environmental.health@ards-council.gov.uk,Ards,http://www.ards-council.gov.uk,-5.53709500000000,BT21 0AA,2014-10-03,fhrs_exempt_en-GB,Exempt,,FHRS,
399863,,27 JUBILEE ROAD,NEWTOWNARDS,DOWN,AMH NEW HORIZONS,Restaurant/Cafe/Canteen,1,5,,76556,0,,54.58515300000000,18/0731/0027/0008,802,environmental.health@ards-council.gov.uk,Ards,http://www.ards-council.gov.uk,-5.70471100000000,BT23 4YJ,2013-07-01,fhrs_5_en-GB,5,,FHRS,0
399864,ANDREWS MEMORIAL PRIMARY SCHOO,4 BALLYGOWAN ROAD,COMBER,DOWN,ANDREWS MEMORIAL PRIMARY SCHOOL,School/college/university,7845,0,,23082,0,,54.54310400000000,07/0049/0004/0002,802,environmental.health@ards-council.gov.uk,Ards,http://www.ards-council.gov.uk,-5.76192200000000,BT23 5PG,2014-05-07,fhrs_5_en-GB,5,,FHRS,0
399865,,35 BALLYBRYAN ROAD,GREYABBEY,DOWN,ANGUS BUTCHERY @ HARRISON'S OF G/ABBEY,Retailers - other,4613,10,,418785,0,,54.52630600000000,18/7410/0960/0001,802,environmental.health@ards-council.gov.uk,Ards,http://www.ards-council.gov.uk,-5.53443200000000,BT22 2RB,2012-07-03,fhrs_4_en-GB,4,,FHRS,5
399866,,42 MAIN STREET,GREYABBEY,DOWN,ANGUS FARM SHOP,Retailers - other,4613,5,,6079,5,,54.53702000000000,02/1153/0042/000X,802,environmental.health@ards-council.gov.uk,Ards,http://www.ards-council.gov.uk,-5.55761400000000,BT22 2NG,2014-04-15,fhrs_4_en-GB,4,,FHRS,10
399867,,35 LISBARNET ROAD,COMBER,DOWN,ANNA'S HOUSE,Hotel/bed & breakfast/guest house,7842,5,,5785,0,,54.50247900000000,02/0114/0035/0001,802,environmental.health@ards-council.gov.uk,Ards,http://www.ards-council.gov.uk,-5.72001800000000,BT23 6AW,2012-07-09,fhrs_5_en-GB,5,,FHRS,0
399868,,16-17 THE SQUARE,PORTAFERRY,DOWN,ANNIE'S,Restaurant/Cafe/Canteen,1,10,,706534,0,,54.38170200000000,18/5212/8490/0001,802,environmental.health@ards-council.gov.uk,Ards,http://www.ards-council.gov.uk,-5.54768300000000,BT22 1LW,2014-09-29,fhrs_4_en-GB,4,,FHRS,5
399869,,7 DUNEVLY ROAD,PORTAFERRY,DOWN,ARDBRAE HOUSE (B & B),Hotel/bed & breakfast/guest house,7842,0,,76755,0,,54.41906300000000,18/5212/9320/0001,802,environmental.health@ards-council.gov.uk,Ards,http://www.ards-council.gov.uk,-5.51934900000000,BT22 1NB,2011-10-14,fhrs_5_en-GB,5,,FHRS,0
399870,,1A DEMESNE VIEW,PORTAFERRY,DOWN,ARDCUAN RESIDENTIAL HOME,Hospitals/Childcare/Caring Premises,5,5,,76926,0,,54.38519600000000,18/5728/8790/0001,802,environmental.health@ards-council.gov.uk,Ards,http://www.ards-council.gov.uk,-5.54096200000000,BT22 1QX,2015-01-21,fhrs_5_en-GB,5,,FHRS,5
399871,,70 SOUTH STREET,NEWTOWNARDS,DOWN,ARDS BOWLING CLUB,Pub/bar/nightclub,7843,5,,13310,0,,54.59046500000000,04/1634/0070/0002,802,environmental.health@ards-council.gov.uk,Ards,http://www.ards-council.gov.uk,-5.69673800000000,BT23 4JU,2012-09-07,fhrs_5_en-GB,5,,FHRS,5
399872,,16 BOWTOWN ROAD,NEWTOWNARDS,DOWN,ARDS EVANGELICAL CHURCH,Other catering premises,7841,,,574160,,,54.59003600000000,18/5238/2300/0001,802,environmental.health@ards-council.gov.uk,Ards,http://www.ards-council.gov.uk,-5.67992800000000,BT23 8NB,2013-07-29,fhrs_exempt_en-GB,Exempt,,FHRS,
399873,,24A REGENT STREET,NEWTOWNARDS,DOWN,ARDS FOOTBALL CLUB SOCIAL CLUB,Pub/bar/nightclub,7843,5,,76913,5,,54.59390100000000,18/5726/6730/0001,802,environmental.health@ards-council.gov.uk,Ards,http://www.ards-council.gov.uk,-5.69832400000000,BT23 4LH,2012-03-29,fhrs_5_en-GB,5,,FHRS,5
399874,ARDS COMMUNITY HOSPITAL,CHURCH STREET,NEWTOWNARDS,DOWN,ARDS HOSPITAL,Hospitals/Childcare/Caring Premises,5,5,,7931,0,,54.59374200000000,03/0314/0006/0100,802,environmental.health@ards-council.gov.uk,Ards,http://www.ards-council.gov.uk,-5.70607000000000,BT23 4AS,2013-05-10,fhrs_5_en-GB,5,,FHRS,0
399875,,64-70 WILLIAM STREET,NEWTOWNARDS,DOWN,ARDS LEISURE CTRE: CHAMPIONS SPORTS CAFE,Restaurant/Cafe/Canteen,1,10,,13316,0,,54.59637400000000,04/1812/0098/0005,802,environmental.health@ards-council.gov.uk,Ards,http://www.ards-council.gov.uk,-5.70270300000000,BT23 4EJ,2014-07-15,fhrs_4_en-GB,4,,FHRS,10
399876,ARDS RUGBY CLUB,LANSDOWNE ROAD,NEWTOWNARDS,DOWN,ARDS RUGBY CLUB,Pub/bar/nightclub,7843,0,,12620,0,,54.57476300000000,04/0190/0085/0004,802,environmental.health@ards-council.gov.uk,Ards,http://www.ards-council.gov.uk,-5.70408900000000,BT23 4NT,2014-10-27,fhrs_4_en-GB,4,,FHRS,10
399877,,205 SOUTH STREET,NEWTOWNARDS,DOWN,ARDS TRAINING & RESOURCE CENTRE,Restaurant/Cafe/Canteen,1,10,,13312,0,,54.58848600000000,04/1634/0205/0005,802,environmental.health@ards-council.gov.uk,Ards,http://www.ards-council.gov.uk,-5.69807200000000,BT23 4JY,2013-10-10,fhrs_4_en-GB,4,,FHRS,5
399878,UNIT B15-17 ARDS SHOPPING CENT,CIRCULAR ROAD,NEWTOWNARDS,DOWN,ARGOS LTD,Retailers - other,4613,,,12462,,,54.59296200000000,04/0166/0099/0000,802,environmental.health@ards-council.gov.uk,Ards,http://www.ards-council.gov.uk,-5.70950200000000,BT23 4EU,2013-03-28,fhrs_exempt_en-GB,Exempt,,FHRS,
399879,,64 MAIN STREET,KIRCUBBIN,DOWN,ARTHURS FAST FOODS,Takeaway/sandwich shop,7844,10,,53158,10,,54.48859200000000,12/0887/0064/000X,802,environmental.health@ards-council.gov.uk,Ards,http://www.ards-council.gov.uk,-5.53446400000000,BT22 2SP,2015-01-08,fhrs_2_en-GB,2,,FHRS,15
399880,,1-3 RAILWAY STREET,COMBER,DOWN,ARTT OF HAMPERS,Other catering premises,7841,5,,76847,5,,54.55040100000000,18/5226/2410/0001,802,environmental.health@ards-council.gov.uk,Ards,http://www.ards-council.gov.uk,-5.75472100000000,BT23 5HG,2014-02-07,fhrs_5_en-GB,5,,FHRS,5
399881,,0 CIRCULAR ROAD,NEWTOWNARDS,CO DOWN,ASDA (PETROL STATION),Retailers - other,4613,,,12459,,,54.59296200000000,04/0166/0094/0003,802,environmental.health@ards-council.gov.uk,Ards,http://www.ards-council.gov.uk,-5.70950200000000,BT23 4EU,2012-03-29,fhrs_exempt_en-GB,Exempt,,FHRS,
399882,ARDS SHOPPING CENTRE,CIRCULAR ROAD,NEWTOWNARDS,DOWN,ASDA LTD,Retailers - supermarkets/hypermarkets,7840,0,,12449,0,,54.59296200000000,04/0166/0000/0000,802,environmental.health@ards-council.gov.uk,Ards,http://www.ards-council.gov.uk,-5.70950200000000,BT23 4EU,2014-09-16,fhrs_4_en-GB,4,,FHRS,10
399883,,64 CHURCH STREET,NEWTOWNARDS,CO DOWN,ASHGROVE INTENSIVE SUPPORT,Hospitals/Childcare/Caring Premises,5,10,,151593,10,,54.59374200000000,AR/D185/0000/0001,802,environmental.health@ards-council.gov.uk,Ards,http://www.ards-council.gov.uk,-5.70607000000000,BT23 4AS,2012-12-18,fhrs_4_en-GB,4,,FHRS,0
399884,,36 SAINTFIELD ROAD,KILLINCHY,DOWN,AULDS DRUMLIN FARM,Other catering premises,7841,,,454569,,,54.47301000000000,18/5894/3810/0001,802,environmental.health@ards-council.gov.uk,Ards,http://www.ards-council.gov.uk,-5.70976200000000,BT23 6RL,2012-10-01,fhrs_exempt_en-GB,Exempt,,FHRS,
399885,AVONDALE,203 SOUTH STREET,NEWTOWNARDS,DOWN,AVONDALE FOLD (DAY CARE CENTRE),Other catering premises,7841,5,,13311,0,,54.58848600000000,04/1634/0203/0004,802,environmental.health@ards-council.gov.uk,Ards,http://www.ards-council.gov.uk,-5.69807200000000,BT23 4JY,2013-10-23,fhrs_5_en-GB,5,,FHRS,0
399886,,1 HIGH STREET,PORTAFERRY,DOWN,B ARTHURS,Retailers - other,4613,5,,70709,5,,54.38226000000000,16/1125/0001/0006,802,environmental.health@ards-council.gov.uk,Ards,http://www.ards-council.gov.uk,-5.54504800000000,BT22 1QT,2014-09-05,fhrs_4_en-GB,4,,FHRS,10
399887,,1 COMBER ROAD,KILLINCHY,DOWN,BALLOO HOUSE,Restaurant/Cafe/Canteen,1,,,49410,,,54.47315200000000,11/0644/0001/0006,802,environmental.health@ards-council.gov.uk,Ards,http://www.ards-council.gov.uk,-5.69031500000000,BT23 6PA,2013-09-27,fhrs_5_en-GB,5,,FHRS,
399888,,19 BALLYALLOLY ROAD,COMBER,DOWN,BALLYALLOLY HOUSE,Hotel/bed & breakfast/guest house,7842,5,,660669,0,,54.53862700000000,18/5227/6810/0001,802,environmental.health@ards-council.gov.uk,Ards,http://www.ards-council.gov.uk,-5.79900700000000,BT23 5PN,2014-04-23,fhrs_5_en-GB,5,,FHRS,5
399889,BALLYBLACK PRESBYTERIAN CHURH,BALLYBLACK ROAD,NEWTOWNARDS,DOWN,BALLYBLACK PRESBYTERIAN CHURCH HALL,Other catering premises,7841,,,553539,,,54.58073800000000,18/5881/9410/0001,802,environmental.health@ards-council.gov.uk,Ards,http://www.ards-council.gov.uk,-5.60945200000000,BT22 2AS,2013-06-03,fhrs_exempt_en-GB,Exempt,,FHRS,
399890,,20 MOUNTSTEWART ROAD,NEWTOWNARDS,DOWN,BALLYCASTLE HOUSE,Hotel/bed & breakfast/guest house,7842,5,,6100,0,,54.56470200000000,02/1369/0020/000X,802,environmental.health@ards-council.gov.uk,Ards,http://www.ards-council.gov.uk,-5.61325200000000,BT22 2AL,2012-03-21,fhrs_5_en-GB,5,,FHRS,0
399891,,79 MAIN STREET,MILLISLE,DOWN,BALLYCOPELAND MEATS,Retailers - other,4613,5,,574157,5,,54.60694600000000,18/5215/4660/0001,802,environmental.health@ards-council.gov.uk,Ards,http://www.ards-council.gov.uk,-5.52827400000000,BT22 2HR,2015-01-14,fhrs_4_en-GB,4,,FHRS,10
399892,ALEXANDER DICKSON PRIMARY SCHO,COMBER ROAD,BALLYGOWAN,DOWN,BALLYGOWAN COMMUNITY PLAYGROUP,Other catering premises,7841,10,,76907,0,,54.50297200000000,18/5726/1640/0001,802,environmental.health@ards-council.gov.uk,Ards,http://www.ards-council.gov.uk,-5.78911300000000,BT23 5TN,2011-09-13,fhrs_4_en-GB,4,,FHRS,0
399893,,1A CARDY ROAD,GREYABBEY,CO DOWN,BALLYNESTER HOUSE (B& B),Hotel/bed & breakfast/guest house,7842,0,,5884,5,,54.55006700000000,02/0491/0001/0014,802,environmental.health@ards-council.gov.uk,Ards,http://www.ards-council.gov.uk,-5.55048100000000,BT22 2LS,2013-01-28,fhrs_5_en-GB,5,,FHRS,0
399894,,5C BALLYRUSLEY ROAD,PORTAFERRY,DOWN,BALLYRUSLEY B & B,Hotel/bed & breakfast/guest house,7842,0,,518615,0,,54.38968600000000,18/5212/4070/0001,802,environmental.health@ards-council.gov.uk,Ards,http://www.ards-council.gov.uk,-5.51534800000000,BT22 1JR,2013-02-27,fhrs_5_en-GB,5,,FHRS,0
399895,1,12A SPRINGVALE ROAD,BALLYWALTER,DOWN,BALLYWALTER BOWLING CLUB,Restaurant/Cafe/Canteen,1,10,,74035,5,,54.53961700000000,17/1635/0012/0014,802,environmental.health@ards-council.gov.uk,Ards,http://www.ards-council.gov.uk,-5.48485500000000,BT22 2PE,2013-05-10,fhrs_3_en-GB,3,,FHRS,10
399896,,14B BALLYATWOOD ROAD,BALLYWALTER,DOWN,BALLYWALTER PARK,Hotel/bed & breakfast/guest house,7842,5,,5759,0,,54.53102300000000,02/0041/0100/0004,802,environmental.health@ards-council.gov.uk,Ards,http://www.ards-council.gov.uk,-5.49462400000000,BT22 2PA,2012-07-25,fhrs_5_en-GB,5,,FHRS,0
399897,,55 MAIN STREET,BALLYWALTER,DOWN,BALLYWALTER POST OFFICE (XL STOP & SHOP),Retailers - other,4613,5,,6069,5,,54.54329700000000,02/1129/0055/0000,802,environmental.health@ards-council.gov.uk,Ards,http://www.ards-council.gov.uk,-5.48461300000000,BT22 2PQ,2014-02-07,fhrs_5_en-GB,5,,FHRS,5
399898,BALLYWALTER PRIMARY SCHOOL,12 STUMP ROAD,BALLYWALTER,DOWN,BALLYWALTER PRIMARY SCHOOL,School/college/university,7845,0,,6144,0,,54.54557000000000,02/1692/0012/0006,802,environmental.health@ards-council.gov.uk,Ards,http://www.ards-council.gov.uk,-5.49241800000000,BT22 2NT,2013-12-18,fhrs_5_en-GB,5,,FHRS,5
399899,,49-51 MAIN STREET,BALLYWALTER,DOWN,BALLYWALTER YOUTH & COMM. COOPERATIVE,Other catering premises,7841,5,,151608,5,,54.54329700000000,AR/D240/0000/0001,802,environmental.health@ards-council.gov.uk,Ards,http://www.ards-council.gov.uk,-5.48461300000000,BT22 2PQ,2013-03-28,fhrs_5_en-GB,5,,FHRS,5
399900,,6C NORTH STREET,NEWTOWNARDS,DOWN,BAPS N BUNS,Retailers - other,4613,0,,76802,0,,54.59492500000000,18/5218/9350/0001,802,environmental.health@ards-council.gov.uk,Ards,http://www.ards-council.gov.uk,-5.69549600000000,BT23 4DE,2014-03-10,fhrs_5_en-GB,5,,FHRS,5
399901,,11 THE STRAND,PORTAFERRY,DOWN,BARHOLM (B & B) / THE FERRY PORT CAFE,Restaurant/Cafe/Canteen,1,5,,76762,5,,54.38128400000000,18/5213/2590/0001,802,environmental.health@ards-council.gov.uk,Ards,http://www.ards-council.gov.uk,-5.55006300000000,BT22 1PF,2014-08-05,fhrs_4_en-GB,4,,FHRS,10
399902,,15A BAR HALL ROAD,PORTAFERRY,DOWN,BARRHALL RESIDENTIAL HOME,Hospitals/Childcare/Caring Premises,5,0,,70493,5,,54.35618300000000,16/0463/0015/0002,802,environmental.health@ards-council.gov.uk,Ards,http://www.ards-council.gov.uk,-5.52924900000000,BT22 1RQ,2014-08-22,fhrs_5_en-GB,5,,FHRS,5
399903,1ST ARDS PRESBYTERIAN CHURCH,0 FRANCES STREET,NEWTOWNARDS,CO DOWN,BASEMENT YOUTH CLUB,Restaurant/Cafe/Canteen,1,5,,151590,5,,54.59348700000000,AR/D182/0000/0002,802,environmental.health@ards-council.gov.uk,Ards,http://www.ards-council.gov.uk,-5.68983600000000,BT23 7DY,2014-02-07,fhrs_5_en-GB,5,,FHRS,5
399904,MOUNT STEWART HOUSE,PORTAFERRY ROAD,NEWTOWNARDS,DOWN,BAY RESTAURANT  (MOUNTSTEWART HOUSE),Restaurant/Cafe/Canteen,1,5,,13265,5,,54.55619000000000,04/1308/0100/0004,802,environmental.health@ards-council.gov.uk,Ards,http://www.ards-council.gov.uk,-5.59634100000000,BT22 2AD,2015-01-13,fhrs_5_en-GB,5,,FHRS,5
399905,,40 BAYVIEW ROAD,KILLINCHY,DOWN,BAYVIEW HOUSE,Hotel/bed & breakfast/guest house,7842,5,,76878,0,,54.46561900000000,18/5232/3660/0001,802,environmental.health@ards-council.gov.uk,Ards,http://www.ards-council.gov.uk,-5.66027300000000,BT23 6TW,2014-11-25,fhrs_5_en-GB,5,,FHRS,0
399906,,35 BEECHVALE ROAD,KILLINCHY,DOWN,BEECHVALE NURSING HOME LTD,Hospitals/Childcare/Caring Premises,5,0,,49370,0,,54.47256200000000,11/0431/0035/0001,802,environmental.health@ards-council.gov.uk,Ards,http://www.ards-council.gov.uk,-5.67828300000000,BT23 6PH,2013-10-02,fhrs_5_en-GB,5,,FHRS,5
399907,,8 GLENARD ROAD,NEWTOWNARDS,DOWN,BEES NEES EARLY YEARS CENTRE,Other catering premises,7841,0,,36598,0,,54.59863600000000,10/0347/0008/0004,802,environmental.health@ards-council.gov.uk,Ards,http://www.ards-council.gov.uk,-5.69927900000000,BT23 4HS,2012-05-02,fhrs_5_en-GB,5,,FHRS,0
399908,,,,,BELFAST& DISTRICT MOTOR CLUB HOSPITALITY,Other catering premises,7841,5,,76956,5,,,18/6004/2470/0001,802,environmental.health@ards-council.gov.uk,Ards,http://www.ards-council.gov.uk,,,2014-02-07,fhrs_5_en-GB,5,,FHRS,5
399909,,60 MAIN STREET,KIRCUBBIN,DOWN,BELLA'S,Restaurant/Cafe/Canteen,1,10,,53159,10,,54.48859200000000,12/0887/0066/0000,802,environmental.health@ards-council.gov.uk,Ards,http://www.ards-council.gov.uk,-5.53446400000000,BT22 2SP,2015-01-08,fhrs_2_en-GB,2,,FHRS,15
399910,,,,,BELLA'S PIZZA PARTY,Other catering premises,7841,0,,606643,0,,,18/5981/6030/0001,802,environmental.health@ards-council.gov.uk,Ards,http://www.ards-council.gov.uk,,,2013-10-30,fhrs_5_en-GB,5,,FHRS,0
399911,,186A BANGOR ROAD,NEWTOWNARDS,DOWN,BEVERLEY LODGE PRIVATE NURSING HOME,Hospitals/Childcare/Caring Premises,5,0,,81792,5,,54.60942700000000,20/0074/0002/0001,802,environmental.health@ards-council.gov.uk,Ards,http://www.ards-council.gov.uk,-5.68136400000000,BT23 7PH,2014-04-24,fhrs_5_en-GB,5,,FHRS,0
399912,,,,,BLACKWATER SEAFOOD,Retailers - other,4613,5,,76875,5,,,18/5231/8390/0001,802,environmental.health@ards-council.gov.uk,Ards,http://www.ards-council.gov.uk,,,2010-01-07,fhrs_5_en-GB,5,,FHRS,5
399913,BLAIR HOUSE,107 DAKOTA AVENUE,NEWTOWNARDS,DOWN,BLAIR HOUSE,Hospitals/Childcare/Caring Premises,5,10,,445195,10,,54.58211700000000,18/7352/0840/0001,802,environmental.health@ards-council.gov.uk,Ards,http://www.ards-council.gov.uk,-5.70528400000000,BT23 4QX,2014-10-29,fhrs_3_en-GB,3,,FHRS,10
399914,,4 SHORE ROAD,PORTAFERRY,DOWN,BLANEY'S,Retailers - other,4613,,,70777,,,54.38001900000000,16/1605/0004/0002,802,environmental.health@ards-council.gov.uk,Ards,http://www.ards-council.gov.uk,-5.54753700000000,BT22 1JY,2013-03-28,fhrs_exempt_en-GB,Exempt,,FHRS,
399915,,9 NEW STREET,DONAGHADEE,DOWN,BON APPETIT,Takeaway/sandwich shop,7844,10,,76732,0,,54.64192100000000,18/5206/8920/0001,802,environmental.health@ards-council.gov.uk,Ards,http://www.ards-council.gov.uk,-5.53543200000000,BT21 0AG,2013-11-27,fhrs_4_en-GB,4,,FHRS,10
399916,UNIT 3 ARDS SHOPPING CENTRE,CIRCULAR ROAD,NEWTOWNARDS,DOWN,BOOTS THE CHEMISTS,Other catering premises,7841,,,7758,,,54.59296200000000,03/0020/0416/010X,802,environmental.health@ards-council.gov.uk,Ards,http://www.ards-council.gov.uk,-5.70950200000000,BT23 4EU,2014-03-28,fhrs_exempt_en-GB,Exempt,,FHRS,
399917,,12-14 REGENT STREET,NEWTOWNARDS,DOWN,BOOTS THE CHEMISTS LTD,Other catering premises,7841,,,13288,,,54.59390100000000,04/1456/0012/0006,802,environmental.health@ards-council.gov.uk,Ards,http://www.ards-council.gov.uk,-5.69832400000000,BT23 4LH,2013-04-12,fhrs_exempt_en-GB,Exempt,,FHRS,
399918,,5 BOW STREET,DONAGHADEE,DOWN,BOW BELLS,Restaurant/Cafe/Canteen,1,5,,31440,5,,54.64217400000000,09/0139/0005/0008,802,environmental.health@ards-council.gov.uk,Ards,http://www.ards-council.gov.uk,-5.53419300000000,BT21 0HD,2014-03-26,fhrs_4_en-GB,4,,FHRS,10
399919,,54-58 MAIN STREET,BALLYWALTER,DOWN,BREW HA HA (FASA),Restaurant/Cafe/Canteen,1,10,,606644,0,,54.54341200000000,18/7428/8520/0001,802,environmental.health@ards-council.gov.uk,Ards,http://www.ards-council.gov.uk,-5.48454400000000,BT22 2PQ,2013-10-23,fhrs_2_en-GB,2,,FHRS,15
399920,,157 MAIN ROAD,PORTAVOGIE,DOWN,BRIAN COFFEY,Retailers - other,4613,5,,73981,0,,54.47204500000000,17/1007/0157/0005,802,environmental.health@ards-council.gov.uk,Ards,http://www.ards-council.gov.uk,-5.45240600000000,BT22 1DA,2014-03-31,fhrs_5_en-GB,5,,FHRS,5
399921,,102 FRANCES STREET,NEWTOWNARDS,DOWN,BRIDES PARLOUR,Retailers - other,4613,5,,13090,5,,54.59348700000000,04/0379/0102/0005,802,environmental.health@ards-council.gov.uk,Ards,http://www.ards-council.gov.uk,-5.68983600000000,BT23 7DY,2014-07-25,fhrs_4_en-GB,4,,FHRS,10
399922,,79 MAIN STREET,KIRCUBBIN,DOWN,BRIDE'S PARLOUR HOME BAKERY,Retailers - other,4613,5,,53160,0,,54.48795600000000,12/0887/0079/0001,802,environmental.health@ards-council.gov.uk,Ards,http://www.ards-council.gov.uk,-5.53411700000000,BT22 2SR,2013-11-13,fhrs_4_en-GB,4,,FHRS,10
399923,,1 POUND STREET,NEWTOWNARDS,DOWN,BROADWAY CAFE,Takeaway/sandwich shop,7844,5,,13267,0,,54.59235800000000,04/1332/0001/0006,802,environmental.health@ards-council.gov.uk,Ards,http://www.ards-council.gov.uk,-5.69802400000000,BT23 4LD,2013-12-10,fhrs_5_en-GB,5,,FHRS,5
399924,,,,,BROOM COTTAGE,Other catering premises,7841,0,,76775,0,,,18/5215/8980/0001,802,environmental.health@ards-council.gov.uk,Ards,http://www.ards-council.gov.uk,,,2012-09-10,fhrs_5_en-GB,5,,FHRS,0
399925,,1-3 RAILWAY STREET,COMBER,DOWN,BROWNLOW ARMS,Pub/bar/nightclub,7843,0,,23753,0,,54.55040100000000,07/1304/0003/0007,802,environmental.health@ards-council.gov.uk,Ards,http://www.ards-council.gov.uk,-5.75472100000000,BT23 5HG,2014-06-12,fhrs_5_en-GB,5,,FHRS,0
399926,,27 CORNMILL AVENUE,MILLISLE,DOWN,BURGER BLING OUTSIDE CATERING,Mobile caterer,7846,5,,76972,0,,54.60722100000000,18/7180/2590/0002,802,environmental.health@ards-council.gov.uk,Ards,http://www.ards-council.gov.uk,-5.53739000000000,BT22 2GN,2013-06-17,fhrs_5_en-GB,5,,FHRS,0
399927,,0 CASTLEBAWN ROAD,NEWTOWNARDS,CO DOWN,BURGER KING,Restaurant/Cafe/Canteen,1,0,,432714,0,,54.59008800000000,AR/D253/0000/0001,802,environmental.health@ards-council.gov.uk,Ards,http://www.ards-council.gov.uk,-5.66859900000000,BT23 8XX,2014-01-15,fhrs_5_en-GB,5,,FHRS,0
399928,UNIT 18 ARDS SHOPPING CENTRE,CIRCULAR ROAD,NEWTOWNARDS,DOWN,BURGER KING,Restaurant/Cafe/Canteen,1,0,,7757,0,,54.59296200000000,03/0020/0098/0005,802,environmental.health@ards-council.gov.uk,Ards,http://www.ards-council.gov.uk,-5.70950200000000,BT23 4EU,2014-09-29,fhrs_4_en-GB,4,,FHRS,10
399929,,19 MAIN STREET,KILLINCHY,DOWN,BURREN COTTAGE,Hotel/bed & breakfast/guest house,7842,5,,352769,0,,54.47159600000000,18/5231/5520/0001,802,environmental.health@ards-council.gov.uk,Ards,http://www.ards-council.gov.uk,-5.67526700000000,BT23 6PN,2012-04-18,fhrs_5_en-GB,5,,FHRS,0
399930,,35 MAIN STREET,BALLYWALTER,DOWN,CAFE ARDMORE AND GUESTHOUSE,Restaurant/Cafe/Canteen,1,5,,6067,5,,54.54329700000000,02/1129/0035/0001,802,environmental.health@ards-council.gov.uk,Ards,http://www.ards-council.gov.uk,-5.48461300000000,BT22 2PQ,2014-12-11,fhrs_4_en-GB,4,,FHRS,10
399931,ARDS SHOPPING CENTRE,CIRCULAR ROAD,NEWTOWNARDS,DOWN,CAFE BARISTA,Restaurant/Cafe/Canteen,1,0,,12460,0,,54.59296200000000,04/0166/0098/0005,802,environmental.health@ards-council.gov.uk,Ards,http://www.ards-council.gov.uk,-5.70950200000000,BT23 4EU,2013-06-25,fhrs_5_en-GB,5,,FHRS,0
399932,,1A KILLAUGHEY ROAD,DONAGHADEE,Down,CAFE MANOR,Restaurant/Cafe/Canteen,1,0,,151588,0,,54.63938900000000,AR/D180/0000/0001,802,environmental.health@ards-council.gov.uk,Ards,http://www.ards-council.gov.uk,-5.53598800000000,BT21 0BL,2014-12-10,fhrs_5_en-GB,5,,FHRS,5
399933,,"UNITS 1 - 2, 14 CONWAY SQUARE",NEWTOWNARDS,CO DOWN,CAFE NERO,Restaurant/Cafe/Canteen,1,0,,628488,0,,54.59326200000000,18/5218/8650/0001,802,environmental.health@ards-council.gov.uk,Ards,http://www.ards-council.gov.uk,-5.69548100000000,BT23 4DD,2014-01-10,fhrs_5_en-GB,5,,FHRS,5
399934,,10 REGENT STREET,NEWTOWNARDS,DOWN,CAFE TWO/CAFOLLA'S PREMIER CAFE,Restaurant/Cafe/Canteen,1,5,,13286,0,,54.59390100000000,04/1456/0010/0005,802,environmental.health@ards-council.gov.uk,Ards,http://www.ards-council.gov.uk,-5.69832400000000,BT23 4LH,2014-01-07,fhrs_5_en-GB,5,,FHRS,5
399935,,15 CONWAY SQUARE,NEWTOWNARDS,DOWN,CAFOLLA'S,Restaurant/Cafe/Canteen,1,5,,12789,5,,54.59347200000000,04/0220/0015/0002,802,environmental.health@ards-council.gov.uk,Ards,http://www.ards-council.gov.uk,-5.69658400000000,BT23 4DA,2014-07-22,fhrs_4_en-GB,4,,FHRS,10
399936,,,,,CANDYTUFT CAKES,Other catering premises,7841,0,,76881,0,,,18/5233/3890/0001,802,environmental.health@ards-council.gov.uk,Ards,http://www.ards-council.gov.uk,,,2013-11-07,fhrs_5_en-GB,5,,FHRS,0
399937,ARDS SHOPPING CENTRE,CIRCULAR ROAD,NEWTOWNARDS,DOWN,CARD FACTORY,Retailers - other,4613,,,494134,,,54.59296200000000,18/5726/4470/0001,802,environmental.health@ards-council.gov.uk,Ards,http://www.ards-council.gov.uk,-5.70950200000000,BT23 4EU,2013-01-14,fhrs_exempt_en-GB,Exempt,,FHRS,
399938,CARRICKMANNON PRIMARY SCHOOL,77 CARRICKMANNON ROAD,BALLYGOWAN,DOWN,CARRICKMANNON PRIMARY SCHOOL,School/college/university,7845,0,,2671,0,,54.48143900000000,01/0437/0077/0000,802,environmental.health@ards-council.gov.uk,Ards,http://www.ards-council.gov.uk,-5.77913400000000,BT23 6JJ,2012-06-07,fhrs_5_en-GB,5,,FHRS,0
399939,CARROWDORE & BALLYFRENIS PRESB,CHURCH ROAD,CARROWDORE,DOWN,CARROWDORE & BALLYFRENIS PRES CHURCH,Other catering premises,7841,,,63298,,,54.57594200000000,14/0462/0009/0018,802,environmental.health@ards-council.gov.uk,Ards,http://www.ards-council.gov.uk,-5.55335300000000,BT22 2HA,2014-03-28,fhrs_exempt_en-GB,Exempt,,FHRS,
399940,,0 CASTLE PLACE,CARROWDORE,CO DOWN,CARROWDORE EARLY YEARS CENTRE,Other catering premises,7841,5,,151614,0,,54.57793200000000,AR/D360/0000/0001,802,environmental.health@ards-council.gov.uk,Ards,http://www.ards-council.gov.uk,-5.55355900000000,BT22 2JJ,2012-05-30,fhrs_5_en-GB,5,,FHRS,0
399941,CARROWDORE PRIMARY SCHOOL,122A MAIN STREET,CARROWDORE,DOWN,CARROWDORE PRIMARY SCHOOL,School/college/university,7845,5,,6089,0,,54.57623700000000,02/1188/0122/0101,802,environmental.health@ards-council.gov.uk,Ards,http://www.ards-council.gov.uk,-5.55372200000000,BT22 2HW,2013-12-09,fhrs_5_en-GB,5,,FHRS,0
399942,,78 BALLYDRAIN ROAD,COMBER,DOWN,CASTLE ESPIE COFFEE SHOP,Restaurant/Cafe/Canteen,1,0,,19282,0,,54.52520000000000,06/0043/0080/0007,802,environmental.health@ards-council.gov.uk,Ards,http://www.ards-council.gov.uk,-5.69003300000000,BT23 6EA,2014-01-14,fhrs_5_en-GB,5,,FHRS,0
399943,,62 BOWTOWN ROAD,NEWTOWNARDS,DOWN,CASTLE GARDENS PRIMARY SCHOOL,School/college/university,7845,5,,58414,0,,54.58927200000000,13/070X/0069/0007,802,environmental.health@ards-council.gov.uk,Ards,http://www.ards-council.gov.uk,-5.67573200000000,BT23 8SH,2015-01-26,fhrs_5_en-GB,5,,FHRS,0
399944,CENTRA,1 THE SQUARE,CLOGHY,DOWN,CENTRA,Retailers - supermarkets/hypermarkets,7840,0,,53240,0,,54.42797200000000,12/1514/0002/0001,802,environmental.health@ards-council.gov.uk,Ards,http://www.ards-council.gov.uk,-5.48132800000000,BT22 1HR,2014-06-02,fhrs_5_en-GB,5,,FHRS,5
399945,,59 SHACKLETON WALK,NEWTOWNARDS,DOWN,CENTRA - WESTWINDS,Retailers - supermarkets/hypermarkets,7840,5,,79134,5,,54.57897200000000,19/0524/0059/0002,802,environmental.health@ards-council.gov.uk,Ards,http://www.ards-council.gov.uk,-5.70428500000000,BT23 4RE,2014-03-30,fhrs_5_en-GB,5,,FHRS,5
399946,UNIT A,35 REGENT STREET,NEWTOWNARDS,DOWN,CHAPTERS CAFE,Restaurant/Cafe/Canteen,1,0,,545769,5,,54.59445400000000,18/7367/1670/0001,802,environmental.health@ards-council.gov.uk,Ards,http://www.ards-council.gov.uk,-5.69956100000000,BT23 4AD,2013-04-22,fhrs_5_en-GB,5,,FHRS,5
399947,,23 HIGH STREET,NEWTOWNARDS,DOWN,CHEF AND MANAGER,Restaurant/Cafe/Canteen,1,0,,624895,0,,54.59298500000000,18/5220/6490/0001,802,environmental.health@ards-council.gov.uk,Ards,http://www.ards-council.gov.uk,-5.69693600000000,BT23 4JN,2014-01-14,fhrs_4_en-GB,4,,FHRS,10
399948,,65 CARRICKMANNON ROAD,BALLYGOWAN,DOWN,CHESTNUT INN,Restaurant/Cafe/Canteen,1,,,2670,,,54.49457700000000,01/0437/0065/0005,802,environmental.health@ards-council.gov.uk,Ards,http://www.ards-council.gov.uk,-5.78603200000000,BT23 6JH,2015-01-28,fhrs_exempt_en-GB,Exempt,,FHRS,
399949,,37 SOUTH STREET,NEWTOWNARDS,DOWN,CHINA PALACE,Takeaway/sandwich shop,7844,5,,13309,0,,54.59207300000000,04/1634/0037/0002,802,environmental.health@ards-council.gov.uk,Ards,http://www.ards-council.gov.uk,-5.69670900000000,BT23 4JT,2014-02-24,fhrs_4_en-GB,4,,FHRS,10
399950,,75 HARBOUR ROAD,PORTAVOGIE,DOWN,CHIP AHOY,Takeaway/sandwich shop,7844,10,,76746,10,,54.46076300000000,18/5211/2450/0001,802,environmental.health@ards-council.gov.uk,Ards,http://www.ards-council.gov.uk,-5.44158500000000,BT22 1EA,2014-04-14,fhrs_3_en-GB,3,,FHRS,10
399951,GREYABBEY COMMUNITY CENTRE,NEWTOWNARDS ROAD,NEWTOWNARDS,DOWN,CHIRPY CHICKS,Other catering premises,7841,0,,76942,0,,54.53725300000000,18/5881/9730/0001,802,environmental.health@ards-council.gov.uk,Ards,http://www.ards-council.gov.uk,-5.56693400000000,BT22 2QH,2014-06-13,fhrs_5_en-GB,5,,FHRS,5
399952,,7 PRINCESS ANNE ROAD,PORTAVOGIE,DOWN,CHOICE PIZZA LTD,Other catering premises,7841,,,642672,,,54.45854300000000,18/5729/2100/0001,802,environmental.health@ards-council.gov.uk,Ards,http://www.ards-council.gov.uk,-5.43817600000000,BT22 1DT,2014-02-24,fhrs_exempt_en-GB,Exempt,,FHRS,
399953,CASTLE GARDENS PRIMARY SCHOOL,69 BOWTOWN ROAD,NEWTOWNARDS,DOWN,CHUCKLES PRE-SCHOOL CENTRE,Other catering premises,7841,5,,704510,0,,54.58927200000000,18/5729/9950/0001,802,environmental.health@ards-council.gov.uk,Ards,http://www.ards-council.gov.uk,-5.67573200000000,BT23 8SH,2014-09-19,fhrs_5_en-GB,5,,FHRS,0
399954,,,,,CITY CHEESE,Retailers - other,4613,10,,709209,5,,,18/5214/3460/0001,802,environmental.health@ards-council.gov.uk,Ards,http://www.ards-council.gov.uk,,,2014-09-19,fhrs_4_en-GB,4,,FHRS,5
399955,SCHEME COORDINATOR,COOK COURT POUND STREET,NEWTOWNARDS,DOWN,CLANMILL HOUSING,Hospitals/Childcare/Caring Premises,5,0,,151577,5,,54.59267100000000,AR/D130/0000/0001,802,environmental.health@ards-council.gov.uk,Ards,http://www.ards-council.gov.uk,-5.69840800000000,BT23 4GN,2014-03-11,fhrs_5_en-GB,5,,FHRS,5
399956,,,,,CLARKS CUSTOM PRODUCTS,Other catering premises,7841,5,,632900,0,,,18/5215/1570/0001,802,environmental.health@ards-council.gov.uk,Ards,http://www.ards-council.gov.uk,,,2014-01-28,fhrs_5_en-GB,5,,FHRS,0
399957,,21 CONWAY SQUARE,NEWTOWNARDS,DOWN,CLIVE'S COUNTRY CORNER,Retailers - other,4613,,,12791,,,54.59347200000000,04/0220/0021/0005,802,environmental.health@ards-council.gov.uk,Ards,http://www.ards-council.gov.uk,-5.69658400000000,BT23 4DA,2014-12-04,fhrs_5_en-GB,5,,FHRS,
399958,,Stall 1 CONWAY SQUARE,Newtownards,Down,CLIVE'S FRUIT & VEG,Retailers - other,4613,0,,12793,0,,54.59326200000000,04/0220/0092/0002,802,environmental.health@ards-council.gov.uk,Ards,http://www.ards-council.gov.uk,-5.69548100000000,BT23 4DD,2012-05-12,fhrs_5_en-GB,5,,FHRS,0
399959,,61 PORTAFERRY ROAD,NEWTOWNARDS,DOWN,CLOUD 9,Restaurant/Cafe/Canteen,1,0,,76900,5,,54.58634800000000,18/5238/5940/0001,802,environmental.health@ards-council.gov.uk,Ards,http://www.ards-council.gov.uk,-5.68394400000000,BT23 8SG,2014-03-19,fhrs_5_en-GB,5,,FHRS,5
399960,CLOUGHY PRESBYTERIAN CHURH,69A MAIN ROAD,CLOGHY,DOWN,CLOUGHEY PRESBYTERIAN CHURCH,Other catering premises,7841,,,76946,,,54.44333000000000,18/5894/5290/0001,802,environmental.health@ards-council.gov.uk,Ards,http://www.ards-council.gov.uk,-5.45778200000000,BT22 1JD,2014-04-25,fhrs_exempt_en-GB,Exempt,,FHRS,
399961,,1 STRAND VIEW,BALLYWALTER,DOWN,COAST TO COAST FOODS,Distributors/Transporters,7,5,,76797,0,,54.54126300000000,18/5218/0330/0001,802,environmental.health@ards-council.gov.uk,Ards,http://www.ards-council.gov.uk,-5.48404300000000,BT22 2TL,2012-01-06,fhrs_5_en-GB,5,,FHRS,5
399962,,19 HIGH STREET,COMBER,CO DOWN,COATMAKERS CAFE,Restaurant/Cafe/Canteen,1,5,,511212,0,,54.54975600000000,AR/D141/0000/0001,802,environmental.health@ards-council.gov.uk,Ards,http://www.ards-council.gov.uk,-5.74803300000000,BT23 5HJ,2013-02-19,fhrs_5_en-GB,5,,FHRS,0
399963,,,,,COFFEE AND CREPES,Retailers - other,4613,0,,76970,0,,,18/7173/2540/0001,802,environmental.health@ards-council.gov.uk,Ards,http://www.ards-council.gov.uk,,,2012-11-12,fhrs_5_en-GB,5,,FHRS,0
399964,,,,,COFFEE ANGELS,Mobile caterer,7846,0,,686997,0,,,18/5209/8140/0001,802,environmental.health@ards-council.gov.uk,Ards,http://www.ards-council.gov.uk,,,2014-07-10,fhrs_5_en-GB,5,,FHRS,0
399965,COMBER BAPTIST CHURCH,72 MILL STREET,COMBER,DOWN,COMBER BAPTIST CHURCH,Other catering premises,7841,,,76936,,,54.55175300000000,18/5881/6030/0001,802,environmental.health@ards-council.gov.uk,Ards,http://www.ards-council.gov.uk,-5.75055100000000,BT23 5EG,2013-10-24,fhrs_exempt_en-GB,Exempt,,FHRS,
399966,,7 LONDONDERRY AVENUE,COMBER,DOWN,COMBER BOWLING CLUB,Other catering premises,7841,5,,76919,0,,54.55266900000000,18/5727/3320/0001,802,environmental.health@ards-council.gov.uk,Ards,http://www.ards-council.gov.uk,-5.75829100000000,BT23 5ES,2013-08-21,fhrs_5_en-GB,5,,FHRS,0
399967,LAURELDALE HALL,1 LAUREL BANK,COMBER,DOWN,COMBER CHRISTIAN CENTRE,Other catering premises,7841,5,,76931,5,,54.55066800000000,18/5729/8870/0001,802,environmental.health@ards-council.gov.uk,Ards,http://www.ards-council.gov.uk,-5.75214100000000,BT23 5EJ,2013-03-28,fhrs_5_en-GB,5,,FHRS,5
399968,ST MARY'S PAROCHIAL HALL,24 THE SQUARE,COMBER,DOWN,COMBER COMMUNITY PLAYGROUP,Other catering premises,7841,5,,76836,5,,54.55008300000000,18/5225/4500/0001,802,environmental.health@ards-council.gov.uk,Ards,http://www.ards-council.gov.uk,-5.74435100000000,BT23 5DU,2011-12-20,fhrs_5_en-GB,5,,FHRS,5
399969,COMBER LEISURE CENTRE,15 CASTLE STREET,COMBER,DOWN,COMBER LEISURE CENTRE,Restaurant/Cafe/Canteen,1,5,,76838,5,,54.55094200000000,18/5225/4790/0001,802,environmental.health@ards-council.gov.uk,Ards,http://www.ards-council.gov.uk,-5.74756600000000,BT23 5DZ,2014-05-21,fhrs_5_en-GB,5,,FHRS,5
399970,COMBER PRIMARY SCHOOL,DARRAGH ROAD,COMBER,DOWN,COMBER PRIMARY SCHOOL,School/college/university,7845,0,,15800,0,,54.55337300000000,05/0250/0002/0702,802,environmental.health@ards-council.gov.uk,Ards,http://www.ards-council.gov.uk,-5.74205200000000,BT23 5BX,2014-06-09,fhrs_5_en-GB,5,,FHRS,0
399971,,3 PARK WAY,COMBER,DOWN,COMBER RECREATIONAL FOOTBALL CLUB,Pub/bar/nightclub,7843,0,,76937,0,,54.54942400000000,18/5881/6690/0001,802,environmental.health@ards-council.gov.uk,Ards,http://www.ards-council.gov.uk,-5.74179100000000,BT23 5AR,2013-10-29,fhrs_5_en-GB,5,,FHRS,0
399972,THE COOPERAGE,3A KILLINCHY STREET,COMBER,DOWN,COMBER TANDOORI,Restaurant/Cafe/Canteen,1,10,,76830,0,,54.54833700000000,18/5224/4770/0001,802,environmental.health@ards-council.gov.uk,Ards,http://www.ards-council.gov.uk,-5.74420000000000,BT23 5AP,2014-01-07,fhrs_4_en-GB,4,,FHRS,10
399973,,12 CASTLE STREET,COMBER,DOWN,CONNOISSEURS HOME BAKERY,Manufacturers/packers,7839,,,76845,,,54.55098300000000,18/5225/5250/0001,802,environmental.health@ards-council.gov.uk,Ards,http://www.ards-council.gov.uk,-5.74733100000000,BT23 5DZ,2014-01-28,fhrs_3_en-GB,3,,FHRS,
399974,,18-24 NEW STREET,DONAGHADEE,DOWN,CO-OP LATESHOP LTD,Retailers - supermarkets/hypermarkets,7840,5,,27227,0,,54.64192100000000,08/1121/0020/000X,802,environmental.health@ards-council.gov.uk,Ards,http://www.ards-council.gov.uk,-5.53543200000000,BT21 0AG,2012-11-30,fhrs_4_en-GB,4,,FHRS,10
399975,2 COPELAND FOLD,CANNYREAGH ROAD,DONAGHADEE,DOWN,COPELAND FOLD,Other catering premises,7841,5,,31445,0,,54.64104400000000,09/0163/0002/0001,802,environmental.health@ards-council.gov.uk,Ards,http://www.ards-council.gov.uk,-5.53914100000000,BT21 0BS,2014-06-05,fhrs_5_en-GB,5,,FHRS,0
399976,UNIT 22B ARDS SHOPPING CENTRE,0 CIRCULAR ROAD,NEWTOWNARDS,CO DOWN,CORE FARM SHOP,Retailers - other,4613,20,,704509,10,,54.59296200000000,18/5726/4610/0001,802,environmental.health@ards-council.gov.uk,Ards,http://www.ards-council.gov.uk,-5.70950200000000,BT23 4EU,2014-08-21,fhrs_1_en-GB,1,,FHRS,15
399977,,7 REGENT STREET,NEWTOWNARDS,DOWN,CORRIE'S FARM BUTCHERS,Retailers - other,4613,5,,6192,5,,54.59421500000000,0204/1456/0007/0900,802,environmental.health@ards-council.gov.uk,Ards,http://www.ards-council.gov.uk,-5.69787300000000,BT23 4AB,2014-07-28,fhrs_5_en-GB,5,,FHRS,5
399978,,13 CROSSNAMUCKLEY ROAD,NEWTOWNARDS,DOWN,CORRIES MEATS LTD,Manufacturers/packers,7839,0,,63316,0,,54.59136400000000,14/0616/0013/0001,802,environmental.health@ards-council.gov.uk,Ards,http://www.ards-council.gov.uk,-5.60876800000000,BT22 2AA,2012-02-22,fhrs_5_en-GB,5,,FHRS,5
399979,UNIT 2 ARDS SHOPPING CENTRE,CIRCULAR ROAD,NEWTOWNARDS,DOWN,COSTA COFFEE,Restaurant/Cafe/Canteen,1,0,,76911,5,,54.59296200000000,18/5726/4710/0001,802,environmental.health@ards-council.gov.uk,Ards,http://www.ards-council.gov.uk,-5.70950200000000,BT23 4EU,2014-07-07,fhrs_5_en-GB,5,,FHRS,5
399980,,UNITS 1-3 BELFAST ROAD,BALLYGOWAN,DOWN,COSTCUTTER,Retailers - supermarkets/hypermarkets,7840,0,,76865,0,,54.50332900000000,18/5230/7870/0001,802,environmental.health@ards-council.gov.uk,Ards,http://www.ards-council.gov.uk,-5.79241400000000,BT23 6HX,2013-08-28,fhrs_5_en-GB,5,,FHRS,5
399981,,83 MAIN STREET,KIRCUBBIN,DOWN,COSTCUTTERS,Retailers - supermarkets/hypermarkets,7840,5,,53161,0,,54.48795600000000,12/0887/0083/0003,802,environmental.health@ards-council.gov.uk,Ards,http://www.ards-council.gov.uk,-5.53411700000000,BT22 2SR,2012-03-21,fhrs_4_en-GB,4,,FHRS,10
399982,,73-75 MAIN STREET,BALLYWALTER,DOWN,COUNTRY COOKIN,Restaurant/Cafe/Canteen,1,5,,6070,0,,54.54488300000000,02/1129/0075/000X,802,environmental.health@ards-council.gov.uk,Ards,http://www.ards-council.gov.uk,-5.48572100000000,BT22 2PJ,2013-06-26,fhrs_5_en-GB,5,,FHRS,5
399983,,223 KILLAUGHEY ROAD,DONAGHADEE,DOWN,COUNTRY KIDS DAY NURSERY,Other catering premises,7841,5,,31595,0,,54.62962700000000,09/0589/0223/0003,802,environmental.health@ards-council.gov.uk,Ards,http://www.ards-council.gov.uk,-5.54910800000000,BT21 0LJ,2015-01-13,fhrs_5_en-GB,5,,FHRS,0
399984,CASTLE YARD,UNIT 12 CASTLE STREET,PORTAFERRY,CO DOWN,CRAFTY CAKES AND COFFEE SHOP & BAKERY,Restaurant/Cafe/Canteen,1,5,,151586,5,,54.38143100000000,AR/D168/0000/0001,802,environmental.health@ards-council.gov.uk,Ards,http://www.ards-council.gov.uk,-5.54848400000000,BT22 1NZ,2014-05-09,fhrs_5_en-GB,5,,FHRS,5
399985,,,,,CRAIGARUSKY MOBILE,Retailers - other,4613,5,,49426,0,,,11/0709/0006/0003,802,environmental.health@ards-council.gov.uk,Ards,http://www.ards-council.gov.uk,,,2013-07-23,fhrs_5_en-GB,5,,FHRS,5
399986,,3 THE SQUARE,BALLYGOWAN,DOWN,CRAIGS NEWSAGENTS,Retailers - other,4613,,,2888,,,54.50260500000000,01/1549/0003/0007,802,environmental.health@ards-council.gov.uk,Ards,http://www.ards-council.gov.uk,-5.79168100000000,BT23 6HZ,2013-02-01,fhrs_exempt_en-GB,Exempt,,FHRS,
399987,,32A STOCKBRIDGE ROAD,DONAGHADEE,DOWN,CREATIVE GARDENS CAFE,Restaurant/Cafe/Canteen,1,0,,27284,0,,54.66101000000000,08/1334/0034/0006,802,environmental.health@ards-council.gov.uk,Ards,http://www.ards-council.gov.uk,-5.57387900000000,BT21 0PN,2013-06-20,fhrs_5_en-GB,5,,FHRS,5
399988,,,,,CREPE EXPRESS,Retailers - other,4613,0,,76828,0,,,18/5224/0980/0001,802,environmental.health@ards-council.gov.uk,Ards,http://www.ards-council.gov.uk,,,2012-11-12,fhrs_5_en-GB,5,,FHRS,0
399989,,235 MILLISLE ROAD,DONAGHADEE,DOWN,CROAGH PATRICK CLINIC,Hospitals/Childcare/Caring Premises,5,5,,31647,5,,54.62591500000000,09/0791/0235/0009,802,environmental.health@ards-council.gov.uk,Ards,http://www.ards-council.gov.uk,-5.53443300000000,BT21 0LN,2014-09-11,fhrs_5_en-GB,5,,FHRS,5
399990,,81 MILL STREET,COMBER,DOWN,CROSSAN'S NEWSAGENTS,Retailers - other,4613,,,23749,,,54.55175300000000,07/124X/0081/0002,802,environmental.health@ards-council.gov.uk,Ards,http://www.ards-council.gov.uk,-5.75055100000000,BT23 5EG,2014-07-09,fhrs_exempt_en-GB,Exempt,,FHRS,
399991,,,,,CUPCAKE RAINBOW,Other catering premises,7841,5,,504115,0,,,18/7300/3540/0001,802,environmental.health@ards-council.gov.uk,Ards,http://www.ards-council.gov.uk,,,2013-01-23,fhrs_5_en-GB,5,,FHRS,0
399992,,51-53 MAIN STREET,CARROWDORE,DOWN,D A & E MUCKLE,Retailers - other,4613,,,6087,,,54.57459800000000,02/1188/0051/0009,802,environmental.health@ards-council.gov.uk,Ards,http://www.ards-council.gov.uk,-5.55666600000000,BT22 2HN,2014-02-07,fhrs_exempt_en-GB,Exempt,,FHRS,
399993,,91 HIGH STREET,PORTAFERRY,DOWN,D W RETAIL LTD T/A CENTRA PORTAFERRY,Retailers - supermarkets/hypermarkets,7840,0,,70715,5,,54.38460400000000,16/1125/0091/0007,802,environmental.health@ards-council.gov.uk,Ards,http://www.ards-council.gov.uk,-5.54055100000000,BT22 1QU,2013-05-24,fhrs_5_en-GB,5,,FHRS,5
399994,,SKETRICK ISLAND,KILLINCHY,DOWN,DAFT EDDY'S,Restaurant/Cafe/Canteen,1,20,,49522,15,,54.33567428588867,11/187X/0003/0007,802,environmental.health@ards-council.gov.uk,Ards,http://www.ards-council.gov.uk,-5.79498720169067,BT23 6QH,2014-10-02,fhrs_1_en-GB,1,,FHRS,15
399995,ARDS COMMUNITY HOSPITAL,CHURCH STREET,NEWTOWNARDS,DOWN,DAISIES CAFE,Restaurant/Cafe/Canteen,1,5,,7929,5,,54.59374200000000,03/0314/0001/0006,802,environmental.health@ards-council.gov.uk,Ards,http://www.ards-council.gov.uk,-5.70607000000000,BT23 4AS,2013-07-08,fhrs_5_en-GB,5,,FHRS,5
399996,,11 THE SQUARE,BALLYGOWAN,DOWN,DALZELL'S FRESH FRUIT & VEGETABLES,Retailers - other,4613,5,,76866,0,,54.50295000000000,18/5230/7960/0001,802,environmental.health@ards-council.gov.uk,Ards,http://www.ards-council.gov.uk,-5.79184700000000,BT23 6HY,2014-07-02,fhrs_5_en-GB,5,,FHRS,5
399997,,12 BRIDGE STREET,COMBER,DOWN,DAVID'S CHIP SHOP,Takeaway/sandwich shop,7844,10,,27114,5,,54.55094800000000,08/0311/0012/0006,802,environmental.health@ards-council.gov.uk,Ards,http://www.ards-council.gov.uk,-5.74353100000000,BT23 5AT,2014-11-27,fhrs_4_en-GB,4,,FHRS,5
399998,,5-7 THE SQUARE,BALLYGOWAN,DOWN,DAVIDSON'S,Pub/bar/nightclub,7843,0,,2889,0,,54.50260500000000,01/1549/0007/0009,802,environmental.health@ards-council.gov.uk,Ards,http://www.ards-council.gov.uk,-5.79168100000000,BT23 6HZ,2012-06-26,fhrs_5_en-GB,5,,FHRS,5
399999,,6B NORTH STREET,NEWTOWNARDS,DOWN,DAVY LEE CHINESE TAKE AWAY,Takeaway/sandwich shop,7844,,,76959,,,54.59492500000000,18/7141/4540/0001,802,environmental.health@ards-council.gov.uk,Ards,http://www.ards-council.gov.uk,-5.69549600000000,BT23 4DE,2014-03-21,fhrs_4_en-GB,4,,FHRS,
400000,,2B DARRAGH ROAD,COMBER,DOWN,DAY TODAY,Retailers - supermarkets/hypermarkets,7840,10,,15798,10,,54.55337300000000,05/0250/0002/0001,802,environmental.health@ards-council.gov.uk,Ards,http://www.ards-council.gov.uk,-5.74205200000000,BT23 5BX,2014-06-25,fhrs_3_en-GB,3,,FHRS,10
400001,,,,,DEBBIE'S SWEET BOUTIQUE,Other catering premises,7841,0,,655689,0,,,18/5232/7650/0001,802,environmental.health@ards-council.gov.uk,Ards,http://www.ards-council.gov.uk,,,2014-04-16,fhrs_5_en-GB,5,,FHRS,0
400002,,,,,DEECUPS,Other catering premises,7841,5,,76977,0,,,18/7282/2060/0001,802,environmental.health@ards-council.gov.uk,Ards,http://www.ards-council.gov.uk,,,2014-09-08,fhrs_5_en-GB,5,,FHRS,0
400003,,16 NEW STREET,DONAGHADEE,DOWN,DEELICIOUS,Restaurant/Cafe/Canteen,1,10,,76963,0,,54.64192100000000,18/7144/4550/0001,802,environmental.health@ards-council.gov.uk,Ards,http://www.ards-council.gov.uk,-5.53543200000000,BT21 0AG,2014-03-25,fhrs_4_en-GB,4,,FHRS,10
400004,,1A CASTLE STREET,PORTAFERRY,DOWN,DELI-LICIOUS,Restaurant/Cafe/Canteen,1,5,,70510,5,,54.38143100000000,16/0552/0001/0006,802,environmental.health@ards-council.gov.uk,Ards,http://www.ards-council.gov.uk,-5.54848400000000,BT22 1NZ,2013-10-01,fhrs_4_en-GB,4,,FHRS,10
400005,,,,,DELIVERING UR CURE,Other catering premises,7841,0,,698934,5,,,18/5225/8160/0001,802,environmental.health@ards-council.gov.uk,Ards,http://www.ards-council.gov.uk,,,2014-08-13,fhrs_5_en-GB,5,,FHRS,0
400006,,,,,DINKY DONUTS,Mobile caterer,7846,5,,576527,0,,,AR/D273/0000/0001,802,environmental.health@ards-council.gov.uk,Ards,http://www.ards-council.gov.uk,,,2013-07-30,fhrs_5_en-GB,5,,FHRS,0
400007,,0 CASTLEBAWN ROAD,NEWTOWNARDS,CO DOWN,DISCOUNT NI,Retailers - other,4613,0,,151609,10,,54.59008800000000,AR/D240/0000/0002,802,environmental.health@ards-council.gov.uk,Ards,http://www.ards-council.gov.uk,-5.66859900000000,BT23 8XX,2013-05-14,fhrs_4_en-GB,4,,FHRS,5
400008,MOVILLA HOUSE,2 BERKSHIRE ROAD,NEWTOWNARDS,DOWN,DOMESTIC CARE LTD,Other catering premises,7841,0,,67129,0,,54.60039600000000,15/0700/0099/0000,802,environmental.health@ards-council.gov.uk,Ards,http://www.ards-council.gov.uk,-5.67802300000000,BT23 7HH,2014-01-27,fhrs_5_en-GB,5,,FHRS,0
400009,UNIT 4,44 - 54 DONAGHADEE ROAD,NEWTOWNARDS,CO DOWN,DOMINO'S PIZZA,Takeaway/sandwich shop,7844,0,,151584,0,,54.60674600000000,AR/D164/0000/0001,802,environmental.health@ards-council.gov.uk,Ards,http://www.ards-council.gov.uk,-5.67975100000000,BT23 7UE,2014-07-07,fhrs_5_en-GB,5,,FHRS,0
400010,,52 NORTHFIELD ROAD,DONAGHADEE,DOWN,DONAGHADEE (B & B),Hotel/bed & breakfast/guest house,7842,10,,211137,0,,54.63975500000000,09/0945/0052/0004,802,environmental.health@ards-council.gov.uk,Ards,http://www.ards-council.gov.uk,-5.53807300000000,BT21 0BD,2012-02-15,fhrs_4_en-GB,4,,FHRS,0
400011,,2 MILLISLE ROAD,DONAGHADEE,DOWN,DONAGHADEE BAPTIST CHURCH,Other catering premises,7841,,,76952,,,54.63889900000000,18/5950/6660/0001,802,environmental.health@ards-council.gov.uk,Ards,http://www.ards-council.gov.uk,-5.53353900000000,BT21 0HY,2013-03-28,fhrs_exempt_en-GB,Exempt,,FHRS,
400012,PAVILION,MILLISLE ROAD,DONAGHADEE,DOWN,DONAGHADEE BOWLING CLUB,Other catering premises,7841,5,,31645,5,,54.63242200000000,09/0791/0050/0003,802,environmental.health@ards-council.gov.uk,Ards,http://www.ards-council.gov.uk,-5.53362100000000,BT21 0LA,2012-03-29,fhrs_5_en-GB,5,,FHRS,5
400013,DONAGHADEE PRIMARY SCHOOL,40 NORTHFIELD ROAD,DONAGHADEE,DOWN,DONAGHADEE CENTRAL SCHOOL MEALS KITCHEN,School/college/university,7845,0,,31703,0,,54.63975500000000,09/0945/0040/0009,802,environmental.health@ards-council.gov.uk,Ards,http://www.ards-council.gov.uk,-5.53807300000000,BT21 0BD,2014-03-24,fhrs_5_en-GB,5,,FHRS,5
400014,,4A NEW STREET,DONAGHADEE,DOWN,DONAGHADEE FRUIT & VEG,Retailers - other,4613,0,,76962,5,,54.64192100000000,18/7144/1170/0001,802,environmental.health@ards-council.gov.uk,Ards,http://www.ards-council.gov.uk,-5.53543200000000,BT21 0AG,2014-09-25,fhrs_5_en-GB,5,,FHRS,0
400015,DONAGHADEE METHODIST CHURCH,2-6 MOAT STREET,DONAGHADEE,DOWN,DONAGHADEE METHODIST CHURCH,Other catering premises,7841,,,370653,,,54.64282000000000,18/5873/6140/0001,802,environmental.health@ards-council.gov.uk,Ards,http://www.ards-council.gov.uk,-5.53853800000000,BT21 0DA,2014-02-17,fhrs_exempt_en-GB,Exempt,,FHRS,
400016,,20 SHORE STREET,DONAGHADEE,DOWN,DONAGHADEE SAILING CLUB,Restaurant/Cafe/Canteen,1,0,,76740,5,,54.64398300000000,18/5207/8660/0001,802,environmental.health@ards-council.gov.uk,Ards,http://www.ards-council.gov.uk,-5.53874700000000,BT21 0DG,2014-09-25,fhrs_5_en-GB,5,,FHRS,0
400017,,,,,DONNA D'S,Retailers - other,4613,5,,698936,0,,,18/7253/1340/0001,802,environmental.health@ards-council.gov.uk,Ards,http://www.ards-council.gov.uk,,,2014-09-01,fhrs_5_en-GB,5,,FHRS,0
400018,,BELFAST ROAD,NEWTOWNARDS,DOWN,DOWNTOWN RADIO (MOUNT CHARLES CATERING),Restaurant/Cafe/Canteen,1,10,,7917,0,,54.59724100000000,03/0225/0050/0003,802,environmental.health@ards-council.gov.uk,Ards,http://www.ards-council.gov.uk,-5.72336000000000,BT23 4ES,2013-09-23,fhrs_4_en-GB,4,,FHRS,0
400019,,00 UPPER GRANSHA ROAD,NEWTOWNARDS,DOWN,DRUMAWHEY JUNCTION RAILWAY,Restaurant/Cafe/Canteen,1,5,,151597,5,,54.61106200000000,AR/D210/0000/0001,802,environmental.health@ards-council.gov.uk,Ards,http://www.ards-council.gov.uk,-5.60652900000000,BT21 0LZ,2011-12-20,fhrs_5_en-GB,5,,FHRS,5
400020,,231 BELFAST ROAD,DUNDONALD,CO DOWN,DUNDONALD OLD MILL COFFEE HOUSE,Restaurant/Cafe/Canteen,1,5,,76439,0,,54.59610100000000,18/0316/0231/0007,802,environmental.health@ards-council.gov.uk,Ards,http://www.ards-council.gov.uk,-5.77223100000000,BT16 1UE,2013-07-17,fhrs_5_en-GB,5,,FHRS,5
400021,UNIT 2 ARDS SHOPPING CENTRE,CIRCULAR ROAD,NEWTOWNARDS,DOWN,EASON & SON (NI) LTD,Retailers - other,4613,,,12458,,,54.59296200000000,04/0166/0089/0006,802,environmental.health@ards-council.gov.uk,Ards,http://www.ards-council.gov.uk,-5.70950200000000,BT23 4EU,2012-03-29,fhrs_exempt_en-GB,Exempt,,FHRS,
400022,,16A CASTLE STREET,NEWTOWNARDS,DOWN,EASTERN TANDOORI (INDIAN RESTAURANT),Restaurant/Cafe/Canteen,1,10,,12051,5,,54.59181900000000,04/0107/0016/0008,802,environmental.health@ards-council.gov.uk,Ards,http://www.ards-council.gov.uk,-5.69188000000000,BT23 7PA,2014-06-03,fhrs_4_en-GB,4,,FHRS,5
400023,,218 ABBEY ROAD,MILLISLE,DOWN,EDEN POTTERY,Restaurant/Cafe/Canteen,1,5,,63205,0,,54.59159600000000,14/0071/0028/0003,802,environmental.health@ards-council.gov.uk,Ards,http://www.ards-council.gov.uk,-5.55515300000000,BT22 2DH,2013-07-30,fhrs_5_en-GB,5,,FHRS,5
400024,,130 PORTAFERRY ROAD,NEWTOWNARDS,DOWN,EDENVALE HOUSE (B & B),Hotel/bed & breakfast/guest house,7842,0,,58467,0,,54.56893400000000,13/1390/0130/0008,802,environmental.health@ards-council.gov.uk,Ards,http://www.ards-council.gov.uk,-5.65038300000000,BT22 2AH,2013-08-06,fhrs_5_en-GB,5,,FHRS,0
400025,EDGEWATER NURSING HOME,SUNNYDALE AVENUE,DONAGHADEE,DOWN,EDGEWATER LODGE NURSING HOME,Hospitals/Childcare/Caring Premises,5,10,,31777,0,,54.63436800000000,09/1186/0001/0006,802,environmental.health@ards-council.gov.uk,Ards,http://www.ards-council.gov.uk,-5.53386000000000,BT21 0LE,2014-01-09,fhrs_4_en-GB,4,,FHRS,5
400026,,35 MAIN STREET,MILLISLE,DOWN,EMPORIUM ASIAN CUISINE,Takeaway/sandwich shop,7844,10,,76782,10,,54.60871500000000,18/5216/1190/0001,802,environmental.health@ards-council.gov.uk,Ards,http://www.ards-council.gov.uk,-5.52864600000000,BT22 2BL,2013-05-29,fhrs_3_en-GB,3,,FHRS,10
400027,,,,,EVA PARIS,Other catering premises,7841,5,,628490,0,,,AR/D282/0000/0001,802,environmental.health@ards-council.gov.uk,Ards,http://www.ards-council.gov.uk,,,2014-01-15,fhrs_5_en-GB,5,,FHRS,0
400028,,0 CASTLE STREET,PORTAFERRY,CO DOWN,EXPLORIS (CAFE),Restaurant/Cafe/Canteen,1,5,,445191,10,,54.38143100000000,18/5213/2110/0001,802,environmental.health@ards-council.gov.uk,Ards,http://www.ards-council.gov.uk,-5.54848400000000,BT22 1NZ,2014-02-19,fhrs_4_en-GB,4,,FHRS,5
400029,,39 CASTLE STREET,COMBER,DOWN,EXPRESS PIZZA,Takeaway/sandwich shop,7844,10,,76839,10,,54.55116600000000,18/5225/4910/0001,802,environmental.health@ards-council.gov.uk,Ards,http://www.ards-council.gov.uk,-5.74750700000000,BT23 5DY,2014-09-22,fhrs_3_en-GB,3,,FHRS,5
400030,,,,,EXTREME CAKEOVER,Other catering premises,7841,0,,479196,0,,,18/5219/9300/0001,802,environmental.health@ards-council.gov.uk,Ards,http://www.ards-council.gov.uk,,,2012-11-19,fhrs_5_en-GB,5,,FHRS,0
400031,,1 THE SQUARE,BALLYGOWAN,DOWN,FARLEY HOUSE,Takeaway/sandwich shop,7844,5,,76867,10,,54.50260500000000,18/5230/8000/0001,802,environmental.health@ards-council.gov.uk,Ards,http://www.ards-council.gov.uk,-5.79168100000000,BT23 6HZ,2013-08-28,fhrs_4_en-GB,4,,FHRS,5
400032,,25 BALLYKEIGLE ROAD,COMBER,DOWN,FARMAGEDDON BREWING CO-OP,Manufacturers/packers,7839,,,655687,,,54.50434100000000,18/5228/4050/0001,802,environmental.health@ards-council.gov.uk,Ards,http://www.ards-council.gov.uk,-5.75033100000000,BT23 5SD,2014-04-09,fhrs_exempt_en-GB,Exempt,,FHRS,
400033,,69 KEMPE STONES ROAD,NEWTOWNARDS,DOWN,FARMBOX,Distributors/Transporters,7,0,,642671,0,,54.59017900000000,18/5223/3180/0002,802,environmental.health@ards-council.gov.uk,Ards,http://www.ards-council.gov.uk,-5.72725100000000,BT23 4SQ,2014-02-21,fhrs_5_en-GB,5,,FHRS,5
400034,,133 GREYABBEY ROAD,BALLYWALTER,DOWN,FAST TRACK QUADS,Restaurant/Cafe/Canteen,1,0,,76784,0,,54.54139200000000,18/5216/4360/0001,802,environmental.health@ards-council.gov.uk,Ards,http://www.ards-council.gov.uk,-5.48983100000000,BT22 2NY,2011-12-20,fhrs_5_en-GB,5,,FHRS,0
400035,,10 CHURCH STREET,PORTAFERRY,DOWN,FIDDLERS GREEN,Restaurant/Cafe/Canteen,1,5,,70530,0,,54.38275100000000,16/0641/0010/0005,802,environmental.health@ards-council.gov.uk,Ards,http://www.ards-council.gov.uk,-5.54711200000000,BT22 1LS,2012-09-06,fhrs_5_en-GB,5,,FHRS,0
400036,,26 BRIDGE STREET,COMBER,DOWN,FINEST CUT,Retailers - other,4613,5,,20218,5,,54.55094800000000,06/0191/0026/0002,802,environmental.health@ards-council.gov.uk,Ards,http://www.ards-council.gov.uk,-5.74353100000000,BT23 5AT,2014-08-12,fhrs_5_en-GB,5,,FHRS,5
400037,,,,,FINLAY'S PLACE,Retailers - other,4613,0,,690114,0,,,18/5231/4400/0001,802,environmental.health@ards-council.gov.uk,Ards,http://www.ards-council.gov.uk,,,2014-07-03,fhrs_5_en-GB,5,,FHRS,0
400038,,1 COOKS BRAE,KIRCUBBIN,DOWN,FINNEGAN'S BAR,Pub/bar/nightclub,7843,0,,445193,0,,54.48693200000000,18/5217/7180/0001,802,environmental.health@ards-council.gov.uk,Ards,http://www.ards-council.gov.uk,-5.53235700000000,BT22 2SQ,2014-08-06,fhrs_5_en-GB,5,,FHRS,0
400039,,37-39 MAIN STREET,MILLISLE,DOWN,FIRST & LAST,Pub/bar/nightclub,7843,5,,63418,0,,54.60871500000000,14/1035/0037/0002,802,environmental.health@ards-council.gov.uk,Ards,http://www.ards-council.gov.uk,-5.52864600000000,BT22 2BL,2013-05-03,fhrs_5_en-GB,5,,FHRS,5
400040,,42-44 BRIDGE STREET,COMBER,DOWN,FIRST AND LAST,Pub/bar/nightclub,7843,,,726270,,,54.55094800000000,18/5224/5680/0001,802,environmental.health@ards-council.gov.uk,Ards,http://www.ards-council.gov.uk,-5.74353100000000,BT23 5AT,2014-04-17,fhrs_exempt_en-GB,Exempt,,FHRS,
400041,FIRST PRESBYTERIAN CHURCH,20 HIGH STREET,DONAGHADEE,DOWN,FIRST PRESBYTERIAN CHURCH,Other catering premises,7841,,,504114,,,54.64181200000000,18/5727/4740/0001,802,environmental.health@ards-council.gov.uk,Ards,http://www.ards-council.gov.uk,-5.53669400000000,BT21 0AH,2014-07-17,fhrs_exempt_en-GB,Exempt,,FHRS,
400042,,,,,FLORIDA ICES,Retailers - other,4613,5,,76904,0,,,18/5239/9750/0001,802,environmental.health@ards-council.gov.uk,Ards,http://www.ards-council.gov.uk,,,2011-12-20,fhrs_5_en-GB,5,,FHRS,0
400043,,40A FRANCES STREET,NEWTOWNARDS,CO DOWN,FOOD SHOP BRAVO,Retailers - supermarkets/hypermarkets,7840,5,,669428,0,,54.59381900000000,AR/D302/0000/0001,802,environmental.health@ards-council.gov.uk,Ards,http://www.ards-council.gov.uk,-5.69450600000000,BT23 7DN,2014-06-10,fhrs_5_en-GB,5,,FHRS,5
400044,,8 COURT STREET,NEWTOWNARDS,DOWN,FORTUNE HOUSE,Restaurant/Cafe/Canteen,1,5,,76892,5,,54.59129500000000,18/5234/5310/0001,802,environmental.health@ards-council.gov.uk,Ards,http://www.ards-council.gov.uk,-5.69457100000000,BT23 7NX,2013-12-06,fhrs_4_en-GB,4,,FHRS,10
400045,,17 CASTLE STREET,COMBER,DOWN,FOUR SEASONS HEALTH CARE LIMITED,Hospitals/Childcare/Caring Premises,5,0,,23569,5,,54.55116600000000,07/0316/0017/0003,802,environmental.health@ards-council.gov.uk,Ards,http://www.ards-council.gov.uk,-5.74750700000000,BT23 5DY,2014-12-09,fhrs_5_en-GB,5,,FHRS,5
400046,,107-117 FRANCES STREET,NEWTOWNARDS,DOWN,FRANCES STREET SERVICE STATION LTD,Retailers - supermarkets/hypermarkets,7840,0,,13091,5,,54.59317600000000,04/0379/0107/0002,802,environmental.health@ards-council.gov.uk,Ards,http://www.ards-council.gov.uk,-5.69050400000000,BT23 7DX,2014-07-09,fhrs_5_en-GB,5,,FHRS,5
400047,APARTMENT 20 FAIRWAYS,MAIN ROAD,CLOGHY,DOWN,FRESH FISH,Retailers - other,4613,10,,418784,5,,54.44004000000000,18/6003/8410/0001,802,environmental.health@ards-council.gov.uk,Ards,http://www.ards-council.gov.uk,-5.46711300000000,BT22 1JW,2014-04-18,fhrs_4_en-GB,4,,FHRS,5
400048,,,,,FUDGE MAKING,Other catering premises,7841,5,,66906,0,,,15/0107/0012/0006,802,environmental.health@ards-council.gov.uk,Ards,http://www.ards-council.gov.uk,,,2013-01-25,fhrs_5_en-GB,5,,FHRS,0
400049,,1 BUSH ROAD,BALLYHALBERT,DOWN,FUN FARM,Other catering premises,7841,5,,73790,0,,54.48798000000000,17/040X/0001/0006,802,environmental.health@ards-council.gov.uk,Ards,http://www.ards-council.gov.uk,-5.44871400000000,BT22 1DL,2013-09-23,fhrs_5_en-GB,5,,FHRS,0
400050,,183 MILL STREET,NEWTOWNARDS,DOWN,FURROW & BAIT LTD,Restaurant/Cafe/Canteen,1,,,76814,,,54.59188700000000,18/5220/9970/0001,802,environmental.health@ards-council.gov.uk,Ards,http://www.ards-council.gov.uk,-5.70586400000000,BT23 4LN,2014-06-30,fhrs_4_en-GB,4,,FHRS,
400051,UNIT 11 ARDS SHOPPING CENTRE,CIRCULAR ROAD,NEWTOWNARDS,DOWN,GAME RETAIL LTD,Retailers - other,4613,,,404223,,,54.59296200000000,18/5726/4600/0001,802,environmental.health@ards-council.gov.uk,Ards,http://www.ards-council.gov.uk,-5.70950200000000,BT23 4EU,2012-06-14,fhrs_exempt_en-GB,Exempt,,FHRS,
400052,,270 BALLYWALTER ROAD,MILLISLE,DOWN,GANAWAY ACTIVITY CENTRE/RELENTLESS,Other catering premises,7841,0,,6145,0,,54.58078500000000,02/1870/0100/0004,802,environmental.health@ards-council.gov.uk,Ards,http://www.ards-council.gov.uk,-5.50405400000000,BT22 2LZ,2012-12-12,fhrs_5_en-GB,5,,FHRS,0
400053,,69 COURT STREET,NEWTOWNARDS,DOWN,GANGES NEWTOWNARDS,Restaurant/Cafe/Canteen,1,10,,76893,10,,54.59129500000000,18/5234/5460/0001,802,environmental.health@ards-council.gov.uk,Ards,http://www.ards-council.gov.uk,-5.69457100000000,BT23 7NX,2014-03-31,fhrs_3_en-GB,3,,FHRS,10
400054,,17 CASTLE STREET,NEWTOWNARDS,DOWN,GAZE,Restaurant/Cafe/Canteen,1,10,,76894,5,,54.59181900000000,18/5234/5670/0001,802,environmental.health@ards-council.gov.uk,Ards,http://www.ards-council.gov.uk,-5.69188000000000,BT23 7PA,2014-03-04,fhrs_3_en-GB,3,,FHRS,10
400055,,18 THE SQUARE,COMBER,DOWN,GILLESPIE ARMS,Pub/bar/nightclub,7843,,,76837,,,54.55008300000000,18/5225/4510/0001,802,environmental.health@ards-council.gov.uk,Ards,http://www.ards-council.gov.uk,-5.74435100000000,BT23 5DU,2014-08-13,fhrs_exempt_en-GB,Exempt,,FHRS,
400056,,44-48 MAIN STREET,KIRCUBBIN,DOWN,GILMORE'S BAR,Pub/bar/nightclub,7843,,,53156,,,54.48859200000000,12/0887/0044/0000,802,environmental.health@ards-council.gov.uk,Ards,http://www.ards-council.gov.uk,-5.53446400000000,BT22 2SP,2014-08-15,fhrs_exempt_en-GB,Exempt,,FHRS,
400057,,40 JUBILEE ROAD,NEWTOWNARDS,DOWN,GILZ GRILL,Takeaway/sandwich shop,7844,0,,200609,0,,54.58520600000000,18/5224/2200/0001,802,environmental.health@ards-council.gov.uk,Ards,http://www.ards-council.gov.uk,-5.70325400000000,BT23 4YH,2013-08-20,fhrs_5_en-GB,5,,FHRS,5
400058,,33 FRANCES STREET,NEWTOWNARDS,DOWN,GIUSEPPE'S,Takeaway/sandwich shop,7844,5,,76884,0,,54.59343600000000,18/5233/5030/0001,802,environmental.health@ards-council.gov.uk,Ards,http://www.ards-council.gov.uk,-5.69423400000000,BT23 7DW,2014-09-22,fhrs_5_en-GB,5,,FHRS,0
400059,,14 VICTORIA ROAD,BALLYHALBERT,DOWN,GLASTRY COLLEGE,School/college/university,7845,0,,74040,0,,54.49065600000000,17/1724/0014/0007,802,environmental.health@ards-council.gov.uk,Ards,http://www.ards-council.gov.uk,-5.47128500000000,BT22 1DQ,2013-12-18,fhrs_5_en-GB,5,,FHRS,5
400060,,1 AUDLEYS PARK,NEWTOWNARDS,DOWN,GLASTRY FARM EVENTS CATERING,Mobile caterer,7846,0,,545768,0,,54.59188100000000,18/5238/9130/0001,802,environmental.health@ards-council.gov.uk,Ards,http://www.ards-council.gov.uk,-5.67304600000000,BT23 8UA,2013-05-07,fhrs_5_en-GB,5,,FHRS,0
400061,GLENBROOK NURSERY SCHOOL,33 GLENARD ROAD,NEWTOWNARDS,DOWN,GLENBROOK NURSERY SCHOOL,School/college/university,7845,0,,36599,0,,54.59863600000000,10/0347/0033/0000,802,environmental.health@ards-council.gov.uk,Ards,http://www.ards-council.gov.uk,-5.69927900000000,BT23 4HS,2013-12-10,fhrs_5_en-GB,5,,FHRS,0
400062,,57 MAIN STREET,BALLYWALTER,DOWN,GLYNN'S FISH & CHIPS,Takeaway/sandwich shop,7844,5,,76788,10,,54.54329700000000,18/5216/6270/0001,802,environmental.health@ards-council.gov.uk,Ards,http://www.ards-council.gov.uk,-5.48461300000000,BT22 2PQ,2014-03-26,fhrs_4_en-GB,4,,FHRS,5
400063,,140 FRANCES STREET,NEWTOWNARDS,DOWN,GOLDEN RIVER,Takeaway/sandwich shop,7844,0,,460452,10,,54.59348700000000,18/5233/5540/0001,802,environmental.health@ards-council.gov.uk,Ards,http://www.ards-council.gov.uk,-5.68983600000000,BT23 7DY,2014-12-01,fhrs_4_en-GB,4,,FHRS,10
400064,,23 NEW STREET,DONAGHADEE,DOWN,GORDON'S CHEMIST,Other catering premises,7841,,,31692,,,54.64192100000000,09/0910/0023/0006,802,environmental.health@ards-council.gov.uk,Ards,http://www.ards-council.gov.uk,-5.53543200000000,BT21 0AG,2013-05-03,fhrs_exempt_en-GB,Exempt,,FHRS,
400065,1,2A REGENT STREET,NEWTOWNARDS,DOWN,GORDON'S CHEMIST,Other catering premises,7841,,,13282,,,54.59390100000000,04/1456/0002/001X,802,environmental.health@ards-council.gov.uk,Ards,http://www.ards-council.gov.uk,-5.69832400000000,BT23 4LH,2012-03-29,fhrs_exempt_en-GB,Exempt,,FHRS,
400066,,33 HIGH STREET,DONAGHADEE,DOWN,GRACE NEILLS,Restaurant/Cafe/Canteen,1,10,,76736,5,,54.64181200000000,18/5206/9290/0001,802,environmental.health@ards-council.gov.uk,Ards,http://www.ards-council.gov.uk,-5.53669400000000,BT21 0AH,2014-09-09,fhrs_3_en-GB,3,,FHRS,10
400067,,,,,GRANNY ELLIES (TEMPORARY),Other catering premises,7841,10,,579841,5,,,18/5224/4370/0001,802,environmental.health@ards-council.gov.uk,Ards,http://www.ards-council.gov.uk,,,2013-08-12,fhrs_4_en-GB,4,,FHRS,5
400068,,17A NEW HARBOUR ROAD,PORTAVOGIE,DOWN,GREEN ISLE RESIDENTIAL HOME,Hospitals/Childcare/Caring Premises,5,5,,76978,0,,54.45639100000000,18/7295/0500/0001,802,environmental.health@ards-council.gov.uk,Ards,http://www.ards-council.gov.uk,-5.44605300000000,BT22 1EE,2014-06-05,fhrs_5_en-GB,5,,FHRS,5
400069,GREENWELL STREET PRESBYTERIAN,GREENWELL STREET,NEWTOWNARDS,DOWN,GREENWELL STREET PRESBYTERIAN CHURCH,Restaurant/Cafe/Canteen,1,,,13113,,,54.59200800000000,04/0557/0099/0000,802,environmental.health@ards-council.gov.uk,Ards,http://www.ards-council.gov.uk,-5.68956400000000,BT23 7LP,2014-10-23,fhrs_exempt_en-GB,Exempt,,FHRS,
400070,GREY ABBEY PRIMARY SCHOOL,3 THE SQUARE,GREYABBEY,DOWN,GREYABBEY PRIMARY SCHOOL,School/college/university,7845,,,53241,,,54.53431800000000,12/1514/0003/0007,802,environmental.health@ards-council.gov.uk,Ards,http://www.ards-council.gov.uk,-5.56085100000000,BT22 2QA,2013-04-19,fhrs_exempt_en-GB,Exempt,,FHRS,
400071,,24 HIGH STREET,BALLYHALBERT,DOWN,H & J CARNDUFF BUTCHER/SPAR,Retailers - other,4613,5,,76966,0,,54.49481800000000,18/7161/7330/0001,802,environmental.health@ards-council.gov.uk,Ards,http://www.ards-council.gov.uk,-5.46192000000000,BT22 1BL,2014-11-26,fhrs_5_en-GB,5,,FHRS,0
400072,,3 COMBER ROAD,KILLINCHY,DOWN,H & J CARNDUFF BUTCHERS AT MCCANN'S,Retailers - other,4613,5,,511211,5,,54.47315200000000,18/5231/4350/0001,802,environmental.health@ards-council.gov.uk,Ards,http://www.ards-council.gov.uk,-5.69031500000000,BT23 6PA,2014-09-10,fhrs_5_en-GB,5,,FHRS,5
400073,,64 COMBER ROAD,KILLINCHY,DOWN,H A McBRIAR,Retailers - other,4613,,,12619,,,54.48002000000000,04/0190/0064/000X,802,environmental.health@ards-council.gov.uk,Ards,http://www.ards-council.gov.uk,-5.69330700000000,BT23 6PD,2013-03-28,fhrs_exempt_en-GB,Exempt,,FHRS,
400074,,3 HIGH STREET,COMBER,DOWN,H A McWHINNEY'S - THE BUTCHERS SHOP,Retailers - other,4613,5,,23565,5,,54.54975600000000,07/0316/0002/0001,802,environmental.health@ards-council.gov.uk,Ards,http://www.ards-council.gov.uk,-5.74803300000000,BT23 5HJ,2013-12-19,fhrs_4_en-GB,4,,FHRS,10
400075,,,,,H R THOMPSON,Other catering premises,7841,0,,76922,0,,,18/5728/3180/0001,802,environmental.health@ards-council.gov.uk,Ards,http://www.ards-council.gov.uk,,,2014-05-13,fhrs_5_en-GB,5,,FHRS,0
400076,,48 CASTLE LANE,COMBER,DOWN,HAPPY DAYS DAY NURSERY,Other catering premises,7841,5,,23550,0,,54.55256100000000,07/0286/0048/0002,802,environmental.health@ards-council.gov.uk,Ards,http://www.ards-council.gov.uk,-5.75007300000000,BT23 5EB,2014-10-23,fhrs_5_en-GB,5,,FHRS,5
400077,,119 FRANCES STREET,NEWTOWNARDS,DOWN,HAPPY DAYS DAY NURSERY,Other catering premises,7841,5,,13093,5,,54.59317600000000,04/0379/0119/0008,802,environmental.health@ards-council.gov.uk,Ards,http://www.ards-council.gov.uk,-5.69050400000000,BT23 7DX,2014-11-13,fhrs_5_en-GB,5,,FHRS,5
400078,1,27A NEWTOWNARDS ROAD,DONAGHADEE,DOWN,HAPPY DAYS DAY NURSERY,Other catering premises,7841,0,,27233,0,,54.64374100000000,08/1156/0027/0008,802,environmental.health@ards-council.gov.uk,Ards,http://www.ards-council.gov.uk,-5.56407800000000,BT21 0PZ,2013-12-13,fhrs_5_en-GB,5,,FHRS,5
400079,CHURCH OF THE VISITATION (RC),KILLINCHY STREET,COMBER,DOWN,HAPPY FEET - ST MARYS PRE-SCHOOL,Other catering premises,7841,0,,595303,0,,54.54833700000000,18/5224/4730/0001,802,environmental.health@ards-council.gov.uk,Ards,http://www.ards-council.gov.uk,-5.74420000000000,BT23 5AP,2013-10-10,fhrs_5_en-GB,5,,FHRS,0
400080,,28 MAIN STREET,KIRCUBBIN,DOWN,HAPPY HOUSE,Takeaway/sandwich shop,7844,5,,76796,10,,54.48859200000000,18/5217/7100/0001,802,environmental.health@ards-council.gov.uk,Ards,http://www.ards-council.gov.uk,-5.53446400000000,BT22 2SP,2014-08-15,fhrs_3_en-GB,3,,FHRS,10
400081,,41 PORTAFERRY ROAD,NEWTOWNARDS,DOWN,HAPPY TOWN LTD,Restaurant/Cafe/Canteen,1,0,,352771,0,,54.58961300000000,18/5881/8990/0001,802,environmental.health@ards-council.gov.uk,Ards,http://www.ards-council.gov.uk,-5.68883300000000,BT23 8NN,2013-10-16,fhrs_5_en-GB,5,,FHRS,0
400082,,59-61 HARBOUR ROAD,PORTAVOGIE,DOWN,HARBOUR ROAD SERVICE STATION LTD/MACE,Retailers - supermarkets/hypermarkets,7840,5,,76745,5,,54.46076300000000,18/5211/2430/0001,802,environmental.health@ards-council.gov.uk,Ards,http://www.ards-council.gov.uk,-5.44158500000000,BT22 1EA,2013-08-19,fhrs_5_en-GB,5,,FHRS,0
400083,,3 HIGH STREET,NEWTOWNARDS,DOWN,HARLEQUIN PATISSERIE,Retailers - other,4613,5,,13115,0,,54.59298500000000,04/0581/0003/0007,802,environmental.health@ards-council.gov.uk,Ards,http://www.ards-council.gov.uk,-5.69693600000000,BT23 4JN,2013-10-01,fhrs_5_en-GB,5,,FHRS,5
400084,,12 PORTAFERRY ROAD,GREYABBEY,DOWN,HARRISON'S OF GREYABBEY,Restaurant/Cafe/Canteen,1,0,,352768,5,,54.52292000000000,18/5217/4190/0001,802,environmental.health@ards-council.gov.uk,Ards,http://www.ards-council.gov.uk,-5.55223000000000,BT22 2RU,2013-10-21,fhrs_5_en-GB,5,,FHRS,5
400085,,CORRY STREET,NEWTOWNARDS,DOWN,HAWLMARK BOMBARDIER,Restaurant/Cafe/Canteen,1,5,,624897,0,,54.59597500000000,18/5872/5970/0001,802,environmental.health@ards-council.gov.uk,Ards,http://www.ards-council.gov.uk,-5.70394800000000,BT23 4AF,2014-01-08,fhrs_5_en-GB,5,,FHRS,5
400086,,277 KILLAUGHEY ROAD,DONAGHADEE,DOWN,HAWTHORNE LODGE,Hospitals/Childcare/Caring Premises,5,5,,31597,0,,54.62021700000000,09/0589/0277/0008,802,environmental.health@ards-council.gov.uk,Ards,http://www.ards-council.gov.uk,-5.57754700000000,BT21 0ND,2013-01-28,fhrs_5_en-GB,5,,FHRS,0
400087,,136 DONAGHADEE ROAD,NEWTOWNARDS,DOWN,HENDERSON RETAIL LTD - SPAR,Retailers - supermarkets/hypermarkets,7840,0,,67130,0,,54.60036200000000,15/0700/0136/0000,802,environmental.health@ards-council.gov.uk,Ards,http://www.ards-council.gov.uk,-5.67811800000000,BT23 7QR,2013-02-05,fhrs_4_en-GB,4,,FHRS,10
400088,,50 MAIN STREET,CARROWDORE,DOWN,HENDERSON RETAIL LTD - SPAR CARROWDORE,Retailers - supermarkets/hypermarkets,7840,0,,6086,0,,54.57459800000000,02/1188/0050/0100,802,environmental.health@ards-council.gov.uk,Ards,http://www.ards-council.gov.uk,-5.55666600000000,BT22 2HN,2012-10-08,fhrs_5_en-GB,5,,FHRS,5
400089,UNIT 2 STONEGATE SHOPPING CENT,STRATHEDEN HEIGHTS,NEWTOWNARDS,DOWN,HENDERSON RETAIL LTD - SPAR MOVILLA,Retailers - supermarkets/hypermarkets,7840,0,,67196,0,,54.59535400000000,15/1219/0001/0006,802,environmental.health@ards-council.gov.uk,Ards,http://www.ards-council.gov.uk,-5.66538900000000,BT23 8ZE,2012-10-08,fhrs_5_en-GB,5,,FHRS,5
400090,,37-55 BANGOR ROAD,NEWTOWNARDS,DOWN,HENDERSON RETAIL LTD - SPAR ROSEVALE,Retailers - supermarkets/hypermarkets,7840,0,,81793,0,,54.59634000000000,20/0074/0055/0000,802,environmental.health@ards-council.gov.uk,Ards,http://www.ards-council.gov.uk,-5.68679600000000,BT23 7BZ,2013-02-06,fhrs_5_en-GB,5,,FHRS,5
400091,MAXOL GARAGE,3 HARDFORD LINK,NEWTOWNARDS,DOWN,HENDERSON RETAIL LTD - SPAR SERV STATION,Retailers - supermarkets/hypermarkets,7840,0,,8007,0,,54.59815100000000,03/0780/0003/0309,802,environmental.health@ards-council.gov.uk,Ards,http://www.ards-council.gov.uk,-5.70545000000000,BT23 4FF,2013-05-23,fhrs_4_en-GB,4,,FHRS,10
400092,,45 BRIDGE STREET,COMBER,DOWN,HERRONS COUNTRY FRIED CHICKEN,Takeaway/sandwich shop,7844,0,,23541,5,,54.55094800000000,07/0197/0045/0006,802,environmental.health@ards-council.gov.uk,Ards,http://www.ards-council.gov.uk,-5.74353100000000,BT23 5AT,2013-06-07,fhrs_5_en-GB,5,,FHRS,5
400093,,96-98 FRANCES STREET,NEWTOWNARDS,DOWN,HICKORY'S,Restaurant/Cafe/Canteen,1,,,76889,,,54.59348700000000,18/5233/5920/0001,802,environmental.health@ards-council.gov.uk,Ards,http://www.ards-council.gov.uk,-5.68983600000000,BT23 7DY,2014-02-14,fhrs_5_en-GB,5,,FHRS,
400094,UNIT 5 ARDS SHOPPING CENTRE,CIRCULAR ROAD,NEWTOWNARDS,DOWN,HOLLAND AND BARRETT,Retailers - other,4613,,,7754,,,54.59296200000000,03/0020/0015/0010,802,environmental.health@ards-council.gov.uk,Ards,http://www.ards-council.gov.uk,-5.70950200000000,BT23 4EU,2012-03-23,fhrs_exempt_en-GB,Exempt,,FHRS,
400095,HOLY TRINITY (C OF I) HALL,WHITECHURCH ROAD,BALLYWALTER,DOWN,HOLY TRINITY PARISH CHURCH HALL,Other catering premises,7841,,,76943,,,54.55383200000000,18/5882/1010/0001,802,environmental.health@ards-council.gov.uk,Ards,http://www.ards-council.gov.uk,-5.48305300000000,BT22 2JY,2013-03-28,fhrs_exempt_en-GB,Exempt,,FHRS,
400096,,0 CASTLEBAWN ROAD,NEWTOWNARDS,CO DOWN,HOME BARGAINS,Retailers - other,4613,10,,370655,0,,54.59008800000000,AR/D249/0000/0001,802,environmental.health@ards-council.gov.uk,Ards,http://www.ards-council.gov.uk,-5.66859900000000,BT23 8XX,2012-05-03,fhrs_4_en-GB,4,,FHRS,5
400097,KIOSK 3 ARDS SHOPPING CENTRE,CIRCULAR ROAD,NEWTOWNARDS,DOWN,HOME FARM CAFE,Restaurant/Cafe/Canteen,1,10,,76806,0,,54.59296200000000,18/5219/5460/0001,802,environmental.health@ards-council.gov.uk,Ards,http://www.ards-council.gov.uk,-5.70950200000000,BT23 4EU,2013-10-08,fhrs_4_en-GB,4,,FHRS,5
400098,,14 HIGH STREET,DONAGHADEE,DOWN,HOME SWEET HOME,Restaurant/Cafe/Canteen,1,5,,76920,5,,54.64235000000000,18/5727/4950/0001,802,environmental.health@ards-council.gov.uk,Ards,http://www.ards-council.gov.uk,-5.53709500000000,BT21 0AA,2014-06-27,fhrs_5_en-GB,5,,FHRS,0
400099,,66B EAST STREET,NEWTOWNARDS,DOWN,HOMEGROWN,Retailers - other,4613,5,,81882,5,,54.59451300000000,20/0554/0066/0205,802,environmental.health@ards-council.gov.uk,Ards,http://www.ards-council.gov.uk,-5.68897400000000,BT23 7DD,2013-10-29,fhrs_5_en-GB,5,,FHRS,5
400100,,9 CUAN GARDENS,GREYABBEY,DOWN,HOME-START - ARDS/COMBER & PENINSULA,Other catering premises,7841,5,,76790,0,,54.53539300000000,18/5216/9230/0001,802,environmental.health@ards-council.gov.uk,Ards,http://www.ards-council.gov.uk,-5.56336700000000,BT22 2QG,2013-08-01,fhrs_5_en-GB,5,,FHRS,0
400101,7 HOOPS COURTYARD,7-9 MAIN STREET,GREYABBEY,DOWN,HOOPS,Restaurant/Cafe/Canteen,1,10,,655691,5,,54.53510200000000,18/5983/8970/0001,802,environmental.health@ards-council.gov.uk,Ards,http://www.ards-council.gov.uk,-5.56054100000000,BT22 2NE,2014-03-14,fhrs_4_en-GB,4,,FHRS,5
400102,,40 COACH ROAD,COMBER,DOWN,HORNER'S FARM SHOP,Retailers - other,4613,0,,432712,0,,54.55754500000000,18/5228/0590/0001,802,environmental.health@ards-council.gov.uk,Ards,http://www.ards-council.gov.uk,-5.77274200000000,BT23 5QX,2012-08-02,fhrs_4_en-GB,4,,FHRS,10
400103,,27 THE SQUARE,PORTAFERRY,DOWN,HUGH MULLAN - BUTCHER,Retailers - other,4613,5,,70793,5,,54.38143700000000,16/1729/0027/0008,802,environmental.health@ards-council.gov.uk,Ards,http://www.ards-council.gov.uk,-5.54699000000000,BT22 1LR,2014-08-28,fhrs_4_en-GB,4,,FHRS,10
400104,,38 BALLYSTOCKART ROAD,COMBER,DOWN,HUNDRED ACRE WOOD,Other catering premises,7841,0,,23446,0,,54.56258600000000,07/0103/0038/0008,802,environmental.health@ards-council.gov.uk,Ards,http://www.ards-council.gov.uk,-5.78595000000000,BT23 5QY,2014-09-15,fhrs_5_en-GB,5,,FHRS,0
400105,,18 INISHAROAN,KILLINCHY,DOWN,HUNTERS LODGE,Hotel/bed & breakfast/guest house,7842,5,,76872,0,,54.47927200000000,18/5231/7480/0001,802,environmental.health@ards-council.gov.uk,Ards,http://www.ards-council.gov.uk,-5.64940100000000,BT23 6QF,2014-09-29,fhrs_5_en-GB,5,,FHRS,0
400106,UNIT 19 ARDS SHOPPING CENTRE,CIRCULAR ROAD,NEWTOWNARDS,DOWN,ICELAND,Retailers - supermarkets/hypermarkets,7840,10,,76804,0,,54.59296200000000,18/5219/5390/0001,802,environmental.health@ards-council.gov.uk,Ards,http://www.ards-council.gov.uk,-5.70950200000000,BT23 4EU,2013-05-23,fhrs_4_en-GB,4,,FHRS,5
400107,,13 COURT STREET,Newtownards,Down,INDIAN BAZAAR,Retailers - other,4613,20,,530345,5,,54.59128300000000,18/7176/4560/0001,802,environmental.health@ards-council.gov.uk,Ards,http://www.ards-council.gov.uk,-5.69444800000000,BT23 7NX,2014-09-18,fhrs_1_en-GB,1,,FHRS,10
400108,,19 ALEXANDRA ROAD,DONAGHADEE,DOWN,INGY'S YUMMY GRUB,Other catering premises,7841,5,,428228,0,,54.64827200000000,18/5209/9630/0001,802,environmental.health@ards-council.gov.uk,Ards,http://www.ards-council.gov.uk,-5.54420500000000,BT21 0QD,2012-07-10,fhrs_5_en-GB,5,,FHRS,0
400109,,14 CASTLE STREET,NEWTOWNARDS,DOWN,IVY BAR,Restaurant/Cafe/Canteen,1,10,,12050,0,,54.59181900000000,04/0107/0014/0007,802,environmental.health@ards-council.gov.uk,Ards,http://www.ards-council.gov.uk,-5.69188000000000,BT23 7PA,2014-02-26,fhrs_4_en-GB,4,,FHRS,5
400110,,54-56 REGENT STREET,NEWTOWNARDS,DOWN,J D WETHERSPOON PLC,Restaurant/Cafe/Canteen,1,,,13297,,,54.59416400000000,04/1456/0200/0008,802,environmental.health@ards-council.gov.uk,Ards,http://www.ards-council.gov.uk,-5.70036700000000,BT23 4LP,2013-11-29,fhrs_5_en-GB,5,,FHRS,
400111,,,,,J IRVINE FISH SALES,Retailers - other,4613,0,,76749,0,,,18/5211/8090/0001,802,environmental.health@ards-council.gov.uk,Ards,http://www.ards-council.gov.uk,,,2013-09-02,fhrs_5_en-GB,5,,FHRS,0
400112,,13 HIGH STREET,DONAGHADEE,DOWN,J WRIGHT & SON,Retailers - other,4613,5,,27161,5,,54.64235000000000,08/0761/0013/0001,802,environmental.health@ards-council.gov.uk,Ards,http://www.ards-council.gov.uk,-5.53709500000000,BT21 0AA,2014-10-29,fhrs_4_en-GB,4,,FHRS,10
400113,,55 BRIDGE STREET,COMBER,DOWN,JACKSON'S TRADITIONAL CHIP SHOP,Takeaway/sandwich shop,7844,10,,76834,10,,54.55094800000000,18/5224/5860/0001,802,environmental.health@ards-council.gov.uk,Ards,http://www.ards-council.gov.uk,-5.74353100000000,BT23 5AT,2014-07-22,fhrs_3_en-GB,3,,FHRS,10
400114,,6 WILLIAM STREET,DONAGHADEE,DOWN,JAM COFFEE SHOP,Restaurant/Cafe/Canteen,1,5,,76799,0,,54.64119800000000,18/5218/3140/0001,802,environmental.health@ards-council.gov.uk,Ards,http://www.ards-council.gov.uk,-5.53216000000000,BT21 0HL,2013-05-08,fhrs_5_en-GB,5,,FHRS,5
400115,NEW SITE LEMONS ROAD,PORTAVOGIE,,,JAMES HARRIS  -  FISH RETAILER,Retailers - other,4613,5,,73947,5,,54.47249100000000,17/0949/0000/0000,802,environmental.health@ards-council.gov.uk,Ards,http://www.ards-council.gov.uk,-5.44630000000000,BT22 1BY,2013-03-28,fhrs_5_en-GB,5,,FHRS,5
400116,,,,,JAMES JUDE HARDY (TRAYBAKES),Other catering premises,7841,5,,479198,0,,,18/7246/9050/0001,802,environmental.health@ards-council.gov.uk,Ards,http://www.ards-council.gov.uk,,,2012-11-14,fhrs_5_en-GB,5,,FHRS,5
400117,,12 FRANCES STREET,NEWTOWNARDS,DOWN,JARRAH,Restaurant/Cafe/Canteen,1,5,,76808,0,,54.59399600000000,18/5220/5290/0001,802,environmental.health@ards-council.gov.uk,Ards,http://www.ards-council.gov.uk,-5.69624500000000,BT23 4JA,2013-10-23,fhrs_4_en-GB,4,,FHRS,10
400118,,11 SOUTH STREET,NEWTOWNARDS,DOWN,JASMINE HOUSE,Takeaway/sandwich shop,7844,5,,13307,10,,54.59207300000000,04/1634/0011/0000,802,environmental.health@ards-council.gov.uk,Ards,http://www.ards-council.gov.uk,-5.69670900000000,BT23 4JT,2013-10-03,fhrs_3_en-GB,3,,FHRS,10
400119,,,,,JEANNIE-US JARS,Other catering premises,7841,5,,591039,0,,,18/5226/6660/0001,802,environmental.health@ards-council.gov.uk,Ards,http://www.ards-council.gov.uk,,,2013-09-30,fhrs_5_en-GB,5,,FHRS,0
400120,,,,,JENNIFER MCCREA,Other catering premises,7841,5,,49382,0,,,11/0520/0003/0007,802,environmental.health@ards-council.gov.uk,Ards,http://www.ards-council.gov.uk,,,2013-11-26,fhrs_5_en-GB,5,,FHRS,0
400121,,19 HIGH STREET,NEWTOWNARDS,DOWN,JIDA TRADING LIMITED (SPAR) / DAY TODAY,Retailers - supermarkets/hypermarkets,7840,10,,76958,10,,54.59298500000000,18/7141/2390/0001,802,environmental.health@ards-council.gov.uk,Ards,http://www.ards-council.gov.uk,-5.69693600000000,BT23 4JN,2014-02-17,fhrs_3_en-GB,3,,FHRS,10
400122,,11 NEW STREET,DONAGHADEE,DOWN,JIM DAVENPORT MEATS,Retailers - other,4613,5,,76734,5,,54.64192100000000,18/5206/8990/0001,802,environmental.health@ards-council.gov.uk,Ards,http://www.ards-council.gov.uk,-5.53543200000000,BT21 0AG,2014-01-22,fhrs_5_en-GB,5,,FHRS,5
400123,,4 BALLYGOWAN ROAD,COMBER,Down,JIMINY CRICKETS AFTER SCHOOL,Other catering premises,7841,5,,151574,5,,54.54310400000000,AR/D111/0000/0001,802,environmental.health@ards-council.gov.uk,Ards,http://www.ards-council.gov.uk,-5.76192200000000,BT23 5PG,2014-05-21,fhrs_5_en-GB,5,,FHRS,0
400124,,18-19 THE SQUARE,PORTAFERRY,DOWN,JOE'S HOT-SPOT,Takeaway/sandwich shop,7844,5,,70790,5,,54.38170200000000,16/1729/0019/0004,802,environmental.health@ards-council.gov.uk,Ards,http://www.ards-council.gov.uk,-5.54768300000000,BT22 1LW,2014-10-07,fhrs_5_en-GB,5,,FHRS,5
400125,,,,,JOHN GIBSON-HERBIE 1&2 & GIBSON'S ICE'S,Retailers - other,4613,0,,36587,0,,,10/0282/0013/0028,802,environmental.health@ards-council.gov.uk,Ards,http://www.ards-council.gov.uk,,,2013-05-21,fhrs_5_en-GB,5,,FHRS,0
400126,,153 KILLINCHY ROAD,COMBER,DOWN,JONMAR CAKES,Other catering premises,7841,0,,49498,0,,54.51462400000000,11/1152/0153/0003,802,environmental.health@ards-council.gov.uk,Ards,http://www.ards-council.gov.uk,-5.71841500000000,BT23 5NE,2014-07-03,fhrs_5_en-GB,5,,FHRS,0
400127,,55 HIGH STREET,NEWTOWNARDS,DOWN,JOSEPH'S (MENARY'S),Restaurant/Cafe/Canteen,1,5,,13117,0,,54.59266600000000,04/0581/0055/0000,802,environmental.health@ards-council.gov.uk,Ards,http://www.ards-council.gov.uk,-5.69483400000000,BT23 7HS,2014-05-19,fhrs_4_en-GB,4,,FHRS,10
400128,,,,,JUM SHOP,Retailers - other,4613,0,,655685,5,,,18/5215/1670/0001,802,environmental.health@ards-council.gov.uk,Ards,http://www.ards-council.gov.uk,,,2014-03-25,fhrs_5_en-GB,5,,FHRS,0
400129,,10 BRIDGE STREET,COMBER,DOWN,KAM INN,Takeaway/sandwich shop,7844,5,,27113,5,,54.55094800000000,08/0311/0010/0005,802,environmental.health@ards-council.gov.uk,Ards,http://www.ards-council.gov.uk,-5.74353100000000,BT23 5AT,2013-12-12,fhrs_4_en-GB,4,,FHRS,10
400130,,27A MAIN STREET,KIRCUBBIN,CO DOWN,KATCH 27,Restaurant/Cafe/Canteen,1,0,,151570,0,,54.48795600000000,AR/D035/0000/0002,802,environmental.health@ards-council.gov.uk,Ards,http://www.ards-council.gov.uk,-5.53411700000000,BT22 2SR,2015-01-20,fhrs_5_en-GB,5,,FHRS,5
400131,K F C,CIRCULAR ROAD,NEWTOWNARDS,DOWN,KENTUCKY FRIED CHICKEN,Restaurant/Cafe/Canteen,1,0,,7751,5,,54.59296200000000,03/0020/0002/0001,802,environmental.health@ards-council.gov.uk,Ards,http://www.ards-council.gov.uk,-5.70950200000000,BT23 4EU,2015-01-16,fhrs_5_en-GB,5,,FHRS,5
400132,,16A COMBER ROAD,KILLINCHY,DOWN,KILLINCHY MEATS,Retailers - other,4613,5,,76870,0,,54.47315200000000,18/5231/4340/0001,802,environmental.health@ards-council.gov.uk,Ards,http://www.ards-council.gov.uk,-5.69031500000000,BT23 6PA,2013-07-30,fhrs_4_en-GB,4,,FHRS,10
400133,KILLINCHY PARISH CHURCH HALL,7 WHITEROCK ROAD,KILLINCHY,DOWN,KILLINCHY PARISH CHURCH HALL/TUES CLUB,Other catering premises,7841,5,,49526,0,,54.47415600000000,11/2264/0099/0000,802,environmental.health@ards-council.gov.uk,Ards,http://www.ards-council.gov.uk,-5.66958300000000,BT23 6PR,2013-05-07,fhrs_5_en-GB,5,,FHRS,0
400134,KILLINCHY PRIMARY SCHOOL,MAIN STREET,KILLINCHY,DOWN,KILLINCHY PRIMARY SCHOOL,School/college/university,7845,0,,49510,0,,54.47159600000000,11/1454/0029/0009,802,environmental.health@ards-council.gov.uk,Ards,http://www.ards-council.gov.uk,-5.67526700000000,BT23 6PN,2014-02-19,fhrs_5_en-GB,5,,FHRS,0
400135,,28 KILMOOD CHURCH ROAD,KILLINCHY,DOWN,KILMOOD PLAYGROUP,Other catering premises,7841,5,,76876,0,,54.49191400000000,18/5232/0550/0001,802,environmental.health@ards-council.gov.uk,Ards,http://www.ards-council.gov.uk,-5.73255300000000,BT23 6SA,2014-06-24,fhrs_5_en-GB,5,,FHRS,0
400136,,36A BELFAST ROAD,NEWTOWNARDS,DOWN,KILTONGA CHRISTIAN CENTRE LTD,Restaurant/Cafe/Canteen,1,,,76950,,,54.59704500000000,18/5929/8330/0001,802,environmental.health@ards-council.gov.uk,Ards,http://www.ards-council.gov.uk,-5.72253500000000,BT23 4TJ,2013-04-16,fhrs_exempt_en-GB,Exempt,,FHRS,
400137,KIMBERLEY HOUSE,45 ABBEY ROAD,NEWTOWNARDS,DOWN,KIMBERLEY HOUSE,Hospitals/Childcare/Caring Premises,5,10,,66886,0,,54.59353400000000,15/0018/0045/0006,802,environmental.health@ards-council.gov.uk,Ards,http://www.ards-council.gov.uk,-5.68333500000000,BT23 8JL,2014-04-09,fhrs_4_en-GB,4,,FHRS,5
400138,,118 MOVILLA ROAD,NEWTOWNARDS,DOWN,KINDERGARTEN COTTAGE,Other catering premises,7841,5,,76898,0,,54.59963100000000,18/5238/1800/0001,802,environmental.health@ards-council.gov.uk,Ards,http://www.ards-council.gov.uk,-5.64635600000000,BT23 8RJ,2013-08-12,fhrs_5_en-GB,5,,FHRS,5
400139,,1 CHURCH GROVE,KIRCUBBIN,DOWN,KIRCUBBIN COMMUNITY NURSERY SCHOOL,Other catering premises,7841,0,,76976,0,,54.48628400000000,18/7275/1310/0001,802,environmental.health@ards-council.gov.uk,Ards,http://www.ards-council.gov.uk,-5.53582300000000,BT22 2SU,2015-01-13,fhrs_5_en-GB,5,,FHRS,0
400140,KIRCUBBIN PRIMARY SCHOOL,22 COOKS BRAE,KIRCUBBIN,DOWN,KIRCUBBIN INTEGRATED PRIMARY SCHOOL,School/college/university,7845,0,,53109,0,,54.48693200000000,12/0526/0022/0000,802,environmental.health@ards-council.gov.uk,Ards,http://www.ards-council.gov.uk,-5.53235700000000,BT22 2SQ,2012-11-27,fhrs_5_en-GB,5,,FHRS,0
400141,,142-144 MAIN ROAD,CLOGHY,DOWN,KIRKISTOWN CASTLE GOLF CLUB,Restaurant/Cafe/Canteen,1,5,,73986,5,,54.43839900000000,17/1031/0142/0003,802,environmental.health@ards-council.gov.uk,Ards,http://www.ards-council.gov.uk,-5.46986600000000,BT22 1JA,2015-02-04,fhrs_5_en-GB,5,,FHRS,5
400142,KIRKISTOWN PRIMARY SCHOOL,MAIN ROAD,CLOGHY,DOWN,KIRKISTOWN PRIMARY SCHOOL,School/college/university,7845,,,73985,,,54.43839900000000,17/1031/0099/0000,802,environmental.health@ards-council.gov.uk,Ards,http://www.ards-council.gov.uk,-5.46986600000000,BT22 1JA,2013-04-25,fhrs_exempt_en-GB,Exempt,,FHRS,
400143,,130 RUBANE ROAD,KIRCUBBIN,DOWN,KIRKISTOWN RACE TRACK (CATERING),Restaurant/Cafe/Canteen,1,5,,74033,0,,54.46835300000000,17/1457/0050/0003,802,environmental.health@ards-council.gov.uk,Ards,http://www.ards-council.gov.uk,-5.49543200000000,BT22 1AU,2014-07-16,fhrs_5_en-GB,5,,FHRS,5
400144,,12F ARDMINNAN ROAD,PORTAFERRY,CO DOWN,KNOCKMOYLE HOUSE (B & B),Hotel/bed & breakfast/guest house,7842,5,,70434,0,,54.40325600000000,16/0072/0012/0006,802,environmental.health@ards-council.gov.uk,Ards,http://www.ards-council.gov.uk,-5.48761900000000,BT22 1QH,2013-05-10,fhrs_5_en-GB,5,,FHRS,0
400145,,49 HIGH STREET,NEWTOWNARDS,DOWN,KNOTTS BAKERY LTD,Restaurant/Cafe/Canteen,1,5,,13116,5,,54.59266600000000,04/0581/0049/0008,802,environmental.health@ards-council.gov.uk,Ards,http://www.ards-council.gov.uk,-5.69483400000000,BT23 7HS,2014-05-08,fhrs_5_en-GB,5,,FHRS,5
400146,,165 MILL STREET,NEWTOWNARDS,DOWN,KRISTIE'S,Retailers - other,4613,10,,479197,0,,54.59188700000000,18/5221/0050/0001,802,environmental.health@ards-council.gov.uk,Ards,http://www.ards-council.gov.uk,-5.70586400000000,BT23 4LN,2014-05-13,fhrs_4_en-GB,4,,FHRS,5
400147,,2A CHURCH AVENUE,KIRCUBBIN,DOWN,KUBBY DAY NURSERY,Other catering premises,7841,5,,53079,0,,54.48754500000000,12/0372/0002/001X,802,environmental.health@ards-council.gov.uk,Ards,http://www.ards-council.gov.uk,-5.53512900000000,BT22 2SL,2013-08-20,fhrs_5_en-GB,5,,FHRS,5
400148,,3 CHURCH GROVE,KIRCUBBIN,DOWN,KUBBY JUNIOR,Other catering premises,7841,10,,151621,0,,54.48628400000000,AR/D940/0000/0001,802,environmental.health@ards-council.gov.uk,Ards,http://www.ards-council.gov.uk,-5.53582300000000,BT22 2SU,2012-06-18,fhrs_4_en-GB,4,,FHRS,0
400149,,8 HIGH STREET,PORTAFERRY,DOWN,LA PIZZA MIA,Takeaway/sandwich shop,7844,20,,709208,15,,54.38226000000000,18/5213/5670/0001,802,environmental.health@ards-council.gov.uk,Ards,http://www.ards-council.gov.uk,-5.54504800000000,BT22 1QT,2014-09-30,fhrs_1_en-GB,1,,FHRS,10
400150,,71 MAIN STREET,KIRCUBBIN,DOWN,LAHORE KEBAB HOUSE,Takeaway/sandwich shop,7844,0,,316015,0,,54.48795600000000,18/5217/7620/0001,802,environmental.health@ards-council.gov.uk,Ards,http://www.ards-council.gov.uk,-5.53411700000000,BT22 2SR,2013-10-22,fhrs_5_en-GB,5,,FHRS,5
400151,UNIT 1,CONWAY BUILDING,SOUTH STREET,NEWTOWNARDS,LAHORE KEBAB HOUSE,Takeaway/sandwich shop,7844,5,,13305,0,,54.54163600000000,04/1634/0001/0006,802,environmental.health@ards-council.gov.uk,Ards,http://www.ards-council.gov.uk,-5.71645600000000,BT23 4JP,2013-10-25,fhrs_4_en-GB,4,,FHRS,10
400152,,92A WINDMILL ROAD,DONAGHADEE,DOWN,LAKEVIEW (B & B),Hotel/bed & breakfast/guest house,7842,0,,27308,0,,54.63137300000000,08/1601/0092/0002,802,environmental.health@ards-council.gov.uk,Ards,http://www.ards-council.gov.uk,-5.57511800000000,BT21 0NQ,2013-07-03,fhrs_5_en-GB,5,,FHRS,0
400153,,11 CASTLE STREET,COMBER,DOWN,LG'S,Restaurant/Cafe/Canteen,1,0,,76843,0,,54.55116600000000,18/5225/5080/0001,802,environmental.health@ards-council.gov.uk,Ards,http://www.ards-council.gov.uk,-5.74750700000000,BT23 5DY,2014-08-05,fhrs_5_en-GB,5,,FHRS,5
400154,,1 JUBILEE ROAD,NEWTOWNARDS,DOWN,LIDL NI,Retailers - supermarkets/hypermarkets,7840,5,,76396,0,,54.58509900000000,18/0057/0001/0006,802,environmental.health@ards-council.gov.uk,Ards,http://www.ards-council.gov.uk,-5.70329100000000,BT23 4YH,2012-11-21,fhrs_5_en-GB,5,,FHRS,5
400155,,26 NEW STREET,DONAGHADEE,DOWN,LIGHTHOUSE BAKERY/CAFE,Restaurant/Cafe/Canteen,1,10,,27228,5,,54.64192100000000,08/1121/0026/0002,802,environmental.health@ards-council.gov.uk,Ards,http://www.ards-council.gov.uk,-5.53543200000000,BT21 0AG,2014-09-23,fhrs_3_en-GB,3,,FHRS,10
400156,,16-18 LISBARNET ROAD,COMBER,DOWN,LISBANE AFTER SCHOOL CLUB,Other catering premises,7841,,,5783,,,54.50247900000000,02/0114/0016/0008,802,environmental.health@ards-council.gov.uk,Ards,http://www.ards-council.gov.uk,-5.72001800000000,BT23 6AW,2013-03-21,fhrs_exempt_en-GB,Exempt,,FHRS,
400157,,175 KILLINCHY ROAD,COMBER,DOWN,LISBANE VILLAGE STORE,Retailers - supermarkets/hypermarkets,7840,5,,76944,0,,54.51462400000000,18/5888/2820/0001,802,environmental.health@ards-council.gov.uk,Ards,http://www.ards-council.gov.uk,-5.71841400000000,BT23 5NE,2014-05-21,fhrs_4_en-GB,4,,FHRS,10
400158,,,,,LISBARNETT FRESH FARM TURKEYS,Farmers/growers,7838,0,,484780,0,,,18/5227/3210/0001,802,environmental.health@ards-council.gov.uk,Ards,http://www.ards-council.gov.uk,,,2014-12-11,fhrs_5_en-GB,5,,FHRS,0
400159,,32 DAKOTA AVENUE,NEWTOWNARDS,DOWN,LITTLE DOVES CHILDCARE CENTRE,Other catering premises,7841,0,,79068,0,,54.58175600000000,19/0257/0098/0005,802,environmental.health@ards-council.gov.uk,Ards,http://www.ards-council.gov.uk,-5.70609400000000,BT23 4QU,2015-01-20,fhrs_5_en-GB,5,,FHRS,0
400160,MOVILLA PRESBYTERIAN CHURCH,80 MOVILLA ROAD,NEWTOWNARDS,CO DOWN,LITTLE FEET PLAYGROUP,Other catering premises,7841,5,,690116,0,,54.59494200000000,18/5873/3010/0001,802,environmental.health@ards-council.gov.uk,Ards,http://www.ards-council.gov.uk,-5.66638700000000,BT23 8RQ,2014-07-16,fhrs_5_en-GB,5,,FHRS,0
400161,,16 BARTLEYS WOOD,BALLYWALTER,DOWN,LITTLE NICETIES,Other catering premises,7841,0,,518618,0,,54.54003600000000,18/7179/9140/0001,802,environmental.health@ards-council.gov.uk,Ards,http://www.ards-council.gov.uk,-5.49073300000000,BT22 2GJ,2013-03-11,fhrs_5_en-GB,5,,FHRS,0
400162,,5 BRIDGE STREET,COMBER,DOWN,LIVINGSTONES (NEWSAGENT),Retailers - other,4613,,,23537,,,54.55094800000000,07/0197/0005/0008,802,environmental.health@ards-council.gov.uk,Ards,http://www.ards-council.gov.uk,-5.74353100000000,BT23 5AT,2012-03-28,fhrs_exempt_en-GB,Exempt,,FHRS,
400163,LONDONDERRY PRIMARY SCHOOL,2A GLENBROOK ROAD,NEWTOWNARDS,DOWN,LONDONDERRY PRIMARY SCHOOL,School/college/university,7845,0,,36602,0,,54.60140300000000,10/0371/0002/0109,802,environmental.health@ards-council.gov.uk,Ards,http://www.ards-council.gov.uk,-5.70112000000000,BT23 4EY,2013-12-09,fhrs_5_en-GB,5,,FHRS,0
400164,,9 LOUGH COWEY ROAD,PORTAFERRY,DOWN,LOUGH COWEY LODGE,Hotel/bed & breakfast/guest house,7842,10,,70745,0,,54.40814400000000,16/1303/0009/000X,802,environmental.health@ards-council.gov.uk,Ards,http://www.ards-council.gov.uk,-5.54924700000000,BT22 1PJ,2012-02-23,fhrs_4_en-GB,4,,FHRS,0
400165,LOUGHRIES PRIMARY SCHOOL,2 BALLYBLACK ROAD,NEWTOWNARDS,DOWN,LOUGHRIES PRIMARY SCHOOL,School/college/university,7845,,,58380,,,54.57982500000000,13/0408/0002/0001,802,environmental.health@ards-council.gov.uk,Ards,http://www.ards-council.gov.uk,-5.64305800000000,BT23 8SR,2012-03-06,fhrs_exempt_en-GB,Exempt,,FHRS,
400166,,26 MILL STREET,COMBER,DOWN,LUCKY HOUSE,Takeaway/sandwich shop,7844,10,,23746,15,,54.55144100000000,07/124X/0026/0002,802,environmental.health@ards-council.gov.uk,Ards,http://www.ards-council.gov.uk,-5.75168100000000,BT23 5EQ,2014-10-22,fhrs_2_en-GB,2,,FHRS,10
400167,,16A NEW ROAD,PORTAVOGIE,Down,LUCY'S CHIP SHOP,Takeaway/sandwich shop,7844,0,,151619,0,,54.46120500000000,AR/D920/0000/0001,802,environmental.health@ards-council.gov.uk,Ards,http://www.ards-council.gov.uk,-5.44505900000000,BT22 1EN,2014-05-15,fhrs_5_en-GB,5,,FHRS,0
400168,,134 FRANCES STREET,NEWTOWNARDS,DOWN,LYNN'S,Restaurant/Cafe/Canteen,1,5,,13094,0,,54.59348700000000,04/0379/0134/000X,802,environmental.health@ards-council.gov.uk,Ards,http://www.ards-council.gov.uk,-5.68983600000000,BT23 7DY,2013-11-20,fhrs_5_en-GB,5,,FHRS,5
400169,,7 NEWTOWNARDS ROAD,COMBER,DOWN,M & J HORNER,Other catering premises,7841,,,316013,,,54.55137800000000,05/079X/0007/0009,802,environmental.health@ards-council.gov.uk,Ards,http://www.ards-council.gov.uk,-5.74060100000000,BT23 5AU,2012-03-29,fhrs_exempt_en-GB,Exempt,,FHRS,
400170,,16 THE SQUARE,COMBER,DOWN,M & J HORNER,Other catering premises,7841,,,23764,,,54.55052600000000,07/1363/0016/0008,802,environmental.health@ards-council.gov.uk,Ards,http://www.ards-council.gov.uk,-5.74452800000000,BT23 5DT,2011-12-20,fhrs_exempt_en-GB,Exempt,,FHRS,
400171,,2-6 GLENARD ROAD,NEWTOWNARDS,DOWN,MACE GLENARD,Retailers - supermarkets/hypermarkets,7840,10,,316016,10,,54.59863600000000,18/5220/4500/0001,802,environmental.health@ards-council.gov.uk,Ards,http://www.ards-council.gov.uk,-5.69927900000000,BT23 4HS,2012-04-02,fhrs_4_en-GB,4,,FHRS,0
400172,,9 ROCK HILL,DONAGHADEE,DOWN,MADE WITH LOVE,Other catering premises,7841,5,,553541,0,,54.66078700000000,18/7215/0960/0001,802,environmental.health@ards-council.gov.uk,Ards,http://www.ards-council.gov.uk,-5.56811100000000,BT21 0FB,2013-05-24,fhrs_5_en-GB,5,,FHRS,0
400173,,14 MAHEE ISLAND,COMBER,DOWN,MAHEE ISLAND CATERING,Restaurant/Cafe/Canteen,1,,,76864,,,54.49815900000000,18/5230/5830/0001,802,environmental.health@ards-council.gov.uk,Ards,http://www.ards-council.gov.uk,-5.64237400000000,BT23 6EP,2014-12-01,fhrs_5_en-GB,5,,FHRS,
400174,,4 MARLFIELD ROAD,PORTAFERRY,DOWN,MARLFIELD TURKEYS,Farmers/growers,7838,0,,70748,0,,54.40804000000000,16/1362/0004/0002,802,environmental.health@ards-council.gov.uk,Ards,http://www.ards-council.gov.uk,-5.57122000000000,BT22 1PH,2014-12-10,fhrs_5_en-GB,5,,FHRS,5
400175,,81 BALLYRAINEY ROAD,COMBER,DOWN,MASH DIRECT PROMOTION BUS,Mobile caterer,7846,5,,564236,0,,54.57374000000000,18/5881/5350/0001,802,environmental.health@ards-council.gov.uk,Ards,http://www.ards-council.gov.uk,-5.75832500000000,BT23 5JU,2013-06-27,fhrs_5_en-GB,5,,FHRS,0
400176,,22 BANGOR ROAD,NEWTOWNARDS,DOWN,MASTER CHEF CHINESE TAKE AWAY,Takeaway/sandwich shop,7844,10,,76879,10,,54.59667300000000,18/5233/2000/0001,802,environmental.health@ards-council.gov.uk,Ards,http://www.ards-council.gov.uk,-5.68538500000000,BT23 7BY,2013-07-31,fhrs_3_en-GB,3,,FHRS,10
400177,,25 MAIN STREET,BALLYWALTER,DOWN,MASTER CHEF CHINESE TAKEAWAY,Takeaway/sandwich shop,7844,5,,76785,10,,54.54329700000000,18/5216/6080/0001,802,environmental.health@ards-council.gov.uk,Ards,http://www.ards-council.gov.uk,-5.48461300000000,BT22 2PQ,2014-08-13,fhrs_3_en-GB,3,,FHRS,10
400178,UNIT 3 & 4,0 CASTLEBAWN ROAD,NEWTOWNARDS,CO DOWN,MATALAN,Retailers - other,4613,,,188149,,,54.59008800000000,AR/D239/0000/0001,802,environmental.health@ards-council.gov.uk,Ards,http://www.ards-council.gov.uk,-5.66859900000000,BT23 8XX,2011-12-19,fhrs_exempt_en-GB,Exempt,,FHRS,
400179,,42 MILL STREET,COMBER,DOWN,MATBAH TURKISH CUISINE & PIZZERIA,Takeaway/sandwich shop,7844,,,370651,,,54.55144100000000,18/5225/7800/0001,802,environmental.health@ards-council.gov.uk,Ards,http://www.ards-council.gov.uk,-5.75168100000000,BT23 5EQ,2014-02-03,fhrs_1_en-GB,1,,FHRS,
400180,UNIT 3,35 - 41 MAIN STREET,KIRCUBBIN,CO DOWN,MAUDS,Restaurant/Cafe/Canteen,1,5,,456781,0,,54.48795600000000,AR/D257/0000/0001,802,environmental.health@ards-council.gov.uk,Ards,http://www.ards-council.gov.uk,-5.53411700000000,BT22 2SR,2012-10-09,fhrs_5_en-GB,5,,FHRS,0
400181,,18 HIGH STREET,DONAGHADEE,DOWN,MAUDS ICE CREAM AND COFFEE SHOP,Restaurant/Cafe/Canteen,1,5,,76729,0,,54.64235000000000,18/5206/8300/0001,802,environmental.health@ards-council.gov.uk,Ards,http://www.ards-council.gov.uk,-5.53709500000000,BT21 0AA,2014-12-10,fhrs_5_en-GB,5,,FHRS,0
400182,,44A HIGH STREET,NEWTOWNARDS,DOWN,"MAUDS ICE CREAM,COFFEE SHOP&SANDWICH BAR",Restaurant/Cafe/Canteen,1,10,,76891,10,,54.59294100000000,18/5234/2800/0001,802,environmental.health@ards-council.gov.uk,Ards,http://www.ards-council.gov.uk,-5.69415300000000,BT23 7HZ,2014-01-06,fhrs_4_en-GB,4,,FHRS,0
400183,,110 FRANCES STREET,NEWTOWNARDS,DOWN,MAWHINNEY'S FAMILY BUTCHERS LTD,Retailers - other,4613,0,,13092,5,,54.59348700000000,04/0379/0110/0009,802,environmental.health@ards-council.gov.uk,Ards,http://www.ards-council.gov.uk,-5.68983600000000,BT23 7DY,2015-01-07,fhrs_5_en-GB,5,,FHRS,5
400184,,1-3 THE SQUARE,COMBER,DOWN,"McBRIDE'S BAR, RESTAURANT & OFFSALES",Restaurant/Cafe/Canteen,1,5,,20397,0,,54.55002800000000,06/1392/0001/0006,802,environmental.health@ards-council.gov.uk,Ards,http://www.ards-council.gov.uk,-5.74574600000000,BT23 5DX,2014-07-09,fhrs_5_en-GB,5,,FHRS,5
400185,,3 COMBER ROAD,KILLINCHY,DOWN,McCANN'S  -  KILLINCHY,Restaurant/Cafe/Canteen,1,,,49419,,,54.47315200000000,11/0644/0100/0004,802,environmental.health@ards-council.gov.uk,Ards,http://www.ards-council.gov.uk,-5.69031500000000,BT23 6PA,2014-04-02,fhrs_3_en-GB,3,,FHRS,
400186,,53 MAIN STREET,MILLISLE,DOWN,McCLEMENTS,Restaurant/Cafe/Canteen,1,5,,76770,5,,54.60694600000000,18/5215/4530/0001,802,environmental.health@ards-council.gov.uk,Ards,http://www.ards-council.gov.uk,-5.52827400000000,BT22 2HR,2014-02-26,fhrs_5_en-GB,5,,FHRS,5
400187,ARDS SHOPPING CENTRE,CIRCULAR ROAD,NEWTOWNARDS,DOWN,MCDONALDS,Restaurant/Cafe/Canteen,1,0,,76807,0,,54.59296200000000,18/5219/5660/0001,802,environmental.health@ards-council.gov.uk,Ards,http://www.ards-council.gov.uk,-5.70950200000000,BT23 4EU,2014-02-24,fhrs_5_en-GB,5,,FHRS,5
400188,ARDS SHOPPING CENTRE,CIRCULAR ROAD,NEWTOWNARDS,DOWN,MCGEES'S BUTCHERS @ ASDA,Retailers - other,4613,0,,595304,0,,54.59296200000000,18/7196/2970/0001,802,environmental.health@ards-council.gov.uk,Ards,http://www.ards-council.gov.uk,-5.70950200000000,BT23 4EU,2013-10-01,fhrs_5_en-GB,5,,FHRS,5
400189,,27 MAIN STREET,MILLISLE,DOWN,MCILWRATH'S MACE,Retailers - other,4613,10,,76766,5,,54.60871500000000,18/5214/3910/0001,802,environmental.health@ards-council.gov.uk,Ards,http://www.ards-council.gov.uk,-5.52864600000000,BT22 2BL,2014-03-28,fhrs_4_en-GB,4,,FHRS,5
400190,,58-60 REGENT STREET,NEWTOWNARDS,DOWN,McKAY (NEWTOWNARDS) LTD,Other catering premises,7841,,,13295,,,54.59416400000000,04/1456/0058/0007,802,environmental.health@ards-council.gov.uk,Ards,http://www.ards-council.gov.uk,-5.70036700000000,BT23 4LP,2012-03-29,fhrs_exempt_en-GB,Exempt,,FHRS,
400191,,28 HOLYWOOD ROAD,NEWTOWNARDS,DOWN,McKEE'S FARM SHOP,Retailers - other,4613,5,,8011,5,,54.61100400000000,03/0829/0028/0003,802,environmental.health@ards-council.gov.uk,Ards,http://www.ards-council.gov.uk,-5.75739200000000,BT23 4TQ,2014-01-20,fhrs_5_en-GB,5,,FHRS,5
400192,,,,,MCKEE'S GREENGROCERS,Other catering premises,7841,5,,466262,0,,,18/5217/0800/0001,802,environmental.health@ards-council.gov.uk,Ards,http://www.ards-council.gov.uk,,,2012-11-12,fhrs_5_en-GB,5,,FHRS,0
400193,,38 MAIN STREET,KIRCUBBIN,DOWN,MCKEEVER'S CHEMIST,Other catering premises,7841,,,76795,,,54.48859200000000,18/5217/6820/0001,802,environmental.health@ards-council.gov.uk,Ards,http://www.ards-council.gov.uk,-5.53446400000000,BT22 2SP,2014-02-07,fhrs_exempt_en-GB,Exempt,,FHRS,
400194,,37-38 PARADE,DONAGHADEE,DOWN,MEADOWBANK SOCIAL & RECREATION CLUB,Pub/bar/nightclub,7843,5,,31783,5,,54.64273900000000,09/1216/0038/0008,802,environmental.health@ards-council.gov.uk,Ards,http://www.ards-council.gov.uk,-5.53370900000000,BT21 0HE,2014-02-07,fhrs_5_en-GB,5,,FHRS,5
400195,MERMAID BAR,51 MAIN STREET,KIRCUBBIN,DOWN,MERMAID BAR,Pub/bar/nightclub,7843,5,,53157,5,,54.48795600000000,12/0887/0051/0009,802,environmental.health@ards-council.gov.uk,Ards,http://www.ards-council.gov.uk,-5.53411700000000,BT22 2SR,2014-02-07,fhrs_5_en-GB,5,,FHRS,5
400196,ARDS BUSINESS CENTRE,UNIT E1 JUBILEE ROAD,NEWTOWNARDS,DOWN,MIKES FANCY CHEESE CO LTD,Retailers - other,4613,,,712923,,,54.58509900000000,18/5224/2500/0001,802,environmental.health@ards-council.gov.uk,Ards,http://www.ards-council.gov.uk,-5.70329100000000,BT23 4YH,2014-08-27,fhrs_exempt_en-GB,Exempt,,FHRS,
400197,UNIT 2,46-54 DONAGHADEE ROAD,NEWTOWNARDS,DOWN,MILLARS FISH 'N CHIPS,Restaurant/Cafe/Canteen,1,5,,67127,5,,54.59570700000000,15/0700/0048/0002,802,environmental.health@ards-council.gov.uk,Ards,http://www.ards-council.gov.uk,-5.68420200000000,BT23 7EU,2013-12-09,fhrs_5_en-GB,5,,FHRS,5
400198,,129 GLEN ROAD,COMBER,DOWN,MILLBRIDGE SNOOKER HALL,Restaurant/Cafe/Canteen,1,0,,23665,0,,54.55202300000000,07/0707/0130/0008,802,environmental.health@ards-council.gov.uk,Ards,http://www.ards-council.gov.uk,-5.78123500000000,BT23 5QT,2011-04-01,fhrs_5_en-GB,5,,FHRS,0
400199,MILLISLE BAPTIST CHURCH,MAIN STREET,MILLISLE,DOWN,MILLISLE BAPTIST CHURCH,Other catering premises,7841,,,404224,,,54.60694600000000,AR/D770/0000/0001,802,environmental.health@ards-council.gov.uk,Ards,http://www.ards-council.gov.uk,-5.52827400000000,BT22 2HR,2014-04-08,fhrs_exempt_en-GB,Exempt,,FHRS,
400200,,41 MAIN STREET,MILLISLE,DOWN,MILLISLE PHARMACY,Other catering premises,7841,,,76773,,,54.60694600000000,18/5215/4760/0001,802,environmental.health@ards-council.gov.uk,Ards,http://www.ards-council.gov.uk,-5.52827400000000,BT22 2HR,2011-12-20,fhrs_exempt_en-GB,Exempt,,FHRS,
400201,MILLISLE PRIMARY SCHOOL,7-19 ABBEY ROAD,MILLISLE,DOWN,MILLISLE PRIMARY SCHOOL,School/college/university,7845,0,,63204,0,,54.60688900000000,14/0071/0007/0009,802,environmental.health@ards-council.gov.uk,Ards,http://www.ards-council.gov.uk,-5.53078500000000,BT22 2DD,2013-12-09,fhrs_5_en-GB,5,,FHRS,5
400202,,5 MAIN STREET,MILLISLE,DOWN,MILLISLE YOUTH FORUM / TOASTIES & TREATS,Restaurant/Cafe/Canteen,1,5,,624898,0,,54.60871500000000,18/7144/2050/0001,802,environmental.health@ards-council.gov.uk,Ards,http://www.ards-council.gov.uk,-5.52864600000000,BT22 2BL,2014-01-02,fhrs_5_en-GB,5,,FHRS,0
400203,,102 MOAT STREET,DONAGHADEE,DOWN,MOAT INN,Restaurant/Cafe/Canteen,1,5,,27220,5,,54.64367100000000,08/1008/0102/0005,802,environmental.health@ards-council.gov.uk,Ards,http://www.ards-council.gov.uk,-5.54239100000000,BT21 0ED,2014-06-25,fhrs_5_en-GB,5,,FHRS,5
400204,,64 KILCARN ROAD,KILLINCHY,DOWN,MOCKFORD MILK DISTRIBUTION LTD,Distributors/Transporters,7,,,553540,,,54.47133100000000,18/5894/3510/0001,802,environmental.health@ards-council.gov.uk,Ards,http://www.ards-council.gov.uk,-5.74086600000000,BT23 6SE,2013-05-16,fhrs_exempt_en-GB,Exempt,,FHRS,
400205,,45-47 SOUTH STREET,NEWTOWNARDS,DOWN,MOLLY BROWNS,Restaurant/Cafe/Canteen,1,5,,76812,0,,54.59207300000000,18/5220/7090/0001,802,environmental.health@ards-council.gov.uk,Ards,http://www.ards-council.gov.uk,-5.69670900000000,BT23 4JT,2013-07-29,fhrs_4_en-GB,4,,FHRS,10
400206,,1 BRIDGE STREET LINK,COMBER,DOWN,MONDELLO,Takeaway/sandwich shop,7844,5,,574158,0,,54.55120200000000,18/5229/5900/0001,802,environmental.health@ards-council.gov.uk,Ards,http://www.ards-council.gov.uk,-5.74413500000000,BT23 5YH,2013-07-30,fhrs_5_en-GB,5,,FHRS,0
400207,,18 CASTLELODGE AVENUE,COMBER,DOWN,MOUNT ALEXANDER HOUSE,Hospitals/Childcare/Caring Premises,5,5,,23587,0,,54.55443900000000,07/0375/0018/0009,802,environmental.health@ards-council.gov.uk,Ards,http://www.ards-council.gov.uk,-5.74813000000000,BT23 5DN,2014-12-05,fhrs_5_en-GB,5,,FHRS,5
400208,,72 MOUNTSTEWART ROAD,NEWTOWNARDS,DOWN,MOUNTSTEWART DAY NURSERY,Other catering premises,7841,5,,76953,0,,54.56434900000000,18/5955/0620/0001,802,environmental.health@ards-council.gov.uk,Ards,http://www.ards-council.gov.uk,-5.59497900000000,BT22 2AX,2014-02-11,fhrs_5_en-GB,5,,FHRS,0
400209,,4 BRIDGE STREET LINK,COMBER,DOWN,MOVIE LINK,Other catering premises,7841,,,76861,,,54.55120200000000,18/5229/5940/0001,802,environmental.health@ards-council.gov.uk,Ards,http://www.ards-council.gov.uk,-5.74413500000000,BT23 5YH,2014-03-28,fhrs_exempt_en-GB,Exempt,,FHRS,
400210,MOVIE LAND,CIRCULAR ROAD,NEWTOWNARDS,DOWN,MOVIELAND,Retailers - other,4613,,,7756,,,54.59296200000000,03/0020/0096/0004,802,environmental.health@ards-council.gov.uk,Ards,http://www.ards-council.gov.uk,-5.70950200000000,BT23 4EU,2013-02-18,fhrs_exempt_en-GB,Exempt,,FHRS,
400211,,16A REGENT STREET,NEWTOWNARDS,DOWN,MOVIES AND MORE,Retailers - other,4613,10,,690115,0,,54.59390100000000,18/5726/6700/0001,802,environmental.health@ards-council.gov.uk,Ards,http://www.ards-council.gov.uk,-5.69832400000000,BT23 4LH,2014-07-21,fhrs_4_en-GB,4,,FHRS,5
400212,,MOVILLA ROAD,NEWTOWNARDS,DOWN,MOVILLA ABBEY COFFEE HOUSE,Restaurant/Cafe/Canteen,1,5,,58460,5,,54.60693000000000,13/1218/0150/0007,802,environmental.health@ards-council.gov.uk,Ards,http://www.ards-council.gov.uk,-5.62122900000000,BT23 8RL,2012-03-29,fhrs_5_en-GB,5,,FHRS,5
400213,MOVILLA HIGH SCHOOL,DONAGHADEE ROAD,NEWTOWNARDS,DOWN,MOVILLA HIGH SCHOOL,School/college/university,7845,0,,67125,0,,54.59543500000000,15/0700/0043/0102,802,environmental.health@ards-council.gov.uk,Ards,http://www.ards-council.gov.uk,-5.68266900000000,BT23 7HA,2013-09-24,fhrs_5_en-GB,5,,FHRS,5
400214,,51 MOVILLA ROAD,NEWTOWNARDS,DOWN,MOVILLA HOUSE NURSING HOME,Hospitals/Childcare/Caring Premises,5,5,,67199,5,,54.59565700000000,15/1219/0051/0009,802,environmental.health@ards-council.gov.uk,Ards,http://www.ards-council.gov.uk,-5.67693100000000,BT23 8RG,2014-11-27,fhrs_5_en-GB,5,,FHRS,5
400215,UNIT 5 STONEGATE SHOPPING CENT,STRATHEDEN HEIGHTS,NEWTOWNARDS,DOWN,MOVILLA PALACE,Takeaway/sandwich shop,7844,5,,76906,10,,54.59535400000000,18/5240/2570/0001,802,environmental.health@ards-council.gov.uk,Ards,http://www.ards-council.gov.uk,-5.66538900000000,BT23 8ZE,2014-06-04,fhrs_3_en-GB,3,,FHRS,10
400216,,63 MOVILLA ROAD,NEWTOWNARDS,CO DOWN,MOVILLA PLAYGROUP & NURSERY,Other catering premises,7841,0,,151569,0,,54.59524500000000,AR/D027/0000/0001,802,environmental.health@ards-council.gov.uk,Ards,http://www.ards-council.gov.uk,-5.67327200000000,BT23 8EZ,2013-10-07,fhrs_5_en-GB,5,,FHRS,5
400217,,86 WARREN ROAD,DONAGHADEE,DOWN,MULLAGHBOY PRIVATE NURSING HOME,Hospitals/Childcare/Caring Premises,5,10,,27305,5,,54.65745100000000,08/1571/0086/000X,802,environmental.health@ards-council.gov.uk,Ards,http://www.ards-council.gov.uk,-5.55727500000000,BT21 0PQ,2014-07-09,fhrs_3_en-GB,3,,FHRS,10
400218,,,,,MUMMY'S CAKES,Other catering premises,7841,0,,76905,0,,,18/5240/1320/0001,802,environmental.health@ards-council.gov.uk,Ards,http://www.ards-council.gov.uk,,,2014-07-15,fhrs_5_en-GB,5,,FHRS,0
400219,,DARRAGH ROAD,COMBER,DOWN,NENDRUM COLLEGE,School/college/university,7845,0,,15799,0,,54.55337300000000,05/0250/0002/0605,802,environmental.health@ards-council.gov.uk,Ards,http://www.ards-council.gov.uk,-5.74205200000000,BT23 5BX,2015-01-22,fhrs_5_en-GB,5,,FHRS,0
400220,,49A CASTLE STREET,COMBER,DOWN,NEW CENTURY,Takeaway/sandwich shop,7844,10,,76930,15,,54.55116600000000,18/5729/8200/0001,802,environmental.health@ards-council.gov.uk,Ards,http://www.ards-council.gov.uk,-5.74750700000000,BT23 5DY,2013-10-02,fhrs_2_en-GB,2,,FHRS,10
400221,,47 CASTLE STREET,COMBER,DOWN,NEW HAPPY VALLEY,Restaurant/Cafe/Canteen,1,10,,76840,5,,54.55116600000000,18/5225/4930/0001,802,environmental.health@ards-council.gov.uk,Ards,http://www.ards-council.gov.uk,-5.74750700000000,BT23 5DY,2014-05-27,fhrs_2_en-GB,2,,FHRS,15
400222,,37 REGENT STREET,NEWTOWNARDS,DOWN,NEWTOWNARDS MASONIC CLUB,Pub/bar/nightclub,7843,5,,13293,5,,54.59445400000000,04/1456/0037/0002,802,environmental.health@ards-council.gov.uk,Ards,http://www.ards-council.gov.uk,-5.69956100000000,BT23 4AD,2013-03-29,fhrs_5_en-GB,5,,FHRS,5
400223,,2F PORTAFERRY ROAD,NEWTOWNARDS,DOWN,NEWTOWNARDS NURSERY SCHOOL,School/college/university,7845,0,,13262,0,,54.58972400000000,04/1308/0002/0605,802,environmental.health@ards-council.gov.uk,Ards,http://www.ards-council.gov.uk,-5.68901300000000,BT23 8NN,2013-12-10,fhrs_5_en-GB,5,,FHRS,0
400224,,161 PORTAFERRY ROAD,NEWTOWNARDS,DOWN,NEWTOWNARDS SAILING CLUB,Pub/bar/nightclub,7843,10,,6131,10,,54.56104300000000,02/1544/0161/0007,802,environmental.health@ards-council.gov.uk,Ards,http://www.ards-council.gov.uk,-5.62915900000000,BT22 2AJ,2014-08-11,fhrs_3_en-GB,3,,FHRS,10
400225,ARDS SHOPPING CENTRE,CIRCULAR ROAD,NEWTOWNARDS,DOWN,NEXT RETAIL LTD,Retailers - other,4613,,,316011,,,54.59296200000000,04/0166/0093/0008,802,environmental.health@ards-council.gov.uk,Ards,http://www.ards-council.gov.uk,-5.70950200000000,BT23 4EU,2012-03-30,fhrs_exempt_en-GB,Exempt,,FHRS,
400226,,81 VICTORIA AVENUE,NEWTOWNARDS,DOWN,NI ASSOC. FOR MENTAL HEALTH (SCRABOVIEW),Restaurant/Cafe/Canteen,1,10,,81986,0,,54.59639400000000,20/1275/0081/0002,802,environmental.health@ards-council.gov.uk,Ards,http://www.ards-council.gov.uk,-5.69149800000000,BT23 7ED,2013-08-13,fhrs_4_en-GB,4,,FHRS,5
400227,,,,,NICE BUNS,Other catering premises,7841,5,,375389,0,,,18/7395/1820/0001,802,environmental.health@ards-council.gov.uk,Ards,http://www.ards-council.gov.uk,,,2012-05-21,fhrs_5_en-GB,5,,FHRS,0
400228,,211 WHITECHURCH ROAD,BALLYWALTER,CO DOWN,NISA,Retailers - supermarkets/hypermarkets,7840,10,,151601,0,,54.57442600000000,AR/D215/0000/0001,802,environmental.health@ards-council.gov.uk,Ards,http://www.ards-council.gov.uk,-5.48987300000000,BT22 2LA,2014-07-07,fhrs_2_en-GB,2,,FHRS,15
400229,,12 MAIN STREET,GREYABBEY,DOWN,NO. 14 THE VILLAGE BISTRO,Restaurant/Cafe/Canteen,1,10,,76779,0,,54.53510200000000,18/5216/0840/0001,802,environmental.health@ards-council.gov.uk,Ards,http://www.ards-council.gov.uk,-5.56054100000000,BT22 2NE,2014-06-03,fhrs_4_en-GB,4,,FHRS,10
400230,THE GREEN,19 CASTLE LANE,COMBER,DOWN,NORTH DOWN CRICKET CLUB,Pub/bar/nightclub,7843,,,23551,,,54.55256100000000,07/0286/0099/0000,802,environmental.health@ards-council.gov.uk,Ards,http://www.ards-council.gov.uk,-5.75007300000000,BT23 5EB,2013-06-04,fhrs_exempt_en-GB,Exempt,,FHRS,
400231,NORTH DOWN HOUSE,101-105 MILL STREET,COMBER,DOWN,NORTH DOWN HOUSE,Restaurant/Cafe/Canteen,1,,,76846,,,54.55185700000000,18/5225/6700/0001,802,environmental.health@ards-council.gov.uk,Ards,http://www.ards-council.gov.uk,-5.75423900000000,BT23 5EH,2013-11-12,fhrs_4_en-GB,4,,FHRS,
400232,,3 NORTHFIELD ROAD,DONAGHADEE,DOWN,NORTHFIELD E P H,Hospitals/Childcare/Caring Premises,5,5,,31702,0,,54.63975500000000,09/0945/0003/0007,802,environmental.health@ards-council.gov.uk,Ards,http://www.ards-council.gov.uk,-5.53807300000000,BT21 0BD,2014-10-21,fhrs_5_en-GB,5,,FHRS,0
400233,,31 PARADE,DONAGHADEE,DOWN,OCEAN DRIVE,Pub/bar/nightclub,7843,5,,31781,5,,54.64273900000000,09/1216/0031/000X,802,environmental.health@ards-council.gov.uk,Ards,http://www.ards-council.gov.uk,-5.53370900000000,BT21 0HE,2014-02-07,fhrs_5_en-GB,5,,FHRS,5
400234,OLD SCHOOLHOUSE INN,100 BALLYDRAIN ROAD,COMBER,DOWN,OLD SCHOOLHOUSE RESTAURANT / INN,Restaurant/Cafe/Canteen,1,10,,49338,10,,54.52520000000000,11/0199/0100/0004,802,environmental.health@ards-council.gov.uk,Ards,http://www.ards-council.gov.uk,-5.69003300000000,BT23 6EA,2014-12-03,fhrs_3_en-GB,3,,FHRS,10
400235,,1 FRANCES STREET,NEWTOWNARDS,DOWN,OPENHOUSE COFFEE COMPANY,Restaurant/Cafe/Canteen,1,,,76809,,,54.59375400000000,18/5220/5300/0001,802,environmental.health@ards-council.gov.uk,Ards,http://www.ards-council.gov.uk,-5.69673800000000,BT23 4JB,2014-03-26,fhrs_5_en-GB,5,,FHRS,
400236,,1 PORTAFERRY ROAD,GREYABBEY,DOWN,ORANGE TREE HOUSE,Restaurant/Cafe/Canteen,1,0,,200610,0,,54.52292000000000,18/5217/4170/0001,802,environmental.health@ards-council.gov.uk,Ards,http://www.ards-council.gov.uk,-5.55223000000000,BT22 2RU,2014-02-10,fhrs_5_en-GB,5,,FHRS,0
400237,,26A FRANCES STREET,NEWTOWNARDS,DOWN,ORR'S,Retailers - other,4613,0,,13088,5,,54.59381900000000,04/0379/0026/010X,802,environmental.health@ards-council.gov.uk,Ards,http://www.ards-council.gov.uk,-5.69450600000000,BT23 7DN,2013-08-13,fhrs_5_en-GB,5,,FHRS,5
400238,,9A REGENT STREET,NEWTOWNARDS,DOWN,ORR'S HOME BAKERY,Retailers - other,4613,0,,13285,0,,54.59421500000000,04/1456/0009/0107,802,environmental.health@ards-council.gov.uk,Ards,http://www.ards-council.gov.uk,-5.69787300000000,BT23 4AB,2014-07-24,fhrs_5_en-GB,5,,FHRS,5
400239,,37-39 MAIN STREET,BALLYWALTER,DOWN,P & E SPENCE (MACE),Retailers - supermarkets/hypermarkets,7840,5,,6068,5,,54.54329700000000,02/1129/0037/0002,802,environmental.health@ards-council.gov.uk,Ards,http://www.ards-council.gov.uk,-5.48461300000000,BT22 2PQ,2014-04-16,fhrs_4_en-GB,4,,FHRS,10
400240,,0 RINGNEILL ROAD,COMBER,CO DOWN,PADDY'S POINT SHELLFISH BED,Farmers/growers,7838,,,151611,,,54.51781100000000,AR/D300/0000/0001,802,environmental.health@ards-council.gov.uk,Ards,http://www.ards-council.gov.uk,-5.66508900000000,BT23 6EF,2014-10-29,fhrs_exempt_en-GB,Exempt,,FHRS,
400241,,,,,PAMELA MCKIBBIN,Other catering premises,7841,0,,692310,0,,,18/7330/4860/0001,802,environmental.health@ards-council.gov.uk,Ards,http://www.ards-council.gov.uk,,,2014-08-05,fhrs_5_en-GB,5,,FHRS,0
400242,,2 THE SQUARE,COMBER,DOWN,PARKER PHARMACY,Other catering premises,7841,,,20399,,,54.55052600000000,06/1392/0004/0002,802,environmental.health@ards-council.gov.uk,Ards,http://www.ards-council.gov.uk,-5.74452800000000,BT23 5DT,2013-06-04,fhrs_exempt_en-GB,Exempt,,FHRS,
400243,PARKVIEW SERVICE STATION,57 PORTAFERRY ROAD,NEWTOWNARDS,DOWN,PARKVIEW SERVICE STATION,Retailers - supermarkets/hypermarkets,7840,10,,13264,0,,54.58634800000000,04/1308/0057/0001,802,environmental.health@ards-council.gov.uk,Ards,http://www.ards-council.gov.uk,-5.68394400000000,BT23 8SG,2014-09-15,fhrs_4_en-GB,4,,FHRS,5
400244,,8 CASTLE PLACE,NEWTOWNARDS,DOWN,PARLOUR BAR & RESTAURANT,Restaurant/Cafe/Canteen,1,5,,76914,5,,54.59246000000000,18/5726/7350/0001,802,environmental.health@ards-council.gov.uk,Ards,http://www.ards-council.gov.uk,-5.69250900000000,BT23 7JF,2014-04-14,fhrs_5_en-GB,5,,FHRS,5
400245,,7 HIGH STREET,DONAGHADEE,DOWN,PASSAGE TO INDIA,Restaurant/Cafe/Canteen,1,,,76728,,,54.64235000000000,18/5206/8220/0001,802,environmental.health@ards-council.gov.uk,Ards,http://www.ards-council.gov.uk,-5.53709500000000,BT21 0AA,2014-03-12,fhrs_4_en-GB,4,,FHRS,
400246,,,,,PAUL RITCHIE (AMERICANO),Retailers - other,4613,5,,579839,5,,,18/5213/5380/0001,802,environmental.health@ards-council.gov.uk,Ards,http://www.ards-council.gov.uk,,,2013-08-12,fhrs_5_en-GB,5,,FHRS,0
400247,,4 CHURCH GROVE,Kircubbin,Down,PENINSULA HEALTHY LIVING PARTNERSHIP,Restaurant/Cafe/Canteen,1,5,,151616,0,,54.48628400000000,AR/D550/0000/0001,802,environmental.health@ards-council.gov.uk,Ards,http://www.ards-council.gov.uk,-5.53582300000000,BT22 2SU,2014-01-20,fhrs_5_en-GB,5,,FHRS,5
400248,,6-8 CASTLE STREET,COMBER,DOWN,PEPPERCORN BISTRO,Restaurant/Cafe/Canteen,1,5,,76844,10,,54.55094200000000,18/5225/5220/0001,802,environmental.health@ards-council.gov.uk,Ards,http://www.ards-council.gov.uk,-5.74756500000000,BT23 5DZ,2014-08-13,fhrs_3_en-GB,3,,FHRS,10
400249,,31 REGENT STREET,NEWTOWNARDS,DOWN,PETAL POWER / SIGNATURE CAFE,Restaurant/Cafe/Canteen,1,5,,606642,0,,54.59445400000000,04/1456/0099/0000,802,environmental.health@ards-council.gov.uk,Ards,http://www.ards-council.gov.uk,-5.69956100000000,BT23 4AD,2013-10-24,fhrs_5_en-GB,5,,FHRS,0
400250,,,,,PHILIP MCCULLOUGH,Mobile caterer,7846,5,,616437,0,,,18/5982/0230/0001,802,environmental.health@ards-council.gov.uk,Ards,http://www.ards-council.gov.uk,,,2013-12-03,fhrs_5_en-GB,5,,FHRS,0
400251,,1 LANSDOWNE ROAD,NEWTOWNARDS,DOWN,PHOENIX CLINIC & RESOURCE CENTRE,Hospitals/Childcare/Caring Premises,5,0,,76819,5,,54.57476300000000,18/5221/4410/0001,802,environmental.health@ards-council.gov.uk,Ards,http://www.ards-council.gov.uk,-5.70408900000000,BT23 4NT,2014-12-09,fhrs_5_en-GB,5,,FHRS,5
400252,,28 SOUTH STREET,NEWTOWNARDS,DOWN,PICCOLO PIZZERIA,Takeaway/sandwich shop,7844,10,,13308,10,,54.59207300000000,04/1634/0028/0003,802,environmental.health@ards-council.gov.uk,Ards,http://www.ards-council.gov.uk,-5.69670900000000,BT23 4JT,2014-10-01,fhrs_3_en-GB,3,,FHRS,10
400253,,36 PARADE,DONAGHADEE,DOWN,PIER 36,Restaurant/Cafe/Canteen,1,5,,31782,5,,54.64273900000000,09/1216/0035/0001,802,environmental.health@ards-council.gov.uk,Ards,http://www.ards-council.gov.uk,-5.53370900000000,BT21 0HE,2013-09-26,fhrs_5_en-GB,5,,FHRS,5
400254,,180 MOSS ROAD,MILLISLE,DOWN,PINECROFT (BED AND BREAKFAST),Hotel/bed & breakfast/guest house,7842,5,,63434,0,,54.60659800000000,14/1183/0180/0000,802,environmental.health@ards-council.gov.uk,Ards,http://www.ards-council.gov.uk,-5.56343300000000,BT22 2DX,2013-07-09,fhrs_5_en-GB,5,,FHRS,0
400255,UNIT 7,BELFAST ROAD,BALLYGOWAN,DOWN,PIZZAGIRL,Takeaway/sandwich shop,7844,10,,151615,5,,54.50332900000000,AR/D460/0000/0001,802,environmental.health@ards-council.gov.uk,Ards,http://www.ards-council.gov.uk,-5.79241400000000,BT23 6HX,2014-12-17,fhrs_4_en-GB,4,,FHRS,5
400256,UNIT 4 THE CASTLE YARD,CASTLE STREET,PORTAFERRY,DOWN,PLACE2B,Restaurant/Cafe/Canteen,1,0,,624899,0,,54.38143100000000,18/7405/3900/0001,802,environmental.health@ards-council.gov.uk,Ards,http://www.ards-council.gov.uk,-5.54848400000000,BT22 1NZ,2014-01-09,fhrs_5_en-GB,5,,FHRS,5
400257,,23 REGENT STREET,NEWTOWNARDS,DOWN,PLANET BINGO,Restaurant/Cafe/Canteen,1,5,,13291,5,,54.59445400000000,04/1456/0021/0005,802,environmental.health@ards-council.gov.uk,Ards,http://www.ards-council.gov.uk,-5.69956100000000,BT23 4AD,2014-02-07,fhrs_5_en-GB,5,,FHRS,5
400258,,181 KILLINCHY ROAD,COMBER,DOWN,POACHERS POCKET,Restaurant/Cafe/Canteen,1,5,,76850,0,,54.51462400000000,18/5227/3660/0001,802,environmental.health@ards-council.gov.uk,Ards,http://www.ards-council.gov.uk,-5.71841500000000,BT23 5NE,2013-11-26,fhrs_5_en-GB,5,,FHRS,5
400259,,10 THE STRAND,PORTAFERRY,DOWN,PORTAFERRY HOTEL,Hotel/bed & breakfast/guest house,7842,5,,76761,5,,54.38038000000000,18/5213/2570/0001,802,environmental.health@ards-council.gov.uk,Ards,http://www.ards-council.gov.uk,-5.54807000000000,BT22 1PE,2014-07-08,fhrs_4_en-GB,4,,FHRS,10
400260,,FERRY STREET,PORTAFERRY,DOWN,PORTAFERRY METHODIST CHURCH,Other catering premises,7841,,,76758,,,54.38070400000000,18/5213/2340/0001,802,environmental.health@ards-council.gov.uk,Ards,http://www.ards-council.gov.uk,-5.54763500000000,BT22 1PB,2011-12-20,fhrs_exempt_en-GB,Exempt,,FHRS,
400261,,25 HIGH STREET,PORTAFERRY,DOWN,PORTAFERRY PHARMACY,Other catering premises,7841,,,76763,,,54.38226000000000,18/5213/5470/0001,802,environmental.health@ards-council.gov.uk,Ards,http://www.ards-council.gov.uk,-5.54504800000000,BT22 1QT,2013-05-30,fhrs_exempt_en-GB,Exempt,,FHRS,
400262,,93C HIGH STREET,PORTAFERRY,CO DOWN,PORTAFERRY PRESCHOOL PLAYGROUP LTD,Other catering premises,7841,5,,151599,0,,54.38460400000000,AR/D212/0000/0001,802,environmental.health@ards-council.gov.uk,Ards,http://www.ards-council.gov.uk,-5.54055100000000,BT22 1QU,2014-09-25,fhrs_5_en-GB,5,,FHRS,0
400263,PORTAFERRY INTEGRATED PRIMARY,HIGH STREET,PORTAFERRY,DOWN,PORTAFERRY PRIMARY SCHOOL,School/college/university,7845,5,,70716,5,,54.38460400000000,16/1125/0095/0009,802,environmental.health@ards-council.gov.uk,Ards,http://www.ards-council.gov.uk,-5.54055100000000,BT22 1QU,2011-12-20,fhrs_5_en-GB,5,,FHRS,5
400264,,1A NEW HARBOUR ROAD,PORTAVOGIE,DOWN,PORTAVOGIE PRIMARY SCHOOL,School/college/university,7845,0,,73999,0,,54.45639100000000,17/1155/0001/0103,802,environmental.health@ards-council.gov.uk,Ards,http://www.ards-council.gov.uk,-5.44605300000000,BT22 1EE,2012-12-11,fhrs_5_en-GB,5,,FHRS,0
400265,UNIT 41 ARDS SHOPPING CENTRE,CIRCULAR ROAD,NEWTOWNARDS,DOWN,POUNDLAND,Retailers - other,4613,,,76909,,,54.59296200000000,18/5726/4450/0001,802,environmental.health@ards-council.gov.uk,Ards,http://www.ards-council.gov.uk,-5.70950200000000,BT23 4EU,2013-03-28,fhrs_exempt_en-GB,Exempt,,FHRS,
400266,,191-195 MILL STREET,NEWTOWNARDS,DOWN,POUNDSTRETCHER / IN STORE,Retailers - other,4613,5,,13240,0,,54.59188700000000,04/109X/0171/0001,802,environmental.health@ards-council.gov.uk,Ards,http://www.ards-council.gov.uk,-5.70586400000000,BT23 4LN,2014-03-25,fhrs_4_en-GB,4,,FHRS,10
400267,,28 NEW STREET,DONAGHADEE,DOWN,POUNDTOWN,Retailers - other,4613,,,27229,,,54.64192100000000,08/1121/0028/0003,802,environmental.health@ards-council.gov.uk,Ards,http://www.ards-council.gov.uk,-5.53543200000000,BT21 0AG,2012-05-08,fhrs_exempt_en-GB,Exempt,,FHRS,
400268,,120 BALLYWALTER ROAD,MILLISLE,DOWN,PRISON SERVICE COLLEGE - WOBURN HOUSE,Restaurant/Cafe/Canteen,1,5,,5855,0,,54.60059400000000,02/0289/0120/0003,802,environmental.health@ards-council.gov.uk,Ards,http://www.ards-council.gov.uk,-5.52700300000000,BT22 2HS,2013-03-15,fhrs_4_en-GB,4,,FHRS,10
400269,,48A BALLYBUNDEN ROAD,KILLINCHY,DOWN,PURE DAY SPA,Restaurant/Cafe/Canteen,1,5,,49235,0,,54.48648100000000,11/013X/0050/0003,802,environmental.health@ards-council.gov.uk,Ards,http://www.ards-council.gov.uk,-5.71316100000000,BT23 6RF,2012-08-31,fhrs_5_en-GB,5,,FHRS,5
400270,,6A CASTLE STREET,NEWTOWNARDS,DOWN,PURPLE ONION,Takeaway/sandwich shop,7844,,,624896,,,54.59181900000000,18/5234/5680/0002,802,environmental.health@ards-council.gov.uk,Ards,http://www.ards-council.gov.uk,-5.69188000000000,BT23 7PA,2014-12-22,fhrs_1_en-GB,1,,FHRS,
400271,,3 SPRINGFIELD ROAD,PORTAVOGIE,DOWN,QUALITY BUTCHER,Retailers - other,4613,10,,720039,5,,54.46503100000000,18/5211/5880/0001,802,environmental.health@ards-council.gov.uk,Ards,http://www.ards-council.gov.uk,-5.43815600000000,BT22 1EP,2014-11-26,fhrs_3_en-GB,3,,FHRS,10
400272,UNIT 3 STONEGATE SHOPPING CENT,STRATHEDEN HEIGHTS,NEWTOWNARDS,DOWN,QUALITY BUTCHERS,Retailers - other,4613,5,,558315,0,,54.59535400000000,18/5873/2190/0002,802,environmental.health@ards-council.gov.uk,Ards,http://www.ards-council.gov.uk,-5.66538800000000,BT23 8ZE,2013-06-04,fhrs_5_en-GB,5,,FHRS,0
400273,,40 JUBILEE ROAD,NEWTOWNARDS,DOWN,QUICK SNACK STOP,Restaurant/Cafe/Canteen,1,0,,716607,0,,54.58520600000000,18/5224/2200/0003,802,environmental.health@ards-council.gov.uk,Ards,http://www.ards-council.gov.uk,-5.70325400000000,BT23 4YH,2014-11-05,fhrs_5_en-GB,5,,FHRS,0
400274,,50 CASTLE STREET,COMBER,DOWN,QUINN'S FISH CAFE,Takeaway/sandwich shop,7844,5,,621314,0,,54.55094200000000,18/5225/5340/0001,802,environmental.health@ards-council.gov.uk,Ards,http://www.ards-council.gov.uk,-5.74756600000000,BT23 5DZ,2013-12-19,fhrs_5_en-GB,5,,FHRS,5
400275,,26 HIGH STREET,DONAGHADEE,DOWN,RAINEY'S,Takeaway/sandwich shop,7844,10,,428227,10,,54.64181200000000,18/5206/9240/0001,802,environmental.health@ards-council.gov.uk,Ards,http://www.ards-council.gov.uk,-5.53669400000000,BT21 0AH,2014-01-28,fhrs_3_en-GB,3,,FHRS,10
400276,RETAIL UNIT 2,25 NEW STREET,DONAGHADEE,DOWN,RECAF & ATE,Restaurant/Cafe/Canteen,1,5,,76974,0,,54.64192100000000,18/7240/4020/0001,802,environmental.health@ards-council.gov.uk,Ards,http://www.ards-council.gov.uk,-5.53543200000000,BT21 0AG,2013-02-22,fhrs_5_en-GB,5,,FHRS,0
400277,UNIT 3 BERKSHIRE CENTRE,DONAGHADEE ROAD,NEWTOWNARDS,DOWN,RED CHINA,Takeaway/sandwich shop,7844,10,,76934,10,,54.60573300000000,18/5872/9930/0001,802,environmental.health@ards-council.gov.uk,Ards,http://www.ards-council.gov.uk,-5.67242600000000,BT23 7QP,2014-01-29,fhrs_3_en-GB,3,,FHRS,10
400278,,5 REGENT STREET,NEWTOWNARDS,DOWN,REGENCY RESTAURANT,Restaurant/Cafe/Canteen,1,0,,76912,0,,54.59421500000000,18/5726/6620/0001,802,environmental.health@ards-council.gov.uk,Ards,http://www.ards-council.gov.uk,-5.69787300000000,BT23 4AB,2013-11-18,fhrs_5_en-GB,5,,FHRS,5
400279,REGENT HOUSE SCHOOL,CIRCULAR ROAD,NEWTOWNARDS,DOWN,REGENT HOUSE SCHOOL,School/college/university,7845,5,,12464,0,,54.58988400000000,04/0166/0152/0008,802,environmental.health@ards-council.gov.uk,Ards,http://www.ards-council.gov.uk,-5.70350100000000,BT23 4QA,2014-06-10,fhrs_5_en-GB,5,,FHRS,0
400280,PRESBYTERIAN CHURCH,REGENT STREET,NEWTOWNARDS,DOWN,REGENT STREET PRESBYTERIAN CHURCH,Other catering premises,7841,,,13294,,,54.59416400000000,04/1456/0048/0029,802,environmental.health@ards-council.gov.uk,Ards,http://www.ards-council.gov.uk,-5.70036700000000,BT23 4LP,2012-09-05,fhrs_exempt_en-GB,Exempt,,FHRS,
400281,ARDS SMALL BUSINESS CENTRE,JUBILEE ROAD,NEWTOWNARDS,DOWN,RELAX COFFEE SHOP,Restaurant/Cafe/Canteen,1,5,,76395,0,,54.58509900000000,18/0057/0000/0000,802,environmental.health@ards-council.gov.uk,Ards,http://www.ards-council.gov.uk,-5.70329100000000,BT23 4YH,2013-12-11,fhrs_5_en-GB,5,,FHRS,5
400282,,13A BLACKABBEY ROAD,GREYABBEY,DOWN,RETREAT / BARBARA & BILL RUSH (B & B),Hotel/bed & breakfast/guest house,7842,5,,76792,0,,54.52911800000000,18/5217/1980/0001,802,environmental.health@ards-council.gov.uk,Ards,http://www.ards-council.gov.uk,-5.51510400000000,BT22 2RH,2012-11-08,fhrs_5_en-GB,5,,FHRS,0
400283,,17 KILMOOD CHURCH ROAD,KILLINCHY,DOWN,RIGHT RASCALS DAY NURSERY,Other catering premises,7841,5,,49500,5,,54.49191400000000,11/1217/0017/0003,802,environmental.health@ards-council.gov.uk,Ards,http://www.ards-council.gov.uk,-5.73255300000000,BT23 6SA,2014-11-17,fhrs_5_en-GB,5,,FHRS,5
400284,UNIT 10 ARDS SHOPPING CENTRE,CIRCULAR ROAD,NEWTOWNARDS,DOWN,RIVER ISLAND,Retailers - other,4613,,,7752,,,54.59296200000000,03/0020/0006/0003,802,environmental.health@ards-council.gov.uk,Ards,http://www.ards-council.gov.uk,-5.70950200000000,BT23 4EU,2012-03-29,fhrs_exempt_en-GB,Exempt,,FHRS,
400285,,10 THE SQUARE,BALLYGOWAN,DOWN,RIVERSIDE FAST FOOD,Takeaway/sandwich shop,7844,10,,2890,10,,54.50238000000000,01/1549/0010/0005,802,environmental.health@ards-council.gov.uk,Ards,http://www.ards-council.gov.uk,-5.79263500000000,BT23 6HA,2014-08-27,fhrs_3_en-GB,3,,FHRS,10
400286,,32A PARADE,DONAGHADEE,DOWN,RNLI GIFT SHOP,Other catering premises,7841,,,31784,,,54.64273900000000,09/1216/0097/000X,802,environmental.health@ards-council.gov.uk,Ards,http://www.ards-council.gov.uk,-5.53370900000000,BT21 0HE,2010-03-30,fhrs_exempt_en-GB,Exempt,,FHRS,
400287,,,,,ROBIN ADAIR  Riada Ices,Retailers - other,4613,5,,76869,0,,,18/5231/0240/0001,802,environmental.health@ards-council.gov.uk,Ards,http://www.ards-council.gov.uk,,,2014-02-27,fhrs_5_en-GB,5,,FHRS,0
400288,,8 PORTAVOGIE ROAD,BALLYHALBERT,DOWN,ROCKY ACRES,Hospitals/Childcare/Caring Premises,5,0,,74016,5,,54.48243100000000,17/1309/0008/0004,802,environmental.health@ards-council.gov.uk,Ards,http://www.ards-council.gov.uk,-5.43827200000000,BT22 1BU,2013-10-08,fhrs_5_en-GB,5,,FHRS,5
400289,,4-6 REGENT STREET,NEWTOWNARDS,DOWN,ROMAS,Restaurant/Cafe/Canteen,1,0,,13283,0,,54.59390100000000,04/1456/0004/0002,802,environmental.health@ards-council.gov.uk,Ards,http://www.ards-council.gov.uk,-5.69832400000000,BT23 4LH,2014-09-24,fhrs_5_en-GB,5,,FHRS,5
400290,,40 CASTLE STREET,COMBER,DOWN,ROSIE SCOTT'S,Restaurant/Cafe/Canteen,1,5,,23575,5,,54.55098300000000,07/0316/0040/0009,802,environmental.health@ards-council.gov.uk,Ards,http://www.ards-council.gov.uk,-5.74733100000000,BT23 5DZ,2011-12-20,fhrs_5_en-GB,5,,FHRS,0
400291,,2 SAINTFIELD ROAD,BALLYGOWAN,DOWN,ROUNDABOUT COFFEE,Restaurant/Cafe/Canteen,1,5,,511210,0,,54.50114200000000,18/5230/6670/0001,802,environmental.health@ards-council.gov.uk,Ards,http://www.ards-council.gov.uk,-5.79521800000000,BT23 6HB,2014-01-31,fhrs_5_en-GB,5,,FHRS,0
400292,ROYAL BRITISH LEGION,CHURCHILL AVENUE,MILLISLE,DOWN,ROYAL BRITISH LEGION CLUB,Pub/bar/nightclub,7843,5,,63302,0,,54.60606100000000,14/0497/0001/0006,802,environmental.health@ards-council.gov.uk,Ards,http://www.ards-council.gov.uk,-5.53159400000000,BT22 2DL,2013-08-19,fhrs_5_en-GB,5,,FHRS,0
400293,,4-5 COURT SQUARE,NEWTOWNARDS,DOWN,ROYAL BRITISH LEGION CLUB & BRANCH,Pub/bar/nightclub,7843,5,,12956,10,,54.59155800000000,04/0255/0005/0008,802,environmental.health@ards-council.gov.uk,Ards,http://www.ards-council.gov.uk,-5.69232800000000,BT23 7NZ,2014-11-27,fhrs_3_en-GB,3,,FHRS,10
400294,,47 MAIN STREET,MILLISLE,DOWN,RUSSELL'S CELLARS,Retailers - other,4613,,,63419,,,54.60694600000000,14/1035/0047/0007,802,environmental.health@ards-council.gov.uk,Ards,http://www.ards-council.gov.uk,-5.52827400000000,BT22 2HR,2014-03-28,fhrs_exempt_en-GB,Exempt,,FHRS,
400295,,11-12 THE SQUARE,PORTAFERRY,DOWN,RUSSELL'S CELLARS,Retailers - other,4613,,,70787,,,54.38170200000000,16/1729/0007/0009,802,environmental.health@ards-council.gov.uk,Ards,http://www.ards-council.gov.uk,-5.54768300000000,BT22 1LW,2012-10-26,fhrs_exempt_en-GB,Exempt,,FHRS,
400296,UNIT 6 STONEGATE SHOPPING CENT,STRATHEDEN HEIGHTS,NEWTOWNARDS,DOWN,RUSSELL'S CELLARS,Retailers - other,4613,,,67198,,,54.59535400000000,15/1219/0005/0008,802,environmental.health@ards-council.gov.uk,Ards,http://www.ards-council.gov.uk,-5.66538900000000,BT23 8ZE,2013-04-12,fhrs_exempt_en-GB,Exempt,,FHRS,
400297,,57 HIGH STREET,NEWTOWNARDS,DOWN,RUSSELLS SHOP 4 YOU,Retailers - supermarkets/hypermarkets,7840,0,,67189,5,,54.59266600000000,15/112X/0057/0001,802,environmental.health@ards-council.gov.uk,Ards,http://www.ards-council.gov.uk,-5.69483400000000,BT23 7HS,2014-09-15,fhrs_4_en-GB,4,,FHRS,10
400298,,56 DONAGHADEE ROAD,NEWTOWNARDS,DOWN,RUSSELL'S SHOP 4 YOU,Retailers - supermarkets/hypermarkets,7840,10,,67128,0,,54.59570700000000,15/0700/0056/0006,802,environmental.health@ards-council.gov.uk,Ards,http://www.ards-council.gov.uk,-5.68420200000000,BT23 7EU,2012-10-24,fhrs_4_en-GB,4,,FHRS,10
400299,,1-2 THE PARADE & 7-11 BRIDGE S,DONAGHADEE,CO DOWN,RUSSELL'S SHOP 4 YOU,Retailers - supermarkets/hypermarkets,7840,5,,76730,5,,54.64279300000000,18/5206/8720/0001,802,environmental.health@ards-council.gov.uk,Ards,http://www.ards-council.gov.uk,-5.53632400000000,BT21 0AE,2014-02-07,fhrs_5_en-GB,5,,FHRS,5
400300,SPAR,53-59 MAIN STREET,Kircubbin,Down,RUSSELL'S SHOP 4 YOU,Retailers - supermarkets/hypermarkets,7840,,,76961,,,54.48795600000000,18/7143/0840/0001,802,environmental.health@ards-council.gov.uk,Ards,http://www.ards-council.gov.uk,-5.53411700000000,BT22 2SR,2015-01-19,fhrs_4_en-GB,4,,FHRS,
400301,,9A THE SQUARE,BALLYGOWAN,CO DOWN,S & D CAFE AND HOME BAKES,Restaurant/Cafe/Canteen,1,5,,558316,0,,54.50295000000000,AR/D263/0000/0001,802,environmental.health@ards-council.gov.uk,Ards,http://www.ards-council.gov.uk,-5.79184700000000,BT23 6HY,2013-05-29,fhrs_5_en-GB,5,,FHRS,0
400302,,7 BELFAST ROAD,COMBER,DOWN,S GIBSON'S FAMILY BUTCHERS,Retailers - other,4613,5,,76949,5,,54.55251600000000,18/5929/7950/0001,802,environmental.health@ards-council.gov.uk,Ards,http://www.ards-council.gov.uk,-5.75397100000000,BT23 5EN,2014-08-21,fhrs_5_en-GB,5,,FHRS,5
400303,,188 UPPER GREENWELL STREET,NEWTOWNARDS,DOWN,SALT 'N VINEGAR,Takeaway/sandwich shop,7844,0,,58443,0,,54.59096800000000,13/0971/0188/0004,802,environmental.health@ards-council.gov.uk,Ards,http://www.ards-council.gov.uk,-5.68447000000000,BT23 8LY,2013-04-15,fhrs_5_en-GB,5,,FHRS,5
400304,,38 SHORE ROAD,PORTAFERRY,DOWN,SALTHOUSE RESTAURANT,Restaurant/Cafe/Canteen,1,5,,76927,5,,54.37817900000000,18/5728/9390/0001,802,environmental.health@ards-council.gov.uk,Ards,http://www.ards-council.gov.uk,-5.54587600000000,BT22 1JZ,2015-01-19,fhrs_4_en-GB,4,,FHRS,10
400305,,43 ROWREAGH ROAD,KIRCUBBIN,DOWN,SALTWATER BRIG,Restaurant/Cafe/Canteen,1,5,,53237,5,,54.45130000000000,12/1425/0043/0005,802,environmental.health@ards-council.gov.uk,Ards,http://www.ards-council.gov.uk,-5.53095500000000,BT22 1AR,2014-09-22,fhrs_5_en-GB,5,,FHRS,5
400306,,39 COOKS BRAE,KIRCUBBIN,DOWN,SAMUEL KELLY & SON,Retailers - other,4613,5,,53110,5,,54.48577100000000,12/0526/0039/0003,802,environmental.health@ards-council.gov.uk,Ards,http://www.ards-council.gov.uk,-5.52966500000000,BT22 2SG,2014-01-15,fhrs_4_en-GB,4,,FHRS,10
400307,CASTLE GARDENS PRIMARY SCHOOL,69 BOWTOWN ROAD,NEWTOWNARDS,DOWN,SCHOOL'S OUT NI,Other catering premises,7841,5,,735759,0,,54.58927200000000,18/5729/9950/0002,802,environmental.health@ards-council.gov.uk,Ards,http://www.ards-council.gov.uk,-5.67573200000000,BT23 8SH,2015-01-22,fhrs_5_en-GB,5,,FHRS,0
400308,,1 DONARD AVENUE,NEWTOWNARDS,DOWN,SCRABO FOLD,Hospitals/Childcare/Caring Premises,5,5,,13072,5,,54.59086100000000,04/031X/0001/0006,802,environmental.health@ards-council.gov.uk,Ards,http://www.ards-council.gov.uk,-5.70531900000000,BT23 4NE,2013-03-28,fhrs_5_en-GB,5,,FHRS,5
400309,SCRABO HALL,MILL STREET,NEWTOWNARDS,DOWN,SCRABO HALL,Other catering premises,7841,,,8154,,,54.59188700000000,03/1124/0147/0000,802,environmental.health@ards-council.gov.uk,Ards,http://www.ards-council.gov.uk,-5.70586400000000,BT23 4LN,2013-03-28,fhrs_exempt_en-GB,Exempt,,FHRS,
400310,,19 REGENT STREET,NEWTOWNARDS,DOWN,SCRABO HEALTH PRODUCTS LTD,Retailers - other,4613,,,13290,,,54.59421500000000,04/1456/0019/0101,802,environmental.health@ards-council.gov.uk,Ards,http://www.ards-council.gov.uk,-5.69787300000000,BT23 4AB,2012-03-27,fhrs_exempt_en-GB,Exempt,,FHRS,
400311,SCRABO HOUSE,203 SCRABO ROAD,NEWTOWNARDS,DOWN,SCRABO HOUSE RESIDENTIAL HOME,Hospitals/Childcare/Caring Premises,5,10,,76723,0,,54.57856400000000,18/2335/0203/0004,802,environmental.health@ards-council.gov.uk,Ards,http://www.ards-council.gov.uk,-5.71261500000000,BT23 4SJ,2014-03-06,fhrs_4_en-GB,4,,FHRS,5
400312,,61 MANSE ROAD,NEWTOWNARDS,DOWN,SCRABO ISLES NURSING HOME,Hospitals/Childcare/Caring Premises,5,10,,76827,5,,54.59378400000000,18/5223/5920/0001,802,environmental.health@ards-council.gov.uk,Ards,http://www.ards-council.gov.uk,-5.71349500000000,BT23 4TP,2014-01-14,fhrs_3_en-GB,3,,FHRS,10
400313,,181 MILL STREET,NEWTOWNARDS,DOWN,SCRABO SERVICE STATION,Retailers - supermarkets/hypermarkets,7840,5,,518617,5,,54.59188700000000,18/5221/0010/0002,802,environmental.health@ards-council.gov.uk,Ards,http://www.ards-council.gov.uk,-5.70586400000000,BT23 4LN,2013-03-04,fhrs_4_en-GB,4,,FHRS,10
400314,,1 THE STRAND,PORTAFERRY,DOWN,SEA FRIENDS,Restaurant/Cafe/Canteen,1,5,,732635,0,,54.38038000000000,18/5213/2560/0002,802,environmental.health@ards-council.gov.uk,Ards,http://www.ards-council.gov.uk,-5.54807000000000,BT22 1PE,2015-01-16,fhrs_5_en-GB,5,,FHRS,5
400315,,5 KILLINCHY STREET,COMBER,DOWN,SECOND COMBER CATERING CORPS/KITCHEN,Restaurant/Cafe/Canteen,1,5,,20380,0,,54.54833700000000,06/1090/0005/0008,802,environmental.health@ards-council.gov.uk,Ards,http://www.ards-council.gov.uk,-5.74420000000000,BT23 5AP,2013-02-19,fhrs_5_en-GB,5,,FHRS,0
400316,,98 MAIN STREET,KIRCUBBIN,DOWN,SHARP'S FRUIT & VEG,Retailers - other,4613,5,,636413,0,,54.48859200000000,12/0887/0098/0005,802,environmental.health@ards-council.gov.uk,Ards,http://www.ards-council.gov.uk,-5.53446400000000,BT22 2SP,2014-02-13,fhrs_4_en-GB,4,,FHRS,10
400317,,26 FRANCES STREET,NEWTOWNARDS,DOWN,SHAW'S HOME BAKERY,Retailers - other,4613,5,,76882,0,,54.59395400000000,18/5233/4920/0001,802,environmental.health@ards-council.gov.uk,Ards,http://www.ards-council.gov.uk,-5.69497800000000,BT23 7DR,2014-02-13,fhrs_4_en-GB,4,,FHRS,10
400318,,2A NEWTOWNARDS ROAD,NEWTOWNARDS,DOWN,SHOP 4 YOU,Retailers - supermarkets/hypermarkets,7840,10,,15971,5,,54.53613100000000,05/079X/0002/001X,802,environmental.health@ards-council.gov.uk,Ards,http://www.ards-council.gov.uk,-5.56210200000000,BT22 2QQ,2014-03-21,fhrs_4_en-GB,4,,FHRS,5
400319,HALL,WARREN ROAD,DONAGHADEE,DOWN,SHORE STREET PRESBYTERIAN CHURCH,Other catering premises,7841,,,511209,,,54.64620400000000,18/5208/0000/0001,802,environmental.health@ards-council.gov.uk,Ards,http://www.ards-council.gov.uk,-5.54101400000000,BT21 0DS,2014-09-29,fhrs_exempt_en-GB,Exempt,,FHRS,
400320,,1 ROBERT STREET,NEWTOWNARDS,DOWN,SHUTTLEFIELD FOLD (FOLD HSG ASSOC),Hospitals/Childcare/Caring Premises,5,5,,13301,0,,54.59549000000000,04/1480/0001/0006,802,environmental.health@ards-council.gov.uk,Ards,http://www.ards-council.gov.uk,-5.69872900000000,BT23 4DN,2012-08-15,fhrs_5_en-GB,5,,FHRS,0
400321,,,,,SIMPLY DELICIOUS HOMEMADE CAKES,Other catering premises,7841,0,,460451,0,,,18/5226/2620/0001,802,environmental.health@ards-council.gov.uk,Ards,http://www.ards-council.gov.uk,,,2012-10-19,fhrs_5_en-GB,5,,FHRS,0
400322,,2 BRIDGE STREET LINK,COMBER,DOWN,SLICE,Restaurant/Cafe/Canteen,1,10,,76860,5,,54.55120200000000,18/5229/5930/0001,802,environmental.health@ards-council.gov.uk,Ards,http://www.ards-council.gov.uk,-5.74413500000000,BT23 5YH,2013-08-08,fhrs_4_en-GB,4,,FHRS,5
400323,,1 THE STRAND,PORTAFERRY,DOWN,SLIP INN,Restaurant/Cafe/Canteen,1,0,,76760,0,,54.38038000000000,18/5213/2560/0001,802,environmental.health@ards-council.gov.uk,Ards,http://www.ards-council.gov.uk,-5.54807000000000,BT22 1PE,2013-04-25,fhrs_5_en-GB,5,,FHRS,0
400324,,203-205 MILL STREET,NEWTOWNARDS,DOWN,SMURFS / SCOOPILICIOUS,Restaurant/Cafe/Canteen,1,5,,655692,0,,54.59188700000000,18/5992/5420/0001,802,environmental.health@ards-council.gov.uk,Ards,http://www.ards-council.gov.uk,-5.70586400000000,BT23 4LN,2014-04-15,fhrs_4_en-GB,4,,FHRS,10
400325,,46 BELFAST ROAD,NEWTOWNARDS,DOWN,SODEXO LTD (PRITCHITT FOODS),Restaurant/Cafe/Canteen,1,0,,7919,0,,54.59655200000000,03/0225/0099/0000,802,environmental.health@ards-council.gov.uk,Ards,http://www.ards-council.gov.uk,-5.72211400000000,BT23 4TU,2014-02-10,fhrs_5_en-GB,5,,FHRS,5
400326,,11 PORTAVOGIE ROAD,BALLYHALBERT,DOWN,SOMETHING FISHY NI LTD,Manufacturers/packers,7839,5,,655684,0,,54.48243100000000,18/5210/8360/0001,802,environmental.health@ards-council.gov.uk,Ards,http://www.ards-council.gov.uk,-5.43827200000000,BT22 1BU,2013-12-03,fhrs_4_en-GB,4,,FHRS,10
400327,,0 CONWAY SQUARE,NEWTOWNARDS,CO DOWN,SOMETHING FISHY NI LTD,Retailers - other,4613,5,,432713,5,,54.59347200000000,AR/D173/0000/0003,802,environmental.health@ards-council.gov.uk,Ards,http://www.ards-council.gov.uk,-5.69658400000000,BT23 4DA,2012-05-12,fhrs_4_en-GB,4,,FHRS,10
400328,,43 SOUTH STREET,NEWTOWNARDS,DOWN,SOUTH STREET CHIPPY,Takeaway/sandwich shop,7844,5,,76811,0,,54.59207300000000,18/5220/7080/0001,802,environmental.health@ards-council.gov.uk,Ards,http://www.ards-council.gov.uk,-5.69670900000000,BT23 4JT,2013-07-23,fhrs_5_en-GB,5,,FHRS,5
400329,UNIT 2 THE CONWAY BUILDING,SOUTH STREET,NEWTOWNARDS,DOWN,SOUTH STREET MEATS,Retailers - other,4613,5,,76813,5,,54.59207300000000,18/5220/7330/0001,802,environmental.health@ards-council.gov.uk,Ards,http://www.ards-council.gov.uk,-5.69670900000000,BT23 4JT,2014-08-11,fhrs_4_en-GB,4,,FHRS,10
400330,,16-17 THE SQUARE,PORTAFERRY,DOWN,SPAR,Retailers - supermarkets/hypermarkets,7840,0,,70788,0,,54.38170200000000,16/1729/0017/0003,802,environmental.health@ards-council.gov.uk,Ards,http://www.ards-council.gov.uk,-5.54768300000000,BT22 1LW,2011-11-04,fhrs_5_en-GB,5,,FHRS,0
400331,,24 HIGH STREET,BALLYHALBERT,DOWN,SPAR BALLYHALBERT,Retailers - supermarkets/hypermarkets,7840,0,,76967,0,,54.49481800000000,18/7161/7330/0002,802,environmental.health@ards-council.gov.uk,Ards,http://www.ards-council.gov.uk,-5.46192000000000,BT22 1BL,2014-05-27,fhrs_5_en-GB,5,,FHRS,5
400332,,28 NEW ROAD,DONAGHADEE,DOWN,SPAR HIGHTREES,Retailers - supermarkets/hypermarkets,7840,5,,655683,5,,54.64495700000000,18/5208/0230/0001,802,environmental.health@ards-council.gov.uk,Ards,http://www.ards-council.gov.uk,-5.54555200000000,BT21 0DU,2014-03-11,fhrs_5_en-GB,5,,FHRS,0
400333,,61-63 MAIN STREET,MILLISLE,DOWN,SPAR MILLISLE,Retailers - supermarkets/hypermarkets,7840,5,,63420,0,,54.60694600000000,14/1035/0063/0004,802,environmental.health@ards-council.gov.uk,Ards,http://www.ards-council.gov.uk,-5.52827400000000,BT22 2HR,2013-05-22,fhrs_5_en-GB,5,,FHRS,0
400334,,104 MOAT STREET,DONAGHADEE,DOWN,SPAR MOAT STREET,Retailers - supermarkets/hypermarkets,7840,5,,704508,5,,54.64367100000000,18/5208/1760/0001,802,environmental.health@ards-council.gov.uk,Ards,http://www.ards-council.gov.uk,-5.54239100000000,BT21 0ED,2014-09-11,fhrs_4_en-GB,4,,FHRS,10
400335,,2 HIGH STREET,PORTAFERRY,DOWN,SPAR PORTAFERRY,Retailers - supermarkets/hypermarkets,7840,0,,70710,5,,54.38226000000000,16/1125/0002/0001,802,environmental.health@ards-council.gov.uk,Ards,http://www.ards-council.gov.uk,-5.54504800000000,BT22 1QT,2014-03-26,fhrs_5_en-GB,5,,FHRS,5
400336,,46A REGENT STREET,NEWTOWNARDS,CO DOWN,SPICE 46,Takeaway/sandwich shop,7844,10,,530346,10,,54.59416400000000,AR/D246/0000/0002,802,environmental.health@ards-council.gov.uk,Ards,http://www.ards-council.gov.uk,-5.70036700000000,BT23 4LP,2014-03-28,fhrs_3_en-GB,3,,FHRS,10
400337,,192 UPPER GREENWELL STREET,NEWTOWNARDS,DOWN,SPIERS' SPAR,Retailers - supermarkets/hypermarkets,7840,10,,58444,0,,54.59096800000000,13/0971/0194/0007,802,environmental.health@ards-council.gov.uk,Ards,http://www.ards-council.gov.uk,-5.68447000000000,BT23 8LY,2012-10-09,fhrs_4_en-GB,4,,FHRS,5
400338,,,,,SPOTTY DOTTY CUPCAKES,Other catering premises,7841,5,,484781,0,,,18/5229/4930/0001,802,environmental.health@ards-council.gov.uk,Ards,http://www.ards-council.gov.uk,,,2012-11-30,fhrs_5_en-GB,5,,FHRS,0
400339,ST ANNE'S PRIMARY SCHOOL,9 MILLISLE ROAD,DONAGHADEE,DOWN,ST ANNE'S PRIMARY SCHOOL,School/college/university,7845,0,,283326,0,,54.63889900000000,09/0791/0009/000X,802,environmental.health@ards-council.gov.uk,Ards,http://www.ards-council.gov.uk,-5.53353900000000,BT21 0HY,2012-03-20,fhrs_5_en-GB,5,,FHRS,5
400340,,2 BALLYPHILIP ROAD,PORTAFERRY,DOWN,ST COLUMBA'S COLLEGE,School/college/university,7845,5,,70466,5,,54.38319600000000,16/0374/0002/0001,802,environmental.health@ards-council.gov.uk,Ards,http://www.ards-council.gov.uk,-5.53849500000000,BT22 1RB,2014-04-28,fhrs_5_en-GB,5,,FHRS,0
400341,ST FINIAN'S PRIMARY SCHOOL,37-39 ANN STREET,NEWTOWNARDS,DOWN,ST FINIAN'S PRE-SCHOOL,Other catering premises,7841,10,,564235,0,,54.59497300000000,18/5232/6100/0001,802,environmental.health@ards-council.gov.uk,Ards,http://www.ards-council.gov.uk,-5.69425500000000,BT23 7AD,2015-01-08,fhrs_4_en-GB,4,,FHRS,0
400342,ST FINIAN'S PRIMARY SCHOOL,37-39 ANN STREET,NEWTOWNARDS,DOWN,ST FINIAN'S PRIMARY SCHOOL,School/college/university,7845,0,,66920,0,,54.59497300000000,15/0166/0037/0002,802,environmental.health@ards-council.gov.uk,Ards,http://www.ards-council.gov.uk,-5.69425500000000,BT23 7AD,2012-10-15,fhrs_5_en-GB,5,,FHRS,5
400343,ST MARK'S CHURCH (C OF I),CHURCH STREET,NEWTOWNARDS,DOWN,ST MARK'S PARISH CHURCH,Other catering premises,7841,,,7930,,,54.59536400000000,03/0314/0001/0014,802,environmental.health@ards-council.gov.uk,Ards,http://www.ards-council.gov.uk,-5.70724700000000,BT23 4AN,2013-03-28,fhrs_exempt_en-GB,Exempt,,FHRS,
400344,ST MARY'S CHURCH (C OF I),THE SQUARE,COMBER,DOWN,ST MARY'S CHURCH & CHURCH HALL,Other catering premises,7841,,,706536,,,54.55008300000000,18/5881/6580/0001,802,environmental.health@ards-council.gov.uk,Ards,http://www.ards-council.gov.uk,-5.74435100000000,BT23 5DU,2014-10-01,fhrs_exempt_en-GB,Exempt,,FHRS,
400345,ST MARY'S PRIMARY SCHOOL,3 CHURCH GROVE,KIRCUBBIN,DOWN,ST MARY'S PRIMARY SCHOOL,School/college/university,7845,5,,53081,10,,54.48628400000000,12/0402/0003/0007,802,environmental.health@ards-council.gov.uk,Ards,http://www.ards-council.gov.uk,-5.53582300000000,BT22 2SU,2014-12-15,fhrs_4_en-GB,4,,FHRS,5
400346,ST. MARYS PRIMARY SCHOOL,53 WINDMILL HILL,PORTAFERRY,DOWN,ST MARY'S PRIMARY SCHOOL,School/college/university,7845,0,,70798,0,,54.37965600000000,16/1842/0053/000X,802,environmental.health@ards-council.gov.uk,Ards,http://www.ards-council.gov.uk,-5.54294000000000,BT22 1RH,2013-06-25,fhrs_5_en-GB,5,,FHRS,0
400347,,0 MAIN STREET,MILLISLE,DOWN,ST PATRICK'S CAR BOOT SALE,Restaurant/Cafe/Canteen,1,0,,585334,0,,54.60694600000000,18/5214/8830/0001,802,environmental.health@ards-council.gov.uk,Ards,http://www.ards-council.gov.uk,-5.52827400000000,BT22 2HR,2013-08-30,fhrs_5_en-GB,5,,FHRS,0
400348,,3 BALLYFOUNDER ROAD,PORTAFERRY,DOWN,ST PATRICK'S GAC,Other catering premises,7841,5,,76924,0,,54.37017000000000,18/5728/8130/0001,802,environmental.health@ards-council.gov.uk,Ards,http://www.ards-council.gov.uk,-5.51895900000000,BT22 1RE,2014-01-31,fhrs_5_en-GB,5,,FHRS,0
400349,ST PATRICK'S PRIMARY SCHOOL,10 BALLYGALGET ROAD,PORTAFERRY,DOWN,ST PATRICK'S PRIMARY SCHOOL,School/college/university,7845,0,,70464,5,,54.40732600000000,16/034X/0010/0005,802,environmental.health@ards-council.gov.uk,Ards,http://www.ards-council.gov.uk,-5.49664300000000,BT22 1NE,2014-06-11,fhrs_4_en-GB,4,,FHRS,10
400350,,STALLS CONWAY SQUARE,NEWTOWNARDS,CO DOWN,STEAK BURGER GRILL,Retailers - other,4613,0,,12794,0,,54.59347200000000,04/0220/0093/0008,802,environmental.health@ards-council.gov.uk,Ards,http://www.ards-council.gov.uk,-5.69658400000000,BT23 4DA,2014-01-11,fhrs_5_en-GB,5,,FHRS,0
400351,,11A REGENT STREET,NEWTOWNARDS,DOWN,STEPHANIE'S,Restaurant/Cafe/Canteen,1,5,,13296,0,,54.59421500000000,04/1456/0090/0001,802,environmental.health@ards-council.gov.uk,Ards,http://www.ards-council.gov.uk,-5.69787300000000,BT23 4AB,2013-10-17,fhrs_5_en-GB,5,,FHRS,5
400352,,30A-32 MAIN STREET,KIRCUBBIN,DOWN,STEPHEN ARTHURS FAMILY BUTCHERS,Retailers - other,4613,5,,53154,5,,54.48859200000000,12/0887/0032/0005,802,environmental.health@ards-council.gov.uk,Ards,http://www.ards-council.gov.uk,-5.53446400000000,BT22 2SP,2014-08-26,fhrs_4_en-GB,4,,FHRS,10
400353,,,,,STEPHEN COFFEY FRESH FISH,Retailers - other,4613,0,,76748,5,,,18/5211/4010/0001,802,environmental.health@ards-council.gov.uk,Ards,http://www.ards-council.gov.uk,,,2013-07-16,fhrs_5_en-GB,5,,FHRS,0
400354,,1 BALLYHARRY HEIGHTS,NEWTOWNARDS,DOWN,STEWART LODGE,Hospitals/Childcare/Caring Premises,5,5,,66944,0,,54.60492200000000,15/0271/0001/0006,802,environmental.health@ards-council.gov.uk,Ards,http://www.ards-council.gov.uk,-5.67228600000000,BT23 7GE,2012-10-10,fhrs_5_en-GB,5,,FHRS,0
400355,,3 CONWAY SQUARE,NEWTOWNARDS,DOWN,STEWART MILLER LTD,Retailers - other,4613,,,316012,,,54.59347200000000,04/0220/0003/0007,802,environmental.health@ards-council.gov.uk,Ards,http://www.ards-council.gov.uk,-5.69658400000000,BT23 4DA,2012-03-29,fhrs_exempt_en-GB,Exempt,,FHRS,
400356,,90-92 CHURCH STREET,NEWTOWNARDS,DOWN,STRANGFORD ARMS HOTEL,Hotel/bed & breakfast/guest house,7842,5,,7932,5,,54.59511600000000,03/0314/0092/0002,802,environmental.health@ards-council.gov.uk,Ards,http://www.ards-council.gov.uk,-5.70746200000000,BT23 4AL,2014-03-18,fhrs_5_en-GB,5,,FHRS,5
400357,STRANGFORD BAY LODGE,10A ABBACY ROAD,PORTAFERRY,DOWN,STRANGFORD BAY LODGE,Hotel/bed & breakfast/guest house,7842,5,,151600,5,,54.42109400000000,AR/D214/0000/0001,802,environmental.health@ards-council.gov.uk,Ards,http://www.ards-council.gov.uk,-5.55775000000000,BT22 1PG,2014-05-27,fhrs_5_en-GB,5,,FHRS,0
400358,STRANGFORD INTEGRATED COLLEGE,ABBEY ROAD,MILLISLE,Down,STRANGFORD COLLEGE,School/college/university,7845,5,,88049,5,,54.57908400000000,23/0011/0100/0004,802,environmental.health@ards-council.gov.uk,Ards,http://www.ards-council.gov.uk,-5.55185000000000,BT22 2GB,2014-06-24,fhrs_5_en-GB,5,,FHRS,0
400359,,50 PORTAFERRY ROAD,NEWTOWNARDS,DOWN,STRANGFORD FILLING STATION,Retailers - other,4613,,,13263,,,54.58146800000000,04/1308/0050/0003,802,environmental.health@ards-council.gov.uk,Ards,http://www.ards-council.gov.uk,-5.67500100000000,BT23 8SQ,2012-08-02,fhrs_exempt_en-GB,Exempt,,FHRS,
400360,STREAN PRESBYTERIAN CHURCH,WEST STREET,NEWTOWNARDS,DOWN,STREAN PRESBYTERIAN CHURCH,Other catering premises,7841,,,13345,,,54.59449800000000,04/9643/0001/0006,802,environmental.health@ards-council.gov.uk,Ards,http://www.ards-council.gov.uk,-5.69808900000000,BT23 4EN,2014-02-07,fhrs_exempt_en-GB,Exempt,,FHRS,
400361,UNIT 4 ARDS SHOPPING CENTRE,CIRCULAR ROAD,NEWTOWNARDS,DOWN,SUBWAY (ARDS) LTD,Takeaway/sandwich shop,7844,0,,76805,0,,54.59296200000000,18/5219/5420/0001,802,environmental.health@ards-council.gov.uk,Ards,http://www.ards-council.gov.uk,-5.70950200000000,BT23 4EU,2013-07-22,fhrs_5_en-GB,5,,FHRS,0
400362,,37-55 BANGOR ROAD,NEWTOWNARDS,DOWN,SUBWAY ROSEVALE,Takeaway/sandwich shop,7844,0,,370654,0,,54.59634000000000,AR/D031/0000/0001,802,environmental.health@ards-council.gov.uk,Ards,http://www.ards-council.gov.uk,-5.68679600000000,BT23 7BZ,2014-05-29,fhrs_5_en-GB,5,,FHRS,0
400363,,2 THE SQUARE,COMBER,DOWN,SUGARCANE COFFEE CO.,Restaurant/Cafe/Canteen,1,,,20398,,,54.55052600000000,06/1392/0002/0001,802,environmental.health@ards-council.gov.uk,Ards,http://www.ards-council.gov.uk,-5.74452800000000,BT23 5DT,2014-11-05,fhrs_5_en-GB,5,,FHRS,
400364,,,,,SUGARCRAFT CAKES,Other catering premises,7841,5,,76853,0,,,18/5228/1610/0001,802,environmental.health@ards-council.gov.uk,Ards,http://www.ards-council.gov.uk,,,2012-08-30,fhrs_5_en-GB,5,,FHRS,0
400365,,31 UPPER GRANSHA ROAD,BANGOR,DOWN,SUMMERHILL RESIDENTIAL HOME,Hospitals/Childcare/Caring Premises,5,10,,67246,5,,54.62273900000000,15/1782/0031/000X,802,environmental.health@ards-council.gov.uk,Ards,http://www.ards-council.gov.uk,-5.62366700000000,BT19 7QF,2014-02-04,fhrs_3_en-GB,3,,FHRS,10
400366,,28 THE SQUARE,PORTAFERRY,DOWN,SUPER SHOP/PORTAFERRY POST OFFICE,Retailers - other,4613,,,70794,,,54.38143700000000,16/1729/0028/0003,802,environmental.health@ards-council.gov.uk,Ards,http://www.ards-council.gov.uk,-5.54699000000000,BT22 1LR,2012-09-06,fhrs_exempt_en-GB,Exempt,,FHRS,
400367,UNIT 29 ARDS SHOPPING CENTRE,CIRCULAR ROAD,NEWTOWNARDS,DOWN,SUPERDRUG,Other catering premises,7841,,,7755,,,54.59296200000000,03/0020/0019/0004,802,environmental.health@ards-council.gov.uk,Ards,http://www.ards-council.gov.uk,-5.70950200000000,BT23 4EU,2013-04-15,fhrs_exempt_en-GB,Exempt,,FHRS,
400368,,13 CASTLE STREET,COMBER,DOWN,SUPERVALU,Retailers - supermarkets/hypermarkets,7840,0,,76841,0,,54.55116600000000,18/5225/5000/0001,802,environmental.health@ards-council.gov.uk,Ards,http://www.ards-council.gov.uk,-5.74750700000000,BT23 5DY,2013-09-17,fhrs_5_en-GB,5,,FHRS,5
400369,,26-28 DAKOTA AVENUE,NEWTOWNARDS,DOWN,SURE START ARDS,Other catering premises,7841,0,,466264,0,,54.58211800000000,18/7340/0300/0001,802,environmental.health@ards-council.gov.uk,Ards,http://www.ards-council.gov.uk,-5.70528400000000,BT23 4QX,2012-10-09,fhrs_5_en-GB,5,,FHRS,0
400370,,35 MAIN STREET,KIRCUBBIN,DOWN,SURE START ARDS,Other catering premises,7841,5,,151623,0,,54.48795600000000,AR/D990/0000/0001,802,environmental.health@ards-council.gov.uk,Ards,http://www.ards-council.gov.uk,-5.53411700000000,BT22 2SR,2012-10-11,fhrs_5_en-GB,5,,FHRS,0
400371,WEST WINDS PRIMARY SCHOOL,SUNDERLAND PARK,NEWTOWNARDS,DOWN,SURE START ARDS,Other catering premises,7841,5,,151622,0,,54.58028600000000,AR/D980/0000/0001,802,environmental.health@ards-council.gov.uk,Ards,http://www.ards-council.gov.uk,-5.70156600000000,BT23 4RQ,2012-10-09,fhrs_5_en-GB,5,,FHRS,0
400372,,42 MAIN STREET,CARROWDORE,DOWN,SUTTON'S,Takeaway/sandwich shop,7844,10,,76769,5,,54.57459800000000,18/5215/4240/0001,802,environmental.health@ards-council.gov.uk,Ards,http://www.ards-council.gov.uk,-5.55666600000000,BT22 2HN,2013-10-21,fhrs_3_en-GB,3,,FHRS,10
400373,,,,,SWIFT OUTSIDE FOODS,Mobile caterer,7846,0,,676393,0,,,18/7180/2590/0003,802,environmental.health@ards-council.gov.uk,Ards,http://www.ards-council.gov.uk,,,2014-06-10,fhrs_5_en-GB,5,,FHRS,0
400374,,99 EAST STREET,NEWTOWNARDS,DOWN,TAGGARTS,Restaurant/Cafe/Canteen,1,,,76880,,,54.59398600000000,18/5233/3530/0001,802,environmental.health@ards-council.gov.uk,Ards,http://www.ards-council.gov.uk,-5.68912700000000,BT23 7DE,2014-06-12,fhrs_1_en-GB,1,,FHRS,
400375,ARDS SHOPPING CENTRE,0 CIRCULAR ROAD,NEWTOWNARDS,CO DOWN,TASTY TREATS,Retailers - other,4613,0,,484782,10,,54.59296200000000,AR/D259/0000/0001,802,environmental.health@ards-council.gov.uk,Ards,http://www.ards-council.gov.uk,-5.70950200000000,BT23 4EU,2012-12-10,fhrs_4_en-GB,4,,FHRS,0
400376,,51 BRIDGE STREET,COMBER,DOWN,TASTY WOK,Takeaway/sandwich shop,7844,5,,76833,5,,54.55094800000000,18/5224/5850/0001,802,environmental.health@ards-council.gov.uk,Ards,http://www.ards-council.gov.uk,-5.74353100000000,BT23 5AT,2015-01-12,fhrs_5_en-GB,5,,FHRS,5
400377,,13A HIGH STREET,NEWTOWNARDS,DOWN,TEACUPS,Restaurant/Cafe/Canteen,1,5,,595302,5,,54.59298500000000,18/5220/6440/0001,802,environmental.health@ards-council.gov.uk,Ards,http://www.ards-council.gov.uk,-5.69693600000000,BT23 4JN,2013-10-18,fhrs_5_en-GB,5,,FHRS,5
400378,,89 MILL STREET,NEWTOWNARDS,DOWN,TERRACOTTA CHINESE TAKEAWAY,Takeaway/sandwich shop,7844,5,,76817,0,,54.59342600000000,18/5221/0760/0001,802,environmental.health@ards-council.gov.uk,Ards,http://www.ards-council.gov.uk,-5.70079500000000,BT23 4LW,2014-06-30,fhrs_5_en-GB,5,,FHRS,5
400379,,30 THE SQUARE,COMBER,DOWN,TESCO EXPRESS,Retailers - supermarkets/hypermarkets,7840,5,,20400,0,,54.55008300000000,06/1392/0040/0009,802,environmental.health@ards-council.gov.uk,Ards,http://www.ards-council.gov.uk,-5.74435100000000,BT23 5DU,2011-12-20,fhrs_4_en-GB,4,,FHRS,10
400380,,0 CASTLEBAWN ROAD,NEWTOWNARDS,CO DOWN,TESCO EXTRA,Retailers - supermarkets/hypermarkets,7840,0,,151607,0,,54.59008800000000,AR/D238/0000/0001,802,environmental.health@ards-council.gov.uk,Ards,http://www.ards-council.gov.uk,-5.66859900000000,BT23 8XX,2013-12-16,fhrs_5_en-GB,5,,FHRS,5
400381,,0 CASTLEBAWN ROAD,NEWTOWNARDS,CO DOWN,TESCO EXTRA (CAFE),Restaurant/Cafe/Canteen,1,5,,151606,0,,54.59008800000000,AR/D236/0000/0001,802,environmental.health@ards-council.gov.uk,Ards,http://www.ards-council.gov.uk,-5.66859900000000,BT23 8XX,2013-05-14,fhrs_5_en-GB,5,,FHRS,5
400382,,0 CASTLEBAWN ROAD,NEWTOWNARDS,CO DOWN,TESCO EXTRA (FILLING STATION),Retailers - other,4613,0,,316019,0,,54.59008800000000,AR/D245/0000/0001,802,environmental.health@ards-council.gov.uk,Ards,http://www.ards-council.gov.uk,-5.66859900000000,BT23 8XX,2012-02-14,fhrs_5_en-GB,5,,FHRS,0
400383,,296 BANGOR ROAD,NEWTOWNARDS,DOWN,THE ARK OPEN FARM/COTTAGE CAFE,Restaurant/Cafe/Canteen,1,5,,81798,5,,54.60942700000000,20/0074/0296/0001,802,environmental.health@ards-council.gov.uk,Ards,http://www.ards-council.gov.uk,-5.68136400000000,BT23 7PH,2014-04-09,fhrs_5_en-GB,5,,FHRS,0
400384,,73 MAIN STREET,MILLISLE,DOWN,THE BAKERY / POST OFFICE,Takeaway/sandwich shop,7844,10,,655682,0,,54.60694600000000,14/1035/0073/0009,802,environmental.health@ards-council.gov.uk,Ards,http://www.ards-council.gov.uk,-5.52827400000000,BT22 2HR,2014-04-01,fhrs_4_en-GB,4,,FHRS,0
400385,,,,,THE BOOTEN - MOBILE FARM SHOP,Retailers - other,4613,5,,20394,5,,,06/1244/0104/0006,802,environmental.health@ards-council.gov.uk,Ards,http://www.ards-council.gov.uk,,,2013-03-28,fhrs_5_en-GB,5,,FHRS,5
400386,,19 CONWAY SQUARE,NEWTOWNARDS,DOWN,THE BUTCHER - H & J CARNDUFF,Retailers - other,4613,0,,12790,10,,54.59347200000000,04/0220/0019/0004,802,environmental.health@ards-council.gov.uk,Ards,http://www.ards-council.gov.uk,-5.69658400000000,BT23 4DA,2014-09-01,fhrs_4_en-GB,4,,FHRS,5
400387,,32 NEW STREET,DONAGHADEE,DOWN,THE CABIN,Retailers - other,4613,0,,489708,0,,54.64192100000000,18/5206/9070/0001,802,environmental.health@ards-council.gov.uk,Ards,http://www.ards-council.gov.uk,-5.53543200000000,BT21 0AG,2012-12-17,fhrs_5_en-GB,5,,FHRS,5
400388,,29 MAIN STREET,MILLISLE,DOWN,THE CANDY BOX,Retailers - other,4613,0,,76767,5,,54.60871500000000,18/5214/3920/0001,802,environmental.health@ards-council.gov.uk,Ards,http://www.ards-council.gov.uk,-5.52864600000000,BT22 2BL,2013-08-20,fhrs_5_en-GB,5,,FHRS,5
400389,,22 PARADE,DONAGHADEE,DOWN,THE CAPTAIN'S TABLE,Restaurant/Cafe/Canteen,1,5,,27287,0,,54.64273900000000,08/1369/0022/0000,802,environmental.health@ards-council.gov.uk,Ards,http://www.ards-council.gov.uk,-5.53370900000000,BT21 0HE,2013-05-15,fhrs_5_en-GB,5,,FHRS,5
400390,,1 ANN STREET,PORTAFERRY,DOWN,THE COACH INN,Pub/bar/nightclub,7843,0,,316014,0,,54.38362700000000,16/0048/0001/0006,802,environmental.health@ards-council.gov.uk,Ards,http://www.ards-council.gov.uk,-5.54467400000000,BT22 1LX,2012-03-29,fhrs_5_en-GB,5,,FHRS,0
400391,,5 GIBSONS LANE,NEWTOWNARDS,DOWN,THE COD FATHER,Takeaway/sandwich shop,7844,0,,76955,5,,54.59374100000000,18/5976/7630/0001,802,environmental.health@ards-council.gov.uk,Ards,http://www.ards-council.gov.uk,-5.69893600000000,BT23 4LJ,2015-01-23,fhrs_5_en-GB,5,,FHRS,5
400392,,7 LOWER MARY STREET,NEWTOWNARDS,DOWN,THE COFFEE BEAN,Restaurant/Cafe/Canteen,1,10,,13187,0,,54.59348000000000,04/0859/0007/0009,802,environmental.health@ards-council.gov.uk,Ards,http://www.ards-council.gov.uk,-5.69700100000000,BT23 4JH,2014-02-04,fhrs_4_en-GB,4,,FHRS,0
400393,,1-3 NEW STREET,DONAGHADEE,DOWN,THE CORNER,Retailers - other,4613,0,,76733,0,,54.64192100000000,18/5206/8940/0002,802,environmental.health@ards-council.gov.uk,Ards,http://www.ards-council.gov.uk,-5.53543200000000,BT21 0AG,2011-11-10,fhrs_5_en-GB,5,,FHRS,5
400394,,3A THE SQUARE,CLOUGHEY,CO DOWN,THE CORNER KITCHEN,Mobile caterer,7846,5,,151572,0,,54.42797200000000,AR/D100/0000/0002,802,environmental.health@ards-council.gov.uk,Ards,http://www.ards-council.gov.uk,-5.48132800000000,BT22 1HR,2013-07-16,fhrs_5_en-GB,5,,FHRS,5
400395,,8 THE SQUARE,PORTAFERRY,DOWN,THE COUNTRY GARDEN,Retailers - other,4613,5,,76754,5,,54.38238500000000,18/5212/7320/0001,802,environmental.health@ards-council.gov.uk,Ards,http://www.ards-council.gov.uk,-5.54679500000000,BT22 1LN,2014-04-11,fhrs_4_en-GB,4,,FHRS,10
400396,,18 PARADE,DONAGHADEE,DOWN,THE DELI AND GREEN GROCER,Retailers - other,4613,5,,76731,10,,54.64274300000000,18/5206/8790/0001,802,environmental.health@ards-council.gov.uk,Ards,http://www.ards-council.gov.uk,-5.53609500000000,BT21 0AE,2014-03-24,fhrs_3_en-GB,3,,FHRS,10
400397,,59 MILL STREET,Newtownards,,THE DIAMOND,Takeaway/sandwich shop,7844,10,,13235,0,,54.59342600000000,04/109X/0059/0002,802,environmental.health@ards-council.gov.uk,Ards,http://www.ards-council.gov.uk,-5.70079500000000,BT23 4LW,2014-05-14,fhrs_4_en-GB,4,,FHRS,10
400398,,16 CONWAY SQUARE,NEWTOWNARDS,DOWN,THE EDINBURGH WOOLLEN MILL,Retailers - other,4613,,,12788,,,54.59326200000000,04/0220/0014/0007,802,environmental.health@ards-council.gov.uk,Ards,http://www.ards-council.gov.uk,-5.69548100000000,BT23 4DD,2013-03-28,fhrs_exempt_en-GB,Exempt,,FHRS,
400399,,3 HIGH STREET,PORTAFERRY,DOWN,THE FERRY GRILL,Takeaway/sandwich shop,7844,10,,70711,10,,54.38226000000000,16/1125/0003/0007,802,environmental.health@ards-council.gov.uk,Ards,http://www.ards-council.gov.uk,-5.54504800000000,BT22 1QT,2014-05-09,fhrs_2_en-GB,2,,FHRS,15
400400,,2 CONWAY SQUARE,NEWTOWNARDS,DOWN,THE FOOD QUARTER,Restaurant/Cafe/Canteen,1,20,,76801,15,,54.59326200000000,18/5218/8660/0001,802,environmental.health@ards-council.gov.uk,Ards,http://www.ards-council.gov.uk,-5.69548100000000,BT23 4DD,2015-01-13,fhrs_0_en-GB,0,,FHRS,20
400401,,21 MAIN STREET,GREYABBEY,DOWN,THE FRUIT BOWL,Retailers - other,4613,10,,375388,0,,54.53664100000000,18/5726/3370/0002,802,environmental.health@ards-council.gov.uk,Ards,http://www.ards-council.gov.uk,-5.55754400000000,BT22 2NF,2013-10-23,fhrs_4_en-GB,4,,FHRS,5
400402,,2 SAINTFIELD ROAD,BALLYGOWAN,DOWN,THE GARAGE,Retailers - supermarkets/hypermarkets,7840,,,2875,,,54.50114200000000,01/1360/0002/0001,802,environmental.health@ards-council.gov.uk,Ards,http://www.ards-council.gov.uk,-5.79521800000000,BT23 6HB,2013-07-03,fhrs_5_en-GB,5,,FHRS,
400403,,2 KILLINCHY ROAD,COMBER,DOWN,THE GARAGE COMBER,Retailers - supermarkets/hypermarkets,7840,5,,76857,5,,54.54526200000000,18/5228/5880/0001,802,environmental.health@ards-council.gov.uk,Ards,http://www.ards-council.gov.uk,-5.74121700000000,BT23 5SW,2015-01-12,fhrs_5_en-GB,5,,FHRS,5
400404,,14 THE SQUARE,COMBER,DOWN,THE GEORGIAN HOUSE,Restaurant/Cafe/Canteen,1,5,,76835,5,,54.55052600000000,18/5225/4370/0001,802,environmental.health@ards-council.gov.uk,Ards,http://www.ards-council.gov.uk,-5.74452800000000,BT23 5DT,2014-11-24,fhrs_5_en-GB,5,,FHRS,5
400405,,,,,THE GOLDEN DINER,Mobile caterer,7846,0,,151581,10,,,AR/D149/0000/0001,802,environmental.health@ards-council.gov.uk,Ards,http://www.ards-council.gov.uk,,,2014-02-13,fhrs_4_en-GB,4,,FHRS,10
400406,,5A HIGH STREET,COMBER,DOWN,THE GOOSE,Restaurant/Cafe/Canteen,1,0,,504112,0,,54.54975600000000,18/5226/2900/0001,802,environmental.health@ards-council.gov.uk,Ards,http://www.ards-council.gov.uk,-5.74803300000000,BT23 5HJ,2014-07-18,fhrs_5_en-GB,5,,FHRS,5
400407,,27 THE PARADE,DONAGHADEE,CO DOWN,THE GOVERNOR ROCKS,Restaurant/Cafe/Canteen,1,,,432711,,,54.64273900000000,18/5208/4830/0001,802,environmental.health@ards-council.gov.uk,Ards,http://www.ards-council.gov.uk,-5.53370900000000,BT21 0HE,2014-07-02,fhrs_5_en-GB,5,,FHRS,
400408,,8-10 CASTLE STREET,NEWTOWNARDS,DOWN,THE HUNTSMAN,Pub/bar/nightclub,7843,10,,466263,10,,54.59181900000000,18/5234/5660/0001,802,environmental.health@ards-council.gov.uk,Ards,http://www.ards-council.gov.uk,-5.69188000000000,BT23 7PA,2014-06-25,fhrs_2_en-GB,2,,FHRS,15
400409,FLAT A1 THE IMPERIAL,19 PARADE,DONAGHADEE,DOWN,THE IMPERIAL,Hospitals/Childcare/Caring Premises,5,0,,27286,0,,54.64273900000000,08/1369/0019/0004,802,environmental.health@ards-council.gov.uk,Ards,http://www.ards-council.gov.uk,-5.53370900000000,BT21 0HE,2012-02-07,fhrs_5_en-GB,5,,FHRS,0
400410,,12 NEW STREET,DONAGHADEE,DOWN,THE KAMBRIDGE,Restaurant/Cafe/Canteen,1,5,,76735,5,,54.64192100000000,18/5206/9000/0001,802,environmental.health@ards-council.gov.uk,Ards,http://www.ards-council.gov.uk,-5.53543200000000,BT21 0AG,2014-03-05,fhrs_4_en-GB,4,,FHRS,10
400411,,10-12 HIGH STREET,PORTAFERRY,DOWN,THE LEP BAR,Pub/bar/nightclub,7843,0,,76764,0,,54.38226000000000,18/5213/5690/0001,802,environmental.health@ards-council.gov.uk,Ards,http://www.ards-council.gov.uk,-5.54504800000000,BT22 1QT,2014-02-07,fhrs_4_en-GB,4,,FHRS,10
400412,,8 - 12 WEST STREET,NEWTOWNARDS,CO DOWN,THE LINK FAMILY AND COMMUNITY CENTRE,Other catering premises,7841,5,,151573,0,,54.59449800000000,AR/D105/0000/0001,802,environmental.health@ards-council.gov.uk,Ards,http://www.ards-council.gov.uk,-5.69808900000000,BT23 4EN,2012-10-15,fhrs_4_en-GB,4,,FHRS,10
400413,,,,,THE LITTLE FAIRY CAKE COMPANY,Other catering premises,7841,5,,550681,0,,,18/7113/2110/0001,802,environmental.health@ards-council.gov.uk,Ards,http://www.ards-council.gov.uk,,,2013-05-21,fhrs_5_en-GB,5,,FHRS,0
400414,,,,,THE LOCAL,Other catering premises,7841,0,,76896,0,,,18/5236/5330/0001,802,environmental.health@ards-council.gov.uk,Ards,http://www.ards-council.gov.uk,,,2011-11-21,fhrs_5_en-GB,5,,FHRS,0
400415,,34 REGENT STREET,NEWTOWNARDS,DOWN,THE LOFT BAR,Pub/bar/nightclub,7843,5,,13292,5,,54.59416400000000,04/1456/0034/0006,802,environmental.health@ards-council.gov.uk,Ards,http://www.ards-council.gov.uk,-5.70036700000000,BT23 4LP,2012-03-29,fhrs_5_en-GB,5,,FHRS,5
400416,,2 UNION STREET,DONAGHADEE,DOWN,THE LOOKOUT B/FAST & AFTER SCHOOL CLUB,Other catering premises,7841,0,,454568,0,,54.64320400000000,18/5865/7830/0001,802,environmental.health@ards-council.gov.uk,Ards,http://www.ards-council.gov.uk,-5.53885600000000,BT21 0DE,2012-09-18,fhrs_5_en-GB,5,,FHRS,0
400417,,40 NORTHFIELD ROAD,DONAGHADEE,DOWN,THE LOOKOUT B/FAST & AFTER SCHOOL CLUB,Other catering premises,7841,0,,454567,5,,54.63975500000000,18/5207/4180/0001,802,environmental.health@ards-council.gov.uk,Ards,http://www.ards-council.gov.uk,-5.53807300000000,BT21 0BD,2012-09-18,fhrs_5_en-GB,5,,FHRS,0
400418,,9A MILL ROAD,KILLINCHY,DOWN,THE MILL AT BALLOO,Hotel/bed & breakfast/guest house,7842,5,,76979,0,,54.47651000000000,18/7340/0600/0001,802,environmental.health@ards-council.gov.uk,Ards,http://www.ards-council.gov.uk,-5.68828900000000,BT23 6PG,2011-12-07,fhrs_5_en-GB,5,,FHRS,0
400419,,8-12 SHORE ROAD,PORTAFERRY,DOWN,THE NARROWS,Restaurant/Cafe/Canteen,1,20,,669427,10,,54.38001900000000,18/5899/8860/0001,802,environmental.health@ards-council.gov.uk,Ards,http://www.ards-council.gov.uk,-5.54753600000000,BT22 1JY,2014-05-22,fhrs_1_en-GB,1,,FHRS,15
400420,,6 HIGH STREET,DONAGHADEE,DOWN,THE NEW ORIENT,Takeaway/sandwich shop,7844,5,,76727,5,,54.64235000000000,18/5206/8130/0001,802,environmental.health@ards-council.gov.uk,Ards,http://www.ards-council.gov.uk,-5.53709500000000,BT21 0AA,2014-08-26,fhrs_4_en-GB,4,,FHRS,10
400421,,191 KILLINCHY ROAD,COMBER,DOWN,THE OLD POST OFFICE LISBANE/TREATS,Restaurant/Cafe/Canteen,1,0,,20377,0,,54.50458300000000,06/1066/0191/0000,802,environmental.health@ards-council.gov.uk,Ards,http://www.ards-council.gov.uk,-5.71245800000000,BT23 6AA,2013-10-22,fhrs_5_en-GB,5,,FHRS,5
400422,,,,,THE ORIGINAL CANDY FLOSS COMPANY,Other catering premises,7841,5,,151585,5,,,AR/D166/0000/0001,802,environmental.health@ards-council.gov.uk,Ards,http://www.ards-council.gov.uk,,,2014-02-07,fhrs_5_en-GB,5,,FHRS,5
400423,,3 HIGH STREET,DONAGHADEE,DOWN,THE PIZZA SHOP,Takeaway/sandwich shop,7844,0,,76726,0,,54.64235000000000,18/5206/8120/0001,802,environmental.health@ards-council.gov.uk,Ards,http://www.ards-council.gov.uk,-5.53709500000000,BT21 0AA,2013-10-24,fhrs_5_en-GB,5,,FHRS,0
400424,LONDONDERRY PRIMARY SCHOOL,2A GLENBROOK ROAD,NEWTOWNARDS,DOWN,THE PLAYCENTRE @ LONDONDERRY PRIMARY,Other catering premises,7841,0,,489709,0,,54.60140300000000,18/5219/6230/0001,802,environmental.health@ards-council.gov.uk,Ards,http://www.ards-council.gov.uk,-5.70112000000000,BT23 4EY,2014-09-11,fhrs_5_en-GB,5,,FHRS,5
400425,MANOR COURT COMMUNITY HALL,MANOR COURT,NEWTOWNARDS,DOWN,THE PLAYCENTRE AT MANOR COURT,Other catering premises,7841,0,,76816,0,,54.59381100000000,18/5221/0530/0001,802,environmental.health@ards-council.gov.uk,Ards,http://www.ards-council.gov.uk,-5.70162500000000,BT23 4LT,2013-11-11,fhrs_5_en-GB,5,,FHRS,0
400426,,90 UPPER GREENWELL STREET,NEWTOWNARDS,CO DOWN,THE PUB / STADIUM / BOTTLE STOP NI,Restaurant/Cafe/Canteen,1,5,,58441,5,,54.59158400000000,13/0971/0090/0001,802,environmental.health@ards-council.gov.uk,Ards,http://www.ards-council.gov.uk,-5.68661700000000,BT23 8LX,2011-12-20,fhrs_5_en-GB,5,,FHRS,5
400427,,81 NEW HARBOUR ROAD,PORTAVOGIE,DOWN,THE QUAYS RESTAURANT,Restaurant/Cafe/Canteen,1,0,,727239,0,,54.45630300000000,18/5211/2800/0001,802,environmental.health@ards-council.gov.uk,Ards,http://www.ards-council.gov.uk,-5.44186300000000,BT22 1EB,2014-12-10,fhrs_5_en-GB,5,,FHRS,5
400428,SCRABO BUSINESS CENTRE,5 JUBILEE ROAD,NEWTOWNARDS,DOWN,THE RANCH,Restaurant/Cafe/Canteen,1,5,,616436,10,,54.58509900000000,18/5224/2220/0001,802,environmental.health@ards-council.gov.uk,Ards,http://www.ards-council.gov.uk,-5.70329100000000,BT23 4YH,2013-11-22,fhrs_3_en-GB,3,,FHRS,10
400429,,24 THE SQUARE,PORTAFERRY,DOWN,THE ROCK BAKERY,Retailers - other,4613,5,,70792,5,,54.38143700000000,16/1729/0024/0001,802,environmental.health@ards-council.gov.uk,Ards,http://www.ards-council.gov.uk,-5.54699000000000,BT22 1LR,2014-02-07,fhrs_5_en-GB,5,,FHRS,5
400430,,2-4 THE SQUARE,BALLYGOWAN,DOWN,THE ROUNDABOUT BAR,Pub/bar/nightclub,7843,,,545767,,,54.50211500000000,01/1549/0002/0001,802,environmental.health@ards-council.gov.uk,Ards,http://www.ards-council.gov.uk,-5.79238600000000,BT23 6HA,2014-03-28,fhrs_exempt_en-GB,Exempt,,FHRS,
400431,,18 FRANCES STREET,NEWTOWNARDS,DOWN,THE ROYAL BAR,Pub/bar/nightclub,7843,0,,13086,0,,54.59383700000000,04/0379/0018/0009,802,environmental.health@ards-council.gov.uk,Ards,http://www.ards-council.gov.uk,-5.69450500000000,BT23 7DN,2012-09-19,fhrs_5_en-GB,5,,FHRS,5
400432,,63 FRANCES STREET,NEWTOWNARDS,DOWN,THE RUBY,Takeaway/sandwich shop,7844,10,,76886,0,,54.59317600000000,18/5233/5340/0001,802,environmental.health@ards-council.gov.uk,Ards,http://www.ards-council.gov.uk,-5.69050400000000,BT23 7DX,2013-10-17,fhrs_4_en-GB,4,,FHRS,5
400433,,233 SCRABO ROAD,NEWTOWNARDS,DOWN,THE SCULLERY AT SCRABO,Restaurant/Cafe/Canteen,1,10,,428229,0,,54.57304200000000,18/5223/3020/0002,802,environmental.health@ards-council.gov.uk,Ards,http://www.ards-council.gov.uk,-5.72048700000000,BT23 4SL,2014-01-22,fhrs_4_en-GB,4,,FHRS,5
400434,MOUNT STEWART HOUSE,PORTAFERRY ROAD,NEWTOWNARDS,DOWN,THE SHOOTING LODGE,Other catering premises,7841,,,58468,,,54.55619000000000,13/1390/0150/0007,802,environmental.health@ards-council.gov.uk,Ards,http://www.ards-council.gov.uk,-5.59634100000000,BT22 2AD,2014-10-27,fhrs_exempt_en-GB,Exempt,,FHRS,
400435,,233 BANGOR ROAD,NEWTOWNARDS,DOWN,THE SOMME HERITAGE CENTRE,Restaurant/Cafe/Canteen,1,0,,81797,5,,54.60942700000000,20/0074/0233/0008,802,environmental.health@ards-council.gov.uk,Ards,http://www.ards-council.gov.uk,-5.68136400000000,BT23 7PH,2014-01-30,fhrs_5_en-GB,5,,FHRS,5
400436,,69 - 71 MAIN STREET,BALLYWALTER,CO DOWN,THE SQUARE DINER,Restaurant/Cafe/Canteen,1,5,,151568,5,,54.54488300000000,AR/D005/0000/0001,802,environmental.health@ards-council.gov.uk,Ards,http://www.ards-council.gov.uk,-5.48572100000000,BT22 2PJ,2014-09-12,fhrs_4_en-GB,4,,FHRS,10
400437,,7 CONWAY SQUARE,NEWTOWNARDS,DOWN,THE STREAT,Restaurant/Cafe/Canteen,1,5,,12787,5,,54.59347200000000,04/0220/0007/0009,802,environmental.health@ards-council.gov.uk,Ards,http://www.ards-council.gov.uk,-5.69658400000000,BT23 4DA,2013-09-18,fhrs_5_en-GB,5,,FHRS,5
400438,,3 HARDFORD LINK,NEWTOWNARDS,CO DOWN,THE STREAT,Takeaway/sandwich shop,7844,10,,151575,5,,54.59815100000000,AR/D119/0000/0001,802,environmental.health@ards-council.gov.uk,Ards,http://www.ards-council.gov.uk,-5.70545000000000,BT23 4FF,2013-06-21,fhrs_3_en-GB,3,,FHRS,10
400439,,64 NEW HARBOUR ROAD,PORTAVOGIE,DOWN,THE SUPERIOR,Restaurant/Cafe/Canteen,1,20,,636415,5,,54.45639100000000,18/5894/5610/0001,802,environmental.health@ards-council.gov.uk,Ards,http://www.ards-council.gov.uk,-5.44605300000000,BT22 1EE,2014-08-04,fhrs_1_en-GB,1,,FHRS,10
400440,,38-40 MAIN STREET,CARROWDORE,DOWN,THE TAVERN BAR AND OFF SALES,Pub/bar/nightclub,7843,5,,151618,5,,54.57459800000000,AR/D900/0000/0001,802,environmental.health@ards-council.gov.uk,Ards,http://www.ards-council.gov.uk,-5.55666600000000,BT22 2HN,2014-03-28,fhrs_5_en-GB,5,,FHRS,5
400441,,2D PORTAFERRY ROAD,NEWTOWNARDS,DOWN,THE TEA ROOM/BANGOR YOUTH FOOTBALL CLUB,Restaurant/Cafe/Canteen,1,,,13266,,,54.58972400000000,04/1308/0150/0007,802,environmental.health@ards-council.gov.uk,Ards,http://www.ards-council.gov.uk,-5.68901300000000,BT23 8NN,2014-01-08,fhrs_exempt_en-GB,Exempt,,FHRS,
400442,,34 MAIN STREET,KIRCUBBIN,DOWN,THE VILLAGE INN,Pub/bar/nightclub,7843,5,,53155,5,,54.48859200000000,12/0887/0034/0006,802,environmental.health@ards-council.gov.uk,Ards,http://www.ards-council.gov.uk,-5.53446400000000,BT22 2SP,2014-02-07,fhrs_5_en-GB,5,,FHRS,5
400443,,,,,THE WEE CUPCAKERY,Other catering premises,7841,0,,76951,5,,,18/5950/1830/0001,802,environmental.health@ards-council.gov.uk,Ards,http://www.ards-council.gov.uk,,,2011-11-22,fhrs_5_en-GB,5,,FHRS,0
400444,,10A THE SQUARE,COMBER,DOWN,THE WILLOW TREE,Restaurant/Cafe/Canteen,1,0,,151579,0,,54.55008300000000,AR/D140/0000/0001,802,environmental.health@ards-council.gov.uk,Ards,http://www.ards-council.gov.uk,-5.74435100000000,BT23 5DU,2014-11-05,fhrs_5_en-GB,5,,FHRS,5
400445,NEWTOWNARDS TECH.,101B VICTORIA AVENUE,Newtownards,Down,THE WILLOWS RESTAURANT (NDACFE),Restaurant/Cafe/Canteen,1,0,,81987,0,,54.59763500000000,20/1275/0101/0204,802,environmental.health@ards-council.gov.uk,Ards,http://www.ards-council.gov.uk,-5.69387300000000,BT23 7EH,2013-06-04,fhrs_5_en-GB,5,,FHRS,0
400446,,84 WARREN ROAD,DONAGHADEE,DOWN,THORNLEIGH CATERING/DONAGHADEE GOLF CLUB,Restaurant/Cafe/Canteen,1,5,,27304,0,,54.65745100000000,08/1571/0084/0009,802,environmental.health@ards-council.gov.uk,Ards,http://www.ards-council.gov.uk,-5.55727500000000,BT21 0PQ,2014-07-23,fhrs_5_en-GB,5,,FHRS,5
400447,UNIT 34 ARDS SHOPPING CENTRE,CIRCULAR ROAD,NEWTOWNARDS,DOWN,THORNTONS,Retailers - other,4613,,,7753,,,54.59296200000000,03/0020/0011/0000,802,environmental.health@ards-council.gov.uk,Ards,http://www.ards-council.gov.uk,-5.70950200000000,BT23 4EU,2011-12-20,fhrs_exempt_en-GB,Exempt,,FHRS,
400448,RODDANS HOUSE,13 RODDANS ROAD,BALLYWALTER,DOWN,TIME CAFE,Other catering premises,7841,5,,564234,0,,54.51295300000000,18/5217/2950/0001,802,environmental.health@ards-council.gov.uk,Ards,http://www.ards-council.gov.uk,-5.47611600000000,BT22 2RN,2013-06-24,fhrs_5_en-GB,5,,FHRS,0
400449,,3 OLD CROSS STREET,NEWTOWNARDS,DOWN,TIM'S TRADITIONAL FISH AND CHIP SHOP,Takeaway/sandwich shop,7844,5,,13259,0,,54.59140200000000,04/1251/0001/0006,802,environmental.health@ards-council.gov.uk,Ards,http://www.ards-council.gov.uk,-5.69312600000000,BT23 7NW,2015-01-20,fhrs_5_en-GB,5,,FHRS,5
400450,,32 MANOR STREET,DONAGHADEE,DOWN,TIVOLI BAR,Pub/bar/nightclub,7843,,,31602,,,54.64145500000000,09/0678/0032/0005,802,environmental.health@ards-council.gov.uk,Ards,http://www.ards-council.gov.uk,-5.53375600000000,BT21 0HB,2012-06-18,fhrs_exempt_en-GB,Exempt,,FHRS,
400451,,60 BRISTOL PARK,NEWTOWNARDS,DOWN,TOWERVIEW RESOURCE CENTRE,Restaurant/Cafe/Canteen,1,5,,79037,0,,54.58155100000000,19/0133/0060/0008,802,environmental.health@ards-council.gov.uk,Ards,http://www.ards-council.gov.uk,-5.70285600000000,BT23 4RJ,2014-02-14,fhrs_5_en-GB,5,,FHRS,5
400452,,23 BALLYBRYAN ROAD,GREYABBEY,DOWN,TRASNAGH HOUSE,Hotel/bed & breakfast/guest house,7842,5,,585335,0,,54.52630600000000,18/5217/1450/0001,802,environmental.health@ards-council.gov.uk,Ards,http://www.ards-council.gov.uk,-5.53443200000000,BT22 2RB,2013-09-16,fhrs_5_en-GB,5,,FHRS,0
400453,UNIT 5 ALEXANDER HOUSE,9 BRIDGE STREET LINK,COMBER,CO DOWN,TROPICAL CHINESE,Restaurant/Cafe/Canteen,1,10,,76929,5,,54.55120200000000,18/5729/7750/0001,802,environmental.health@ards-council.gov.uk,Ards,http://www.ards-council.gov.uk,-5.74413500000000,BT23 5YH,2014-02-20,fhrs_3_en-GB,3,,FHRS,10
400454,,33 REGENT STREET,NEWTOWNARDS,DOWN,ULSTERBUS/COFFEE NET,Retailers - other,4613,0,,76798,0,,54.59445400000000,18/5218/3000/0001,802,environmental.health@ards-council.gov.uk,Ards,http://www.ards-council.gov.uk,-5.69956100000000,BT23 4AD,2013-08-21,fhrs_5_en-GB,5,,FHRS,0
400455,,11 COURT STREET,NEWTOWNARDS,DOWN,UNIVERSAL FOOD,Retailers - other,4613,10,,352770,5,,54.59129500000000,18/5234/5020/0002,802,environmental.health@ards-council.gov.uk,Ards,http://www.ards-council.gov.uk,-5.69457100000000,BT23 7NX,2014-04-23,fhrs_3_en-GB,3,,FHRS,10
400456,,162 EAST STREET,NEWTOWNARDS,DOWN,VICTORIA PRIMARY SCHOOL,School/college/university,7845,5,,81884,0,,54.59451300000000,20/0554/0162/010X,802,environmental.health@ards-council.gov.uk,Ards,http://www.ards-council.gov.uk,-5.68897400000000,BT23 7DD,2015-01-13,fhrs_5_en-GB,5,,FHRS,0
400457,VICTORIA PRIMARY SCHOOL,2 VICTORIA ROAD,BALLYHALBERT,DOWN,VICTORIA PRIMARY SCHOOL,School/college/university,7845,,,74039,,,54.49065600000000,17/1724/0002/0001,802,environmental.health@ards-council.gov.uk,Ards,http://www.ards-council.gov.uk,-5.47128500000000,BT22 1DQ,2013-04-26,fhrs_exempt_en-GB,Exempt,,FHRS,
400458,,12 SANDYLANDS,NEWTOWNARDS,DOWN,VICTORIA'S KITCHEN,Other catering premises,7841,5,,76975,0,,54.48984300000000,18/7271/2720/0001,802,environmental.health@ards-council.gov.uk,Ards,http://www.ards-council.gov.uk,-5.43736100000000,BT22 1BT,2013-05-31,fhrs_5_en-GB,5,,FHRS,0
400459,,36 MAIN STREET,BALLYWALTER,DOWN,VILLAGE BUTCHERY,Retailers - other,4613,5,,76786,0,,54.54329700000000,18/5216/6110/0001,802,environmental.health@ards-council.gov.uk,Ards,http://www.ards-council.gov.uk,-5.48461300000000,BT22 2PQ,2015-01-28,fhrs_5_en-GB,5,,FHRS,5
400460,,105 EAST STREET,NEWTOWNARDS,DOWN,VIVO,Retailers - supermarkets/hypermarkets,7840,10,,81883,0,,54.59398600000000,20/0554/0105/0001,802,environmental.health@ards-council.gov.uk,Ards,http://www.ards-council.gov.uk,-5.68912700000000,BT23 7DE,2013-07-02,fhrs_4_en-GB,4,,FHRS,5
400461,,37 MILL STREET,COMBER,DOWN,VIVO,Retailers - supermarkets/hypermarkets,7840,10,,23747,10,,54.55175300000000,07/124X/0037/0002,802,environmental.health@ards-council.gov.uk,Ards,http://www.ards-council.gov.uk,-5.75055100000000,BT23 5EG,2014-03-19,fhrs_3_en-GB,3,,FHRS,5
400462,,1A CANNYREAGH ROAD,DONAGHADEE,DOWN,VIVO DONAGHADEE,Retailers - supermarkets/hypermarkets,7840,5,,76737,5,,54.63931500000000,18/5207/1780/0001,802,environmental.health@ards-council.gov.uk,Ards,http://www.ards-council.gov.uk,-5.54469900000000,BT21 0AU,2015-01-13,fhrs_4_en-GB,4,,FHRS,10
400463,,45-47 MAIN STREET,GREYABBEY,DOWN,VIVO ESSENTIALS GREYABBEY,Retailers - supermarkets/hypermarkets,7840,0,,709210,0,,54.53675800000000,18/5216/1440/0001,802,environmental.health@ards-council.gov.uk,Ards,http://www.ards-council.gov.uk,-5.55753700000000,BT22 2NF,2014-10-03,fhrs_5_en-GB,5,,FHRS,5
400464,,81A MAIN ROAD,CLOGHY,DOWN,W ROBINSON,Retailers - other,4613,5,,73984,0,,54.44333000000000,17/1031/0081/0002,802,environmental.health@ards-council.gov.uk,Ards,http://www.ards-council.gov.uk,-5.45778200000000,BT22 1JD,2014-08-04,fhrs_5_en-GB,5,,FHRS,0
400465,,17 SUNDERLAND PARK,NEWTOWNARDS,CO DOWN,WEST WINDS PRIMARY SCHOOL,School/college/university,7845,0,,79141,0,,54.58028600000000,19/0583/0017/0003,802,environmental.health@ards-council.gov.uk,Ards,http://www.ards-council.gov.uk,-5.70156600000000,BT23 4RQ,2014-10-06,fhrs_5_en-GB,5,,FHRS,0
400466,,15C ARDMINNAN ROAD,PORTAFERRY,DOWN,WHITE HOUSE INN/ARDMINNAN GOLF COURSE,Pub/bar/nightclub,7843,5,,70435,0,,54.41511100000000,16/0072/0015/0002,802,environmental.health@ards-council.gov.uk,Ards,http://www.ards-council.gov.uk,-5.47134700000000,BT22 1QJ,2014-05-15,fhrs_5_en-GB,5,,FHRS,5
400467,,1 MAIN STREET,GREYABBEY,DOWN,WILDFOWLER INN,Restaurant/Cafe/Canteen,1,10,,76778,0,,54.53510200000000,18/5216/0810/0001,802,environmental.health@ards-council.gov.uk,Ards,http://www.ards-council.gov.uk,-5.56054100000000,BT22 2NE,2013-12-13,fhrs_4_en-GB,4,,FHRS,10
400468,,1A WILLIAM STREET,NEWTOWNARDS,DOWN,WILLIAM STREET CHILDRENS UNIT,Hospitals/Childcare/Caring Premises,5,10,,13315,0,,54.59666400000000,04/1812/0001/0103,802,environmental.health@ards-council.gov.uk,Ards,http://www.ards-council.gov.uk,-5.70234600000000,BT23 4EH,2014-02-17,fhrs_4_en-GB,4,,FHRS,5
400469,,4 WILLIAM STREET,NEWTOWNARDS,DOWN,WILLIAM STREET NEWS,Retailers - other,4613,,,681253,,,54.59543800000000,18/5218/3080/0001,802,environmental.health@ards-council.gov.uk,Ards,http://www.ards-council.gov.uk,-5.70261600000000,BT23 4AE,2014-07-01,fhrs_exempt_en-GB,Exempt,,FHRS,
400470,,14 WINDSOR AVENUE,NEWTOWNARDS,DOWN,WINDSOR STORES,Retailers - supermarkets/hypermarkets,7840,10,,76965,0,,54.58957400000000,18/7145/2000/0001,802,environmental.health@ards-council.gov.uk,Ards,http://www.ards-council.gov.uk,-5.70942900000000,BT23 4QH,2014-04-28,fhrs_4_en-GB,4,,FHRS,10
400471,,46-54 DONAGHADEE ROAD,NEWTOWNARDS,DOWN,WINEMARK,Retailers - other,4613,,,67126,,,54.59570700000000,15/0700/0046/0001,802,environmental.health@ards-council.gov.uk,Ards,http://www.ards-council.gov.uk,-5.68420200000000,BT23 7EU,2013-03-28,fhrs_exempt_en-GB,Exempt,,FHRS,
400472,,3A-3B HARDFORD LINK,NEWTOWNARDS,DOWN,WINEMARK,Retailers - other,4613,,,8006,,,54.59815100000000,03/0780/0003/0007,802,environmental.health@ards-council.gov.uk,Ards,http://www.ards-council.gov.uk,-5.70545000000000,BT23 4FF,2013-03-28,fhrs_exempt_en-GB,Exempt,,FHRS,
400473,UNIT 2 BERKSHIRE CENTRE,DONAGHADEE ROAD,NEWTOWNARDS,DOWN,WINEMARK,Retailers - other,4613,,,67123,,,54.59743700000000,15/0700/0002/0001,802,environmental.health@ards-council.gov.uk,Ards,http://www.ards-council.gov.uk,-5.68069900000000,BT23 7HB,2014-03-10,fhrs_exempt_en-GB,Exempt,,FHRS,
400474,,41 MOVILLA STREET,Newtownards,Down,WINEWORKS SUPERSTORE,Retailers - other,4613,,,13252,,,54.59269700000000,04/1154/0041/0004,802,environmental.health@ards-council.gov.uk,Ards,http://www.ards-council.gov.uk,-5.68941700000000,BT23 7JQ,2013-03-28,fhrs_exempt_en-GB,Exempt,,FHRS,
400475,,77 HIGH STREET,PORTAFERRY,DOWN,WISHING WELL,Takeaway/sandwich shop,7844,10,,70714,10,,54.38460400000000,16/1125/0077/0000,802,environmental.health@ards-council.gov.uk,Ards,http://www.ards-council.gov.uk,-5.54055100000000,BT22 1QU,2014-07-30,fhrs_2_en-GB,2,,FHRS,15
400476,,69 MAIN STREET,MILLISLE,DOWN,WOBURN ARMS,Pub/bar/nightclub,7843,0,,76771,0,,54.60694600000000,18/5215/4610/0001,802,environmental.health@ards-council.gov.uk,Ards,http://www.ards-council.gov.uk,-5.52827400000000,BT22 2HR,2013-10-22,fhrs_5_en-GB,5,,FHRS,0
400477,,24 DRUMFAD ROAD,MILLISLE,DOWN,WOODLANDS CARAVAN SITE,Retailers - other,4613,,,5944,,,54.58810800000000,02/0734/0024/0001,802,environmental.health@ards-council.gov.uk,Ards,http://www.ards-council.gov.uk,-5.52195700000000,BT22 2JQ,2012-07-04,fhrs_exempt_en-GB,Exempt,,FHRS,
400478,,,,,YUM,Other catering premises,7841,0,,553542,0,,,18/7375/6210/0001,802,environmental.health@ards-council.gov.uk,Ards,http://www.ards-council.gov.uk,,,2013-06-03,fhrs_5_en-GB,5,,FHRS,0
400479,,2 MEETING HOUSE STREET,DONAGHADEE,DOWN,ZUSAMMEN - BED AND BREAKFAST,Hotel/bed & breakfast/guest house,7842,5,,76741,5,,54.64157300000000,18/5208/5640/0001,802,environmental.health@ards-council.gov.uk,Ards,http://www.ards-council.gov.uk,-5.53291200000000,BT21 0HJ,2012-08-24,fhrs_5_en-GB,5,,FHRS,0
