,addressline1,addressline2,addressline3,addressline4,businessname,businesstype,businesstypeid,confidenceinmanagement,extractdate,fhrsid,hygiene,itemcount,latitude,localauthoritybusinessid,localauthoritycode,localauthorityemailaddress,localauthorityname,localauthoritywebsite,longitude,postcode,ratingdate,ratingkey,ratingvalue,returncode,schemetype,structural
400480,4 Vicars Hill,Corporation,Armagh,,4 Vicars,Restaurant/Cafe/Canteen,1,5,,725148,5,,54.34788800000000,302689,803,ehealth@armagh.gov.uk,Armagh,http://www.armagh.gov.uk,-6.65706700000000,BT61 7ED,2014-06-04,fhrs_5_en-GB,5,,FHRS,5
400481,15 Thomas Street,Corporation,Armagh,,7 Hills Bistro,Restaurant/Cafe/Canteen,1,5,,725048,5,,54.34728500000000,302464,803,ehealth@armagh.gov.uk,Armagh,http://www.armagh.gov.uk,-6.65374900000000,BT61 7PX,2014-05-01,fhrs_5_en-GB,5,,FHRS,5
400482,79 Derrynoose Road,Crossnamoyle,Keady,Armagh,A & G KEENAN,Retailers - other,4613,10,,724935,0,,54.22855800000000,302223,803,ehealth@armagh.gov.uk,Armagh,http://www.armagh.gov.uk,-6.77603000000000,BT60 3EZ,2014-03-28,fhrs_4_en-GB,4,,FHRS,10
400483,1 Scotch Street,Corporation,Armagh,Armagh,A FLANAGAN AND SON,Manufacturers/packers,7839,5,,724573,0,,54.34694500000000,300357,803,ehealth@armagh.gov.uk,Armagh,http://www.armagh.gov.uk,-6.65142300000000,BT61 7BY,2014-10-23,fhrs_5_en-GB,5,,FHRS,0
400484,6a Market Street,Crossmore,Keady,Armagh,Al-amin,Takeaway/sandwich shop,7844,5,,725141,5,,54.24828300000000,302659,803,ehealth@armagh.gov.uk,Armagh,http://www.armagh.gov.uk,-6.70590200000000,BT60 3RP,2013-12-04,fhrs_4_en-GB,4,,FHRS,10
400485,,,,,All Things Nice,Other catering premises,7841,0,,725124,0,,,302611,803,ehealth@armagh.gov.uk,Armagh,http://www.armagh.gov.uk,,,2013-10-02,fhrs_5_en-GB,5,,FHRS,0
400486,6 Dobbin Street,,Armagh,,Allens Of Armagh,Restaurant/Cafe/Canteen,1,5,,725184,5,,54.34606200000000,302740,803,ehealth@armagh.gov.uk,Armagh,http://www.armagh.gov.uk,-6.65200600000000,BT61 7QQ,2014-09-22,fhrs_5_en-GB,5,,FHRS,5
400487,65 Moy Road,Armagh,Armagh,,Allistragh Filling Station,Retailers - other,4613,5,,724559,5,,54.38550500000000,300228,803,ehealth@armagh.gov.uk,Armagh,http://www.armagh.gov.uk,-6.67083100000000,BT61 8DW,2014-11-10,fhrs_5_en-GB,5,,FHRS,5
400488,35-37 Market Street,Ballymore,Craigavon,,ANDERSONS BUTCHERS & DELICATESSAN,Manufacturers/packers,7839,5,,724711,0,,54.35312300000000,301099,803,ehealth@armagh.gov.uk,Armagh,http://www.armagh.gov.uk,-6.41266000000000,BT62 2BP,2013-08-08,fhrs_5_en-GB,5,,FHRS,5
400489,57 Eglish Road,Eglish,Craigavon,,Apple Blossom Playgroup,Other catering premises,7841,5,,725109,0,,54.45958200000000,302583,803,ehealth@armagh.gov.uk,Armagh,http://www.armagh.gov.uk,-6.56585100000000,BT62 1NL,2013-10-02,fhrs_5_en-GB,5,,FHRS,5
400490,43 Ballynahonemore Road,Ballynahone More,Armagh,,Appleby Social Education Centre,Other catering premises,7841,0,,724586,0,,54.33942700000000,300465,803,ehealth@armagh.gov.uk,Armagh,http://www.armagh.gov.uk,-6.62846700000000,BT60 1JD,2014-05-20,fhrs_5_en-GB,5,,FHRS,5
400491,,,,,Applecroft,Retailers - other,4613,0,,725063,0,,,302486,803,ehealth@armagh.gov.uk,Armagh,http://www.armagh.gov.uk,,,2013-04-16,fhrs_5_en-GB,5,,FHRS,0
400492,Desart Lane,Corporation,Armagh,,ARD MHACHA HOUSE CARE HOME,Hospitals/Childcare/Caring Premises,5,5,,725015,0,,54.35366000000000,302396,803,ehealth@armagh.gov.uk,Armagh,http://www.armagh.gov.uk,-6.66630700000000,BT61 8AR,2014-08-26,fhrs_5_en-GB,5,,FHRS,5
400493,141 Railway Street,Corporation,Armagh,,ARDEN HEALTH LTD,Retailers - other,4613,,,724994,,,54.35580200000000,302362,803,ehealth@armagh.gov.uk,Armagh,http://www.armagh.gov.uk,-6.65696300000000,BT61 7HT,2011-12-08,fhrs_exempt_en-GB,Exempt,,FHRS,
400494,57 Lisanally Lane,Corporation,Armagh,,Arke Sure Start Windmill Programme For Two Year Olds,Other catering premises,7841,5,,734520,5,,54.35525100000000,302782,803,ehealth@armagh.gov.uk,Armagh,http://www.armagh.gov.uk,-6.65110400000000,BT61 7HF,2015-01-19,fhrs_5_en-GB,5,,FHRS,5
400495,17 Abbey Street,Corporation,Armagh,,ARMAGH BEACON CENTRE,Other catering premises,7841,0,,724541,0,,54.34932900000000,300115,803,ehealth@armagh.gov.uk,Armagh,http://www.armagh.gov.uk,-6.65742000000000,BT61 7DY,2013-09-26,fhrs_5_en-GB,5,,FHRS,0
400496,Christian Brothers' Primary School Keady Road,,Armagh,,ARMAGH CBS,School/college/university,7845,0,,724570,0,,54.34213700000000,300323,803,ehealth@armagh.gov.uk,Armagh,http://www.armagh.gov.uk,-6.66019200000000,BT60 4AB,2014-04-08,fhrs_5_en-GB,5,,FHRS,5
400497,6 Beresford Row,Corporation,Armagh,,ARMAGH CITY CLUB,Pub/bar/nightclub,7843,0,,724723,0,,54.35026600000000,301171,803,ehealth@armagh.gov.uk,Armagh,http://www.armagh.gov.uk,-6.65114500000000,BT61 9AU,2012-06-25,fhrs_5_en-GB,5,,FHRS,0
400498,41 Ballynahonemore Road,Ballynahone More,Armagh,,ARMAGH CITY FOOTBALL CLUB,Pub/bar/nightclub,7843,0,,724585,0,,54.33942700000000,300464,803,ehealth@armagh.gov.uk,Armagh,http://www.armagh.gov.uk,-6.62846700000000,BT60 1JD,2013-09-12,fhrs_5_en-GB,5,,FHRS,5
400499,2 Friary Road,Parkmore Or Demesne,Armagh,,ARMAGH CITY HOTEL,Hotel/bed & breakfast/guest house,7842,5,,724760,0,,54.34479800000000,301444,803,ehealth@armagh.gov.uk,Armagh,http://www.armagh.gov.uk,-6.65070900000000,BT60 4FR,2014-04-03,fhrs_5_en-GB,5,,FHRS,5
400500,33 Upper English Street,Corporation,Armagh,,ARMAGH CLUB,Pub/bar/nightclub,7843,5,,724684,0,,54.34906600000000,300953,803,ehealth@armagh.gov.uk,Armagh,http://www.armagh.gov.uk,-6.65395300000000,BT61 7BA,2014-09-02,fhrs_5_en-GB,5,,FHRS,5
400501,Loughgall Road,,Armagh,,ARMAGH HARPS GFC,Pub/bar/nightclub,7843,0,,724526,5,,54.35839800000000,300048,803,ehealth@armagh.gov.uk,Armagh,http://www.armagh.gov.uk,-6.65777000000000,BT61 7NX,2012-06-01,fhrs_5_en-GB,5,,FHRS,0
400502,5b Scotch Street,Corporation,Armagh,,ARMAGH INDIAN NIGHTS,Restaurant/Cafe/Canteen,1,10,,724889,5,,54.34694500000000,302088,803,ehealth@armagh.gov.uk,Armagh,http://www.armagh.gov.uk,-6.65142300000000,BT61 7BY,2014-05-22,fhrs_3_en-GB,3,,FHRS,10
400503,7a Charlemont Gardens,Corporation,Armagh,Armagh,ARMAGH MASONIC CLUB,Pub/bar/nightclub,7843,0,,724724,0,,54.34992200000000,301173,803,ehealth@armagh.gov.uk,Armagh,http://www.armagh.gov.uk,-6.64772700000000,BT61 9BB,2012-05-17,fhrs_5_en-GB,5,,FHRS,0
400504,9 Little Barrack Street,Corporation,Armagh,,ARMAGH OLD BOYS BAND HALL,Pub/bar/nightclub,7843,0,,724726,0,,54.34703500000000,301180,803,ehealth@armagh.gov.uk,Armagh,http://www.armagh.gov.uk,-6.64988200000000,BT61 9AH,2014-03-20,fhrs_5_en-GB,5,,FHRS,5
400505,6 College Hill,Corporation,Armagh,,ARMAGH PLANETARIUM,Restaurant/Cafe/Canteen,1,5,,724807,0,,54.35207600000000,301798,803,ehealth@armagh.gov.uk,Armagh,http://www.armagh.gov.uk,-6.64756400000000,BT61 9DF,2012-11-08,fhrs_5_en-GB,5,,FHRS,5
400506,6 College Hill,Corporation,Armagh,,ARMSTRONG PRIMARY SCHOOL,School/college/university,7845,0,,724664,0,,54.35207600000000,300859,803,ehealth@armagh.gov.uk,Armagh,http://www.armagh.gov.uk,-6.64756400000000,BT61 9DF,2014-05-14,fhrs_5_en-GB,5,,FHRS,5
400507,Unit 7 The Mall Shopping Centre,Corporation,Armagh,,AROMA,Restaurant/Cafe/Canteen,1,5,,724811,5,,54.34816500000000,301824,803,ehealth@armagh.gov.uk,Armagh,http://www.armagh.gov.uk,-6.65129100000000,BT61 9AJ,2013-08-01,fhrs_5_en-GB,5,,FHRS,5
400508,5 Upper English Street,Corporation,Armagh,,AROUND A POUND,Retailers - other,4613,5,,724885,0,,54.34854000000000,302068,803,ehealth@armagh.gov.uk,Armagh,http://www.armagh.gov.uk,-6.65350900000000,BT61 7BH,2013-08-07,fhrs_5_en-GB,5,,FHRS,0
400509,195 Killylea Road,Drumgolliff,Armagh,,ASHRENE HOUSE B AND B,Hotel/bed & breakfast/guest house,7842,5,,724738,0,,54.34796900000000,301239,803,ehealth@armagh.gov.uk,Armagh,http://www.armagh.gov.uk,-6.81297400000000,BT60 4RF,2014-04-24,fhrs_5_en-GB,5,,FHRS,0
400510,Unit 9a Lonsdale Road,,Armagh,,B & M BARGAINS RETAIL LTD,Retailers - other,4613,5,,724912,10,,54.34986000000000,302175,803,ehealth@armagh.gov.uk,Armagh,http://www.armagh.gov.uk,-6.65341900000000,BT61 9BT,2013-08-13,fhrs_4_en-GB,4,,FHRS,5
400511,13 Market Street,Corporation,Armagh,,BAGEL BEAN,Restaurant/Cafe/Canteen,1,10,,724878,10,,54.34779100000000,302040,803,ehealth@armagh.gov.uk,Armagh,http://www.armagh.gov.uk,-6.65322500000000,BT61 7BW,2014-03-19,fhrs_3_en-GB,3,,FHRS,10
400512,60 Upper English Street,Corporation,Armagh,,BAGEL BEAN,Restaurant/Cafe/Canteen,1,10,,724782,0,,54.35032400000000,301570,803,ehealth@armagh.gov.uk,Armagh,http://www.armagh.gov.uk,-6.65555700000000,BT61 7LG,2013-09-24,fhrs_4_en-GB,4,,FHRS,10
400513,Thomas Street,Corporation,Armagh,Armagh,BAKE MY DAY,Restaurant/Cafe/Canteen,1,10,,724997,10,,54.34560800000000,302368,803,ehealth@armagh.gov.uk,Armagh,http://www.armagh.gov.uk,-6.65400400000000,BT61 7AE,2013-08-20,fhrs_3_en-GB,3,,FHRS,5
400514,133 Portadown Road,Ballylisk,Craigavon,,BALLYLISK STORES (VIVO),Retailers - other,4613,10,,724717,0,,54.37225900000000,301145,803,ehealth@armagh.gov.uk,Armagh,http://www.armagh.gov.uk,-6.43458800000000,BT62 2JX,2012-11-30,fhrs_4_en-GB,4,,FHRS,5
400515,88 Ballymoran Road,Drumgaw,Armagh,,Ballymoran Meats,Manufacturers/packers,7839,0,,725073,0,,54.31692000000000,302498,803,ehealth@armagh.gov.uk,Armagh,http://www.armagh.gov.uk,-6.62048800000000,BT60 2AH,2013-03-21,fhrs_5_en-GB,5,,FHRS,0
400516,18 Market Street,,Craigavon,,BALLYMORE INN,Pub/bar/nightclub,7843,0,,725012,5,,54.28449100000000,302392,803,ehealth@armagh.gov.uk,Armagh,http://www.armagh.gov.uk,-6.58677700000000,BT60 2BP,2012-02-03,fhrs_5_en-GB,5,,FHRS,5
400517,Market Street,,Armagh,,BASEMENT CAFE,Restaurant/Cafe/Canteen,1,10,,724727,5,,54.34831000000000,301184,803,ehealth@armagh.gov.uk,Armagh,http://www.armagh.gov.uk,-6.65385400000000,BT61 7BU,2014-03-26,fhrs_3_en-GB,3,,FHRS,10
400518,122a Battleford Road,Armagh,Armagh,,BATTLEFORD BED & BREAKFAST,Hotel/bed & breakfast/guest house,7842,5,,724983,0,,54.36738100000000,302338,803,ehealth@armagh.gov.uk,Armagh,http://www.armagh.gov.uk,-6.73491500000000,BT61 8BS,2014-11-10,fhrs_5_en-GB,5,,FHRS,0
400519,174 Loughgall Road,Ballintaggart,Craigavon,,BATTLEHILL SOCIAL CLUB,Pub/bar/nightclub,7843,5,,724603,5,,54.41712300000000,300515,803,ehealth@armagh.gov.uk,Armagh,http://www.armagh.gov.uk,-6.49066400000000,BT62 4EQ,2012-09-28,fhrs_5_en-GB,5,,FHRS,5
400520,113 Annareagh Road,Drumorgan,Hamiltonsbawn,Armagh,Bawn Bunnies Playgroup,Other catering premises,7841,5,,725185,5,,54.34398800000000,302741,803,ehealth@armagh.gov.uk,Armagh,http://www.armagh.gov.uk,-6.54389200000000,BT61 9SA,2014-09-24,fhrs_5_en-GB,5,,FHRS,5
400521,31a Main Street,Drumorgan,Hamiltonsbawn,Armagh,BAWN COTTAGE RESIDENTIAL HOME,Hospitals/Childcare/Caring Premises,5,0,,724593,0,,54.34127300000000,300484,803,ehealth@armagh.gov.uk,Armagh,http://www.armagh.gov.uk,-6.54523400000000,BT60 1LP,2013-05-09,fhrs_5_en-GB,5,,FHRS,0
400522,25 Main Street,Drumorgan,Hamiltonsbawn,Armagh,BAWN INN,Pub/bar/nightclub,7843,5,,724592,5,,54.34127300000000,300483,803,ehealth@armagh.gov.uk,Armagh,http://www.armagh.gov.uk,-6.54523400000000,BT60 1LP,2013-12-06,fhrs_5_en-GB,5,,FHRS,0
400523,125 Annareagh Road,Mullaghbane,Hamiltonsbawn,Armagh,BAWN SERVICE STATION (COSTCUTTER),Retailers - other,4613,5,,724582,0,,54.34398800000000,300458,803,ehealth@armagh.gov.uk,Armagh,http://www.armagh.gov.uk,-6.54389200000000,BT61 9SA,2015-01-14,fhrs_5_en-GB,5,,FHRS,5
400524,89-91 Drumarg Park,Armagh,Armagh,,BIA BLASTA,Other catering premises,7841,10,,724906,5,,54.34352500000000,302164,803,ehealth@armagh.gov.uk,Armagh,http://www.armagh.gov.uk,-6.66460600000000,BT60 4AQ,2013-09-26,fhrs_4_en-GB,4,,FHRS,0
400525,,,,,Big Dec's,Mobile caterer,7846,10,,725146,5,,,302687,803,ehealth@armagh.gov.uk,Armagh,http://www.armagh.gov.uk,,,2014-03-12,fhrs_4_en-GB,4,,FHRS,5
400526,Unit 1 Geddis Square,,Armagh,,Big Panda Chinese,Takeaway/sandwich shop,7844,10,,725041,5,,54.29822600000000,302455,803,ehealth@armagh.gov.uk,Armagh,http://www.armagh.gov.uk,-6.52291300000000,BT60 1PN,2014-07-28,fhrs_4_en-GB,4,,FHRS,5
400527,,,,,Blue Skies And Butterflies,Other catering premises,7841,5,,725019,5,,,302405,803,ehealth@armagh.gov.uk,Armagh,http://www.armagh.gov.uk,,,2012-07-06,fhrs_5_en-GB,5,,FHRS,0
400528,Unit 26 Armagh Business Centre 2 Loughgall Road,,Armagh,,Bodyworks Gym,Retailers - other,4613,,,724753,,,54.35740300000000,301373,803,ehealth@armagh.gov.uk,Armagh,http://www.armagh.gov.uk,-6.65957100000000,BT61 7NH,2013-09-05,fhrs_exempt_en-GB,Exempt,,FHRS,
400529,The Square,,Armagh,,Boots The Chemist,Retailers - other,4613,,,725085,,,54.29690200000000,302538,803,ehealth@armagh.gov.uk,Armagh,http://www.armagh.gov.uk,-6.52119400000000,BT60 1RB,2013-06-05,fhrs_exempt_en-GB,Exempt,,FHRS,
400530,15 Scotch Street,Corporation,Armagh,Armagh,BOOTS THE CHEMISTS LTD,Retailers - other,4613,,,724575,,,54.34694500000000,300364,803,ehealth@armagh.gov.uk,Armagh,http://www.armagh.gov.uk,-6.65142300000000,BT61 7BY,2013-01-08,fhrs_exempt_en-GB,Exempt,,FHRS,
400531,Boyle Bingo The Dobbin Centre,Armagh,,Armagh,BOYLE BINGO,Restaurant/Cafe/Canteen,1,10,,724829,5,,54.34498100000000,301928,803,ehealth@armagh.gov.uk,Armagh,http://www.armagh.gov.uk,-6.65419400000000,BT61 7QL,2014-05-13,fhrs_3_en-GB,3,,FHRS,10
400532,151 Markethill Road,Cornascreeb,Craigavon,,BURKES OF CORNASCRIEBE,Retailers - other,4613,,,724594,,,54.36552300000000,300487,803,ehealth@armagh.gov.uk,Armagh,http://www.armagh.gov.uk,-6.47761800000000,BT62 3SL,2014-06-19,fhrs_exempt_en-GB,Exempt,,FHRS,
400533,28 Castleblayney Road,Lagan,Keady,Armagh,Burkes Service Station,Retailers - other,4613,10,,725104,10,,54.24115600000000,302570,803,ehealth@armagh.gov.uk,Armagh,http://www.armagh.gov.uk,-6.72080500000000,BT60 3QP,2013-07-31,fhrs_3_en-GB,3,,FHRS,10
400534,,,,,Burren Balsamics Vinegars Ltd,Other catering premises,7841,5,,725153,0,,,302695,803,ehealth@armagh.gov.uk,Armagh,http://www.armagh.gov.uk,,,2014-04-18,fhrs_5_en-GB,5,,FHRS,0
400535,24 Madden Road,Ballymore,Craigavon,,BUTTONMOON PRE-SCHOOL,Other catering premises,7841,5,,724918,0,,54.35369200000000,302194,803,ehealth@armagh.gov.uk,Armagh,http://www.armagh.gov.uk,-6.40743900000000,BT62 2DG,2014-11-11,fhrs_5_en-GB,5,,FHRS,5
400536,31 Main Street,Rich Hill Or Legacorry,Richhill,Armagh,CAFE CASA,Restaurant/Cafe/Canteen,1,5,,724934,0,,54.37195300000000,302221,803,ehealth@armagh.gov.uk,Armagh,http://www.armagh.gov.uk,-6.55036600000000,BT61 9PJ,2014-04-29,fhrs_5_en-GB,5,,FHRS,0
400537,,,,,CAFE EN ROUTE,Retailers - other,4613,5,,725001,0,,,302373,803,ehealth@armagh.gov.uk,Armagh,http://www.armagh.gov.uk,,,2012-02-06,fhrs_5_en-GB,5,,FHRS,0
400538,41a Folly Lane,Armagh,Armagh,,CAFE OLYMPUS,Restaurant/Cafe/Canteen,1,10,,724876,10,,54.34615200000000,302035,803,ehealth@armagh.gov.uk,Armagh,http://www.armagh.gov.uk,-6.64800400000000,BT60 1ET,2013-10-17,fhrs_3_en-GB,3,,FHRS,10
400539,116 Banbrook Hill,Corporation,Armagh,,Cafe One,Restaurant/Cafe/Canteen,1,5,,725038,0,,54.35424100000000,302451,803,ehealth@armagh.gov.uk,Armagh,http://www.armagh.gov.uk,-6.65638300000000,BT61 7LP,2014-04-15,fhrs_5_en-GB,5,,FHRS,5
400540,33-35 Lower English Street,Armagh,Armagh,,CAFOLLAS FAST FOOD,Takeaway/sandwich shop,7844,5,,724677,10,,54.35144800000000,300899,803,ehealth@armagh.gov.uk,Armagh,http://www.armagh.gov.uk,-6.65564400000000,BT61 7LJ,2013-10-21,fhrs_4_en-GB,4,,FHRS,5
400541,,,,,Cakes By Gillian Louise,Other catering premises,7841,5,,725200,0,,,302762,803,ehealth@armagh.gov.uk,Armagh,http://www.armagh.gov.uk,,,2014-10-22,fhrs_5_en-GB,5,,FHRS,0
400542,64 Callan Street,Corporation,Armagh,,Callan Street Corner Shop,Retailers - other,4613,5,,725078,0,,54.34816300000000,302509,803,ehealth@armagh.gov.uk,Armagh,http://www.armagh.gov.uk,-6.65998000000000,BT61 7RG,2013-03-20,fhrs_4_en-GB,4,,FHRS,10
400543,259 Battleford Road,Aughantarragh And Corr,Dungannon,,CAMDEN GLASS,Restaurant/Cafe/Canteen,1,10,,724535,5,,54.40785100000000,300074,803,ehealth@armagh.gov.uk,Armagh,http://www.armagh.gov.uk,-6.78626400000000,BT71 7NP,2013-10-29,fhrs_4_en-GB,4,,FHRS,5
400544,60 Scotch Street,Corporation,Armagh,,Card Factory,Retailers - other,4613,,,725053,,,54.34732900000000,302471,803,ehealth@armagh.gov.uk,Armagh,http://www.armagh.gov.uk,-6.65288700000000,BT61 7DF,2012-11-21,fhrs_exempt_en-GB,Exempt,,FHRS,
400545,191 Castleblayney Road,Carrickduff,Keady,Armagh,CARNA SERVICE STATION,Retailers - other,4613,10,,724803,10,,54.18861500000000,301786,803,ehealth@armagh.gov.uk,Armagh,http://www.armagh.gov.uk,-6.73612400000000,BT60 3HY,2013-05-16,fhrs_3_en-GB,3,,FHRS,5
400546,12 Market Street,Crossdened,Keady,Armagh,Cassies Bar,Pub/bar/nightclub,7843,0,,725026,0,,54.24828300000000,302420,803,ehealth@armagh.gov.uk,Armagh,http://www.armagh.gov.uk,-6.70590200000000,BT60 3RP,2012-05-21,fhrs_5_en-GB,5,,FHRS,5
400547,Unit 4 Ballymore Service Station 50 Portadown Road,,Craigavon,,CENTRA FOODMARKET,Retailers - other,4613,5,,724716,0,,54.36380300000000,301144,803,ehealth@armagh.gov.uk,Armagh,http://www.armagh.gov.uk,-6.42275600000000,BT62 2JU,2013-03-25,fhrs_4_en-GB,4,,FHRS,10
400548,77-79 Upper English Street,Corporation,Armagh,,Certified Training Academy,Retailers - other,4613,,,725127,,,54.35055400000000,302614,803,ehealth@armagh.gov.uk,Armagh,http://www.armagh.gov.uk,-6.65527300000000,BT61 7LA,2013-09-05,fhrs_exempt_en-GB,Exempt,,FHRS,
400549,63 Lower English Street,Armagh,,Armagh,CHARLEMONT ARMS HOTEL,Restaurant/Cafe/Canteen,1,10,,724678,10,,54.35144800000000,300906,803,ehealth@armagh.gov.uk,Armagh,http://www.armagh.gov.uk,-6.65564400000000,BT61 7LJ,2013-09-30,fhrs_3_en-GB,3,,FHRS,10
400550,60 Kinelowen Street,Crossmore,Keady,Armagh,CHEEVERS CHEMIST,Retailers - other,4613,,,724614,,,54.25121300000000,300592,803,ehealth@armagh.gov.uk,Armagh,http://www.armagh.gov.uk,-6.70266500000000,BT60 3TL,2012-12-10,fhrs_exempt_en-GB,Exempt,,FHRS,
400551,47 Carrickaness Road,Carrickaness,Dungannon,,Chestnut Lodge Care Home,Hospitals/Childcare/Caring Premises,5,5,,724536,0,,54.40310200000000,300079,803,ehealth@armagh.gov.uk,Armagh,http://www.armagh.gov.uk,-6.75400400000000,BT71 7NH,2014-09-11,fhrs_5_en-GB,5,,FHRS,5
400552,15 Railway Street,Tullynacross,Newry,,CHOPSTICKS,Takeaway/sandwich shop,7844,0,,724968,5,,54.29285700000000,302287,803,ehealth@armagh.gov.uk,Armagh,http://www.armagh.gov.uk,-6.37375600000000,BT35 6SN,2013-05-30,fhrs_4_en-GB,4,,FHRS,10
400553,29a Main Street,Rich Hill Or Legacorry,Armagh,,CHOPSTICKS,Takeaway/sandwich shop,7844,5,,724804,10,,54.37195300000000,301788,803,ehealth@armagh.gov.uk,Armagh,http://www.armagh.gov.uk,-6.55036600000000,BT61 9PJ,2014-05-01,fhrs_4_en-GB,4,,FHRS,5
400554,38 Ballyhagan Road,Ballyhagan,Loughgall,Armagh,Christine's Wedding Cakes,Manufacturers/packers,7839,5,,725045,5,,54.40575500000000,302460,803,ehealth@armagh.gov.uk,Armagh,http://www.armagh.gov.uk,-6.56788500000000,BT61 8PX,2014-11-18,fhrs_4_en-GB,4,,FHRS,10
400555,25-37 Market Street,,Armagh,,Cinema,Restaurant/Cafe/Canteen,1,5,,725155,0,,54.34831000000000,302698,803,ehealth@armagh.gov.uk,Armagh,http://www.armagh.gov.uk,-6.65385400000000,BT61 7BU,2014-04-17,fhrs_5_en-GB,5,,FHRS,5
400556,35 The Mall West,Corporation,Armagh,,CITY OF ARMAGH CRICKET CLUB,Pub/bar/nightclub,7843,5,,724730,5,,54.34816500000000,301201,803,ehealth@armagh.gov.uk,Armagh,http://www.armagh.gov.uk,-6.65129100000000,BT61 9AJ,2013-05-01,fhrs_5_en-GB,5,,FHRS,5
400557,Alexander Road,Corporation,Armagh,,CITY OF ARMAGH HIGH SCHOOL,School/college/university,7845,0,,724662,0,,54.35605900000000,300845,803,ehealth@armagh.gov.uk,Armagh,http://www.armagh.gov.uk,-6.65587700000000,BT61 7JJ,2014-02-28,fhrs_5_en-GB,5,,FHRS,5
400558,12-14 Dobbin Street,Corporation,Armagh,,CITY OF ARMAGH ROYAL BRITISH LEGION,Pub/bar/nightclub,7843,0,,724747,5,,54.34606200000000,301297,803,ehealth@armagh.gov.uk,Armagh,http://www.armagh.gov.uk,-6.65200600000000,BT61 7QQ,2012-05-30,fhrs_5_en-GB,5,,FHRS,0
400559,Palace Demesne,Parkmore Or Demesne,Armagh,,City Of Armagh Rugby Club,Pub/bar/nightclub,7843,5,,724624,0,,54.33999300000000,300632,803,ehealth@armagh.gov.uk,Armagh,http://www.armagh.gov.uk,-6.65243500000000,BT60 4EN,2014-05-02,fhrs_2_en-GB,2,,FHRS,15
400560,,,,,CITY VIEW NURSERIES,Retailers - other,4613,0,,724902,0,,,302148,803,ehealth@armagh.gov.uk,Armagh,http://www.armagh.gov.uk,,,2013-11-29,fhrs_5_en-GB,5,,FHRS,0
400561,88 Cladymore Road,,Armagh,,CLADY TINY TOTS PLAYGROUP,Other catering premises,7841,5,,724949,5,,54.25811300000000,302247,803,ehealth@armagh.gov.uk,Armagh,http://www.armagh.gov.uk,-6.56628800000000,BT60 2EP,2014-06-17,fhrs_5_en-GB,5,,FHRS,0
400562,,,,,Clare Edgar Cakes,Retailers - other,4613,0,,725039,0,,,302453,803,ehealth@armagh.gov.uk,Armagh,http://www.armagh.gov.uk,,,2012-10-25,fhrs_5_en-GB,5,,FHRS,0
400563,58 Cloghoge Road,,Craigavon,,CLARE PRIMARY SCHOOL MEALS,School/college/university,7845,0,,724587,0,,54.32688600000000,300470,803,ehealth@armagh.gov.uk,Armagh,http://www.armagh.gov.uk,-6.44985500000000,BT62 2HB,2013-06-03,fhrs_5_en-GB,5,,FHRS,0
400564,85 Clay Road,Clay,Keady,Armagh,CLAY PRIMARY SCHOOL DINING CENTRE,School/college/university,7845,0,,724565,0,,54.22757900000000,300261,803,ehealth@armagh.gov.uk,Armagh,http://www.armagh.gov.uk,-6.71309800000000,BT60 3QX,2014-09-26,fhrs_5_en-GB,5,,FHRS,0
400565,50 Portadown Road,Ballymore,Craigavon,,Cleopatra's,Takeaway/sandwich shop,7844,10,,725088,5,,54.36380300000000,302545,803,ehealth@armagh.gov.uk,Armagh,http://www.armagh.gov.uk,-6.42275600000000,BT62 2JU,2013-05-03,fhrs_3_en-GB,3,,FHRS,10
400566,"Longstone Site, St Luke'S Hospital Loughgall Road",,Armagh,,Clover Day Centre,Other catering premises,7841,,,725156,,,54.36160300000000,302699,803,ehealth@armagh.gov.uk,Armagh,http://www.armagh.gov.uk,-6.65432700000000,BT61 7NQ,2014-06-30,fhrs_5_en-GB,5,,FHRS,
400567,16 Desart Lane Lower,Corporation,Armagh,,COLLEGE FARM NURSERY SCHOOL,Other catering premises,7841,0,,724947,0,,54.35355300000000,302244,803,ehealth@armagh.gov.uk,Armagh,http://www.armagh.gov.uk,-6.66232700000000,BT61 8AN,2014-05-20,fhrs_5_en-GB,5,,FHRS,0
400568,56 Lislasly Road,Aghinlig,Dungannon,,COLLEGELAND NURSING HOME LTD,Hospitals/Childcare/Caring Premises,5,5,,725011,0,,54.42360000000000,302391,803,ehealth@armagh.gov.uk,Armagh,http://www.armagh.gov.uk,-6.65560800000000,BT71 6TB,2013-08-07,fhrs_5_en-GB,5,,FHRS,5
400569,39-41 Church Street,Ballymore,Tandragee,Armagh,CO-OP STORE,Retailers - other,4613,10,,724709,10,,54.35583700000000,301073,803,ehealth@armagh.gov.uk,Armagh,http://www.armagh.gov.uk,-6.41616900000000,BT62 2AF,2013-10-22,fhrs_3_en-GB,3,,FHRS,10
400570,1 High Street,Racarbry,Keady,Armagh,COOPER BAR,Pub/bar/nightclub,7843,0,,724881,5,,54.24778800000000,302063,803,ehealth@armagh.gov.uk,Armagh,http://www.armagh.gov.uk,-6.70329400000000,BT60 3TF,2012-05-10,fhrs_5_en-GB,5,,FHRS,5
400571,,,,,Copperfield Catering - Vw Van-cream Trailer-coffee To Go,Mobile caterer,7846,,,725161,,,,302704,803,ehealth@armagh.gov.uk,Armagh,http://www.armagh.gov.uk,,,2014-06-19,fhrs_4_en-GB,4,,FHRS,
400572,20b Killylea Road,Drumarg Or Downs,Armagh,,CORDELIA'S,Takeaway/sandwich shop,7844,10,,724931,5,,54.34520100000000,302216,803,ehealth@armagh.gov.uk,Armagh,http://www.armagh.gov.uk,-6.66751900000000,BT60 4AN,2014-03-06,fhrs_4_en-GB,4,,FHRS,5
400573,,,,,Cordelia's (food Van),Mobile caterer,7846,10,,725143,5,,,302662,803,ehealth@armagh.gov.uk,Armagh,http://www.armagh.gov.uk,,,2014-01-30,fhrs_4_en-GB,4,,FHRS,0
400574,82 Cathedral Road,Lurgyvallen,Armagh,,COSTCUTTER,Retailers - other,4613,5,,724890,0,,54.35174200000000,302097,803,ehealth@armagh.gov.uk,Armagh,http://www.armagh.gov.uk,-6.66840000000000,BT61 8AE,2014-03-18,fhrs_5_en-GB,5,,FHRS,5
400575,6 Church Street,Tullynacross,Newry,,Costcutter & Post Office,Retailers - other,4613,5,,724686,5,,54.29224900000000,300977,803,ehealth@armagh.gov.uk,Armagh,http://www.armagh.gov.uk,-6.37530000000000,BT35 6SW,2014-06-30,fhrs_5_en-GB,5,,FHRS,5
400576,7 Main Street,Coolmillish,Markethill,Armagh,Courtrooms Restaurant,Restaurant/Cafe/Canteen,1,5,,724740,5,,54.29935000000000,301272,803,ehealth@armagh.gov.uk,Armagh,http://www.armagh.gov.uk,-6.52153600000000,BT60 1PH,2014-07-28,fhrs_5_en-GB,5,,FHRS,0
400577,1 Killylea Road,Corporation,Armagh,,COX'S FOODMARKET LTD (SPAR),Retailers - other,4613,10,,724868,10,,54.34520100000000,302010,803,ehealth@armagh.gov.uk,Armagh,http://www.armagh.gov.uk,-6.66751900000000,BT60 4AN,2013-09-09,fhrs_2_en-GB,2,,FHRS,15
400578,15-17 Main Street,,Middletown,Armagh,CROWN CATERING,Restaurant/Cafe/Canteen,1,5,,724818,0,,54.29066100000000,301850,803,ehealth@armagh.gov.uk,Armagh,http://www.armagh.gov.uk,-6.84185200000000,BT60 4JR,2013-03-27,fhrs_5_en-GB,5,,FHRS,0
400579,41 Ard-Na-Greine,,Keady,Armagh,Crown Nutrition,Manufacturers/packers,7839,,,725183,,,54.24820400000000,302739,803,ehealth@armagh.gov.uk,Armagh,http://www.armagh.gov.uk,-6.69691400000000,BT60 2RH,2014-08-13,fhrs_exempt_en-GB,Exempt,,FHRS,
400580,44 Victoria Street,Corporation,Armagh,,CROZIER HALL,Restaurant/Cafe/Canteen,1,,,724971,,,54.35120800000000,302293,803,ehealth@armagh.gov.uk,Armagh,http://www.armagh.gov.uk,-6.64145500000000,BT61 9DT,2012-04-03,fhrs_exempt_en-GB,Exempt,,FHRS,
400581,114 Market Street,Ballymore,Tandragee,Armagh,CULLENS PUBLIC HOUSE,Pub/bar/nightclub,7843,5,,725013,5,,54.35312300000000,302393,803,ehealth@armagh.gov.uk,Armagh,http://www.armagh.gov.uk,-6.41266000000000,BT62 2BP,2012-02-03,fhrs_5_en-GB,5,,FHRS,0
400582,Unit 1 Lonsdale Court Lonsdale Road,Corporation,Armagh,,CURLEY'S WINE CELLAR,Retailers - other,4613,0,,724759,5,,54.35191300000000,301442,803,ehealth@armagh.gov.uk,Armagh,http://www.armagh.gov.uk,-6.65462900000000,BT61 7HR,2012-04-03,fhrs_5_en-GB,5,,FHRS,0
400583,,,,,D & I Outside Catering,Mobile caterer,7846,10,,725192,10,,,302749,803,ehealth@armagh.gov.uk,Armagh,http://www.armagh.gov.uk,,,2014-08-22,fhrs_3_en-GB,3,,FHRS,10
400584,2 Cathedral Terrace,Corporation,Armagh,,DAILYBAKE (SHAMBLES),Retailers - other,4613,5,,724521,5,,54.35145000000000,300032,803,ehealth@armagh.gov.uk,Armagh,http://www.armagh.gov.uk,-6.65821200000000,BT61 7QX,2014-01-10,fhrs_5_en-GB,5,,FHRS,5
400585,29 Derryloughan Road,Tullymore,Loughgall,Armagh,DAN WINTER'S HOUSE,Restaurant/Cafe/Canteen,1,5,,724826,0,,54.42748300000000,301916,803,ehealth@armagh.gov.uk,Armagh,http://www.armagh.gov.uk,-6.56823700000000,BT61 8PH,2012-02-14,fhrs_5_en-GB,5,,FHRS,0
400586,17 Drumarg Villas,Drumarg Or Downs,Armagh,,DARA PLAYGROUP,Other catering premises,7841,5,,724917,0,,54.34478200000000,302191,803,ehealth@armagh.gov.uk,Armagh,http://www.armagh.gov.uk,-6.66453400000000,BT60 4AL,2015-01-13,fhrs_5_en-GB,5,,FHRS,5
400587,71 Moss Row,Darkley,Darkley,Armagh,DARKLEY SCHOOL MEALS KITCHEN,School/college/university,7845,0,,724553,5,,54.22260400000000,300170,803,ehealth@armagh.gov.uk,Armagh,http://www.armagh.gov.uk,-6.68088600000000,BT60 3BG,2013-06-05,fhrs_5_en-GB,5,,FHRS,5
400588,15-17 Main Street,,Middletown,Armagh,DAY TODAY,Retailers - other,4613,10,,724882,10,,54.29066100000000,302064,803,ehealth@armagh.gov.uk,Armagh,http://www.armagh.gov.uk,-6.84185200000000,BT60 4JR,2014-10-30,fhrs_3_en-GB,3,,FHRS,5
400589,47 Upper English Street,Corporation,Armagh,,De Averell House,Hotel/bed & breakfast/guest house,7842,0,,725021,5,,54.35055400000000,302407,803,ehealth@armagh.gov.uk,Armagh,http://www.armagh.gov.uk,-6.65527300000000,BT61 7LA,2014-05-02,fhrs_5_en-GB,5,,FHRS,0
400590,34 College Hill,Corporation,Armagh,,DEAN'S HILL B AND B,Hotel/bed & breakfast/guest house,7842,5,,724765,0,,54.35207600000000,301463,803,ehealth@armagh.gov.uk,Armagh,http://www.armagh.gov.uk,-6.64756400000000,BT61 9DF,2014-03-24,fhrs_5_en-GB,5,,FHRS,0
400591,19a Portadown Road,Armagh,,Armagh,DEANSBRIDGE SUPERMARKET,Retailers - other,4613,5,,724751,5,,54.35207600000000,301349,803,ehealth@armagh.gov.uk,Armagh,http://www.armagh.gov.uk,-6.64756400000000,BT61 9DF,2013-08-01,fhrs_5_en-GB,5,,FHRS,5
400592,82 Cathedral Road,Lurgyvallen,Armagh,,DELI AT COSTCUTTER,Takeaway/sandwich shop,7844,5,,724950,0,,54.35174200000000,302248,803,ehealth@armagh.gov.uk,Armagh,http://www.armagh.gov.uk,-6.66840000000000,BT61 8AE,2014-04-30,fhrs_5_en-GB,5,,FHRS,5
400593,18 Lonsdale Road,,Armagh,,Delicious Station,Restaurant/Cafe/Canteen,1,20,,725032,10,,54.35375600000000,302435,803,ehealth@armagh.gov.uk,Armagh,http://www.armagh.gov.uk,-6.65395300000000,BT61 7HX,2014-06-06,fhrs_1_en-GB,1,,FHRS,10
400594,57 Eglish Road,Eglish,Craigavon,,DEN IN THE GLEN,Other catering premises,7841,5,,724964,0,,54.45958200000000,302276,803,ehealth@armagh.gov.uk,Armagh,http://www.armagh.gov.uk,-6.56585100000000,BT62 1NL,2014-04-28,fhrs_5_en-GB,5,,FHRS,0
400595,,,,,DEREK WALKER,Retailers - other,4613,0,,724598,0,,,300500,803,ehealth@armagh.gov.uk,Armagh,http://www.armagh.gov.uk,,,2014-03-06,fhrs_5_en-GB,5,,FHRS,5
400596,116 Derryhale Road,Derryhale,Portadown,Armagh,DERRYHALE PRIMARY SCHOOL MEALS,School/college/university,7845,5,,724635,0,,54.38131900000000,300698,803,ehealth@armagh.gov.uk,Armagh,http://www.armagh.gov.uk,-6.47844900000000,BT62 3SR,2014-06-17,fhrs_5_en-GB,5,,FHRS,5
400597,38 Fergort Road,Drummeland,Derrynoose,Armagh,DERRYNOOSE COMMUNITY CENTRE,Other catering premises,7841,0,,724752,0,,54.23397400000000,301363,803,ehealth@armagh.gov.uk,Armagh,http://www.armagh.gov.uk,-6.78387500000000,BT60 3DN,2015-02-04,fhrs_5_en-GB,5,,FHRS,0
400598,80 Derrynoose Road,Crossnamoyle,Keady,Armagh,Derryvale Inn,Pub/bar/nightclub,7843,0,,725091,0,,54.22855800000000,302549,803,ehealth@armagh.gov.uk,Armagh,http://www.armagh.gov.uk,-6.77603000000000,BT60 3EZ,2013-07-04,fhrs_4_en-GB,4,,FHRS,10
400599,99 Cathedral Road,Corporation,Armagh,,DESART GUEST HOUSE,Hotel/bed & breakfast/guest house,7842,10,,724520,5,,54.35174200000000,300020,803,ehealth@armagh.gov.uk,Armagh,http://www.armagh.gov.uk,-6.66840000000000,BT61 8AE,2013-05-02,fhrs_4_en-GB,4,,FHRS,5
400600,101a Cathedral Road,Corporation,Armagh,,DESART LODGE DAY NURSERY,Other catering premises,7841,10,,724748,5,,54.35174200000000,301302,803,ehealth@armagh.gov.uk,Armagh,http://www.armagh.gov.uk,-6.66840000000000,BT61 8AE,2014-09-08,fhrs_4_en-GB,4,,FHRS,5
400601,23 Lower English Street,Corporation,Armagh,,DEVLIN'S BAR,Pub/bar/nightclub,7843,0,,724676,0,,54.35144800000000,300898,803,ehealth@armagh.gov.uk,Armagh,http://www.armagh.gov.uk,-6.65564400000000,BT61 7LJ,2014-06-24,fhrs_5_en-GB,5,,FHRS,0
400602,26 Laurelvale Road,Tamnaghvelton,Craigavon,,Diana's Treats,Manufacturers/packers,7839,5,,725050,10,,54.36418600000000,302466,803,ehealth@armagh.gov.uk,Armagh,http://www.armagh.gov.uk,-6.44883500000000,BT62 2LG,2013-02-08,fhrs_4_en-GB,4,,FHRS,5
400603,53 Main Street,Killylea,,Armagh,DIGBY'S BAR AND RESTAURANT,Pub/bar/nightclub,7843,5,,724628,5,,54.34687600000000,300672,803,ehealth@armagh.gov.uk,Armagh,http://www.armagh.gov.uk,-6.77912800000000,BT60 4LS,2014-03-07,fhrs_5_en-GB,5,,FHRS,5
400604,11a Dobbin Street,Corporation,Armagh,,DOBBIN STREET COMMUNITY CENTRE,Other catering premises,7841,5,,724568,0,,54.34606200000000,300300,803,ehealth@armagh.gov.uk,Armagh,http://www.armagh.gov.uk,-6.65200600000000,BT61 7QQ,2014-02-24,fhrs_5_en-GB,5,,FHRS,0
400605,Unit 8 The Mall Shopping Centre,Corporation,Armagh,,DOMINO'S PIZZA,Takeaway/sandwich shop,7844,5,,724952,0,,54.34816500000000,302258,803,ehealth@armagh.gov.uk,Armagh,http://www.armagh.gov.uk,-6.65129100000000,BT61 9AJ,2014-11-13,fhrs_4_en-GB,4,,FHRS,10
400606,37a Main Street,,Richhill,Armagh,Donna's Diner,Restaurant/Cafe/Canteen,1,,,725065,,,54.37195300000000,302490,803,ehealth@armagh.gov.uk,Armagh,http://www.armagh.gov.uk,-6.55036600000000,BT61 9PJ,2014-10-14,fhrs_3_en-GB,3,,FHRS,
400607,33-37 Ogle Street,Corporation,Armagh,,DOUGANS CHEMIST,Retailers - other,4613,,,724991,,,54.34559900000000,302355,803,ehealth@armagh.gov.uk,Armagh,http://www.armagh.gov.uk,-6.65646500000000,BT61 7EW,2012-03-15,fhrs_exempt_en-GB,Exempt,,FHRS,
400608,23 Ballynahone Avenue,Ballynahone More,Armagh,,DRELINCOURT PRIMARY SCHOOL,School/college/university,7845,0,,724720,0,,54.34496600000000,301152,803,ehealth@armagh.gov.uk,Armagh,http://www.armagh.gov.uk,-6.63683300000000,BT60 1EE,2012-09-26,fhrs_5_en-GB,5,,FHRS,5
400609,58 Drumhillery Road,Drumhillery,Middletown,Armagh,DRUMHILLERY SCHOOL MEALS KITCHEN,School/college/university,7845,0,,724566,0,,54.26997900000000,300275,803,ehealth@armagh.gov.uk,Armagh,http://www.armagh.gov.uk,-6.78791100000000,BT60 3QB,2014-04-01,fhrs_5_en-GB,5,,FHRS,0
400610,29 Poyntzpass Road,Druminargal,Craigavon,,DRUMINARGLE HOUSE B AND B,Hotel/bed & breakfast/guest house,7842,5,,724792,0,,54.31485500000000,301691,803,ehealth@armagh.gov.uk,Armagh,http://www.armagh.gov.uk,-6.37072100000000,BT63 6LE,2014-04-24,fhrs_5_en-GB,5,,FHRS,0
400611,1 Dernasigh Road,Derrydorragh,Armagh,,DRUMSALLEN SCHOOL MEALS KITCHEN,School/college/university,7845,5,,724537,0,,54.37720800000000,300081,803,ehealth@armagh.gov.uk,Armagh,http://www.armagh.gov.uk,-6.77304100000000,BT60 4QD,2012-11-06,fhrs_5_en-GB,5,,FHRS,0
400612,116 Dundrum Road,Dundrum,Tassagh,Armagh,DUNDRUM HOUSE B AND B,Hotel/bed & breakfast/guest house,7842,5,,724549,0,,54.25980800000000,300159,803,ehealth@armagh.gov.uk,Armagh,http://www.armagh.gov.uk,-6.66617800000000,BT60 2NG,2014-02-20,fhrs_5_en-GB,5,,FHRS,0
400613,224 Armagh Road,Dunlarg,Keady,Armagh,DUNLARG CARE HOME,Hospitals/Childcare/Caring Premises,5,10,,725000,5,,54.25659800000000,302372,803,ehealth@armagh.gov.uk,Armagh,http://www.armagh.gov.uk,-6.69885900000000,BT60 3EW,2014-03-18,fhrs_4_en-GB,4,,FHRS,0
400614,,,,,EAMON CONNOLLY (SHAMBLES),Retailers - other,4613,0,,724523,0,,,300040,803,ehealth@armagh.gov.uk,Armagh,http://www.armagh.gov.uk,,,2014-01-24,fhrs_5_en-GB,5,,FHRS,0
400615,143-147 Railway Street,,Armagh,,EAST CHINESE RESTAURANT,Restaurant/Cafe/Canteen,1,0,,724750,0,,54.35345400000000,301348,803,ehealth@armagh.gov.uk,Armagh,http://www.armagh.gov.uk,-6.65505500000000,BT61 7HP,2014-12-04,fhrs_5_en-GB,5,,FHRS,0
400616,Unit 1 13 Main Street,,Hamiltonsbawn,Armagh,Eddie's Kitchen,Takeaway/sandwich shop,7844,10,,725157,10,,54.34127300000000,302700,803,ehealth@armagh.gov.uk,Armagh,http://www.armagh.gov.uk,-6.54523400000000,BT60 1LP,2014-05-14,fhrs_3_en-GB,3,,FHRS,10
400617,Dobbin Centre Dobbin Street Lane,Corporation,Armagh,,Educogym,Retailers - other,4613,,,725112,,,54.34498100000000,302590,803,ehealth@armagh.gov.uk,Armagh,http://www.armagh.gov.uk,-6.65419400000000,BT61 7QL,2013-09-05,fhrs_exempt_en-GB,Exempt,,FHRS,
400618,27 Eglish Road,Teagy,Craigavon,,EGLISH PRIMARY SCHOOL DINING CENTRE,School/college/university,7845,5,,724644,5,,54.45958200000000,300737,803,ehealth@armagh.gov.uk,Armagh,http://www.armagh.gov.uk,-6.56585100000000,BT62 1NL,2014-06-24,fhrs_5_en-GB,5,,FHRS,5
400619,16 Market Street,Crossdened,Keady,Armagh,Ellen's,Takeaway/sandwich shop,7844,5,,725095,5,,54.24828300000000,302555,803,ehealth@armagh.gov.uk,Armagh,http://www.armagh.gov.uk,-6.70590200000000,BT60 3RP,2013-07-09,fhrs_5_en-GB,5,,FHRS,5
400620,7 Market Street,Corporation,Armagh,,EMBERS COFFEE HOUSE AND GRILL BAR,Restaurant/Cafe/Canteen,1,5,,724828,5,,54.34779100000000,301926,803,ehealth@armagh.gov.uk,Armagh,http://www.armagh.gov.uk,-6.65322500000000,BT61 7BW,2014-05-15,fhrs_4_en-GB,4,,FHRS,10
400621,,,,,EMILY CROZIER CATERING,Other catering premises,7841,5,,724767,5,,,301480,803,ehealth@armagh.gov.uk,Armagh,http://www.armagh.gov.uk,,,2014-02-13,fhrs_5_en-GB,5,,FHRS,0
400622,Thomas Street,Corporation,Armagh,Armagh,Eurospar - Armagh Food Company,Retailers - other,4613,5,,725067,5,,54.34560800000000,302492,803,ehealth@armagh.gov.uk,Armagh,http://www.armagh.gov.uk,-6.65400400000000,BT61 7AE,2014-08-06,fhrs_5_en-GB,5,,FHRS,5
400623,,,,,Event Catering Specialist,Mobile caterer,7846,5,,725170,0,,,302719,803,ehealth@armagh.gov.uk,Armagh,http://www.armagh.gov.uk,,,2014-07-10,fhrs_5_en-GB,5,,FHRS,5
400624,,,,,Express Catering,Mobile caterer,7846,5,,725082,0,,,302522,803,ehealth@armagh.gov.uk,Armagh,http://www.armagh.gov.uk,,,2014-05-22,fhrs_5_en-GB,5,,FHRS,0
400625,63 Drumcairn Road,Drumcarn,Armagh,,FAIRLAWNS PRIVATE RESIDENTIAL HOME,Hospitals/Childcare/Caring Premises,5,5,,724538,5,,54.36732900000000,300082,803,ehealth@armagh.gov.uk,Armagh,http://www.armagh.gov.uk,-6.66589500000000,BT61 8DQ,2014-04-24,fhrs_5_en-GB,5,,FHRS,5
400626,13 Markethill Road,Derryallen,Craigavon,,Fairways Restaurant,Restaurant/Cafe/Canteen,1,5,,725057,0,,54.34957800000000,302476,803,ehealth@armagh.gov.uk,Armagh,http://www.armagh.gov.uk,-6.41431900000000,BT62 2ER,2014-10-22,fhrs_5_en-GB,5,,FHRS,5
400627,25 Navan Fort Road,,Armagh,,FAIRYLANDS COUNTRY HOUSE,Hotel/bed & breakfast/guest house,7842,5,,724634,0,,54.34737100000000,300694,803,ehealth@armagh.gov.uk,Armagh,http://www.armagh.gov.uk,-6.68101300000000,BT60 4PN,2014-02-20,fhrs_5_en-GB,5,,FHRS,0
400628,1 Alexander Road,,Armagh,,Fane Valley Stores (armagh),Retailers - other,4613,5,,725176,0,,54.35605900000000,302728,803,ehealth@armagh.gov.uk,Armagh,http://www.armagh.gov.uk,-6.65587700000000,BT61 7JJ,2014-08-14,fhrs_5_en-GB,5,,FHRS,5
400629,10 Kinelowen Street,,Armagh,,Fannings Home Bakery,Restaurant/Cafe/Canteen,1,20,,725084,10,,54.24946600000000,302537,803,ehealth@armagh.gov.uk,Armagh,http://www.armagh.gov.uk,-6.70393200000000,BT60 3SU,2014-11-27,fhrs_1_en-GB,1,,FHRS,5
400630,,,,,FARM VEGETABLES,Retailers - other,4613,0,,724801,0,,,301775,803,ehealth@armagh.gov.uk,Armagh,http://www.armagh.gov.uk,,,2014-07-10,fhrs_5_en-GB,5,,FHRS,0
400631,13 Lower English Street,Corporation,Armagh,,Fat Sams (armagh) Ltd,Restaurant/Cafe/Canteen,1,10,,725055,5,,54.35144800000000,302473,803,ehealth@armagh.gov.uk,Armagh,http://www.armagh.gov.uk,-6.65564400000000,BT61 7LJ,2014-10-17,fhrs_4_en-GB,4,,FHRS,5
400632,70 Upper English Street,Corporation,Armagh,,FIREHOUSE PIZZA,Restaurant/Cafe/Canteen,1,10,,724762,5,,54.35032400000000,301450,803,ehealth@armagh.gov.uk,Armagh,http://www.armagh.gov.uk,-6.65555700000000,BT61 7LG,2013-08-01,fhrs_4_en-GB,4,,FHRS,5
400633,60 Ballymacnab Road,Foley,Tassagh,Armagh,FOLEY SCHOOL MEALS KITCHEN,School/college/university,7845,5,,724621,5,,54.28213600000000,300621,803,ehealth@armagh.gov.uk,Armagh,http://www.armagh.gov.uk,-6.62393900000000,BT60 2QS,2013-05-23,fhrs_5_en-GB,5,,FHRS,0
400634,,,,,FOOD GLORIOUS FOOD,Other catering premises,7841,5,,725005,5,,,302381,803,ehealth@armagh.gov.uk,Armagh,http://www.armagh.gov.uk,,,2014-03-05,fhrs_5_en-GB,5,,FHRS,0
400635,,,,,Food Glorious Food,Other catering premises,7841,5,,725197,0,,,302759,803,ehealth@armagh.gov.uk,Armagh,http://www.armagh.gov.uk,,,2014-10-20,fhrs_5_en-GB,5,,FHRS,0
400636,80 Ballymore Road,,Craigavon,,FORTHILL FARM,Manufacturers/packers,7839,5,,724810,0,,54.36790300000000,301823,803,ehealth@armagh.gov.uk,Armagh,http://www.armagh.gov.uk,-6.40725800000000,BT62 2JY,2013-11-28,fhrs_5_en-GB,5,,FHRS,5
400637,137 Railway Street,Corporation,Armagh,,FOUR STAR PIZZA,Takeaway/sandwich shop,7844,5,,724905,5,,54.35580200000000,302162,803,ehealth@armagh.gov.uk,Armagh,http://www.armagh.gov.uk,-6.65696300000000,BT61 7HT,2013-09-26,fhrs_5_en-GB,5,,FHRS,5
400638,350 Monaghan Road,Foyduff,Middletown,Armagh,FOYDUFF FILLING STATION (COSTCUTTER),Retailers - other,4613,10,,724630,5,,54.27968500000000,300684,803,ehealth@armagh.gov.uk,Armagh,http://www.armagh.gov.uk,-6.86101400000000,BT60 4JQ,2013-04-10,fhrs_3_en-GB,3,,FHRS,10
400639,8 Railway Street,Tullynacross,Newry,,FRAISE ET CHOCOLAT,Restaurant/Cafe/Canteen,1,5,,724982,5,,54.29285700000000,302337,803,ehealth@armagh.gov.uk,Armagh,http://www.armagh.gov.uk,-6.37375600000000,BT35 6SN,2013-09-12,fhrs_5_en-GB,5,,FHRS,5
400640,4 Bridge Street,Crossdened,Keady,Armagh,FRANK ARTHURS,Pub/bar/nightclub,7843,0,,724607,0,,54.24828000000000,300530,803,ehealth@armagh.gov.uk,Armagh,http://www.armagh.gov.uk,-6.70479800000000,BT60 3SY,2014-10-17,fhrs_4_en-GB,4,,FHRS,10
400641,Armagh City Shopping Centre Dobbin Lane,,Armagh,,FRIAR TUCK'S,Restaurant/Cafe/Canteen,1,5,,724805,5,,54.34560800000000,301793,803,ehealth@armagh.gov.uk,Armagh,http://www.armagh.gov.uk,-6.65400400000000,BT61 7AE,2014-05-13,fhrs_5_en-GB,5,,FHRS,5
400642,90-96 Market Street,,Craigavon,,FUN 4U CLUB,Other catering premises,7841,5,,724909,0,,54.35368400000000,302171,803,ehealth@armagh.gov.uk,Armagh,http://www.armagh.gov.uk,-6.41362200000000,BT62 2BW,2013-02-27,fhrs_5_en-GB,5,,FHRS,0
400643,7 Main Street,Coolmillish,Markethill,Armagh,FUTURE KIDS DAY NURSERY,Other catering premises,7841,0,,724743,0,,54.29935000000000,301286,803,ehealth@armagh.gov.uk,Armagh,http://www.armagh.gov.uk,-6.52153600000000,BT60 1PH,2013-08-08,fhrs_5_en-GB,5,,FHRS,0
400644,90-96 Market Street,,Craigavon,,GARDEN FRESH,Retailers - other,4613,10,,724822,5,,54.35368400000000,301897,803,ehealth@armagh.gov.uk,Armagh,http://www.armagh.gov.uk,-6.41362200000000,BT62 2BW,2012-11-30,fhrs_4_en-GB,4,,FHRS,5
400645,42 Tirnascobe Road,Tirnascobe,Armagh,,GEORGE HENNING,Retailers - other,4613,0,,724877,0,,54.35201200000000,302036,803,ehealth@armagh.gov.uk,Armagh,http://www.armagh.gov.uk,-6.60479300000000,BT61 9HT,2013-08-01,fhrs_5_en-GB,5,,FHRS,0
400646,,,,,GERARD McNEICE,Retailers - other,4613,0,,724668,0,,,300874,803,ehealth@armagh.gov.uk,Armagh,http://www.armagh.gov.uk,,,2014-11-10,fhrs_5_en-GB,5,,FHRS,0
400647,24a Victoria Street,Racarbry,Keady,Armagh,GERRY MONE'S,Retailers - other,4613,10,,724619,10,,54.24712000000000,300619,803,ehealth@armagh.gov.uk,Armagh,http://www.armagh.gov.uk,-6.70382100000000,BT60 3SL,2013-07-09,fhrs_3_en-GB,3,,FHRS,10
400648,271 Mowhan Road,Lisdrumchor Upper,Glenanne,Armagh,Glenanne Stores,Retailers - other,4613,10,,725137,5,,54.24204700000000,302639,803,ehealth@armagh.gov.uk,Armagh,http://www.armagh.gov.uk,-6.50261800000000,BT60 2JE,2013-11-08,fhrs_4_en-GB,4,,FHRS,0
400649,90-96 Market Street,,Craigavon,,GOLDEN CITY,Takeaway/sandwich shop,7844,0,,724911,5,,54.35368400000000,302174,803,ehealth@armagh.gov.uk,Armagh,http://www.armagh.gov.uk,-6.41362200000000,BT62 2BW,2015-01-06,fhrs_5_en-GB,5,,FHRS,0
400650,57 Drumadd Road,Drumadd,Armagh,,GOLDEN GATE CHINESE TAKEAWAY,Takeaway/sandwich shop,7844,0,,724875,10,,54.35162200000000,302034,803,ehealth@armagh.gov.uk,Armagh,http://www.armagh.gov.uk,-6.63993500000000,BT61 9EA,2013-06-12,fhrs_4_en-GB,4,,FHRS,5
400651,20 Killylea Road,Drumarg Or Downs,Armagh,,GOLDEN VILLAGE,Takeaway/sandwich shop,7844,5,,724888,10,,54.34520100000000,302084,803,ehealth@armagh.gov.uk,Armagh,http://www.armagh.gov.uk,-6.66751900000000,BT60 4AN,2014-06-20,fhrs_3_en-GB,3,,FHRS,10
400652,27-29 Scotch Street,Corporation,Armagh,,GORDONS CHEMIST,Retailers - other,4613,,,724576,,,54.34703700000000,300369,803,ehealth@armagh.gov.uk,Armagh,http://www.armagh.gov.uk,-6.65160500000000,BT61 7DD,2014-06-20,fhrs_exempt_en-GB,Exempt,,FHRS,
400653,54 Gosford Road,Drumlack,Markethill,Armagh,GOSFORD COFFEE HOUSE,Restaurant/Cafe/Canteen,1,10,,724975,0,,54.30682500000000,302306,803,ehealth@armagh.gov.uk,Armagh,http://www.armagh.gov.uk,-6.51787300000000,BT60 1UG,2011-10-12,fhrs_4_en-GB,4,,FHRS,5
400654,145 Gosford Road,Bolton,Loughgilly,Armagh,GOSFORD ROAD SERVICE STATION/DINERS NEST,Retailers - other,4613,10,,724817,5,,54.25960900000000,301845,803,ehealth@armagh.gov.uk,Armagh,http://www.armagh.gov.uk,-6.45050900000000,BT60 2DE,2014-03-20,fhrs_3_en-GB,3,,FHRS,10
400655,38a Scotch Street,Corporation,Armagh,Armagh,Green Apple Studio,Restaurant/Cafe/Canteen,1,10,,725068,5,,54.34694500000000,302493,803,ehealth@armagh.gov.uk,Armagh,http://www.armagh.gov.uk,-6.65142300000000,BT61 7BY,2014-11-11,fhrs_4_en-GB,4,,FHRS,5
400656,48 Markethill Road,Edenaveys,Armagh,,GREEN BAIZE SNOOKER CLUB,Retailers - other,4613,,,724562,,,54.32828900000000,300241,803,ehealth@armagh.gov.uk,Armagh,http://www.armagh.gov.uk,-6.61847800000000,BT60 1NX,2012-11-08,fhrs_exempt_en-GB,Exempt,,FHRS,
400657,7 Newry Road,Corporation,Armagh,,Green Room Restaurant,Restaurant/Cafe/Canteen,1,20,,725083,10,,54.34434100000000,302535,803,ehealth@armagh.gov.uk,Armagh,http://www.armagh.gov.uk,-6.64675700000000,BT60 1EN,2014-12-11,fhrs_1_en-GB,1,,FHRS,15
400658,55 Annareagh Road,Rockmacreeny,Richhill,Armagh,GREENMOUNT MEATS,Manufacturers/packers,7839,5,,724694,5,,54.36382500000000,301018,803,ehealth@armagh.gov.uk,Armagh,http://www.armagh.gov.uk,-6.54688300000000,BT61 9JT,2013-08-05,fhrs_4_en-GB,4,,FHRS,10
400659,15 Keady Road,Armagh,,Armagh,GREENPARK PRIVATE NURSING HOME,Hospitals/Childcare/Caring Premises,5,5,,724571,5,,54.34099000000000,300324,803,ehealth@armagh.gov.uk,Armagh,http://www.armagh.gov.uk,-6.66124400000000,BT60 4AA,2014-05-19,fhrs_5_en-GB,5,,FHRS,5
400660,1a Killylea Road,Corporation,Armagh,,GRINGOS,Takeaway/sandwich shop,7844,10,,724913,5,,54.34520100000000,302181,803,ehealth@armagh.gov.uk,Armagh,http://www.armagh.gov.uk,-6.66751900000000,BT60 4AN,2014-04-17,fhrs_4_en-GB,4,,FHRS,5
400661,1 The Square,Rich Hill Or Legacorry,Richhill,Armagh,GROUCHO'S,Pub/bar/nightclub,7843,10,,724704,5,,54.37199800000000,301056,803,ehealth@armagh.gov.uk,Armagh,http://www.armagh.gov.uk,-6.54885600000000,BT61 9PP,2013-12-13,fhrs_4_en-GB,4,,FHRS,5
400662,Nursery Road,,Armagh,,GUYS WINDMILL CORNER,Mobile caterer,7846,0,,724749,0,,54.34520100000000,301347,803,ehealth@armagh.gov.uk,Armagh,http://www.armagh.gov.uk,-6.66751900000000,BT60 4AN,2014-07-04,fhrs_5_en-GB,5,,FHRS,5
400663,55-57 Scotch Street,Corporation,Armagh,,H A EMERSON AND SON,Retailers - other,4613,5,,724578,10,,54.34732900000000,300396,803,ehealth@armagh.gov.uk,Armagh,http://www.armagh.gov.uk,-6.65288700000000,BT61 7DF,2014-02-06,fhrs_4_en-GB,4,,FHRS,5
400664,45 Hamiltonsbawn Road,Ballynahone More,Armagh,,HAMILTON COURT CARE HOME,Hospitals/Childcare/Caring Premises,5,0,,724589,5,,54.34848900000000,300478,803,ehealth@armagh.gov.uk,Armagh,http://www.armagh.gov.uk,-6.62899600000000,BT60 1HW,2013-11-15,fhrs_5_en-GB,5,,FHRS,0
400665,113 Annareagh Road,Drumorgan,Hamiltonsbawn,Armagh,HAMILTONSBAWN PRIMARY SCHOOL,School/college/university,7845,5,,724581,0,,54.34398800000000,300457,803,ehealth@armagh.gov.uk,Armagh,http://www.armagh.gov.uk,-6.54389200000000,BT61 9SA,2014-02-03,fhrs_5_en-GB,5,,FHRS,0
400666,22 The New Line,Rich Hill Or Legacorry,Richhill,Armagh,HARDY MEMORIAL PRIMARY SCHOOL RICHHILL,School/college/university,7845,0,,724702,0,,54.37026400000000,301052,803,ehealth@armagh.gov.uk,Armagh,http://www.armagh.gov.uk,-6.54964100000000,BT61 9QR,2014-04-01,fhrs_5_en-GB,5,,FHRS,0
400667,,,,,HARRY'S ICES,Retailers - other,4613,5,,724790,0,,,301689,803,ehealth@armagh.gov.uk,Armagh,http://www.armagh.gov.uk,,,2014-02-25,fhrs_5_en-GB,5,,FHRS,0
400668,1 The Mall Terrace,,Armagh,,Harvest City Church,Restaurant/Cafe/Canteen,1,5,,725196,5,,54.34816500000000,302757,803,ehealth@armagh.gov.uk,Armagh,http://www.armagh.gov.uk,-6.65129100000000,BT61 9AJ,2014-10-17,fhrs_4_en-GB,4,,FHRS,10
400669,72 Main Street,Coolmillish,Markethill,Armagh,HAWTHORNES GARDEN SHOP,Retailers - other,4613,,,724814,,,54.29866300000000,301833,803,ehealth@armagh.gov.uk,Armagh,http://www.armagh.gov.uk,-6.52113100000000,BT60 1PL,2013-01-03,fhrs_5_en-GB,5,,FHRS,
400670,190 Monaghan Road,Lisglynn,Middletown,Armagh,Health Foods Demonstration Vehicle,Retailers - other,4613,0,,725120,0,,54.29757400000000,302604,803,ehealth@armagh.gov.uk,Armagh,http://www.armagh.gov.uk,-6.75744000000000,BT60 4EZ,2013-10-17,fhrs_5_en-GB,5,,FHRS,0
400671,84-86 Main Street,Coolmillish,Markethill,Armagh,HEBRON HOUSE RESIDENTIAL HOME,Hospitals/Childcare/Caring Premises,5,5,,724651,0,,54.29866300000000,300796,803,ehealth@armagh.gov.uk,Armagh,http://www.armagh.gov.uk,-6.52113100000000,BT60 1PL,2014-08-29,fhrs_5_en-GB,5,,FHRS,5
400672,59 Main Street,Blackwatertown Or Lisbofin,Dungannon,,HEGARTY'S SHOP,Retailers - other,4613,5,,724558,5,,54.41265100000000,300223,803,ehealth@armagh.gov.uk,Armagh,http://www.armagh.gov.uk,-6.70431700000000,BT71 7HL,2013-07-18,fhrs_5_en-GB,5,,FHRS,5
400673,110 Market Street,,Craigavon,,HERRON'S COUNTRY FRIED CHICKEN,Takeaway/sandwich shop,7844,5,,724901,0,,54.35312300000000,302147,803,ehealth@armagh.gov.uk,Armagh,http://www.armagh.gov.uk,-6.41266000000000,BT62 2BP,2013-03-28,fhrs_4_en-GB,4,,FHRS,10
400674,12 Upper English Street,Corporation,Armagh,,HESTER'S PLACE,Restaurant/Cafe/Canteen,1,0,,724907,5,,54.34854000000000,302166,803,ehealth@armagh.gov.uk,Armagh,http://www.armagh.gov.uk,-6.65350900000000,BT61 7BH,2013-05-07,fhrs_5_en-GB,5,,FHRS,5
400675,99 Main Street,Coolmillish,Markethill,Armagh,Hill's Nisa,Retailers - other,4613,10,,724655,5,,54.29743900000000,300809,803,ehealth@armagh.gov.uk,Armagh,http://www.armagh.gov.uk,-6.52174300000000,BT60 1PJ,2013-07-24,fhrs_4_en-GB,4,,FHRS,0
400676,91-93 Main Street,Coolmillish,Markethill,Armagh,HILLSIDE TAVERN,Pub/bar/nightclub,7843,0,,724652,5,,54.29743900000000,300802,803,ehealth@armagh.gov.uk,Armagh,http://www.armagh.gov.uk,-6.52174300000000,BT60 1PJ,2012-08-16,fhrs_5_en-GB,5,,FHRS,5
400677,,,,,Hilltop Honey Ni,Retailers - other,4613,0,,725069,0,,,302494,803,ehealth@armagh.gov.uk,Armagh,http://www.armagh.gov.uk,,,2013-07-03,fhrs_5_en-GB,5,,FHRS,0
400678,33a Newtownhamilton Road,Ballyheridan,Armagh,,HILLVIEW LODGE,Hotel/bed & breakfast/guest house,7842,0,,724661,0,,54.32592800000000,300839,803,ehealth@armagh.gov.uk,Armagh,http://www.armagh.gov.uk,-6.65200400000000,BT60 2PL,2014-03-11,fhrs_5_en-GB,5,,FHRS,0
400679,11 Drumilly Road,Drumnasoo,Loughgall,Armagh,HOCKLEY PNH,Hospitals/Childcare/Caring Premises,5,5,,724601,5,,54.37395900000000,300505,803,ehealth@armagh.gov.uk,Armagh,http://www.armagh.gov.uk,-6.58465800000000,BT61 8RG,2014-08-29,fhrs_5_en-GB,5,,FHRS,5
400680,1 Eagralougher Road,Eagralougher,Loughgall,Armagh,HOGGS BAR,Pub/bar/nightclub,7843,0,,724965,0,,54.41716800000000,302278,803,ehealth@armagh.gov.uk,Armagh,http://www.armagh.gov.uk,-6.61516500000000,BT61 8LA,2014-01-31,fhrs_5_en-GB,5,,FHRS,5
400681,73 Main Street,Coolmillish,Markethill,Armagh,Hot N Spicy,Takeaway/sandwich shop,7844,5,,725145,10,,54.29935000000000,302674,803,ehealth@armagh.gov.uk,Armagh,http://www.armagh.gov.uk,-6.52153600000000,BT60 1PH,2014-01-28,fhrs_4_en-GB,4,,FHRS,5
400682,Thomas Street,Corporation,Armagh,Armagh,Hugglebugs Ni Ltd,Restaurant/Cafe/Canteen,1,10,,725090,5,,54.34560800000000,302548,803,ehealth@armagh.gov.uk,Armagh,http://www.armagh.gov.uk,-6.65400400000000,BT61 7AE,2013-08-02,fhrs_4_en-GB,4,,FHRS,5
400683,34-36 Main Street,Killylea,,Armagh,HUNTSMAN INN,Pub/bar/nightclub,7843,0,,724873,0,,54.34687600000000,302031,803,ehealth@armagh.gov.uk,Armagh,http://www.armagh.gov.uk,-6.77912800000000,BT60 4LS,2014-07-18,fhrs_5_en-GB,5,,FHRS,0
400684,Unit 1 Spires Retail Park Moy Road,Allistragh,Armagh,,Iceland Foods Ltd,Retailers - other,4613,0,,725150,0,,54.38463000000000,302692,803,ehealth@armagh.gov.uk,Armagh,http://www.armagh.gov.uk,-6.66890500000000,BT61 8DB,2014-04-10,fhrs_5_en-GB,5,,FHRS,5
400685,131 Railway Street,Corporation,Armagh,,Indian Cottage,Takeaway/sandwich shop,7844,5,,725023,5,,54.35580200000000,302410,803,ehealth@armagh.gov.uk,Armagh,http://www.armagh.gov.uk,-6.65696300000000,BT61 7HT,2014-03-12,fhrs_5_en-GB,5,,FHRS,5
400686,7 Mowhan Road,Coolmillish,Markethill,Armagh,J D HUNTER AND CO,Retailers - other,4613,5,,724737,5,,54.28992600000000,301236,803,ehealth@armagh.gov.uk,Armagh,http://www.armagh.gov.uk,-6.52153600000000,BT60 1RQ,2014-02-26,fhrs_5_en-GB,5,,FHRS,0
400687,15-17 Upper English Street,Corporation,,Armagh,J W GRAY LTD,Retailers - other,4613,,,724733,,,54.34854000000000,301206,803,ehealth@armagh.gov.uk,Armagh,http://www.armagh.gov.uk,-6.65350900000000,BT61 7BH,2013-08-01,fhrs_exempt_en-GB,Exempt,,FHRS,
400688,,,,,Jackie's,Retailers - other,4613,5,,725030,0,,,302432,803,ehealth@armagh.gov.uk,Armagh,http://www.armagh.gov.uk,,,2012-08-22,fhrs_5_en-GB,5,,FHRS,0
400689,89 Ballycullen Road,Corr And Dunavally,Dungannon,,Jam Berry Kitchen,Manufacturers/packers,7839,5,,725138,0,,54.43763500000000,302643,803,ehealth@armagh.gov.uk,Armagh,http://www.armagh.gov.uk,-6.69015000000000,BT71 7HT,2013-12-02,fhrs_5_en-GB,5,,FHRS,0
400690,34a Laurelvale Road,Tamnaghmore,Craigavon,,JENNYS JAMS,Manufacturers/packers,7839,0,,724819,0,,54.36418600000000,301851,803,ehealth@armagh.gov.uk,Armagh,http://www.armagh.gov.uk,-6.44883500000000,BT62 2LG,2014-02-18,fhrs_5_en-GB,5,,FHRS,0
400691,64 Upper English Street,Corporation,Armagh,,JENNY'S KITCHEN,Takeaway/sandwich shop,7844,10,,724679,5,,54.35032400000000,300907,803,ehealth@armagh.gov.uk,Armagh,http://www.armagh.gov.uk,-6.65555700000000,BT61 7LG,2014-08-28,fhrs_3_en-GB,3,,FHRS,10
400692,,,,,Jg Catering,Other catering premises,7841,5,,725081,10,,,302512,803,ehealth@armagh.gov.uk,Armagh,http://www.armagh.gov.uk,,,2014-10-24,fhrs_4_en-GB,4,,FHRS,5
400693,9 Scotch Street,Corporation,Armagh,,JOHNSTONS BAKERY & COFFEE SHOP,Manufacturers/packers,7839,5,,724574,5,,54.34694500000000,300361,803,ehealth@armagh.gov.uk,Armagh,http://www.armagh.gov.uk,-6.65142300000000,BT61 7BY,2014-03-19,fhrs_4_en-GB,4,,FHRS,10
400694,56 Scotch Street,Corporation,Armagh,,Joseph's Storehouse Cafe,Restaurant/Cafe/Canteen,1,10,,725139,10,,54.34707700000000,302654,803,ehealth@armagh.gov.uk,Armagh,http://www.armagh.gov.uk,-6.65278700000000,BT61 7DQ,2013-11-28,fhrs_3_en-GB,3,,FHRS,5
400695,58 Ogle Street,Corporation,Armagh,,JP'S,Takeaway/sandwich shop,7844,0,,724959,5,,54.34559900000000,302269,803,ehealth@armagh.gov.uk,Armagh,http://www.armagh.gov.uk,-6.65646500000000,BT61 7EW,2014-06-05,fhrs_5_en-GB,5,,FHRS,0
400696,,,,,J's Donut Hut,Mobile caterer,7846,5,,725167,0,,,302713,803,ehealth@armagh.gov.uk,Armagh,http://www.armagh.gov.uk,,,2014-05-29,fhrs_5_en-GB,5,,FHRS,5
400697,2a Annvale Road,Tullynamalloge,Keady,Armagh,Keady Day Centre,Hospitals/Childcare/Caring Premises,5,5,,724757,0,,54.25103400000000,301435,803,ehealth@armagh.gov.uk,Armagh,http://www.armagh.gov.uk,-6.68775800000000,BT60 2RP,2014-03-11,fhrs_5_en-GB,5,,FHRS,0
400698,39 Kinelowen Street,Crossmore,Keady,Armagh,KEADY MARKET STORES,Retailers - other,4613,5,,724613,0,,54.24924900000000,300589,803,ehealth@armagh.gov.uk,Armagh,http://www.armagh.gov.uk,-6.70472100000000,BT60 3ST,2013-04-10,fhrs_5_en-GB,5,,FHRS,0
400699,2 Kinelowen Street,Crossmore,Keady,Armagh,Keady Outa Schools,Other catering premises,7841,5,,725043,0,,54.24946600000000,302457,803,ehealth@armagh.gov.uk,Armagh,http://www.armagh.gov.uk,-6.70393200000000,BT60 3SU,2012-10-04,fhrs_5_en-GB,5,,FHRS,0
400700,8 Kinelowen Street,Crossmore,Keady,Armagh,KEADY POST OFFICE,Retailers - other,4613,,,724754,,,54.24946600000000,301385,803,ehealth@armagh.gov.uk,Armagh,http://www.armagh.gov.uk,-6.70393200000000,BT60 3SU,2012-03-16,fhrs_exempt_en-GB,Exempt,,FHRS,
400701,48 Irish Street,Corporation,Armagh,,KEEGAN'S BAR,Pub/bar/nightclub,7843,10,,724543,5,,54.34438700000000,300134,803,ehealth@armagh.gov.uk,Armagh,http://www.armagh.gov.uk,-6.65730400000000,BT61 7EP,2013-04-17,fhrs_4_en-GB,4,,FHRS,5
400702,Southern Regional College Lonsdale Road,,Armagh,,Kfc,Takeaway/sandwich shop,7844,5,,724915,5,,54.35146000000000,302186,803,ehealth@armagh.gov.uk,Armagh,http://www.armagh.gov.uk,-6.65435100000000,BT61 7JX,2014-05-28,fhrs_5_en-GB,5,,FHRS,5
400703,150 Killylea Road,,,Armagh,KILLYLEA PRIMARY SCHOOL,School/college/university,7845,5,,724626,0,,54.34830600000000,300661,803,ehealth@armagh.gov.uk,Armagh,http://www.armagh.gov.uk,-6.77488700000000,BT60 4LN,2013-05-21,fhrs_5_en-GB,5,,FHRS,0
400704,56 Lislasly Road,Aghinlig,Dungannon,,KINNEGO CENTRE,School/college/university,7845,10,,724763,0,,54.42360000000000,301451,803,ehealth@armagh.gov.uk,Armagh,http://www.armagh.gov.uk,-6.65560800000000,BT71 6TB,2014-02-19,fhrs_4_en-GB,4,,FHRS,5
400705,4 Main Street,Blackwatertown Or Lisbofin,Dungannon,,KUTE LITTLE TREASURES DAY NURSERY,Other catering premises,7841,0,,724796,5,,54.41310200000000,301751,803,ehealth@armagh.gov.uk,Armagh,http://www.armagh.gov.uk,-6.70116000000000,BT71 7HJ,2014-04-09,fhrs_5_en-GB,5,,FHRS,0
400706,Armagh City Hotel Friary Road,,Armagh,,L A FITNESS,Retailers - other,4613,,,724758,,,,301438,803,ehealth@armagh.gov.uk,Armagh,http://www.armagh.gov.uk,,BT60 2FR,2013-09-05,fhrs_exempt_en-GB,Exempt,,FHRS,
400707,35 Mullavilly Road,Mullavilly,Craigavon,,LAURELVALE CRICKET CLUB,Pub/bar/nightclub,7843,0,,724637,0,,54.37244900000000,300705,803,ehealth@armagh.gov.uk,Armagh,http://www.armagh.gov.uk,-6.44579900000000,BT62 2LX,2014-02-14,fhrs_4_en-GB,4,,FHRS,10
400708,Unit 5 Spires Retail Park,,Armagh,,LIDL,Retailers - other,4613,5,,724772,0,,54.38463000000000,301520,803,ehealth@armagh.gov.uk,Armagh,http://www.armagh.gov.uk,-6.66890500000000,BT61 8DB,2014-01-30,fhrs_5_en-GB,5,,FHRS,5
400709,Linenhall Street,Corporation,Armagh,,Linen Court Project,Hotel/bed & breakfast/guest house,7842,5,,725119,10,,54.34681000000000,302603,803,ehealth@armagh.gov.uk,Armagh,http://www.armagh.gov.uk,-6.65227300000000,BT61 7DL,2013-10-03,fhrs_4_en-GB,4,,FHRS,5
400710,49 Keady Road,,Armagh,,LIN'S TAKEAWAY,Takeaway/sandwich shop,7844,5,,724974,5,,54.33720900000000,302303,803,ehealth@armagh.gov.uk,Armagh,http://www.armagh.gov.uk,-6.65979800000000,BT60 3NW,2013-05-15,fhrs_5_en-GB,5,,FHRS,5
400711,91b Lisanally Lane,Corporation,Armagh,,LISANALLY DAY CENTRE,Other catering premises,7841,0,,724669,0,,54.35525200000000,300875,803,ehealth@armagh.gov.uk,Armagh,http://www.armagh.gov.uk,-6.65110500000000,BT61 7HF,2014-03-12,fhrs_5_en-GB,5,,FHRS,0
400712,Southern Regional College Lisanally Lane,Corporation,Armagh,,LISANALLY SPECIAL SCHOOL,School/college/university,7845,0,,724667,0,,54.35235600000000,300871,803,ehealth@armagh.gov.uk,Armagh,http://www.armagh.gov.uk,-6.65332200000000,BT61 7HN,2014-01-09,fhrs_5_en-GB,5,,FHRS,5
400713,7 Drumconwell Road,,Armagh,,LISNADILL SCHOOL MEALS KITCHEN,School/college/university,7845,5,,724623,0,,54.30849600000000,300629,803,ehealth@armagh.gov.uk,Armagh,http://www.armagh.gov.uk,-6.64616700000000,BT60 2PS,2013-05-23,fhrs_5_en-GB,5,,FHRS,5
400714,38 Fergort Road,Drummeland,Derrynoose,Armagh,LITTLE ACORNS PLAYGROUP,Other catering premises,7841,0,,724922,5,,54.23397400000000,302200,803,ehealth@armagh.gov.uk,Armagh,http://www.armagh.gov.uk,-6.78387500000000,BT60 3DN,2014-03-21,fhrs_5_en-GB,5,,FHRS,0
400715,20 Tandragee Road,Crunaght,Markethill,Armagh,LITTLE BLESSINGS,Other catering premises,7841,5,,724871,5,,54.29669700000000,302028,803,ehealth@armagh.gov.uk,Armagh,http://www.armagh.gov.uk,-6.51250800000000,BT60 1TF,2014-12-11,fhrs_5_en-GB,5,,FHRS,5
400716,Mount St. Catherine'S Primary School Windmill Hill,Corporation,Armagh,,Little Buds,Other catering premises,7841,0,,725182,0,,54.34758200000000,302738,803,ehealth@armagh.gov.uk,Armagh,http://www.armagh.gov.uk,-6.66264400000000,BT60 4BR,2014-10-07,fhrs_5_en-GB,5,,FHRS,0
400717,111 Maddan Road,Maddan,Armagh,,Little Learners,Other catering premises,7841,5,,725049,5,,54.27776900000000,302465,803,ehealth@armagh.gov.uk,Armagh,http://www.armagh.gov.uk,-6.76228900000000,BT60 3LJ,2012-11-20,fhrs_5_en-GB,5,,FHRS,0
400718,Springhill Road,Ballylane,,Armagh,LITTLE VILLAGERS,Other catering premises,7841,5,,724761,5,,54.24031400000000,301446,803,ehealth@armagh.gov.uk,Armagh,http://www.armagh.gov.uk,-6.51357100000000,BT60 2LF,2014-10-16,fhrs_4_en-GB,4,,FHRS,10
400719,82 Kilmachugh Road,Enagh,Armagh,,Long Lane Pantry,Manufacturers/packers,7839,10,,725151,0,,54.26911900000000,302693,803,ehealth@armagh.gov.uk,Armagh,http://www.armagh.gov.uk,-6.56628900000000,BT60 2EN,2014-04-02,fhrs_4_en-GB,4,,FHRS,10
400720,3 Maddan Road,Tamlaght,Armagh,,Longnancy's (bar),Pub/bar/nightclub,7843,0,,725092,0,,54.29052300000000,302550,803,ehealth@armagh.gov.uk,Armagh,http://www.armagh.gov.uk,-6.77248800000000,BT60 3LN,2013-08-09,fhrs_5_en-GB,5,,FHRS,0
400721,73 Loughgall Road,Mullynure,Armagh,,LONGSTONE HOSPITAL WARD KITCHENS,Hospitals/Childcare/Caring Premises,5,0,,724530,5,,54.36370100000000,300054,803,ehealth@armagh.gov.uk,Armagh,http://www.armagh.gov.uk,-6.65065900000000,BT61 7PR,2013-09-26,fhrs_5_en-GB,5,,FHRS,0
400722,37 Ballygasey Road,Ballygasey,Loughgall,Armagh,LOUGHGALL FOOTBALL CLUB,Pub/bar/nightclub,7843,0,,724596,0,,54.40813000000000,300496,803,ehealth@armagh.gov.uk,Armagh,http://www.armagh.gov.uk,-6.60967900000000,BT61 8HY,2014-03-28,fhrs_5_en-GB,5,,FHRS,5
400723,34a Ballygasey Road,Ballygasey,Loughgall,Armagh,Loughgall Playgroup,Other catering premises,7841,5,,725149,5,,54.40813000000000,302691,803,ehealth@armagh.gov.uk,Armagh,http://www.armagh.gov.uk,-6.60967900000000,BT61 8HY,2014-05-01,fhrs_5_en-GB,5,,FHRS,5
400724,1 Cow Fair,,Armagh,,M FLETCHER,Retailers - other,4613,5,,724609,5,,54.24849100000000,300539,803,ehealth@armagh.gov.uk,Armagh,http://www.armagh.gov.uk,-6.70356400000000,BT60 3TD,2013-05-09,fhrs_5_en-GB,5,,FHRS,0
400725,5 Lower English Street,Corporation,Armagh,,MACARI'S,Retailers - other,4613,10,,724671,10,,54.35144800000000,300888,803,ehealth@armagh.gov.uk,Armagh,http://www.armagh.gov.uk,-6.65564400000000,BT61 7LJ,2013-07-22,fhrs_3_en-GB,3,,FHRS,10
400726,7 Lower English Street,Corporation,Armagh,,Macari's Ice-cream & Coffee,Restaurant/Cafe/Canteen,1,5,,725094,0,,54.35144800000000,302552,803,ehealth@armagh.gov.uk,Armagh,http://www.armagh.gov.uk,-6.65564400000000,BT61 7LJ,2013-07-05,fhrs_5_en-GB,5,,FHRS,5
400727,Farnaloy Road,,Armagh,,MADDEN COMMUNITY CENTRE,Other catering premises,7841,5,,724736,0,,54.28674800000000,301233,803,ehealth@armagh.gov.uk,Armagh,http://www.armagh.gov.uk,-6.74096700000000,BT60 3LR,2014-11-20,fhrs_5_en-GB,5,,FHRS,0
400728,"Mall Presbyterian Church, Memorial Hall The Mall West",,,,MALL PRESBYTERIAN CHURCH,Restaurant/Cafe/Canteen,1,10,,724963,0,,54.34816500000000,302274,803,ehealth@armagh.gov.uk,Armagh,http://www.armagh.gov.uk,-6.65129100000000,BT61 9AJ,2013-03-21,fhrs_4_en-GB,4,,FHRS,0
400729,2 College Hill,Armagh,,Armagh,MANOR PARK,Restaurant/Cafe/Canteen,1,10,,724879,10,,54.35207600000000,302042,803,ehealth@armagh.gov.uk,Armagh,http://www.armagh.gov.uk,-6.64756400000000,BT61 9DF,2014-02-13,fhrs_3_en-GB,3,,FHRS,5
400730,61 Mowhan Road,Edenykennedy,Markethill,Armagh,MARKETHILL HIGH SCHOOL MEALS KITCHEN,School/college/university,7845,5,,724658,0,,54.28992600000000,300814,803,ehealth@armagh.gov.uk,Armagh,http://www.armagh.gov.uk,-6.52153600000000,BT60 1RQ,2015-02-03,fhrs_5_en-GB,5,,FHRS,5
400731,14 Mowhan Road,Edenykennedy,Markethill,Armagh,MARKETHILL PRIMARY SCHOOL KITCHEN,School/college/university,7845,0,,724657,0,,54.28992600000000,300813,803,ehealth@armagh.gov.uk,Armagh,http://www.armagh.gov.uk,-6.52153600000000,BT60 1RQ,2013-02-06,fhrs_5_en-GB,5,,FHRS,5
400732,Unit 2 Spires Retail Park Moy Road,Corporation,Armagh,,MARKS AND SPENCER SIMPLY FOOD,Retailers - other,4613,0,,724824,0,,54.38463000000000,301913,803,ehealth@armagh.gov.uk,Armagh,http://www.armagh.gov.uk,-6.66890500000000,BT61 8DB,2014-11-11,fhrs_5_en-GB,5,,FHRS,0
400733,,,,,Martys Munchbox,Mobile caterer,7846,10,,725177,5,,,302729,803,ehealth@armagh.gov.uk,Armagh,http://www.armagh.gov.uk,,,2014-07-23,fhrs_2_en-GB,2,,FHRS,15
400734,72 Maydown Road,Laraghshankill,Dungannon,,MARYANN'S PUBLIC HOUSE,Pub/bar/nightclub,7843,5,,724894,10,,54.38823100000000,302102,803,ehealth@armagh.gov.uk,Armagh,http://www.armagh.gov.uk,-6.73987700000000,BT71 7LN,2012-06-15,fhrs_4_en-GB,4,,FHRS,0
400735,30 Barrack Street,Corporation,Armagh,,MAYS,Retailers - other,4613,5,,724721,5,,54.34695900000000,301167,803,ehealth@armagh.gov.uk,Armagh,http://www.armagh.gov.uk,-6.64947000000000,BT60 1AD,2014-06-04,fhrs_5_en-GB,5,,FHRS,5
400736,147 Irish Street,Corporation,Armagh,,MCANERNEY BROS LTD,Retailers - other,4613,5,,724545,5,,54.34438700000000,300137,803,ehealth@armagh.gov.uk,Armagh,http://www.armagh.gov.uk,-6.65730400000000,BT61 7EP,2014-04-10,fhrs_5_en-GB,5,,FHRS,5
400737,241 Monaghan Road,Doogary,Armagh,,MCCONNELL,Retailers - other,4613,0,,724633,0,,54.29219200000000,300690,803,ehealth@armagh.gov.uk,Armagh,http://www.armagh.gov.uk,-6.80631700000000,BT60 4SQ,2014-07-22,fhrs_5_en-GB,5,,FHRS,0
400738,31 Keady Street,Coolmillish,Markethill,Armagh,MCFARLAND'S TODAY'S EXTRA,Retailers - other,4613,5,,724987,10,,54.29822600000000,302346,803,ehealth@armagh.gov.uk,Armagh,http://www.armagh.gov.uk,-6.52291300000000,BT60 1PN,2013-07-03,fhrs_4_en-GB,4,,FHRS,5
400739,135 Railway Street,Corporation,Armagh,,Mcgeown's Traditional Fish & Chip Shop,Takeaway/sandwich shop,7844,5,,725028,0,,54.35580200000000,302427,803,ehealth@armagh.gov.uk,Armagh,http://www.armagh.gov.uk,-6.65696300000000,BT61 7HT,2014-02-19,fhrs_5_en-GB,5,,FHRS,0
400740,2 Cathedral Road,,Armagh,,MCGEOWN'S TRADITIONAL FISH & CHIPS,Takeaway/sandwich shop,7844,10,,724992,5,,54.35145000000000,302357,803,ehealth@armagh.gov.uk,Armagh,http://www.armagh.gov.uk,-6.65821200000000,BT61 7QX,2013-08-12,fhrs_3_en-GB,3,,FHRS,10
400741,237 Armagh Road,,,Armagh,MCGLEENAN CENTRA,Retailers - other,4613,5,,724605,0,,54.31684500000000,300525,803,ehealth@armagh.gov.uk,Armagh,http://www.armagh.gov.uk,-6.49266300000000,BT60 1TW,2014-02-06,fhrs_5_en-GB,5,,FHRS,5
400742,144 Granemore Road,Granemore,Armagh,,McGLEENON'S,Retailers - other,4613,0,,724552,0,,54.25608000000000,300166,803,ehealth@armagh.gov.uk,Armagh,http://www.armagh.gov.uk,-6.63809500000000,BT60 2NL,2012-07-05,fhrs_5_en-GB,5,,FHRS,0
400743,70 Victoria Street,Racarbry,Keady,Armagh,McGRANES,Retailers - other,4613,10,,724620,10,,54.24712000000000,300620,803,ehealth@armagh.gov.uk,Armagh,http://www.armagh.gov.uk,-6.70382100000000,BT60 3SL,2013-11-04,fhrs_3_en-GB,3,,FHRS,5
400744,20 Davis Street,Crossdened,Keady,Armagh,Mckeevers Chemist,Retailers - other,4613,,,724823,,,54.24738100000000,301905,803,ehealth@armagh.gov.uk,Armagh,http://www.armagh.gov.uk,-6.70560800000000,BT60 3RS,2013-06-21,fhrs_exempt_en-GB,Exempt,,FHRS,
400745,63-65 Thomas Street,,Armagh,,MCKEEVERS CHEMIST,Retailers - other,4613,,,724999,,,54.34647900000000,302371,803,ehealth@armagh.gov.uk,Armagh,http://www.armagh.gov.uk,-6.65397600000000,BT61 7QB,2013-06-06,fhrs_exempt_en-GB,Exempt,,FHRS,
400746,7 Dobbin Street Lane,Armagh,,Armagh,MCKEEVERS CHEMIST,Retailers - other,4613,,,725003,,,,302375,803,ehealth@armagh.gov.uk,Armagh,http://www.armagh.gov.uk,,BT60 7QL,2014-06-20,fhrs_exempt_en-GB,Exempt,,FHRS,
400747,21 Lower English Street,Corporation,Armagh,,MCKENNA'S BAR,Pub/bar/nightclub,7843,0,,724675,0,,54.35144800000000,300897,803,ehealth@armagh.gov.uk,Armagh,http://www.armagh.gov.uk,-6.65564400000000,BT61 7LJ,2014-06-24,fhrs_5_en-GB,5,,FHRS,0
400748,308 Mullacreevie Park,Legarhill,Armagh,,MCKEOWN STORES,Retailers - other,4613,10,,724547,0,,54.34521800000000,300145,803,ehealth@armagh.gov.uk,Armagh,http://www.armagh.gov.uk,-6.67237800000000,BT60 4BE,2012-08-01,fhrs_4_en-GB,4,,FHRS,5
400749,17 Main Street,Tullybrick (Hamilton),Middletown,Armagh,MCNALLYS,Retailers - other,4613,0,,724903,0,,54.29236500000000,302157,803,ehealth@armagh.gov.uk,Armagh,http://www.armagh.gov.uk,-6.84527500000000,BT60 4JF,2014-03-11,fhrs_5_en-GB,5,,FHRS,0
400750,4 Main Street,Middletown,Middletown,Armagh,Mc's Takeaway,Takeaway/sandwich shop,7844,10,,725154,5,,54.29236500000000,302697,803,ehealth@armagh.gov.uk,Armagh,http://www.armagh.gov.uk,-6.84527500000000,BT60 4JF,2014-04-02,fhrs_3_en-GB,3,,FHRS,10
400751,11 Main Street,,Richhill,Armagh,Meadowcraft Day Centre,Other catering premises,7841,5,,724697,5,,54.37195300000000,301027,803,ehealth@armagh.gov.uk,Armagh,http://www.armagh.gov.uk,-6.55036600000000,BT61 9PJ,2014-02-13,fhrs_4_en-GB,4,,FHRS,10
400752,28 Scotch Street,Corporation,Armagh,,Mei Garden,Takeaway/sandwich shop,7844,10,,725052,10,,54.34694500000000,302470,803,ehealth@armagh.gov.uk,Armagh,http://www.armagh.gov.uk,-6.65142300000000,BT61 7BY,2014-05-15,fhrs_3_en-GB,3,,FHRS,10
400753,64-68 Market Street,,Craigavon,,MICHAEL HILL PHARMACY LTD,Retailers - other,4613,,,724713,,,54.35368400000000,301113,803,ehealth@armagh.gov.uk,Armagh,http://www.armagh.gov.uk,-6.41362200000000,BT62 2BW,2012-11-21,fhrs_exempt_en-GB,Exempt,,FHRS,
400754,Market House Main Street,Tullybrick (Hamilton),Middletown,Armagh,Middletown Luncheon Club,Other catering premises,7841,5,,725031,5,,54.29236500000000,302434,803,ehealth@armagh.gov.uk,Armagh,http://www.armagh.gov.uk,-6.84527500000000,BT60 4JF,2014-01-27,fhrs_5_en-GB,5,,FHRS,0
400755,5d Dunesmullan Road,Edenykennedy,Markethill,Armagh,Miller's Hill Equestrian And Fun Farm,Restaurant/Cafe/Canteen,1,5,,725029,0,,54.30025100000000,302428,803,ehealth@armagh.gov.uk,Armagh,http://www.armagh.gov.uk,-6.49557400000000,BT60 1TJ,2014-04-25,fhrs_5_en-GB,5,,FHRS,0
400756,41 Upper English Street,,Armagh,,MINIJA,Retailers - other,4613,10,,724928,0,,54.34906600000000,302208,803,ehealth@armagh.gov.uk,Armagh,http://www.armagh.gov.uk,-6.65395300000000,BT61 7BA,2014-03-19,fhrs_4_en-GB,4,,FHRS,0
400757,,,,,Monclone Enterprises Ltd,Other catering premises,7841,5,,725108,5,,,302582,803,ehealth@armagh.gov.uk,Armagh,http://www.armagh.gov.uk,,,2013-11-14,fhrs_5_en-GB,5,,FHRS,0
400758,7 Market Street,,Armagh,,MONE'S BAR,Pub/bar/nightclub,7843,0,,724617,0,,54.24828300000000,300604,803,ehealth@armagh.gov.uk,Armagh,http://www.armagh.gov.uk,-6.70590200000000,BT60 3RP,2012-05-10,fhrs_5_en-GB,5,,FHRS,5
400759,11 Windmill Hill,Corporation,Armagh,,MOUNT ST CATHERINES PRIMARY SCHOOL MEALS,School/college/university,7845,0,,724548,5,,54.34758200000000,300146,803,ehealth@armagh.gov.uk,Armagh,http://www.armagh.gov.uk,-6.66264400000000,BT60 4BR,2015-01-26,fhrs_5_en-GB,5,,FHRS,5
400760,7 Main Street,Mountnorris,,Armagh,MOUNTNORRIS CENTRAL KITCHEN,School/college/university,7845,0,,724689,5,,54.25300500000000,300993,803,ehealth@armagh.gov.uk,Armagh,http://www.armagh.gov.uk,-6.47512300000000,BT60 2TR,2015-02-03,fhrs_5_en-GB,5,,FHRS,0
400761,41 Main Street,Mountnorris,,Armagh,MOUNTNORRIS HOUSE,Hotel/bed & breakfast/guest house,7842,5,,724691,0,,54.25183200000000,300997,803,ehealth@armagh.gov.uk,Armagh,http://www.armagh.gov.uk,-6.47329400000000,BT60 2TS,2014-01-23,fhrs_5_en-GB,5,,FHRS,0
400762,"9 Mallview Terrace, The Mall West",,,,MR CHIPS,Takeaway/sandwich shop,7844,5,,724783,0,,54.34748700000000,301571,803,ehealth@armagh.gov.uk,Armagh,http://www.armagh.gov.uk,-6.65006700000000,BT61 9AN,2014-01-27,fhrs_5_en-GB,5,,FHRS,5
400763,,,,,MR PETER HUGHES,Retailers - other,4613,0,,724591,0,,,300480,803,ehealth@armagh.gov.uk,Armagh,http://www.armagh.gov.uk,,,2014-02-12,fhrs_5_en-GB,5,,FHRS,0
400764,2 Cathedral Road,,Armagh,,MR RAYMOND POLLOCK (SHAMBLES),Retailers - other,4613,0,,724522,0,,54.35145000000000,300039,803,ehealth@armagh.gov.uk,Armagh,http://www.armagh.gov.uk,-6.65821200000000,BT61 7QX,2014-01-24,fhrs_5_en-GB,5,,FHRS,0
400765,,,,,MR SWEETS,Retailers - other,4613,0,,724981,5,,,302325,803,ehealth@armagh.gov.uk,Armagh,http://www.armagh.gov.uk,,,2014-09-08,fhrs_5_en-GB,5,,FHRS,5
400766,92 Main Street,Coolmillish,Markethill,Armagh,MULDREW'S BUTCHERS,Manufacturers/packers,7839,5,,724653,10,,54.29866300000000,300803,803,ehealth@armagh.gov.uk,Armagh,http://www.armagh.gov.uk,-6.52113100000000,BT60 1PL,2014-05-02,fhrs_4_en-GB,4,,FHRS,5
400767,46 Mullavilly Road,,Craigavon,,MULLAVILLY PRIMARY SCHOOL,School/college/university,7845,0,,724638,0,,54.37244900000000,300706,803,ehealth@armagh.gov.uk,Armagh,http://www.armagh.gov.uk,-6.44579900000000,BT62 2LX,2013-05-28,fhrs_5_en-GB,5,,FHRS,5
400768,71 Loughgall Road,Armagh,,Armagh,MULLINURE HOSPITAL WARD KITCHENS,Hospitals/Childcare/Caring Premises,5,0,,724527,0,,54.36160300000000,300051,803,ehealth@armagh.gov.uk,Armagh,http://www.armagh.gov.uk,-6.65432700000000,BT61 7NQ,2014-11-06,fhrs_5_en-GB,5,,FHRS,0
400769,Christian Brothers' Primary School Keady Road,,Armagh,,Naiscoil Na Mbraithe Criostai,Other catering premises,7841,5,,724969,0,,54.34213700000000,302291,803,ehealth@armagh.gov.uk,Armagh,http://www.armagh.gov.uk,-6.66019200000000,BT60 4AB,2014-05-21,fhrs_5_en-GB,5,,FHRS,0
400770,60 Ballymacnab Road,Foley,Tassagh,Armagh,Naiscoil Shliabh Fuait,Other catering premises,7841,10,,725093,5,,54.28213600000000,302551,803,ehealth@armagh.gov.uk,Armagh,http://www.armagh.gov.uk,-6.62393900000000,BT60 2QS,2013-11-26,fhrs_4_en-GB,4,,FHRS,5
400771,81 Killylea Road,Ballyrea,Armagh,,NAVAN CENTRE AND FORT,Restaurant/Cafe/Canteen,1,5,,724904,5,,54.34483000000000,302161,803,ehealth@armagh.gov.uk,Armagh,http://www.armagh.gov.uk,-6.69193600000000,BT60 4LD,2013-05-29,fhrs_5_en-GB,5,,FHRS,5
400772,17-19 Market Street,Corporation,Armagh,,NEW LOOK,Retailers - other,4613,,,724789,,,54.34779100000000,301645,803,ehealth@armagh.gov.uk,Armagh,http://www.armagh.gov.uk,-6.65322500000000,BT61 7BW,2014-04-17,fhrs_exempt_en-GB,Exempt,,FHRS,
400773,25 Main Street,Rich Hill Or Legacorry,Armagh,,NIBBLERS TRADITIONAL FISH AND CHIPS,Takeaway/sandwich shop,7844,5,,724699,0,,54.37195300000000,301034,803,ehealth@armagh.gov.uk,Armagh,http://www.armagh.gov.uk,-6.55036600000000,BT61 9PJ,2014-05-08,fhrs_5_en-GB,5,,FHRS,5
400774,,,,,Nippy Chippy,Mobile caterer,7846,20,,725207,15,,,601975,803,ehealth@armagh.gov.uk,Armagh,http://www.armagh.gov.uk,,,2014-12-05,fhrs_0_en-GB,0,,FHRS,20
400775,1 Kinelowen Street,Crossmore,Keady,Armagh,O MOUCHAIN,Pub/bar/nightclub,7843,0,,724874,0,,54.24924900000000,302032,803,ehealth@armagh.gov.uk,Armagh,http://www.armagh.gov.uk,-6.70472100000000,BT60 3ST,2012-04-13,fhrs_5_en-GB,5,,FHRS,0
400776,3-4 Victoria Grove,Corporation,Armagh,,OAKLANDS,Hospitals/Childcare/Caring Premises,5,5,,724731,10,,54.34961700000000,301202,803,ehealth@armagh.gov.uk,Armagh,http://www.armagh.gov.uk,-6.64213900000000,BT61 9DE,2014-05-13,fhrs_4_en-GB,4,,FHRS,5
400777,The Market Place Theatre And Arts Centre Market Street,Corporation,Armagh,,Ocs Group Uk Ltd,Restaurant/Cafe/Canteen,1,5,,725180,0,,54.34779100000000,302735,803,ehealth@armagh.gov.uk,Armagh,http://www.armagh.gov.uk,-6.65322500000000,BT61 7BW,2014-08-14,fhrs_4_en-GB,4,,FHRS,10
400778,96 & 97 Callan Bridge Park,Legarhill,Armagh,,O'fiaich Play 2 Day,Other catering premises,7841,5,,725175,0,,54.35064100000000,302724,803,ehealth@armagh.gov.uk,Armagh,http://www.armagh.gov.uk,-6.67280300000000,BT60 4BT,2014-09-24,fhrs_5_en-GB,5,,FHRS,0
400779,96-97 Callanbridge Park,Armagh,Armagh,,O'FIAICH PLAYGROUP,Other catering premises,7841,0,,724933,5,,54.35064100000000,302220,803,ehealth@armagh.gov.uk,Armagh,http://www.armagh.gov.uk,-6.67280300000000,BT60 4BT,2014-03-24,fhrs_5_en-GB,5,,FHRS,0
400780,90 Main Street,,Markethill,Armagh,Oh Krumbs,Restaurant/Cafe/Canteen,1,10,,725194,10,,54.29866300000000,302754,803,ehealth@armagh.gov.uk,Armagh,http://www.armagh.gov.uk,-6.52113100000000,BT60 1PL,2014-10-16,fhrs_2_en-GB,2,,FHRS,15
400781,1 Moy Road,Corporation,Armagh,,O'KANES SUPERSTORE LTD,Retailers - other,4613,5,,724533,10,,54.35519200000000,300061,803,ehealth@armagh.gov.uk,Armagh,http://www.armagh.gov.uk,-6.65705900000000,BT61 7LY,2014-10-22,fhrs_4_en-GB,4,,FHRS,5
400782,51 Thomas Street,Armagh,,Armagh,OLIVER'S FRUIT SHOP,Retailers - other,4613,5,,724580,5,,54.34647900000000,300448,803,ehealth@armagh.gov.uk,Armagh,http://www.armagh.gov.uk,-6.65397600000000,BT61 7QB,2012-12-11,fhrs_5_en-GB,5,,FHRS,5
400783,15 Church Street,Tullynacross,Newry,,O'malley's Farm Shop,Retailers - other,4613,5,,725190,5,,54.29224900000000,302747,803,ehealth@armagh.gov.uk,Armagh,http://www.armagh.gov.uk,-6.37530000000000,BT35 6SW,2014-09-04,fhrs_5_en-GB,5,,FHRS,5
400784,,,,,Orchard Cakes,Other catering premises,7841,0,,725115,0,,,302599,803,ehealth@armagh.gov.uk,Armagh,http://www.armagh.gov.uk,,,2013-10-14,fhrs_5_en-GB,5,,FHRS,0
400785,65 Blackisland Road,,Craigavon,,ORCHARD COUNTY PRIMARY SCHOOL,School/college/university,7845,0,,724797,0,,54.46199000000000,301753,803,ehealth@armagh.gov.uk,Armagh,http://www.armagh.gov.uk,-6.61124600000000,BT62 1NH,2015-01-12,fhrs_5_en-GB,5,,FHRS,0
400786,76 Mullanasilla Road,,Armagh,,ORCHARD HOUSE,Hotel/bed & breakfast/guest house,7842,0,,724766,0,,54.36865700000000,301464,803,ehealth@armagh.gov.uk,Armagh,http://www.armagh.gov.uk,-6.58145600000000,BT61 9HN,2014-02-24,fhrs_5_en-GB,5,,FHRS,0
400787,12a Rectory Close,,Armagh,,Orchard House (supported Livng Facility),Hospitals/Childcare/Caring Premises,5,5,,724795,5,,54.40956800000000,301743,803,ehealth@armagh.gov.uk,Armagh,http://www.armagh.gov.uk,-6.60579500000000,BT61 8NA,2015-01-26,fhrs_5_en-GB,5,,FHRS,0
400788,14 Ballyhagan Road,Annaghugh,Loughgall,Armagh,Orchard Pre-school,Other catering premises,7841,5,,725130,0,,54.40575500000000,302618,803,ehealth@armagh.gov.uk,Armagh,http://www.armagh.gov.uk,-6.56788500000000,BT61 8PX,2014-11-07,fhrs_5_en-GB,5,,FHRS,5
400789,Unit 1 Ring Road Shopping Centre Irish Street,,Armagh,,ORIENT EXPRESS,Takeaway/sandwich shop,7844,10,,724777,10,,54.34438700000000,301536,803,ehealth@armagh.gov.uk,Armagh,http://www.armagh.gov.uk,-6.65730400000000,BT61 7EP,2014-10-06,fhrs_3_en-GB,3,,FHRS,10
400790,227 Newtownhamilton Road,Ballymacanab,Armagh,Armagh,O'tooles Bar And Restaurant,Restaurant/Cafe/Canteen,1,5,,731377,10,,54.28358300000000,302785,803,ehealth@armagh.gov.uk,Armagh,http://www.armagh.gov.uk,-6.63357900000000,BT60 2QR,2015-01-08,fhrs_3_en-GB,3,,FHRS,10
400791,91 Derrynoose Road,Drummeland,Keady,Armagh,OUR LADY'S & ST MOCHUA'S PRIMARY SCHOOL,School/college/university,7845,5,,724775,0,,54.22855800000000,301530,803,ehealth@armagh.gov.uk,Armagh,http://www.armagh.gov.uk,-6.77603000000000,BT60 3EZ,2015-01-21,fhrs_5_en-GB,5,,FHRS,5
400792,12 Milltown Road,,Dungannon,,OUR LADY'S PRIMARY SCHOOL,School/college/university,7845,0,,724785,0,,54.39400400000000,301576,803,ehealth@armagh.gov.uk,Armagh,http://www.armagh.gov.uk,-6.74989200000000,BT71 7NJ,2013-06-04,fhrs_5_en-GB,5,,FHRS,0
400793,12 Bridge Street,Crossdened,Keady,Armagh,P J MORGAN AND SONS,Manufacturers/packers,7839,0,,724608,0,,54.24828000000000,300533,803,ehealth@armagh.gov.uk,Armagh,http://www.armagh.gov.uk,-6.70479800000000,BT60 3SY,2013-02-05,fhrs_5_en-GB,5,,FHRS,5
400794,10 Lower English Street,Corporation,Armagh,,P LEONARD,Manufacturers/packers,7839,,,724672,,,54.35144800000000,300892,803,ehealth@armagh.gov.uk,Armagh,http://www.armagh.gov.uk,-6.65564400000000,BT61 7LJ,2014-11-12,fhrs_3_en-GB,3,,FHRS,
400795,,,,,PAPAS,Retailers - other,4613,0,,724956,0,,,302264,803,ehealth@armagh.gov.uk,Armagh,http://www.armagh.gov.uk,,,2013-12-11,fhrs_5_en-GB,5,,FHRS,0
400796,3 Maddan Road,Tamlaght,Armagh,,"Patricia's Village, Farmshop Nursery And Garden Centre",Retailers - other,4613,,,725042,,,54.29052300000000,302456,803,ehealth@armagh.gov.uk,Armagh,http://www.armagh.gov.uk,-6.77248800000000,BT60 3LN,2012-09-27,fhrs_exempt_en-GB,Exempt,,FHRS,
400797,36 Scotch Street,Corporation,Armagh,,PATRICK'S FOLD,Hotel/bed & breakfast/guest house,7842,10,,724577,0,,54.34672500000000,300379,803,ehealth@armagh.gov.uk,Armagh,http://www.armagh.gov.uk,-6.65186100000000,BT61 7HB,2011-07-15,fhrs_4_en-GB,4,,FHRS,0
400798,8 Clay Road,Cargaclogher,Keady,Armagh,PAT'S DINER,Restaurant/Cafe/Canteen,1,10,,724794,5,,54.24327900000000,301700,803,ehealth@armagh.gov.uk,Armagh,http://www.armagh.gov.uk,-6.70427900000000,BT60 3QY,2014-11-27,fhrs_4_en-GB,4,,FHRS,5
400799,6 Dalton Road,Corporation,Armagh,,PEARSE OG GFC,Pub/bar/nightclub,7843,5,,724569,5,,54.34159400000000,300322,803,ehealth@armagh.gov.uk,Armagh,http://www.armagh.gov.uk,-6.66228500000000,BT60 4AE,2014-03-27,fhrs_5_en-GB,5,,FHRS,5
400800,8 Railway Street,Tullynacross,Newry,,Petty Sessions,Restaurant/Cafe/Canteen,1,10,,725187,5,,54.29285700000000,302743,803,ehealth@armagh.gov.uk,Armagh,http://www.armagh.gov.uk,-6.37375600000000,BT35 6SN,2014-09-05,fhrs_4_en-GB,4,,FHRS,5
400801,40 Kinelowen Street,Crossmore,Keady,Armagh,PIZZA MIA,Takeaway/sandwich shop,7844,5,,724899,5,,54.24946600000000,302137,803,ehealth@armagh.gov.uk,Armagh,http://www.armagh.gov.uk,-6.70393200000000,BT60 3SU,2014-07-17,fhrs_4_en-GB,4,,FHRS,10
400802,78 Market Street,Ballymore,Craigavon,,Pizza Nova,Takeaway/sandwich shop,7844,20,,724977,5,,54.35312300000000,302309,803,ehealth@armagh.gov.uk,Armagh,http://www.armagh.gov.uk,-6.41266000000000,BT62 2BP,2013-07-23,fhrs_1_en-GB,1,,FHRS,10
400803,143 - 147 Railway Street,,,,PLATFORM 1 BAR AND OFF-SALES,Pub/bar/nightclub,7843,0,,724787,0,,54.35580200000000,301581,803,ehealth@armagh.gov.uk,Armagh,http://www.armagh.gov.uk,-6.65696300000000,BT61 7HT,2015-01-14,fhrs_5_en-GB,5,,FHRS,0
400804,69a Tullysaran Road,Tullynichol,Armagh,,POL MEATS,Manufacturers/packers,7839,10,,724893,5,,54.37851300000000,302101,803,ehealth@armagh.gov.uk,Armagh,http://www.armagh.gov.uk,-6.71121000000000,BT61 8HE,2014-09-16,fhrs_3_en-GB,3,,FHRS,10
400805,100 Railway Street,Corporation,Armagh,,Polska Hurtownia,Retailers - other,4613,5,,725117,10,,54.35345400000000,302601,803,ehealth@armagh.gov.uk,Armagh,http://www.armagh.gov.uk,-6.65505500000000,BT61 7HP,2013-10-18,fhrs_4_en-GB,4,,FHRS,0
400806,100 Railway Street,Corporation,Armagh,,Polska Imprezownia,Pub/bar/nightclub,7843,0,,725116,5,,54.35345400000000,302600,803,ehealth@armagh.gov.uk,Armagh,http://www.armagh.gov.uk,-6.65505500000000,BT61 7HP,2013-10-24,fhrs_5_en-GB,5,,FHRS,0
400807,34 Market Street,Ballymore,Craigavon,,POONS WELCOME,Takeaway/sandwich shop,7844,10,,724896,0,,54.35368400000000,302126,803,ehealth@armagh.gov.uk,Armagh,http://www.armagh.gov.uk,-6.41362200000000,BT62 2BW,2013-03-14,fhrs_4_en-GB,4,,FHRS,10
400808,6 Drumadd Road,Drumadd,Armagh,,POPPY SMITHS COFFEE SHOP,Restaurant/Cafe/Canteen,1,10,,724781,10,,54.35162200000000,301559,803,ehealth@armagh.gov.uk,Armagh,http://www.armagh.gov.uk,-6.63993500000000,BT61 9EA,2014-02-06,fhrs_3_en-GB,3,,FHRS,5
400809,Unit 6 Moy Road,Corporation,Armagh,Armagh,Poundworld Retail Ltd,Retailers - other,4613,0,,725201,0,,54.38463000000000,302769,803,ehealth@armagh.gov.uk,Armagh,http://www.armagh.gov.uk,-6.66890500000000,BT61 8DB,2014-11-20,fhrs_5_en-GB,5,,FHRS,5
400810,16 Church Street,,Newry,,POYNTZPASS COMMUNITY PLAYGROUP,Other catering premises,7841,0,,724927,0,,54.29592100000000,302207,803,ehealth@armagh.gov.uk,Armagh,http://www.armagh.gov.uk,-6.37377300000000,BT35 6SL,2014-05-14,fhrs_5_en-GB,5,,FHRS,0
400811,1-3 Railway Street,Tullynacross,Newry,,Poyntzpass Pharmacy,Retailers - other,4613,,,725059,,,54.29285700000000,302481,803,ehealth@armagh.gov.uk,Armagh,http://www.armagh.gov.uk,-6.37375600000000,BT35 6SN,2013-01-17,fhrs_exempt_en-GB,Exempt,,FHRS,
400812,1 Tandragee Road,Brannock,Newry,,POYNTZPASS PRIMARY SCHOOL MEALS KITCHEN,School/college/university,7845,5,,724625,0,,54.29592100000000,300642,803,ehealth@armagh.gov.uk,Armagh,http://www.armagh.gov.uk,-6.37377300000000,BT35 6SL,2015-01-06,fhrs_5_en-GB,5,,FHRS,5
400813,7 Tandragee Road,,Newry,,POYNTZPASS RESIDENTIAL HOME,Hospitals/Childcare/Caring Premises,5,5,,724960,10,,54.29592100000000,302271,803,ehealth@armagh.gov.uk,Armagh,http://www.armagh.gov.uk,-6.37377300000000,BT35 6SL,2014-05-12,fhrs_4_en-GB,4,,FHRS,0
400814,Apple Mews Desart Lane Lower,,,,Priory Group Apple Mews Bungalows,Hospitals/Childcare/Caring Premises,5,5,,725064,5,,54.35366000000000,302489,803,ehealth@armagh.gov.uk,Armagh,http://www.armagh.gov.uk,-6.66630700000000,BT61 8AR,2014-08-29,fhrs_5_en-GB,5,,FHRS,0
400815,8 - 10 Davis Street,,Armagh,,QUIET MAN,Pub/bar/nightclub,7843,0,,724610,5,,54.24738100000000,300552,803,ehealth@armagh.gov.uk,Armagh,http://www.armagh.gov.uk,-6.70560800000000,BT60 3RS,2012-06-01,fhrs_5_en-GB,5,,FHRS,5
400816,15 Lower English Street,Corporation,Armagh,,RAFFLES,Retailers - other,4613,5,,724674,5,,54.35144800000000,300895,803,ehealth@armagh.gov.uk,Armagh,http://www.armagh.gov.uk,-6.65564400000000,BT61 7LJ,2013-06-13,fhrs_5_en-GB,5,,FHRS,0
400817,21 Railway Street,Corporation,Armagh,,RAILWAY STREET NURSERY SCHOOL,School/college/university,7845,0,,724531,0,,54.35345400000000,300056,803,ehealth@armagh.gov.uk,Armagh,http://www.armagh.gov.uk,-6.65505500000000,BT61 7HP,2014-11-13,fhrs_5_en-GB,5,,FHRS,5
400818,49a Railway Street,Corporation,Armagh,,RAILWAY STREET SERVICE STN,Retailers - other,4613,5,,724532,5,,54.35345400000000,300057,803,ehealth@armagh.gov.uk,Armagh,http://www.armagh.gov.uk,-6.65505500000000,BT61 7HP,2013-07-25,fhrs_5_en-GB,5,,FHRS,0
400819,13 Upper English Street,Corporation,,Armagh,RAINBOW RESTAURANT,Restaurant/Cafe/Canteen,1,5,,724681,10,,54.34854000000000,300937,803,ehealth@armagh.gov.uk,Armagh,http://www.armagh.gov.uk,-6.65350900000000,BT61 7BH,2013-11-08,fhrs_4_en-GB,4,,FHRS,5
400820,30b Seaboughan Road,Carricklane,Markethill,Armagh,RAINBOW STOP PLAYGROUP,Other catering premises,7841,5,,724921,0,,54.29189000000000,302199,803,ehealth@armagh.gov.uk,Armagh,http://www.armagh.gov.uk,-6.53227800000000,BT60 1SD,2013-09-05,fhrs_5_en-GB,5,,FHRS,0
400821,96 Mullavilly Road,Mullavilly,Craigavon,,RAPID INTERNATIONAL LTD,Restaurant/Cafe/Canteen,1,5,,724966,5,,54.37244900000000,302281,803,ehealth@armagh.gov.uk,Armagh,http://www.armagh.gov.uk,-6.44579900000000,BT62 2LX,2014-07-03,fhrs_5_en-GB,5,,FHRS,0
400822,118 Portadown Road,Mullavilly,Craigavon,,RATHOWEN PRIVATE NURSING HOME,Hospitals/Childcare/Caring Premises,5,5,,724639,5,,54.37225900000000,300707,803,ehealth@armagh.gov.uk,Armagh,http://www.armagh.gov.uk,-6.43458800000000,BT62 2JX,2013-07-26,fhrs_5_en-GB,5,,FHRS,5
400823,70 Breezemount,Drumorgan,Hamiltonsbawn,Armagh,Rebecca's Cup Cakes,Manufacturers/packers,7839,0,,725040,0,,54.34298800000000,302454,803,ehealth@armagh.gov.uk,Armagh,http://www.armagh.gov.uk,-6.54445100000000,BT61 9SB,2012-11-16,fhrs_5_en-GB,5,,FHRS,0
400824,117 Red Lion Road,Ballytrue,,Armagh,RED LION FILLING STATION,Retailers - other,4613,10,,724646,5,,54.41412200000000,300750,803,ehealth@armagh.gov.uk,Armagh,http://www.armagh.gov.uk,-6.52996200000000,BT61 8NU,2014-02-19,fhrs_4_en-GB,4,,FHRS,5
400825,27-31 Ogle Street,Armagh,,Armagh,RED NEDS,Pub/bar/nightclub,7843,0,,724572,0,,54.34559900000000,300347,803,ehealth@armagh.gov.uk,Armagh,http://www.armagh.gov.uk,-6.65646500000000,BT61 7EW,2012-01-13,fhrs_5_en-GB,5,,FHRS,5
400826,82 Cloveneden Road,Cloven Eden,Loughgall,Armagh,REUANNE HOUSE B AND B,Hotel/bed & breakfast/guest house,7842,0,,724880,0,,54.42196400000000,302062,803,ehealth@armagh.gov.uk,Armagh,http://www.armagh.gov.uk,-6.62679000000000,BT61 8LB,2014-06-16,fhrs_5_en-GB,5,,FHRS,0
400827,12-14 Church Street,,Newry,,RICE'S HOTEL,Pub/bar/nightclub,7843,10,,724815,5,,54.29224900000000,301834,803,ehealth@armagh.gov.uk,Armagh,http://www.armagh.gov.uk,-6.37530000000000,BT35 6SW,2014-05-14,fhrs_3_en-GB,3,,FHRS,10
400828,9 Victoria Street,Crossdened,Keady,Armagh,RICE'S SUPERMARKET,Retailers - other,4613,5,,724606,0,,54.24712000000000,300528,803,ehealth@armagh.gov.uk,Armagh,http://www.armagh.gov.uk,-6.70382100000000,BT60 3SL,2014-03-05,fhrs_5_en-GB,5,,FHRS,5
400829,4 The New Line,Rich Hill Or Legacorry,Richhill,Armagh,RICHHILL HOME BAKERY,Manufacturers/packers,7839,5,,724701,5,,54.37026400000000,301049,803,ehealth@armagh.gov.uk,Armagh,http://www.armagh.gov.uk,-6.54964100000000,BT61 9QR,2014-07-03,fhrs_4_en-GB,4,,FHRS,10
400830,1 Maynooth Road,Rich Hill Or Legacorry,Richhill,Armagh,RICHHILL PHARMACY,Retailers - other,4613,,,724700,,,54.36856800000000,301044,803,ehealth@armagh.gov.uk,Armagh,http://www.armagh.gov.uk,-6.55500900000000,BT61 9PE,2012-11-26,fhrs_exempt_en-GB,Exempt,,FHRS,
400831,The New Line,,Armagh,,RICHHILL RECREATION CENTRE,Restaurant/Cafe/Canteen,1,5,,724914,5,,54.37026400000000,302183,803,ehealth@armagh.gov.uk,Armagh,http://www.armagh.gov.uk,-6.54964100000000,BT61 9QR,2014-03-11,fhrs_5_en-GB,5,,FHRS,5
400832,,,,,RIVERSIDE FARM FRESH,Retailers - other,4613,0,,724953,0,,,302259,803,ehealth@armagh.gov.uk,Armagh,http://www.armagh.gov.uk,,,2012-05-01,fhrs_5_en-GB,5,,FHRS,0
400833,36 Thomas Street,Corporation,Armagh,,ROCKS NEWSAGENTS,Retailers - other,4613,,,724986,,,54.34647900000000,302344,803,ehealth@armagh.gov.uk,Armagh,http://www.armagh.gov.uk,-6.65397600000000,BT61 7QB,2015-02-05,fhrs_exempt_en-GB,Exempt,,FHRS,
400834,49 Church Street,,Newry,,ROYAL BRITISH LEGION,Pub/bar/nightclub,7843,0,,724687,5,,54.29224900000000,300981,803,ehealth@armagh.gov.uk,Armagh,http://www.armagh.gov.uk,-6.37530000000000,BT35 6SW,2012-05-21,fhrs_5_en-GB,5,,FHRS,0
400835,2 Market Street,,Craigavon,,RUMBLES,Takeaway/sandwich shop,7844,5,,724710,0,,54.35312300000000,301086,803,ehealth@armagh.gov.uk,Armagh,http://www.armagh.gov.uk,-6.41266000000000,BT62 2BP,2013-05-09,fhrs_4_en-GB,4,,FHRS,10
400836,2 Upper English Street,Corporation,,Armagh,RUMOUR ESPRESSO BAR,Restaurant/Cafe/Canteen,1,5,,724872,5,,54.34854000000000,302030,803,ehealth@armagh.gov.uk,Armagh,http://www.armagh.gov.uk,-6.65350900000000,BT61 7BH,2013-01-30,fhrs_5_en-GB,5,,FHRS,5
400837,2 Monaghan Road,,Armagh,,S D MULLAN LTD,Retailers - other,4613,5,,724793,0,,54.33870100000000,301698,803,ehealth@armagh.gov.uk,Armagh,http://www.armagh.gov.uk,-6.66387000000000,BT60 4DA,2013-09-06,fhrs_5_en-GB,5,,FHRS,5
400838,Sainsbury'S Supermarket Ltd The Mall,Armagh,,Armagh,SAINSBURY'S SUPERMARKET LTD,Retailers - other,4613,0,,724728,5,,54.34816500000000,301191,803,ehealth@armagh.gov.uk,Armagh,http://www.armagh.gov.uk,-6.65129100000000,BT61 9AJ,2014-11-20,fhrs_5_en-GB,5,,FHRS,5
400839,Saints And Scholars Primary School Killuney Park Road,Armagh,,Armagh,SAINTS AND SCHOLARS PRIMARY SCHOOL,School/college/university,7845,5,,724666,0,,54.35472300000000,300868,803,ehealth@armagh.gov.uk,Armagh,http://www.armagh.gov.uk,-6.62894200000000,BT61 9HG,2014-06-02,fhrs_5_en-GB,5,,FHRS,5
400840,91 Markethill Road,Lisavague,Craigavon,,SALLY MCNALLYS,Restaurant/Cafe/Canteen,1,10,,725008,10,,54.38348000000000,302388,803,ehealth@armagh.gov.uk,Armagh,http://www.armagh.gov.uk,-6.45826600000000,BT62 3SH,2013-09-26,fhrs_3_en-GB,3,,FHRS,5
400841,7 Thomas Street,Corporation,Armagh,,SCOOPY'S,Retailers - other,4613,0,,724923,0,,54.34728500000000,302201,803,ehealth@armagh.gov.uk,Armagh,http://www.armagh.gov.uk,-6.65374900000000,BT61 7PX,2012-12-04,fhrs_5_en-GB,5,,FHRS,0
400842,4b Umgola Road,,Armagh,,SCOTWELL HOUSE,Other catering premises,7841,5,,724786,0,,54.34189700000000,301579,803,ehealth@armagh.gov.uk,Armagh,http://www.armagh.gov.uk,-6.66931800000000,BT60 4DJ,2014-06-30,fhrs_5_en-GB,5,,FHRS,5
400843,57a Lisanally Lane,Corporation,Armagh,,SCRIBBLERS DAY NURSERY,Other catering premises,7841,5,,724825,0,,54.35525200000000,301915,803,ehealth@armagh.gov.uk,Armagh,http://www.armagh.gov.uk,-6.65110500000000,BT61 7HF,2014-06-23,fhrs_5_en-GB,5,,FHRS,5
400844,283 Newtownhamilton Road,Farranamucklagh,Armagh,,SEAMUS LAPPIN,Retailers - other,4613,5,,725018,0,,54.26607500000000,302401,803,ehealth@armagh.gov.uk,Armagh,http://www.armagh.gov.uk,-6.62584000000000,BT60 2RE,2014-03-25,fhrs_5_en-GB,5,,FHRS,5
400845,139 Cladymore Road,,Armagh,,SEAN SOUTH GAELIC FOOTBALL CLUB,Pub/bar/nightclub,7843,10,,724622,0,,54.26056900000000,300625,803,ehealth@armagh.gov.uk,Armagh,http://www.armagh.gov.uk,-6.54559200000000,BT60 2EW,2011-01-02,fhrs_4_en-GB,4,,FHRS,0
400846,3 Charlemont Place,Corporation,Armagh,,SELB,Restaurant/Cafe/Canteen,1,0,,724725,0,,54.34987800000000,301174,803,ehealth@armagh.gov.uk,Armagh,http://www.armagh.gov.uk,-6.65020400000000,BT61 9AX,2013-06-12,fhrs_5_en-GB,5,,FHRS,5
400847,Unit 2 The Mall Shopping Centre Mall West,Corporation,Armagh,,SEMI-CHEM,Retailers - other,4613,,,724729,,,54.34816500000000,301198,803,ehealth@armagh.gov.uk,Armagh,http://www.armagh.gov.uk,-6.65129100000000,BT61 9AJ,2013-08-01,fhrs_exempt_en-GB,Exempt,,FHRS,
400848,,,,,Serendipity,Other catering premises,7841,0,,725135,0,,,302627,803,ehealth@armagh.gov.uk,Armagh,http://www.armagh.gov.uk,,,2013-11-01,fhrs_5_en-GB,5,,FHRS,0
400849,6 Cathedral Road,Corporation,Armagh,,Seven Hills Coffee House,Restaurant/Cafe/Canteen,1,5,,725166,5,,54.35145000000000,302711,803,ehealth@armagh.gov.uk,Armagh,http://www.armagh.gov.uk,-6.65821200000000,BT61 7QX,2014-06-11,fhrs_5_en-GB,5,,FHRS,0
400850,39c Lower English Street,Corporation,Armagh,,SHAPLA,Takeaway/sandwich shop,7844,5,,724742,10,,54.35144800000000,301285,803,ehealth@armagh.gov.uk,Armagh,http://www.armagh.gov.uk,-6.65564400000000,BT61 7LJ,2014-06-26,fhrs_4_en-GB,4,,FHRS,5
400851,Cladymilltown Road,Clady Beg,Armagh,,Simply Irresistible (markethill Market),Restaurant/Cafe/Canteen,1,5,,725121,5,,54.24549600000000,302605,803,ehealth@armagh.gov.uk,Armagh,http://www.armagh.gov.uk,-6.55779700000000,BT60 2HF,2013-10-22,fhrs_5_en-GB,5,,FHRS,5
400852,2 Station Road,,Craigavon,,Sinton's At The Bridge,Restaurant/Cafe/Canteen,1,0,,725051,0,,54.33087200000000,302469,803,ehealth@armagh.gov.uk,Armagh,http://www.armagh.gov.uk,-6.37051800000000,BT63 6JY,2013-01-31,fhrs_5_en-GB,5,,FHRS,0
400853,89 Moy Road Tullygoonigan Ind. Est.,,,Armagh,SNOWDROPS DAY NURSERY,Other catering premises,7841,5,,724540,0,,54.39496300000000,300105,803,ehealth@armagh.gov.uk,Armagh,http://www.armagh.gov.uk,-6.66901600000000,BT61 8DR,2013-11-07,fhrs_5_en-GB,5,,FHRS,0
400854,,,,,Somethin' Sweet,Other catering premises,7841,5,,725204,0,,,302775,803,ehealth@armagh.gov.uk,Armagh,http://www.armagh.gov.uk,,,2014-11-07,fhrs_5_en-GB,5,,FHRS,0
400855,63 Kinelowen Street,,,Armagh,SPAR (KEADY),Retailers - other,4613,10,,724616,5,,54.25121300000000,300594,803,ehealth@armagh.gov.uk,Armagh,http://www.armagh.gov.uk,-6.70266500000000,BT60 3TL,2013-10-07,fhrs_4_en-GB,4,,FHRS,5
400856,26 Main Street,Killylea,,Armagh,SPAR CONVENIENCE STORE (KILLYLEA),Retailers - other,4613,10,,724627,10,,54.34648500000000,300669,803,ehealth@armagh.gov.uk,Armagh,http://www.armagh.gov.uk,-6.77506400000000,BT60 4LW,2014-02-13,fhrs_4_en-GB,4,,FHRS,0
400857,20-24 Mill Street,,Craigavon,,SPAR TANDRAGEE,Retailers - other,4613,10,,724768,5,,54.35235600000000,301484,803,ehealth@armagh.gov.uk,Armagh,http://www.armagh.gov.uk,-6.65332200000000,BT61 7HN,2013-06-25,fhrs_3_en-GB,3,,FHRS,10
400858,5 Killylea Road,Armagh,,Armagh,ST BRIGID'S BOYS HIGH SCHOOL,School/college/university,7845,0,,724546,0,,54.34758200000000,300140,803,ehealth@armagh.gov.uk,Armagh,http://www.armagh.gov.uk,-6.66264400000000,BT60 4BR,2013-06-18,fhrs_5_en-GB,5,,FHRS,5
400859,2 Convent Road,Corporation,Armagh,,ST CATHERINES COLLEGE,School/college/university,7845,5,,724542,5,,54.35076000000000,300122,803,ehealth@armagh.gov.uk,Armagh,http://www.armagh.gov.uk,-6.66249500000000,BT60 4BG,2014-06-02,fhrs_5_en-GB,5,,FHRS,0
400860,37 Ballygassoon Road,Tullygoonigan,,Armagh,ST COLMCILLE'S SOCIAL CLUB,Pub/bar/nightclub,7843,0,,724554,5,,54.39299400000000,300188,803,ehealth@armagh.gov.uk,Armagh,http://www.armagh.gov.uk,-6.66076600000000,BT61 8DS,2014-02-17,fhrs_5_en-GB,5,,FHRS,5
400861,Maddan Row,,,Armagh,ST FRANCIS OF ASSISI,School/college/university,7845,5,,724886,0,,54.25060500000000,302081,803,ehealth@armagh.gov.uk,Armagh,http://www.armagh.gov.uk,-6.70882100000000,BT60 3TJ,2013-12-10,fhrs_5_en-GB,5,,FHRS,5
400862,164 Derryraine Road,Drumatee,Markethill,Armagh,ST JAMES' PRIMARY SCHOOL,School/college/university,7845,5,,724695,0,,54.31711900000000,301020,803,ehealth@armagh.gov.uk,Armagh,http://www.armagh.gov.uk,-6.53379300000000,BT60 1QF,2015-01-21,fhrs_5_en-GB,5,,FHRS,0
400863,89 Charlemont Road,,Dungannon,,ST JARLATHS PRIMARY SCHOOL,School/college/university,7845,5,,724555,5,,54.41494300000000,300193,803,ehealth@armagh.gov.uk,Armagh,http://www.armagh.gov.uk,-6.69780600000000,BT71 7HH,2013-11-28,fhrs_5_en-GB,5,,FHRS,0
400864,14 Rathtrillick Road,Middletown,Middletown,Armagh,ST JOHN'S PRIMARY SCHOOL,School/college/university,7845,0,,724746,0,,54.28685200000000,301296,803,ehealth@armagh.gov.uk,Armagh,http://www.armagh.gov.uk,-6.83537200000000,BT60 4HT,2014-04-08,fhrs_5_en-GB,5,,FHRS,5
400865,34 Chapel Street,,Newry,,ST JOSEPH & ST JAMES' PRIMARY SCHOOL,School/college/university,7845,0,,724685,0,,54.29441300000000,300972,803,ehealth@armagh.gov.uk,Armagh,http://www.armagh.gov.uk,-6.37523100000000,BT35 6SY,2013-02-11,fhrs_5_en-GB,5,,FHRS,5
400866,50 Farnaloy Road,Farnaloy,Armagh,,ST JOSEPH'S PRIMARY SCHOOL,School/college/university,7845,0,,724659,0,,54.28674800000000,300830,803,ehealth@armagh.gov.uk,Armagh,http://www.armagh.gov.uk,-6.74096700000000,BT60 3LR,2014-01-09,fhrs_5_en-GB,5,,FHRS,0
400867,71 Loughgall Road,Armagh,,Armagh,ST LUKE'S HOSPITAL WARD KITCHENS,Hospitals/Childcare/Caring Premises,5,0,,724528,0,,54.36160300000000,300052,803,ehealth@armagh.gov.uk,Armagh,http://www.armagh.gov.uk,-6.65432700000000,BT61 7NQ,2014-04-28,fhrs_5_en-GB,5,,FHRS,0
400868,7 Chapel Lane,,Armagh,,ST MALACHY'S PRIMARY SCHOOL,School/college/university,7845,0,,724567,0,,54.34638300000000,300292,803,ehealth@armagh.gov.uk,Armagh,http://www.armagh.gov.uk,-6.65587000000000,BT61 7EG,2015-01-15,fhrs_5_en-GB,5,,FHRS,5
400869,123 Granemore Road,Granemore,Armagh,,ST MARY'S PRIMARY SCHOOL,School/college/university,7845,0,,724611,0,,54.25266900000000,300562,803,ehealth@armagh.gov.uk,Armagh,http://www.armagh.gov.uk,-6.64959300000000,BT60 2NJ,2014-04-01,fhrs_5_en-GB,5,,FHRS,0
400870,The Square,Rich Hill Or Legacorry,Richhill,Armagh,St Matthew's Catering,Restaurant/Cafe/Canteen,1,5,,724703,0,,54.37199800000000,301055,803,ehealth@armagh.gov.uk,Armagh,http://www.armagh.gov.uk,-6.54885600000000,BT61 9PP,2014-01-17,fhrs_5_en-GB,5,,FHRS,0
400871,62 Cladymore Road,Clady More,Armagh,,ST MICHAEL'S PRIMARY SCHOOL,School/college/university,7845,5,,724647,0,,54.25811300000000,300756,803,ehealth@armagh.gov.uk,Armagh,http://www.armagh.gov.uk,-6.56628800000000,BT60 2EP,2014-06-17,fhrs_4_en-GB,4,,FHRS,10
400872,14 Ballyhagan Road,Annaghugh,Loughgall,Armagh,ST OLIVER PLUNKETT PRIMARY SCHOOL,School/college/university,7845,5,,724642,0,,54.40575500000000,300720,803,ehealth@armagh.gov.uk,Armagh,http://www.armagh.gov.uk,-6.56788500000000,BT61 8PX,2013-09-19,fhrs_5_en-GB,5,,FHRS,5
400873,45 Cathedral Road,,Armagh,,ST PATRICK'S GRAMMAR SCHOOL,School/college/university,7845,5,,724663,5,,54.35367800000000,300853,803,ehealth@armagh.gov.uk,Armagh,http://www.armagh.gov.uk,-6.65824700000000,BT61 7QZ,2014-01-08,fhrs_5_en-GB,5,,FHRS,5
400874,33 St Patrick'S Street,,Keady,Armagh,ST PATRICK'S HIGH SCHOOL,School/college/university,7845,5,,724618,5,,54.25059500000000,300617,803,ehealth@armagh.gov.uk,Armagh,http://www.armagh.gov.uk,-6.70454100000000,BT60 3TQ,2014-04-01,fhrs_5_en-GB,5,,FHRS,5
400875,20a Loughgall Road,,,Armagh,ST PATRICK'S PRIMARY SCHOOL,School/college/university,7845,0,,724524,5,,54.36121600000000,300046,803,ehealth@armagh.gov.uk,Armagh,http://www.armagh.gov.uk,-6.65746300000000,BT61 7NN,2011-12-06,fhrs_5_en-GB,5,,FHRS,5
400876,90 College Lands Road,Keenaghan,Dungannon,,ST PETER'S PRIMARY SCHOOL,School/college/university,7845,0,,724556,5,,54.43407900000000,300200,803,ehealth@armagh.gov.uk,Armagh,http://www.armagh.gov.uk,-6.66569800000000,BT71 6SW,2014-05-07,fhrs_5_en-GB,5,,FHRS,5
400877,90 College Lands Road,Keenaghan,Dungannon,,ST. PETER'S PLAYGROUP,Other catering premises,7841,0,,724936,0,,54.43407900000000,302224,803,ehealth@armagh.gov.uk,Armagh,http://www.armagh.gov.uk,-6.66569800000000,BT71 6SW,2014-03-25,fhrs_5_en-GB,5,,FHRS,0
400878,3 Lower English Street,Corporation,Armagh,,STATION BAR,Pub/bar/nightclub,7843,0,,724670,0,,54.35144800000000,300887,803,ehealth@armagh.gov.uk,Armagh,http://www.armagh.gov.uk,-6.65564400000000,BT61 7LJ,2014-07-01,fhrs_5_en-GB,5,,FHRS,0
400879,12 Station Road,Corporation,Armagh,,STATION ROAD RESOURCE CENTRE,Hospitals/Childcare/Caring Premises,5,0,,724525,0,,54.35826300000000,300047,803,ehealth@armagh.gov.uk,Armagh,http://www.armagh.gov.uk,-6.65532900000000,BT61 7NP,2014-10-06,fhrs_5_en-GB,5,,FHRS,0
400880,,,,,Street Dogs Ltd,Mobile caterer,7846,5,,725162,5,,,302705,803,ehealth@armagh.gov.uk,Armagh,http://www.armagh.gov.uk,,,2014-04-11,fhrs_5_en-GB,5,,FHRS,5
400881,59 Scotch Street,Corporation,Armagh,,SUBWAY,Restaurant/Cafe/Canteen,1,5,,724870,0,,54.34732900000000,302027,803,ehealth@armagh.gov.uk,Armagh,http://www.armagh.gov.uk,-6.65288700000000,BT61 7DF,2013-09-12,fhrs_5_en-GB,5,,FHRS,5
400882,,,,,Sugar By Shauna,Other catering premises,7841,5,,725123,0,,,302607,803,ehealth@armagh.gov.uk,Armagh,http://www.armagh.gov.uk,,,2013-09-24,fhrs_5_en-GB,5,,FHRS,0
400883,12 Portadown Road,Mullynure,Richhill,Armagh,SUNNYMEAD RESIDENTIAL HOME,Hospitals/Childcare/Caring Premises,5,0,,724680,0,,54.35385100000000,300916,803,ehealth@armagh.gov.uk,Armagh,http://www.armagh.gov.uk,-6.63678500000000,BT61 9EE,2014-02-24,fhrs_5_en-GB,5,,FHRS,0
400884,1 Market Street,Corporation,Armagh,,SUPERDRUG STORES PLC,Retailers - other,4613,,,724827,,,54.34779100000000,301921,803,ehealth@armagh.gov.uk,Armagh,http://www.armagh.gov.uk,-6.65322500000000,BT61 7BW,2012-11-20,fhrs_exempt_en-GB,Exempt,,FHRS,
400885,Unit 3 Ring Road Shopping Centre Irish Street,,Armagh,,Superfry,Takeaway/sandwich shop,7844,10,,725103,10,,54.34438700000000,302563,803,ehealth@armagh.gov.uk,Armagh,http://www.armagh.gov.uk,-6.65730400000000,BT61 7EP,2013-07-08,fhrs_3_en-GB,3,,FHRS,10
400886,18-20 Main Street,Rich Hill Or Legacorry,Richhill,Armagh,SUPERVALU,Retailers - other,4613,5,,724698,0,,54.37210600000000,301033,803,ehealth@armagh.gov.uk,Armagh,http://www.armagh.gov.uk,-6.55111400000000,BT61 9PW,2014-07-01,fhrs_5_en-GB,5,,FHRS,5
400887,13 Markethill Road,Derryallen,Craigavon,,Tandragee Golf Club And Bar,Pub/bar/nightclub,7843,0,,724714,0,,54.34957800000000,301133,803,ehealth@armagh.gov.uk,Armagh,http://www.armagh.gov.uk,-6.41431900000000,BT62 2ER,2014-04-17,fhrs_5_en-GB,5,,FHRS,0
400888,1a Church Street,Ballymore,Craigavon,,Tandragee Home Entertainment,Retailers - other,4613,,,725024,,,54.35583700000000,302415,803,ehealth@armagh.gov.uk,Armagh,http://www.armagh.gov.uk,-6.41617000000000,BT62 2AF,2014-06-16,fhrs_exempt_en-GB,Exempt,,FHRS,
400889,12 Armagh Road,,Craigavon,,TANDRAGEE JUNIOR HIGH SCHOOL,School/college/university,7845,0,,724705,0,,54.35636900000000,301062,803,ehealth@armagh.gov.uk,Armagh,http://www.armagh.gov.uk,-6.41831800000000,BT62 2AY,2013-06-03,fhrs_5_en-GB,5,,FHRS,0
400890,Tandragee Nursery Madden Road,,Craigavon,,TANDRAGEE NURSERY,Other catering premises,7841,0,,724780,0,,54.35369200000000,301554,803,ehealth@armagh.gov.uk,Armagh,http://www.armagh.gov.uk,-6.40743900000000,BT62 2DG,2014-03-19,fhrs_5_en-GB,5,,FHRS,0
400891,7 Portadown Road,,Craigavon,,TANDRAGEE PRIMARY SCHOOL,School/college/university,7845,0,,724715,0,,54.35652900000000,301143,803,ehealth@armagh.gov.uk,Armagh,http://www.armagh.gov.uk,-6.41480500000000,BT62 2BB,2014-05-08,fhrs_5_en-GB,5,,FHRS,5
400892,107 Dundrum Road,Dundrum,Armagh,,TASSAGH POST OFFICE,Retailers - other,4613,10,,724550,5,,54.25980800000000,300162,803,ehealth@armagh.gov.uk,Armagh,http://www.armagh.gov.uk,-6.66617800000000,BT60 2NG,2014-03-04,fhrs_3_en-GB,3,,FHRS,10
400893,25 Teagy Road,Teagy,Craigavon,,The Apple Cart,Retailers - other,4613,5,,725168,0,,54.45059700000000,302714,803,ehealth@armagh.gov.uk,Armagh,http://www.armagh.gov.uk,-6.56727600000000,BT62 1NJ,2014-05-23,fhrs_5_en-GB,5,,FHRS,0
400894,144 Derrycaw Road,Derrycaw,Dungannon,,THE ARGORY NATIONAL TRUST ENTERPRISES,Restaurant/Cafe/Canteen,1,10,,724557,5,,54.46252200000000,300205,803,ehealth@armagh.gov.uk,Armagh,http://www.armagh.gov.uk,-6.65181800000000,BT71 6NA,2012-04-26,fhrs_3_en-GB,3,,FHRS,10
400895,56-58 Market Street,,Craigavon,,THE BOUNTY,Takeaway/sandwich shop,7844,10,,724712,5,,54.35179800000000,301109,803,ehealth@armagh.gov.uk,Armagh,http://www.armagh.gov.uk,-6.41163400000000,BT62 2BS,2014-01-07,fhrs_4_en-GB,4,,FHRS,5
400896,35 Upper English Street,Corporation,Armagh,,THE BUTCHER,Manufacturers/packers,7839,5,,724799,10,,54.34906600000000,301766,803,ehealth@armagh.gov.uk,Armagh,http://www.armagh.gov.uk,-6.65395300000000,BT61 7BA,2014-08-18,fhrs_4_en-GB,4,,FHRS,5
400897,20 Upper English Street,Corporation,,Armagh,THE CAKE SHOP,Manufacturers/packers,7839,5,,724682,5,,54.34854000000000,300943,803,ehealth@armagh.gov.uk,Armagh,http://www.armagh.gov.uk,-6.65350900000000,BT61 7BH,2013-11-04,fhrs_5_en-GB,5,,FHRS,5
400898,2 Cow Fair,Racarbry,Keady,Armagh,THE CALEDONIAN BAR AND GRILL,Pub/bar/nightclub,7843,5,,724800,5,,54.24849100000000,301769,803,ehealth@armagh.gov.uk,Armagh,http://www.armagh.gov.uk,-6.70356400000000,BT60 3TD,2015-01-20,fhrs_4_en-GB,4,,FHRS,10
400899,,,,,THE CHIP KART,Mobile caterer,7846,5,,724978,5,,,302310,803,ehealth@armagh.gov.uk,Armagh,http://www.armagh.gov.uk,,,2013-08-09,fhrs_5_en-GB,5,,FHRS,0
400900,1 Main Street,Mullaghbane,Hamiltonsbawn,Armagh,THE CHIP STOP,Takeaway/sandwich shop,7844,0,,724798,5,,54.34127300000000,301760,803,ehealth@armagh.gov.uk,Armagh,http://www.armagh.gov.uk,-6.54523400000000,BT60 1LP,2014-06-05,fhrs_5_en-GB,5,,FHRS,0
400901,2 Main Street,,,Armagh,THE COMMERCIAL BAR,Pub/bar/nightclub,7843,0,,724979,5,,54.35212800000000,302316,803,ehealth@armagh.gov.uk,Armagh,http://www.armagh.gov.uk,-6.67489300000000,BT60 4BX,2015-01-13,fhrs_5_en-GB,5,,FHRS,0
400902,12 Ballygasey Road,Levalleglish,Loughgall,Armagh,THE COPE PRIMARY SCHOOL MEALS KITCHEN,School/college/university,7845,0,,724641,5,,54.40813000000000,300717,803,ehealth@armagh.gov.uk,Armagh,http://www.armagh.gov.uk,-6.60967900000000,BT61 8HY,2014-10-06,fhrs_5_en-GB,5,,FHRS,0
400903,1 Market Street,Crossdened,Keady,Armagh,THE CORNER HOUSE,Pub/bar/nightclub,7843,0,,725009,10,,54.24828300000000,302389,803,ehealth@armagh.gov.uk,Armagh,http://www.armagh.gov.uk,-6.70590200000000,BT60 3RP,2012-02-03,fhrs_4_en-GB,4,,FHRS,5
400904,Unit 2 Smyth'S Arcade 22 Market Street,,Craigavon,,THE COSY TEAPOT,Restaurant/Cafe/Canteen,1,5,,724900,0,,54.35368400000000,302140,803,ehealth@armagh.gov.uk,Armagh,http://www.armagh.gov.uk,-6.41362200000000,BT62 2BW,2013-02-27,fhrs_4_en-GB,4,,FHRS,10
400905,38-40 Thomas Street,Corporation,Armagh,,The Cuchulainn Bar,Pub/bar/nightclub,7843,5,,724579,5,,54.34647900000000,300442,803,ehealth@armagh.gov.uk,Armagh,http://www.armagh.gov.uk,-6.65397600000000,BT61 7QB,2014-09-01,fhrs_5_en-GB,5,,FHRS,5
400906,100 - 106 Main Street,,,Armagh,THE DOLPHIN,Takeaway/sandwich shop,7844,5,,724654,5,,54.29866300000000,300808,803,ehealth@armagh.gov.uk,Armagh,http://www.armagh.gov.uk,-6.52113100000000,BT60 1PL,2014-01-10,fhrs_5_en-GB,5,,FHRS,5
400907,16 Ballyhagan Road,Ballyhagan,Loughgall,Armagh,THE FAMOUS GROUSE,Restaurant/Cafe/Canteen,1,5,,724643,5,,54.40575500000000,300721,803,ehealth@armagh.gov.uk,Armagh,http://www.armagh.gov.uk,-6.56788500000000,BT61 8PX,2014-03-27,fhrs_5_en-GB,5,,FHRS,5
400908,,,,,THE FILLING STATION,Mobile caterer,7846,5,,724970,5,,,302292,803,ehealth@armagh.gov.uk,Armagh,http://www.armagh.gov.uk,,,2013-06-10,fhrs_5_en-GB,5,,FHRS,5
400909,13 Station Road,Corporation,Armagh,,THE FIRS PLAYGROUP,Other catering premises,7841,5,,724770,0,,54.35826300000000,301503,803,ehealth@armagh.gov.uk,Armagh,http://www.armagh.gov.uk,-6.65532900000000,BT61 7NP,2014-03-21,fhrs_5_en-GB,5,,FHRS,0
400910,80 Dundrum Road,Tassagh,Armagh,Armagh,The Forge Restaurant Ltd,Restaurant/Cafe/Canteen,1,5,,725054,5,,54.27272900000000,302472,803,ehealth@armagh.gov.uk,Armagh,http://www.armagh.gov.uk,-6.66631400000000,BT60 2QE,2013-05-17,fhrs_4_en-GB,4,,FHRS,10
400911,,,,,THE FRUIT STALL,Retailers - other,4613,5,,725014,0,,,302394,803,ehealth@armagh.gov.uk,Armagh,http://www.armagh.gov.uk,,,2012-02-06,fhrs_5_en-GB,5,,FHRS,0
400912,16 Barrack Street,Corporation,Armagh,,THE GALLEY,Restaurant/Cafe/Canteen,1,0,,724802,5,,54.34695900000000,301784,803,ehealth@armagh.gov.uk,Armagh,http://www.armagh.gov.uk,-6.64947000000000,BT60 1AD,2013-03-25,fhrs_5_en-GB,5,,FHRS,0
400913,,,,,The Gingham Pantry,Retailers - other,4613,5,,725077,0,,,302504,803,ehealth@armagh.gov.uk,Armagh,http://www.armagh.gov.uk,,,2013-06-12,fhrs_5_en-GB,5,,FHRS,0
400914,Layby Opposite Traynors Armagh Road,,Dungannon,,The Greedy Grill,Mobile caterer,7846,5,,725178,5,,,302730,803,ehealth@armagh.gov.uk,Armagh,http://www.armagh.gov.uk,,BT71,2014-09-04,fhrs_5_en-GB,5,,FHRS,5
400915,23a Ballynahone Avenue,Ballynahone More,Armagh,,THE GROVE NURSERY SCHOOL,Other catering premises,7841,0,,724719,0,,54.34496600000000,301151,803,ehealth@armagh.gov.uk,Armagh,http://www.armagh.gov.uk,-6.63683300000000,BT60 1EE,2014-02-27,fhrs_5_en-GB,5,,FHRS,0
400916,6 Ballyhagan Road,Annaghugh,Loughgall,Armagh,THE HEIGHTS,Hotel/bed & breakfast/guest house,7842,5,,724734,5,,54.40575500000000,301227,803,ehealth@armagh.gov.uk,Armagh,http://www.armagh.gov.uk,-6.56788500000000,BT61 8PX,2014-04-23,fhrs_5_en-GB,5,,FHRS,0
400917,9 Market Street,Corporation,Armagh,,THE HOLE IN THE WALL,Pub/bar/nightclub,7843,0,,724892,5,,54.34779100000000,302100,803,ehealth@armagh.gov.uk,Armagh,http://www.armagh.gov.uk,-6.65322500000000,BT61 7BW,2015-01-13,fhrs_5_en-GB,5,,FHRS,5
400918,1 Mccrum'S Court,,Armagh,,The Larder - Spizarnia U Henryka,Retailers - other,4613,,,725107,,,54.34800800000000,302581,803,ehealth@armagh.gov.uk,Armagh,http://www.armagh.gov.uk,-6.65255700000000,BT61 7RS,2014-01-06,fhrs_4_en-GB,4,,FHRS,
400919,20 Monaghan Road,Drumarg Or Downs,Middletown,Armagh,THE LAURELS,Hotel/bed & breakfast/guest house,7842,5,,724820,0,,54.33870100000000,301856,803,ehealth@armagh.gov.uk,Armagh,http://www.armagh.gov.uk,-6.66387000000000,BT60 4DA,2014-05-08,fhrs_5_en-GB,5,,FHRS,0
400920,3 Keady Street,Coolmillish,Markethill,Armagh,THE MARKET HOUSE,Restaurant/Cafe/Canteen,1,5,,724648,0,,54.29822600000000,300770,803,ehealth@armagh.gov.uk,Armagh,http://www.armagh.gov.uk,-6.52291300000000,BT60 1PN,2014-01-28,fhrs_5_en-GB,5,,FHRS,5
400921,15 The New Line,Rich Hill Or Legacorry,Richhill,Armagh,The Meadows,Hospitals/Childcare/Caring Premises,5,5,,724961,5,,54.37026400000000,302272,803,ehealth@armagh.gov.uk,Armagh,http://www.armagh.gov.uk,-6.54964100000000,BT61 9QR,2014-11-24,fhrs_5_en-GB,5,,FHRS,5
400922,18 Monaghan Road,Drumarg Or Downs,Middletown,Armagh,THE MEADOWS,Hotel/bed & breakfast/guest house,7842,0,,724631,0,,54.33870100000000,300687,803,ehealth@armagh.gov.uk,Armagh,http://www.armagh.gov.uk,-6.66387000000000,BT60 4DA,2014-03-19,fhrs_5_en-GB,5,,FHRS,0
400923,5 Clay Road,Cargaclogher,Keady,Armagh,The Mill Keady Mart,Restaurant/Cafe/Canteen,1,5,,725046,10,,54.24327900000000,302462,803,ehealth@armagh.gov.uk,Armagh,http://www.armagh.gov.uk,-6.70427900000000,BT60 3QY,2014-06-27,fhrs_4_en-GB,4,,FHRS,5
400924,9-19 Church Street,,Craigavon,,THE MONTAGU ARMS BAR,Pub/bar/nightclub,7843,10,,724707,0,,54.35583700000000,301070,803,ehealth@armagh.gov.uk,Armagh,http://www.armagh.gov.uk,-6.41617000000000,BT62 2AF,2015-01-13,fhrs_4_en-GB,4,,FHRS,10
400925,Palace Stables The Palace Demense,Parkmore Or Demesne,Armagh,,The Moody Boar,Restaurant/Cafe/Canteen,1,0,,725047,0,,54.33999300000000,302463,803,ehealth@armagh.gov.uk,Armagh,http://www.armagh.gov.uk,-6.65243500000000,BT60 4EL,2014-05-15,fhrs_5_en-GB,5,,FHRS,0
400926,Southern Regional College Lonsdale Road,,Armagh,,The Mount Charles Group 'pango',Restaurant/Cafe/Canteen,1,0,,734519,0,,54.35146000000000,302780,803,ehealth@armagh.gov.uk,Armagh,http://www.armagh.gov.uk,-6.65435100000000,BT61 7JX,2015-02-02,fhrs_5_en-GB,5,,FHRS,0
400927,Southern Regional College Lisanally Lane,Corporation,Armagh,,The Mount Charles Group 'u-eat',Restaurant/Cafe/Canteen,1,0,,731376,0,,54.35235600000000,302781,803,ehealth@armagh.gov.uk,Armagh,http://www.armagh.gov.uk,-6.65332200000000,BT61 7HN,2015-01-15,fhrs_5_en-GB,5,,FHRS,0
400928,6 Main Street,Drumorgan,Hamiltonsbawn,Armagh,THE NORMANDY INN,Pub/bar/nightclub,7843,5,,724932,0,,54.34127300000000,302218,803,ehealth@armagh.gov.uk,Armagh,http://www.armagh.gov.uk,-6.54523400000000,BT60 1LP,2013-02-01,fhrs_4_en-GB,4,,FHRS,10
400929,5 Mowhan Road,Coolmillish,Markethill,Armagh,THE OLD BARN STEAKHOUSE,Restaurant/Cafe/Canteen,1,,,724910,,,54.28992600000000,302173,803,ehealth@armagh.gov.uk,Armagh,http://www.armagh.gov.uk,-6.52153600000000,BT60 1RQ,2013-10-24,fhrs_4_en-GB,4,,FHRS,
400930,61 Kinelowen Street,Crossmore,Keady,Armagh,THE ORIENT,Takeaway/sandwich shop,7844,5,,724615,5,,54.25121300000000,300593,803,ehealth@armagh.gov.uk,Armagh,http://www.armagh.gov.uk,-6.70266500000000,BT60 3TL,2013-10-01,fhrs_4_en-GB,4,,FHRS,10
400931,29 - 31 Main Street,,,Armagh,THE PORT BAR,Pub/bar/nightclub,7843,0,,724690,10,,54.25300500000000,300994,803,ehealth@armagh.gov.uk,Armagh,http://www.armagh.gov.uk,-6.47512300000000,BT60 2TR,2012-06-15,fhrs_4_en-GB,4,,FHRS,0
400932,44 Main Street,Blackwatertown Or Lisbofin,Dungannon,,The Portmor Bar And Restaurant,Pub/bar/nightclub,7843,10,,725198,5,,54.41265100000000,302760,803,ehealth@armagh.gov.uk,Armagh,http://www.armagh.gov.uk,-6.70431700000000,BT71 7HL,2014-11-27,fhrs_4_en-GB,4,,FHRS,5
400933,104-108 Railway Street,Armagh,,Armagh,THE RAILWAY BAR,Pub/bar/nightclub,7843,5,,724534,5,,54.35582000000000,300062,803,ehealth@armagh.gov.uk,Armagh,http://www.armagh.gov.uk,-6.65773100000000,BT61 7HU,2013-04-30,fhrs_5_en-GB,5,,FHRS,5
400934,7-9 Railway Street,,Newry,,THE RAILWAY BAR,Pub/bar/nightclub,7843,5,,724693,5,,54.29285700000000,301009,803,ehealth@armagh.gov.uk,Armagh,http://www.armagh.gov.uk,-6.37375600000000,BT35 6SN,2012-06-15,fhrs_4_en-GB,4,,FHRS,10
400935,20 Railway Street,,Newry,,THE RAILWAY TAKEAWAY,Takeaway/sandwich shop,7844,10,,724774,10,,54.29285700000000,301525,803,ehealth@armagh.gov.uk,Armagh,http://www.armagh.gov.uk,-6.37375600000000,BT35 6SN,2013-06-25,fhrs_3_en-GB,3,,FHRS,10
400936,62 Drumilly Road,Ardrea,Loughgall,Armagh,The Retreat Care Home,Hospitals/Childcare/Caring Premises,5,5,,725036,5,,54.38661600000000,302445,803,ehealth@armagh.gov.uk,Armagh,http://www.armagh.gov.uk,-6.60452700000000,BT61 8RH,2014-02-17,fhrs_5_en-GB,5,,FHRS,0
400937,142 Granemore Road,Granemore,Armagh,,THE ROCK BAR,Pub/bar/nightclub,7843,0,,724551,0,,54.25266900000000,300165,803,ehealth@armagh.gov.uk,Armagh,http://www.armagh.gov.uk,-6.64959300000000,BT60 2NJ,2012-06-15,fhrs_5_en-GB,5,,FHRS,0
400938,The Royal School College Hill,Corporation,Armagh,Armagh,THE ROYAL SCHOOL,School/college/university,7845,5,,724665,5,,54.35064400000000,300861,803,ehealth@armagh.gov.uk,Armagh,http://www.armagh.gov.uk,-6.64805600000000,BT61 9DH,2013-11-11,fhrs_5_en-GB,5,,FHRS,5
400939,,,,,The Small Giraffe,Other catering premises,7841,5,,725132,5,,,302623,803,ehealth@armagh.gov.uk,Armagh,http://www.armagh.gov.uk,,,2013-10-11,fhrs_5_en-GB,5,,FHRS,0
400940,7 Kinelowen Street,Crossmore,Keady,Armagh,THE SPORTSMAN,Pub/bar/nightclub,7843,0,,724967,5,,54.24924900000000,302283,803,ehealth@armagh.gov.uk,Armagh,http://www.armagh.gov.uk,-6.70472100000000,BT60 3ST,2012-04-13,fhrs_4_en-GB,4,,FHRS,10
400941,Market Street,Crossdened,Keady,Armagh,The Sweet Zone,Retailers - other,4613,0,,725066,0,,54.24828300000000,302491,803,ehealth@armagh.gov.uk,Armagh,http://www.armagh.gov.uk,-6.70590200000000,BT60 3RP,2013-02-22,fhrs_4_en-GB,4,,FHRS,10
400942,65 Irish Street,Corporation,Armagh,,THE TOBY JUG,Pub/bar/nightclub,7843,10,,724544,10,,54.34438700000000,300135,803,ehealth@armagh.gov.uk,Armagh,http://www.armagh.gov.uk,-6.65730400000000,BT61 7EP,2014-09-04,fhrs_3_en-GB,3,,FHRS,10
400943,37 Kinelowen Street,Crossmore,Keady,Armagh,THE TRAP,Pub/bar/nightclub,7843,0,,724612,5,,54.24924900000000,300588,803,ehealth@armagh.gov.uk,Armagh,http://www.armagh.gov.uk,-6.70472100000000,BT60 3ST,2012-05-10,fhrs_4_en-GB,4,,FHRS,10
400944,76 Main Street,Coolmillish,Markethill,Armagh,THE VILLAGE BAKERY,Manufacturers/packers,7839,5,,724650,5,,54.29866300000000,300789,803,ehealth@armagh.gov.uk,Armagh,http://www.armagh.gov.uk,-6.52113100000000,BT60 1PL,2013-10-03,fhrs_5_en-GB,5,,FHRS,5
400945,103-105 Main Street,Coolmillish,Markethill,Armagh,THE VILLAGE INN,Pub/bar/nightclub,7843,0,,724656,5,,54.29743900000000,300811,803,ehealth@armagh.gov.uk,Armagh,http://www.armagh.gov.uk,-6.52174300000000,BT60 1PJ,2015-01-06,fhrs_5_en-GB,5,,FHRS,0
400946,56 Main Street,Loughgall,Loughgall,Armagh,THE VILLAGE STORE,Retailers - other,4613,10,,724645,10,,54.40989800000000,300745,803,ehealth@armagh.gov.uk,Armagh,http://www.armagh.gov.uk,-6.60176400000000,BT61 8HZ,2013-06-11,fhrs_3_en-GB,3,,FHRS,10
400947,27 Upper English Street,Corporation,Armagh,,THE VINTAGE,Pub/bar/nightclub,7843,0,,724683,0,,54.34906600000000,300950,803,ehealth@armagh.gov.uk,Armagh,http://www.armagh.gov.uk,-6.65395300000000,BT61 7BA,2015-01-06,fhrs_5_en-GB,5,,FHRS,5
400948,1 Fairgreen Road,Coolmillish,Markethill,Armagh,Time Out Cafe,Restaurant/Cafe/Canteen,1,0,,725189,0,,54.29685700000000,302746,803,ehealth@armagh.gov.uk,Armagh,http://www.armagh.gov.uk,-6.52262400000000,BT60 1PW,2014-10-28,fhrs_5_en-GB,5,,FHRS,5
400949,Esker Park,,,Armagh,Tiny Tots Corner Playgroup,Other catering premises,7841,10,,724980,10,,54.34639200000000,302323,803,ehealth@armagh.gov.uk,Armagh,http://www.armagh.gov.uk,-6.77834200000000,BT60 4LT,2013-10-25,fhrs_3_en-GB,3,,FHRS,5
400950,10 Ballynahonemore Road,Ballynahone More,Armagh,,Todays Local,Retailers - other,4613,5,,724584,5,,54.34570700000000,300463,803,ehealth@armagh.gov.uk,Armagh,http://www.armagh.gov.uk,-6.63402500000000,BT60 1ED,2013-12-06,fhrs_5_en-GB,5,,FHRS,0
400951,Unit 6/7 The Ring Road Lower Irish Street,,,Armagh,TODAYS LOCAL,Retailers - other,4613,10,,724985,10,,54.34438700000000,302340,803,ehealth@armagh.gov.uk,Armagh,http://www.armagh.gov.uk,-6.65730400000000,BT61 7EP,2013-07-22,fhrs_4_en-GB,4,,FHRS,0
400952,8 Main Street,Tamnaghvelton,Craigavon,,Today's Local,Retailers - other,4613,10,,724636,10,,54.36853200000000,300704,803,ehealth@armagh.gov.uk,Armagh,http://www.armagh.gov.uk,-6.45071700000000,BT62 2LN,2014-04-08,fhrs_3_en-GB,3,,FHRS,5
400953,Tower Hill Hospital Tower Hill Complex,Armagh,,Armagh,TOWER HILL HOSPITAL,Restaurant/Cafe/Canteen,1,5,,724732,5,,54.35120800000000,301205,803,ehealth@armagh.gov.uk,Armagh,http://www.armagh.gov.uk,-6.64145500000000,BT61 9DT,2014-01-06,fhrs_5_en-GB,5,,FHRS,5
400954,,,,,Tracys Little Cupcakes,Other catering premises,7841,5,,725186,0,,,302742,803,ehealth@armagh.gov.uk,Armagh,http://www.armagh.gov.uk,,,2014-10-14,fhrs_5_en-GB,5,,FHRS,0
400955,,,,,Traditional Mobile Catering (ice Cream Bike),Retailers - other,4613,0,,725122,0,,,302606,803,ehealth@armagh.gov.uk,Armagh,http://www.armagh.gov.uk,,,2013-09-17,fhrs_5_en-GB,5,,FHRS,0
400956,,,,,Traditional Mobile Catering (t.m.c),Mobile caterer,7846,10,,725086,0,,,302540,803,ehealth@armagh.gov.uk,Armagh,http://www.armagh.gov.uk,,,2013-06-24,fhrs_4_en-GB,4,,FHRS,0
400957,17 Barrack Street,Corporation,Armagh,,Turkish Delight,Takeaway/sandwich shop,7844,10,,725199,5,,54.34665500000000,302761,803,ehealth@armagh.gov.uk,Armagh,http://www.armagh.gov.uk,-6.64883400000000,BT60 1AB,2014-11-12,fhrs_4_en-GB,4,,FHRS,5
400958,28 Main Street,Tynan,,Armagh,TYNAN PHARMACY,Retailers - other,4613,,,724776,,,54.32956600000000,301531,803,ehealth@armagh.gov.uk,Armagh,http://www.armagh.gov.uk,-6.82182100000000,BT60 4QP,2012-11-14,fhrs_exempt_en-GB,Exempt,,FHRS,
400959,127 Summerisland Road,,,Armagh,VALLELY'S PUB,Pub/bar/nightclub,7843,0,,724561,10,,54.44108100000000,300232,803,ehealth@armagh.gov.uk,Armagh,http://www.armagh.gov.uk,-6.60632800000000,BT62 1SJ,2012-01-13,fhrs_4_en-GB,4,,FHRS,0
400960,32 Barrack Street,Corporation,Armagh,,VICTORIA BAR,Pub/bar/nightclub,7843,5,,724722,5,,54.34695900000000,301168,803,ehealth@armagh.gov.uk,Armagh,http://www.armagh.gov.uk,-6.64947000000000,BT60 1AD,2014-09-02,fhrs_5_en-GB,5,,FHRS,5
400961,44 Main Street,Coolmillish,Markethill,Armagh,VICTORIA BAR,Pub/bar/nightclub,7843,5,,724649,0,,54.29866300000000,300780,803,ehealth@armagh.gov.uk,Armagh,http://www.armagh.gov.uk,-6.52113100000000,BT60 1PL,2013-11-29,fhrs_5_en-GB,5,,FHRS,5
400962,1 Maynooth Road,Rich Hill Or Legacorry,Richhill,Armagh,VILLAGE EXPLORERS,Other catering premises,7841,10,,724898,5,,54.36856800000000,302129,803,ehealth@armagh.gov.uk,Armagh,http://www.armagh.gov.uk,-6.55500900000000,BT61 9PE,2013-09-26,fhrs_4_en-GB,4,,FHRS,5
400963,9 Lower English Street,Corporation,Armagh,,Viva Bar,Pub/bar/nightclub,7843,0,,725118,5,,54.35144800000000,302602,803,ehealth@armagh.gov.uk,Armagh,http://www.armagh.gov.uk,-6.65564400000000,BT61 7LJ,2013-10-31,fhrs_5_en-GB,5,,FHRS,0
400964,10-12 Cathedral Road,Corporation,Armagh,,VIVO,Retailers - other,4613,5,,724808,5,,54.35145000000000,301814,803,ehealth@armagh.gov.uk,Armagh,http://www.armagh.gov.uk,-6.65821200000000,BT61 7QX,2014-11-25,fhrs_4_en-GB,4,,FHRS,10
400965,14 Lower English Street,Corporation,Armagh,,WELCOME HOT FOOD BAR,Takeaway/sandwich shop,7844,5,,724673,10,,54.35144800000000,300894,803,ehealth@armagh.gov.uk,Armagh,http://www.armagh.gov.uk,-6.65564400000000,BT61 7LJ,2014-05-21,fhrs_4_en-GB,4,,FHRS,5
400966,132 Newry Road,Corporation,Armagh,,WHITTLE'S SUPERMARKET,Retailers - other,4613,5,,724948,0,,54.33746000000000,302246,803,ehealth@armagh.gov.uk,Armagh,http://www.armagh.gov.uk,-6.63969500000000,BT60 1ES,2014-04-14,fhrs_5_en-GB,5,,FHRS,0
400967,61 Clare Road,Mavemacullen (Loughgilly),Craigavon,,WILSONS COUNTRY STORE,Retailers - other,4613,5,,724688,0,,54.30458600000000,300982,803,ehealth@armagh.gov.uk,Armagh,http://www.armagh.gov.uk,-6.45607100000000,BT62 2EZ,2012-04-05,fhrs_5_en-GB,5,,FHRS,5
400968,31 Church Street,Ballymore,Craigavon,,Wineflair,Retailers - other,4613,,,724708,,,54.35583700000000,301072,803,ehealth@armagh.gov.uk,Armagh,http://www.armagh.gov.uk,-6.41617000000000,BT62 2AF,2015-01-12,fhrs_exempt_en-GB,Exempt,,FHRS,
400969,134b Newry Road,Armagh,,Armagh,WINEMARKET,Retailers - other,4613,0,,724564,0,,54.33746000000000,300250,803,ehealth@armagh.gov.uk,Armagh,http://www.armagh.gov.uk,-6.63969500000000,BT60 1ES,2012-03-15,fhrs_5_en-GB,5,,FHRS,0
400970,1 Markethill Road,Cavanacaw,Armagh,,WOODFORD TEACHER TRAINING CENTRE,Restaurant/Cafe/Canteen,1,5,,724972,0,,54.33490000000000,302294,803,ehealth@armagh.gov.uk,Armagh,http://www.armagh.gov.uk,-6.63655100000000,BT60 1NR,2013-10-08,fhrs_5_en-GB,5,,FHRS,0
400971,190 Monaghan Road,Lisglynn,Middletown,Armagh,WOOD'S SPAR,Retailers - other,4613,10,,724744,5,,54.29757400000000,301288,803,ehealth@armagh.gov.uk,Armagh,http://www.armagh.gov.uk,-6.75744000000000,BT60 4EZ,2014-02-11,fhrs_4_en-GB,4,,FHRS,5
400972,43 Ballynahonemore Road,Ballynahone More,Armagh,,WOODSIDE CHILDRENS HOME,Hospitals/Childcare/Caring Premises,5,5,,724784,5,,54.33942700000000,301575,803,ehealth@armagh.gov.uk,Armagh,http://www.armagh.gov.uk,-6.62846700000000,BT60 1JD,2015-01-15,fhrs_5_en-GB,5,,FHRS,0
400973,3 Cloghan Road,Cloghan,Armagh,,WOODVIEW RESTAURANT,Restaurant/Cafe/Canteen,1,5,,724755,5,,54.38088200000000,301387,803,ehealth@armagh.gov.uk,Armagh,http://www.armagh.gov.uk,-6.57815600000000,BT61 8RF,2014-11-06,fhrs_5_en-GB,5,,FHRS,0
400974,,,,,Woodys,Mobile caterer,7846,5,,725206,0,,,302779,803,ehealth@armagh.gov.uk,Armagh,http://www.armagh.gov.uk,,,2014-11-26,fhrs_5_en-GB,5,,FHRS,5
400975,10 Russell Street,Corporation,Armagh,,WRIGHTS INTERIORS,Restaurant/Cafe/Canteen,1,5,,724809,5,,54.34895100000000,301821,803,ehealth@armagh.gov.uk,Armagh,http://www.armagh.gov.uk,-6.65244900000000,BT61 9AA,2013-06-13,fhrs_5_en-GB,5,,FHRS,5
400976,,,,,WWW.GOODFOOD.STOP,Mobile caterer,7846,0,,724984,0,,,302339,803,ehealth@armagh.gov.uk,Armagh,http://www.armagh.gov.uk,,,2014-03-05,fhrs_5_en-GB,5,,FHRS,5
400977,Unit 2 Lonsdale Court Lonsdale Road,,,Armagh,XTRAVISION LTD,Retailers - other,4613,,,724773,,,54.34498100000000,301522,803,ehealth@armagh.gov.uk,Armagh,http://www.armagh.gov.uk,-6.65419400000000,BT61 7QL,2013-08-01,fhrs_exempt_en-GB,Exempt,,FHRS,
400978,23 Meeting Street,,Newry,,YE OLDE DYKE INN,Pub/bar/nightclub,7843,0,,724692,5,,54.29374800000000,301002,803,ehealth@armagh.gov.uk,Armagh,http://www.armagh.gov.uk,-6.37656200000000,BT35 6SU,2012-06-15,fhrs_5_en-GB,5,,FHRS,0
400979,5-9 Irish Street,Rich Hill Or Legacorry,Richhill,Armagh,YE OLDE HOUSE BAR,Pub/bar/nightclub,7843,0,,724696,5,,54.37127900000000,301023,803,ehealth@armagh.gov.uk,Armagh,http://www.armagh.gov.uk,-6.54737300000000,BT61 9PS,2012-04-02,fhrs_5_en-GB,5,,FHRS,0
400980,Unit 4 Ballymore Service Station 50 Portadown Road,,Craigavon,,Yummy Chef,Takeaway/sandwich shop,7844,20,,725071,10,,54.36380300000000,302496,803,ehealth@armagh.gov.uk,Armagh,http://www.armagh.gov.uk,-6.42275600000000,BT62 2JU,2015-01-08,fhrs_1_en-GB,1,,FHRS,10
400981,11a Market Street,Corporation,Armagh,,Zest Natural Health,Retailers - other,4613,10,,731379,0,,54.34779100000000,302787,803,ehealth@armagh.gov.uk,Armagh,http://www.armagh.gov.uk,-6.65322500000000,BT61 7BW,2015-01-06,fhrs_4_en-GB,4,,FHRS,0
