,addressline1,addressline2,addressline3,addressline4,businessname,businesstype,businesstypeid,confidenceinmanagement,extractdate,fhrsid,hygiene,itemcount,latitude,localauthoritybusinessid,localauthoritycode,localauthorityemailaddress,localauthorityname,localauthoritywebsite,longitude,postcode,ratingdate,ratingkey,ratingvalue,returncode,schemetype,structural
404816,86 Station Road,Greenisland,,Antrim,99 Luncheon Club,Restaurant/Cafe/Canteen,1,10,,563567,10,,54.69604200000000,513,808,sec2.envhealth@carrickffergus.org,Carrickfergus,http://www.carrickfergus.org/,-5.86695300000000,BT38 8UP,2014-03-27,fhrs_3_en-GB,3,,FHRS,5
404817,10 Model Avenue,,Carrickfergus,Antrim,Abbeyfield (Carrickfergus),Hospitals/Childcare/Caring Premises,5,5,,563454,5,,54.71330000000000,131,808,sec2.envhealth@carrickffergus.org,Carrickfergus,http://www.carrickfergus.org/,-5.81587400000000,BT38 8BZ,2014-01-28,fhrs_5_en-GB,5,,FHRS,5
404818,1 Glassillan Grove,Greenisland,Carrickfergus,Antrim,Abbeyfield Society Limited,Hospitals/Childcare/Caring Premises,5,5,,563559,5,,54.69686700000000,490,808,sec2.envhealth@carrickffergus.org,Carrickfergus,http://www.carrickfergus.org/,-5.87193600000000,BT38 8TE,2014-04-24,fhrs_5_en-GB,5,,FHRS,5
404819,110 Victoria Road,,Carrickfergus,Antrim,Acorn Integrated Primary School Kitchen,School/college/university,7845,0,,563533,5,,54.72620600000000,405,808,sec2.envhealth@carrickffergus.org,Carrickfergus,http://www.carrickfergus.org/,-5.79422200000000,BT38 7JL,2012-02-21,fhrs_5_en-GB,5,,FHRS,0
404820,110a Victoria Road,,Carrickfergus,Antrim,Acorn Playgroup,Hospitals/Childcare/Caring Premises,5,0,,563534,5,,54.72620600000000,406,808,sec2.envhealth@carrickffergus.org,Carrickfergus,http://www.carrickfergus.org/,-5.79422200000000,BT38 7JL,2012-09-24,fhrs_5_en-GB,5,,FHRS,5
404821,,,,,African Child Ministries - Stall,Mobile caterer,7846,10,,563620,10,,,632,808,sec2.envhealth@carrickffergus.org,Carrickfergus,http://www.carrickfergus.org/,,,2013-06-01,fhrs_3_en-GB,3,,FHRS,10
404822,33 West Street,,Carrickfergus,Antrim,African Child Ministries Ltd,Retailers - other,4613,10,,563638,10,,54.71461600000000,713,808,sec2.envhealth@carrickffergus.org,Carrickfergus,http://www.carrickfergus.org/,-5.80863300000000,BT38 7AR,2014-02-11,fhrs_3_en-GB,3,,FHRS,10
404823,Antrim Street,,Carrickfergus,Antrim,Alfies Coffee Bar,Restaurant/Cafe/Canteen,1,10,,563439,10,,54.71579900000000,1056,808,sec2.envhealth@carrickffergus.org,Carrickfergus,http://www.carrickfergus.org/,-5.80599300000000,BT38 7DG,2014-03-19,fhrs_3_en-GB,3,,FHRS,5
404824,5 Glassillan Grove,Greenisland,Carrickfergus,Antrim,"Alphabet Playgroup, Greenisland Community Centre",Hospitals/Childcare/Caring Premises,5,5,,563560,5,,54.69686700000000,492,808,sec2.envhealth@carrickffergus.org,Carrickfergus,http://www.carrickfergus.org/,-5.87193600000000,BT38 8TE,2014-05-21,fhrs_5_en-GB,5,,FHRS,5
404825,4 Prince William Way,,Carrickfergus,Antrim,Amphitheatre Cafe Pi,Restaurant/Cafe/Canteen,1,5,,563698,5,,54.71974300000000,936,808,sec2.envhealth@carrickffergus.org,Carrickfergus,http://www.carrickfergus.org/,-5.80442900000000,BT38 7HP,2014-06-30,fhrs_5_en-GB,5,,FHRS,5
404826,"1 Barn Court, Barn Road",,Carrickfergus,Antrim,Barn Court Children's Home,Hospitals/Childcare/Caring Premises,5,0,,563604,5,,,599,808,sec2.envhealth@carrickffergus.org,Carrickfergus,http://www.carrickfergus.org/,,,2014-03-25,fhrs_5_en-GB,5,,FHRS,5
404827,3 Slaughterford Road,,Whitehead,Antrim,Bentra Golf Course,Retailers - other,4613,,,563611,,,54.75981500000000,613,808,sec2.envhealth@carrickffergus.org,Carrickfergus,http://www.carrickfergus.org/,-5.71772300000000,BT38 9TG,2014-02-03,fhrs_exempt_en-GB,Exempt,,FHRS,
404828,1 Slaughterford Road,,Whitehead,Antrim,Bentra Grill,Restaurant/Cafe/Canteen,1,5,,563685,5,,54.75981500000000,919,808,sec2.envhealth@carrickffergus.org,Carrickfergus,http://www.carrickfergus.org/,-5.71772300000000,BT38 9TG,2013-07-02,fhrs_5_en-GB,5,,FHRS,5
404829,200 Larne Road,,Carrickfergus,Antrim,Big Ying,Takeaway/sandwich shop,7844,10,,563472,10,,54.72864000000000,236,808,sec2.envhealth@carrickffergus.org,Carrickfergus,http://www.carrickfergus.org/,-5.77403100000000,BT38 7NL,2014-03-06,fhrs_3_en-GB,3,,FHRS,10
404830,161 Larne Road,,Carrickfergus,Antrim,Billal Curry House,Takeaway/sandwich shop,7844,10,,563648,10,,54.72815500000000,847,808,sec2.envhealth@carrickffergus.org,Carrickfergus,http://www.carrickfergus.org/,-5.77449200000000,BT38 7NN,2014-11-06,fhrs_3_en-GB,3,,FHRS,5
404831,20a North Street,,Carrickfergus,Antrim,Bodrum Turkish Kebab,Takeaway/sandwich shop,7844,20,,563424,15,,54.71527500000000,1001,808,sec2.envhealth@carrickffergus.org,Carrickfergus,http://www.carrickfergus.org/,-5.80729400000000,BT38 7AQ,2014-12-11,fhrs_1_en-GB,1,,FHRS,10
404832,11 Market Place,,Carrickfergus,Antrim,Bodyfuel Sports,Retailers - other,4613,,,581062,,,54.71469000000000,1092,808,sec2.envhealth@carrickffergus.org,Carrickfergus,http://www.carrickfergus.org/,-5.80726300000000,BT38 7AW,2013-08-27,fhrs_exempt_en-GB,Exempt,,FHRS,
404833,3b Market Place,,Carrickfergus,Antrim,Boots Pharmacy,Retailers - other,4613,,,581063,,,54.71469000000000,117,808,sec2.envhealth@carrickffergus.org,Carrickfergus,http://www.carrickfergus.org/,-5.80726300000000,BT38 7AW,2013-08-21,fhrs_exempt_en-GB,Exempt,,FHRS,
404834,10 Victoria Street,,Carrickfergus,Antrim,Bumble Bz,Hospitals/Childcare/Caring Premises,5,5,,563622,0,,54.71719400000000,637,808,sec2.envhealth@carrickffergus.org,Carrickfergus,http://www.carrickfergus.org/,-5.80909900000000,BT38 8AQ,2014-07-17,fhrs_5_en-GB,5,,FHRS,0
404835,20 Belfast Road,,Whitehead,Antrim,Cable Service Station,Retailers - other,4613,5,,571520,5,,54.74744100000000,552,808,sec2.envhealth@carrickffergus.org,Carrickfergus,http://www.carrickfergus.org/,-5.71669500000000,BT38 9SP,2013-06-21,fhrs_4_en-GB,4,,FHRS,10
404836,Bridewell Drive,,Carrickfergus,Antrim,Cafe Rose,Restaurant/Cafe/Canteen,1,5,,563477,5,,54.72278700000000,268,808,sec2.envhealth@carrickffergus.org,Carrickfergus,http://www.carrickfergus.org/,-5.81031800000000,BT38 8LU,2015-01-15,fhrs_5_en-GB,5,,FHRS,0
404837,,,,,Cafe2u (oez),Mobile caterer,7846,5,,681605,0,,,1125,808,sec2.envhealth@carrickffergus.org,Carrickfergus,http://www.carrickfergus.org/,,,2014-03-21,fhrs_5_en-GB,5,,FHRS,0
404838,Larne Road,Kilroot,Carrickfergus,Antrim,Cafe2u (sez),Mobile caterer,7846,5,,563631,0,,54.73098700000000,700,808,sec2.envhealth@carrickffergus.org,Carrickfergus,http://www.carrickfergus.org/,-5.76480400000000,BT38 7PR,2014-03-21,fhrs_5_en-GB,5,,FHRS,0
404839,,,,,Cafe2u (vez),Mobile caterer,7846,5,,681604,0,,,1124,808,sec2.envhealth@carrickffergus.org,Carrickfergus,http://www.carrickfergus.org/,,,2014-03-21,fhrs_5_en-GB,5,,FHRS,0
404840,16-18 Kings Road,,Whitehead,Antrim,Calwells Chemist,Retailers - other,4613,,,581067,,,54.75343500000000,571,808,sec2.envhealth@carrickffergus.org,Carrickfergus,http://www.carrickfergus.org/,-5.71248900000000,BT38 9PU,2013-07-24,fhrs_exempt_en-GB,Exempt,,FHRS,
404841,2 Marine Avenue,,Whitehead,Antrim,Cantonese Noodles,Takeaway/sandwich shop,7844,10,,620811,10,,54.75304500000000,1087,808,sec2.envhealth@carrickffergus.org,Carrickfergus,http://www.carrickfergus.org/,-5.70847200000000,BT38 9QW,2013-05-23,fhrs_3_en-GB,3,,FHRS,5
404842,Antrim Street,,Carrickfergus,Antrim,Card Factory,Retailers - other,4613,,,563438,,,54.71579900000000,1055,808,sec2.envhealth@carrickffergus.org,Carrickfergus,http://www.carrickfergus.org/,-5.80599300000000,BT38 7DG,2013-04-29,fhrs_exempt_en-GB,Exempt,,FHRS,
404843,28 Middle Road,,Carrickfergus,Antrim,Carrick Cricket Club,Restaurant/Cafe/Canteen,1,,,563492,,,54.73635300000000,303,808,sec2.envhealth@carrickffergus.org,Carrickfergus,http://www.carrickfergus.org/,-5.82469500000000,BT38 9DN,2014-03-27,fhrs_3_en-GB,3,,FHRS,
404844,26-28 Middle Road,,Carrickfergus,Antrim,Carrick Milestone,Retailers - other,4613,5,,563491,5,,54.73635300000000,302,808,sec2.envhealth@carrickffergus.org,Carrickfergus,http://www.carrickfergus.org/,-5.82469500000000,BT38 9DN,2013-03-29,fhrs_4_en-GB,4,,FHRS,10
404845,4 Belfast Road,,Carrickfergus,Antrim,Carrick Model Primary School Kitchen,School/college/university,7845,0,,563537,5,,54.71213300000000,409,808,sec2.envhealth@carrickffergus.org,Carrickfergus,http://www.carrickfergus.org/,-5.81741100000000,BT38 8BU,2013-10-02,fhrs_5_en-GB,5,,FHRS,5
404846,60 Unity Street,,Carrickfergus,Antrim,Carrickfergus Central Primary School Kitchen,School/college/university,7845,0,,563502,0,,54.71626300000000,327,808,sec2.envhealth@carrickffergus.org,Carrickfergus,http://www.carrickfergus.org/,-5.81126000000000,BT38 8AW,2013-04-24,fhrs_5_en-GB,5,,FHRS,5
404847,North East Division,,Carrickfergus,Antrim,"Carrickfergus Chemists Ltd, Carrick Health Centre",Retailers - other,4613,,,681606,,,54.72052300000000,386,808,sec2.envhealth@carrickffergus.org,Carrickfergus,http://www.carrickfergus.org/,-5.79892300000000,BT38 7HF,2014-03-25,fhrs_exempt_en-GB,Exempt,,FHRS,
404848,110 North Road,,Carrickfergus,Antrim,Carrickfergus College Kitchen,School/college/university,7845,0,,563495,5,,54.72753100000000,309,808,sec2.envhealth@carrickffergus.org,Carrickfergus,http://www.carrickfergus.org/,-5.81326100000000,BT38 7QX,2014-02-25,fhrs_5_en-GB,5,,FHRS,0
404849,35 North Road,,Carrickfergus,Antrim,Carrickfergus Golf Club,Restaurant/Cafe/Canteen,1,10,,563517,10,,54.72113900000000,368,808,sec2.envhealth@carrickffergus.org,Carrickfergus,http://www.carrickfergus.org/,-5.80660400000000,BT38 8LP,2014-07-24,fhrs_3_en-GB,3,,FHRS,5
404850,120 North Road,,Carrickfergus,Antrim,Carrickfergus Grammar School Kitchen,School/college/university,7845,0,,563496,0,,54.72995400000000,310,808,sec2.envhealth@carrickffergus.org,Carrickfergus,http://www.carrickfergus.org/,-5.81712000000000,BT38 7RA,2014-02-24,fhrs_5_en-GB,5,,FHRS,5
404851,76 Dunluskin Gardens,,Carrickfergus,Antrim,Carrickfergus Manor Senior Living,Hospitals/Childcare/Caring Premises,5,10,,563451,10,,54.72861500000000,1084,808,sec2.envhealth@carrickffergus.org,Carrickfergus,http://www.carrickfergus.org/,-5.80367000000000,BT38 7JA,2014-08-27,fhrs_3_en-GB,3,,FHRS,5
404852,Albert Road,,Carrickfergus,Antrim,Carrickfergus Method Church Friendly Hall,Other catering premises,7841,,,563699,,,54.71632200000000,937,808,sec2.envhealth@carrickffergus.org,Carrickfergus,http://www.carrickfergus.org/,-5.80956500000000,BT38 8AE,2014-03-04,fhrs_5_en-GB,5,,FHRS,
404853,16 Woodburn Road,,Carrickfergus,Antrim,Carrickfergus Rugby Football Club,Restaurant/Cafe/Canteen,1,,,563553,,,54.71919000000000,474,808,sec2.envhealth@carrickffergus.org,Carrickfergus,http://www.carrickfergus.org/,-5.82213800000000,BT38 8HQ,2014-02-21,fhrs_4_en-GB,4,,FHRS,
404854,Rodger'S Quay,,Carrickfergus,Antrim,Carrickfergus Sailing Club,Restaurant/Cafe/Canteen,1,5,,563461,10,,54.71146600000000,173,808,sec2.envhealth@carrickffergus.org,Carrickfergus,http://www.carrickfergus.org/,-5.81181300000000,BT38 8BE,2014-08-22,fhrs_4_en-GB,4,,FHRS,5
404855,15 Castlemara Drive,,Carrickfergus,Antrim,Castlemara Stores,Retailers - other,4613,5,,563505,5,,54.72785700000000,343,808,sec2.envhealth@carrickffergus.org,Carrickfergus,http://www.carrickfergus.org/,-5.80945500000000,BT38 7RB,2014-03-06,fhrs_4_en-GB,4,,FHRS,10
404856,40 Scotch Quarter,,Carrickfergus,Antrim,Castleview Private Nursing Home,Hospitals/Childcare/Caring Premises,5,5,,563467,0,,54.71802800000000,193,808,sec2.envhealth@carrickffergus.org,Carrickfergus,http://www.carrickfergus.org/,-5.79955500000000,BT38 7DP,2014-05-22,fhrs_5_en-GB,5,,FHRS,0
404857,Oakfield Drive,,Carrickfergus,Antrim,Catering In Community,Restaurant/Cafe/Canteen,1,10,,563520,5,,54.73492100000000,370,808,sec2.envhealth@carrickffergus.org,Carrickfergus,http://www.carrickfergus.org/,-5.80756800000000,BT38 7SP,2014-09-29,fhrs_4_en-GB,4,,FHRS,5
404858,43a Victoria Road,,Carrickfergus,Antrim,Chen Chen,Takeaway/sandwich shop,7844,20,,563715,10,,54.72236900000000,975,808,sec2.envhealth@carrickffergus.org,Carrickfergus,http://www.carrickfergus.org/,-5.79072000000000,BT38 7JE,2013-03-21,fhrs_1_en-GB,1,,FHRS,5
404859,79a North Road,,Carrickfergus,Antrim,Cherry Tree House Private Nursing Home,Hospitals/Childcare/Caring Premises,5,5,,563518,5,,54.72758600000000,369,808,sec2.envhealth@carrickffergus.org,Carrickfergus,http://www.carrickfergus.org/,-5.81033900000000,BT38 7QZ,2014-03-18,fhrs_5_en-GB,5,,FHRS,5
404860,27 Chester Avenue,,Whitehead,Antrim,Chester Private Nursing Home,Hospitals/Childcare/Caring Premises,5,5,,563589,5,,54.75369000000000,560,808,sec2.envhealth@carrickffergus.org,Carrickfergus,http://www.carrickfergus.org/,-5.70838900000000,BT38 9QQ,2014-03-19,fhrs_5_en-GB,5,,FHRS,5
404861,14 North Street,,Carrickfergus,Antrim,China Garden,Takeaway/sandwich shop,7844,20,,563457,15,,54.71527500000000,143,808,sec2.envhealth@carrickffergus.org,Carrickfergus,http://www.carrickfergus.org/,-5.80729400000000,BT38 7AQ,2014-03-31,fhrs_1_en-GB,1,,FHRS,5
404862,8 Woodburn Road,,Carrickfergus,Antrim,China Kitchen,Takeaway/sandwich shop,7844,10,,563551,15,,54.71919000000000,471,808,sec2.envhealth@carrickffergus.org,Carrickfergus,http://www.carrickfergus.org/,-5.82213800000000,BT38 8HQ,2014-03-06,fhrs_2_en-GB,2,,FHRS,5
404863,20 Oakfield Drive,,Carrickfergus,Antrim,Church Of The Nazarene,Other catering premises,7841,10,,563688,10,,54.73492100000000,922,808,sec2.envhealth@carrickffergus.org,Carrickfergus,http://www.carrickfergus.org/,-5.80756800000000,BT38 7SP,2013-11-05,fhrs_4_en-GB,4,,FHRS,0
404864,75 Belfast Road,,Carrickfergus,Antrim,Clarion Hotel,Hotel/bed & breakfast/guest house,7842,5,,563538,5,,54.71077400000000,414,808,sec2.envhealth@carrickffergus.org,Carrickfergus,http://www.carrickfergus.org/,-5.82730700000000,BT38 8BX,2013-07-22,fhrs_5_en-GB,5,,FHRS,5
404865,10 Woodburn Road,,Carrickfergus,Antrim,Clipperstown Service Station,Retailers - other,4613,10,,563552,10,,54.71919000000000,472,808,sec2.envhealth@carrickffergus.org,Carrickfergus,http://www.carrickfergus.org/,-5.82213800000000,BT38 8HQ,2013-08-16,fhrs_3_en-GB,3,,FHRS,5
404866,12 Victoria Avenue,,Whitehead,Antrim,Coastal Coffee,Restaurant/Cafe/Canteen,1,,,563600,,,54.75236000000000,587,808,sec2.envhealth@carrickffergus.org,Carrickfergus,http://www.carrickfergus.org/,-5.71026600000000,BT38 9QF,2014-10-14,fhrs_5_en-GB,5,,FHRS,
404867,4b Woodburn Road,,Carrickfergus,Antrim,Cod House,Takeaway/sandwich shop,7844,5,,563610,10,,,612,808,sec2.envhealth@carrickffergus.org,Carrickfergus,http://www.carrickfergus.org/,,,2013-09-11,fhrs_4_en-GB,4,,FHRS,5
404868,14a King'S Road,,Whitehead,Antrim,Coffee And Cream,Restaurant/Cafe/Canteen,1,10,,563633,10,,,702,808,sec2.envhealth@carrickffergus.org,Carrickfergus,http://www.carrickfergus.org/,,,2014-08-29,fhrs_3_en-GB,3,,FHRS,10
404869,12 North Road,,Carrickfergus,Antrim,Costcutter,Retailers - other,4613,5,,563494,10,,54.72154700000000,305,808,sec2.envhealth@carrickffergus.org,Carrickfergus,http://www.carrickfergus.org/,-5.80832100000000,BT38 8LR,2014-04-23,fhrs_4_en-GB,4,,FHRS,5
404870,,,,,Country Style Burgers,Mobile caterer,7846,10,,563506,10,,,344,808,sec2.envhealth@carrickffergus.org,Carrickfergus,http://www.carrickfergus.org/,,,2014-04-25,fhrs_3_en-GB,3,,FHRS,5
404871,38 Scotch Quarter,,Carrickfergus,Antrim,Courtyard Coffee Shop,Restaurant/Cafe/Canteen,1,10,,563466,5,,54.71802800000000,186,808,sec2.envhealth@carrickffergus.org,Carrickfergus,http://www.carrickfergus.org/,-5.79955500000000,BT38 7DP,2012-08-31,fhrs_4_en-GB,4,,FHRS,0
404872,,,,,Currysauce NI,Mobile caterer,7846,5,,563632,0,,,701,808,sec2.envhealth@carrickffergus.org,Carrickfergus,http://www.carrickfergus.org/,,,2013-09-24,fhrs_5_en-GB,5,,FHRS,0
404873,133a Station Road,Greenisland,,Antrim,Day To Day,Retailers - other,4613,0,,563440,15,,54.69944200000000,1057,808,sec2.envhealth@carrickffergus.org,Carrickfergus,http://www.carrickfergus.org/,-5.87173900000000,BT38 8UN,2014-03-18,fhrs_2_en-GB,2,,FHRS,0
404874,157 Larne Road,,Carrickfergus,Antrim,Day Today Eden,Retailers - supermarkets/hypermarkets,7840,10,,563514,10,,54.72815500000000,362,808,sec2.envhealth@carrickffergus.org,Carrickfergus,http://www.carrickfergus.org/,-5.77449200000000,BT38 7NN,2014-06-13,fhrs_3_en-GB,3,,FHRS,10
404875,6-8 High Street,,Carrickfergus,Antrim,Dobbins Inn,Hotel/bed & breakfast/guest house,7842,5,,563570,5,,54.71535100000000,52,808,sec2.envhealth@carrickffergus.org,Carrickfergus,http://www.carrickfergus.org/,-5.80604800000000,BT38 7AF,2013-07-03,fhrs_4_en-GB,4,,FHRS,10
404876,6 Woodburn Road,,Carrickfergus,Antrim,Dominos Pizza,Takeaway/sandwich shop,7844,5,,563706,5,,54.71919000000000,959,808,sec2.envhealth@carrickffergus.org,Carrickfergus,http://www.carrickfergus.org/,-5.82213800000000,BT38 8HQ,2013-02-27,fhrs_5_en-GB,5,,FHRS,0
404877,185 Victoria Road,,Carrickfergus,Antrim,"Downshire Presbyterian Church, Carlisle Hall (Playgroup)",Hospitals/Childcare/Caring Premises,5,10,,563536,10,,54.73144400000000,408,808,sec2.envhealth@carrickffergus.org,Carrickfergus,http://www.carrickfergus.org/,-5.79617300000000,BT38 7QA,2014-03-12,fhrs_4_en-GB,4,,FHRS,0
404878,Downshire Road,,Carrickfergus,Antrim,Downshire School Kitchen,School/college/university,7845,0,,563509,0,,54.72866800000000,352,808,sec2.envhealth@carrickffergus.org,Carrickfergus,http://www.carrickfergus.org/,-5.79025300000000,BT38 7DA,2014-03-19,fhrs_5_en-GB,5,,FHRS,5
404879,75d Belfast Road,,Carrickfergus,Antrim,Dragon Inn,Restaurant/Cafe/Canteen,1,10,,563541,10,,54.71077400000000,418,808,sec2.envhealth@carrickffergus.org,Carrickfergus,http://www.carrickfergus.org/,-5.82730700000000,BT38 8BX,2013-10-11,fhrs_3_en-GB,3,,FHRS,10
404880,23 Irish Quarter West,,Carrickfergus,Antrim,Dynasty,Takeaway/sandwich shop,7844,5,,563643,10,,54.71468500000000,83,808,sec2.envhealth@carrickffergus.org,Carrickfergus,http://www.carrickfergus.org/,-5.81095700000000,BT38 8AS,2014-01-30,fhrs_3_en-GB,3,,FHRS,10
404881,Eden Community Centre Beltoy Road,,Carrickfergus,Co Antrim,Eden Community Centre,Other catering premises,7841,0,,707710,0,,,1137,808,sec2.envhealth@carrickffergus.org,Carrickfergus,http://www.carrickfergus.org/,,,2014-07-30,fhrs_5_en-GB,5,,FHRS,0
404882,162 Larne Road,,Carrickfergus,Antrim,Eden Primary School Kitchen,School/college/university,7845,5,,563471,5,,54.72864000000000,234,808,sec2.envhealth@carrickffergus.org,Carrickfergus,http://www.carrickfergus.org/,-5.77403100000000,BT38 7NL,2013-12-09,fhrs_5_en-GB,5,,FHRS,0
404883,,,,,Ed's Ices,Mobile caterer,7846,10,,563660,10,,,870,808,sec2.envhealth@carrickffergus.org,Carrickfergus,http://www.carrickfergus.org/,,,2011-01-13,fhrs_3_en-GB,3,,FHRS,5
404884,Ellis Street,,Carrickfergus,Antrim,Ellis Court Respite Centre,Hospitals/Childcare/Caring Premises,5,5,,563548,5,,54.71588800000000,454,808,sec2.envhealth@carrickffergus.org,Carrickfergus,http://www.carrickfergus.org/,-5.81637100000000,BT38 8AY,2015-01-13,fhrs_5_en-GB,5,,FHRS,0
404885,17 Victoria Road,,Carrickfergus,Antrim,Eurospar,Retailers - supermarkets/hypermarkets,7840,20,,563529,15,,54.72236900000000,396,808,sec2.envhealth@carrickffergus.org,Carrickfergus,http://www.carrickfergus.org/,-5.79072000000000,BT38 7JE,2014-10-28,fhrs_1_en-GB,1,,FHRS,10
404886,182 Station Road,Greenisland,Carrickfergus,Antrim,Evergreen Chinese,Takeaway/sandwich shop,7844,10,,563568,15,,54.69346900000000,515,808,sec2.envhealth@carrickffergus.org,Carrickfergus,http://www.carrickfergus.org/,-5.86316300000000,BT38 8TS,2014-02-20,fhrs_2_en-GB,2,,FHRS,10
404887,1 Elizabeth Avenue,,Carrickfergus,Antrim,Fergus Fold,Hospitals/Childcare/Caring Premises,5,5,,563512,5,,54.72113900000000,356,808,sec2.envhealth@carrickffergus.org,Carrickfergus,http://www.carrickfergus.org/,-5.79525800000000,BT38 7EP,2012-08-20,fhrs_5_en-GB,5,,FHRS,0
404888,,,,,Fm Promotions,Other catering premises,7841,,,563711,,,,969,808,sec2.envhealth@carrickffergus.org,Carrickfergus,http://www.carrickfergus.org/,,,2013-10-11,fhrs_exempt_en-GB,Exempt,,FHRS,
404889,75b Belfast Road,,Carrickfergus,Antrim,Fortfield Service Station,Retailers - other,4613,5,,563540,10,,54.71077400000000,416,808,sec2.envhealth@carrickffergus.org,Carrickfergus,http://www.carrickfergus.org/,-5.82730700000000,BT38 8BX,2013-11-18,fhrs_4_en-GB,4,,FHRS,5
404890,15 Kings Road,,Whitehead,Antrim,Foster's Fruit And Veg,Retailers - other,4613,5,,563594,10,,54.75343500000000,570,808,sec2.envhealth@carrickffergus.org,Carrickfergus,http://www.carrickfergus.org/,-5.71248900000000,BT38 9PU,2014-02-25,fhrs_4_en-GB,4,,FHRS,5
404891,6 Islandmagee Road,,Whitehead,Antrim,Frankies Newsagents,Retailers - other,4613,10,,563577,10,,54.75726300000000,533,808,sec2.envhealth@carrickffergus.org,Carrickfergus,http://www.carrickfergus.org/,-5.71056400000000,BT38 9NE,2011-09-30,fhrs_3_en-GB,3,,FHRS,5
404892,97 Hawthorn Avenue,,Carrickfergus,Antrim,Fun Time Ice Cream,Mobile caterer,7846,5,,691427,10,,54.72160200000000,1126,808,sec2.envhealth@carrickffergus.org,Carrickfergus,http://www.carrickfergus.org/,-5.81786400000000,BT38 8EQ,2014-07-03,fhrs_4_en-GB,4,,FHRS,0
404893,75a Belfast Road,,Carrickfergus,Antrim,Gap Wines,Retailers - other,4613,,,563683,,,54.71077400000000,916,808,sec2.envhealth@carrickffergus.org,Carrickfergus,http://www.carrickfergus.org/,-5.82730700000000,BT38 8BX,2013-07-10,fhrs_exempt_en-GB,Exempt,,FHRS,
404894,11a Antrim Street,,Carrickfergus,Antrim,Glass House Bistro,Restaurant/Cafe/Canteen,1,0,,563644,5,,,837,808,sec2.envhealth@carrickffergus.org,Carrickfergus,http://www.carrickfergus.org/,,,2014-01-16,fhrs_5_en-GB,5,,FHRS,5
404895,8 Hawthorn Grove,,Carrickfergus,Antrim,Golden Chip,Takeaway/sandwich shop,7844,10,,563490,10,,54.72218700000000,295,808,sec2.envhealth@carrickffergus.org,Carrickfergus,http://www.carrickfergus.org/,-5.82039400000000,BT38 8HE,2014-06-09,fhrs_3_en-GB,3,,FHRS,10
404896,Thomas Street,,Carrickfergus,Antrim,Greengables,Hospitals/Childcare/Caring Premises,5,5,,563501,5,,54.71672400000000,325,808,sec2.envhealth@carrickffergus.org,Carrickfergus,http://www.carrickfergus.org/,-5.81089400000000,BT38 8AL,2012-09-24,fhrs_5_en-GB,5,,FHRS,5
404897,9 Glassillan Court,Greenisland,Carrickfergus,Antrim,Greenisland Chippy,Takeaway/sandwich shop,7844,,,563607,,,54.69586700000000,603,808,sec2.envhealth@carrickffergus.org,Carrickfergus,http://www.carrickfergus.org/,-5.87026600000000,BT38 8TD,2014-05-01,fhrs_5_en-GB,5,,FHRS,
404898,156 Upper Road,Greenisland,Carrickfergus,Antrim,Greenisland Golf Club,Restaurant/Cafe/Canteen,1,5,,563571,5,,54.70476900000000,522,808,sec2.envhealth@carrickffergus.org,Carrickfergus,http://www.carrickfergus.org/,-5.87166100000000,BT38 8RW,2013-05-23,fhrs_5_en-GB,5,,FHRS,5
404899,Upper Road,Greenisland,Carrickfergus,Antrim,Greenisland Presbyterian Church,Other catering premises,7841,5,,563701,5,,54.70476900000000,939,808,sec2.envhealth@carrickffergus.org,Carrickfergus,http://www.carrickfergus.org/,-5.87166100000000,BT38 8RW,2014-06-02,fhrs_5_en-GB,5,,FHRS,0
404900,Upper Station Road,Greenisland,Carrickfergus,Antrim,Greenisland Primary School Kitchen,School/college/university,7845,5,,563575,5,,54.70070300000000,528,808,sec2.envhealth@carrickffergus.org,Carrickfergus,http://www.carrickfergus.org/,-5.87398400000000,BT38 8RA,2013-09-30,fhrs_5_en-GB,5,,FHRS,5
404901,15 Glassillan Grove,Greenisland,Carrickfergus,Antrim,Greenisland Social Centre,Other catering premises,7841,,,563561,,,54.69686700000000,493,808,sec2.envhealth@carrickffergus.org,Carrickfergus,http://www.carrickfergus.org/,-5.87193600000000,BT38 8TE,2012-11-15,fhrs_exempt_en-GB,Exempt,,FHRS,
404902,Larne Road,Kilroot,Carrickfergus,Antrim,Gullivers Galley Cafe,Restaurant/Cafe/Canteen,1,5,,563434,5,,54.73098700000000,1039,808,sec2.envhealth@carrickffergus.org,Carrickfergus,http://www.carrickfergus.org/,-5.76480400000000,BT38 7PR,2014-01-08,fhrs_5_en-GB,5,,FHRS,5
404903,14 Joymount,,Carrickfergus,Antrim,Happy Garden,Takeaway/sandwich shop,7844,10,,563716,10,,54.71632300000000,98,808,sec2.envhealth@carrickffergus.org,Carrickfergus,http://www.carrickfergus.org/,-5.80362100000000,BT38 7DN,2012-10-23,fhrs_3_en-GB,3,,FHRS,10
404904,Ellis St,,Carrickfergus,Antrim,Hawthorn's Adult Centre,Restaurant/Cafe/Canteen,1,0,,563484,0,,54.71700400000000,284,808,sec2.envhealth@carrickffergus.org,Carrickfergus,http://www.carrickfergus.org/,-5.81848400000000,BT38 8AZ,2015-01-13,fhrs_5_en-GB,5,,FHRS,0
404905,76 Scotch Quarter,,Carrickfergus,Antrim,Hazel's Confectionery,Retailers - other,4613,5,,563468,5,,54.71802800000000,197,808,sec2.envhealth@carrickffergus.org,Carrickfergus,http://www.carrickfergus.org/,-5.79955500000000,BT38 7DP,2013-09-23,fhrs_5_en-GB,5,,FHRS,0
404906,Antrim Street,,Carrickfergus,Antrim,Home Bargains,Retailers - other,4613,5,,563709,0,,54.71579900000000,965,808,sec2.envhealth@carrickffergus.org,Carrickfergus,http://www.carrickfergus.org/,-5.80599300000000,BT38 7DG,2014-05-08,fhrs_5_en-GB,5,,FHRS,0
404907,186 Station Road,Greenisland,,Antrim,Hops N Vines,Retailers - other,4613,,,634980,,,,1112,808,sec2.envhealth@carrickffergus.org,Carrickfergus,http://www.carrickfergus.org/,,,2014-01-30,fhrs_exempt_en-GB,Exempt,,FHRS,
404908,Sunnylands Avenue,,Carrickfergus,Antrim,Horizon Surestart,Hospitals/Childcare/Caring Premises,5,,,563664,,,54.72106200000000,881,808,sec2.envhealth@carrickffergus.org,Carrickfergus,http://www.carrickfergus.org/,-5.81528500000000,BT38 8JJ,2014-05-22,fhrs_exempt_en-GB,Exempt,,FHRS,
404909,60 Downshire Road,,Carrickfergus,Antrim,Humpty Dumpty Playgroup,Hospitals/Childcare/Caring Premises,5,5,,563508,0,,54.72735600000000,351,808,sec2.envhealth@carrickffergus.org,Carrickfergus,http://www.carrickfergus.org/,-5.79077500000000,BT38 7LD,2012-09-18,fhrs_5_en-GB,5,,FHRS,0
404910,Antrim Street,,Carrickfergus,Antrim,Iceland Frozen Foods,Retailers - supermarkets/hypermarkets,7840,5,,563475,0,,54.71579900000000,25,808,sec2.envhealth@carrickffergus.org,Carrickfergus,http://www.carrickfergus.org/,-5.80599300000000,BT38 7DG,2012-08-16,fhrs_5_en-GB,5,,FHRS,0
404911,75 Belfast Road,,Carrickfergus,Antrim,Indian Ocean Restaurant,Restaurant/Cafe/Canteen,1,5,,563542,5,,54.71077400000000,419,808,sec2.envhealth@carrickffergus.org,Carrickfergus,http://www.carrickfergus.org/,-5.82730700000000,BT38 8BX,2014-01-24,fhrs_5_en-GB,5,,FHRS,0
404912,41 North Street,,Carrickfergus,Antrim,Jacq's Bar,Pub/bar/nightclub,7843,5,,563459,5,,54.71608400000000,165,808,sec2.envhealth@carrickffergus.org,Carrickfergus,http://www.carrickfergus.org/,-5.80784000000000,BT38 7AE,2013-05-29,fhrs_4_en-GB,4,,FHRS,10
404913,9 Victoria Avenue,,Whitehead,Antrim,Jess's Plaice,Takeaway/sandwich shop,7844,10,,563599,10,,54.75236000000000,586,808,sec2.envhealth@carrickffergus.org,Carrickfergus,http://www.carrickfergus.org/,-5.71026600000000,BT38 9QF,2013-11-20,fhrs_3_en-GB,3,,FHRS,5
404914,13 Edward Road,,Whitehead,Antrim,John G Fleming Chemists,Retailers - other,4613,,,581065,,,54.75323000000000,562,808,sec2.envhealth@carrickffergus.org,Carrickfergus,http://www.carrickfergus.org/,-5.71063700000000,BT38 9QB,2013-07-24,fhrs_exempt_en-GB,Exempt,,FHRS,
404915,3a Chester Avenue,,Whitehead,Antrim,Johnnies Chef,Takeaway/sandwich shop,7844,10,,563586,10,,54.75369000000000,557,808,sec2.envhealth@carrickffergus.org,Carrickfergus,http://www.carrickfergus.org/,-5.70838900000000,BT38 9QQ,2012-02-09,fhrs_3_en-GB,3,,FHRS,5
404916,110 Victoria Road,,Carrickfergus,Antrim,Jolly Tots After School Club,Hospitals/Childcare/Caring Premises,5,10,,563662,5,,54.72620600000000,879,808,sec2.envhealth@carrickffergus.org,Carrickfergus,http://www.carrickfergus.org/,-5.79422200000000,BT38 7JL,2012-09-17,fhrs_4_en-GB,4,,FHRS,5
404917,4 Victoria Road,,Carrickfergus,Antrim,Jolly Tots Day Nursery,Hospitals/Childcare/Caring Premises,5,5,,563526,5,,54.72304200000000,391,808,sec2.envhealth@carrickffergus.org,Carrickfergus,http://www.carrickfergus.org/,-5.79265500000000,BT38 7JF,2014-10-02,fhrs_5_en-GB,5,,FHRS,5
404918,19a King'S Road,,Whitehead,Antrim,Jordans,Retailers - other,4613,5,,563595,5,,,573,808,sec2.envhealth@carrickffergus.org,Carrickfergus,http://www.carrickfergus.org/,,,2013-04-23,fhrs_4_en-GB,4,,FHRS,10
404919,Rodger'S Quay,,Carrickfergus,Antrim,Josh Mac's,Restaurant/Cafe/Canteen,1,,,563444,,,,1062,808,sec2.envhealth@carrickffergus.org,Carrickfergus,http://www.carrickfergus.org/,,,2014-01-30,fhrs_5_en-GB,5,,FHRS,
404920,17 Joymount,,Carrickfergus,Antrim,Joymount Arms Public House,Pub/bar/nightclub,7843,5,,563628,0,,54.71632300000000,683,808,sec2.envhealth@carrickffergus.org,Carrickfergus,http://www.carrickfergus.org/,-5.80362100000000,BT38 7DN,2011-02-22,fhrs_5_en-GB,5,,FHRS,5
404921,6 Joymount,,Carrickfergus,Antrim,Joymount House Residential Home,Hospitals/Childcare/Caring Premises,5,0,,563513,5,,54.71632300000000,358,808,sec2.envhealth@carrickffergus.org,Carrickfergus,http://www.carrickfergus.org/,-5.80362100000000,BT38 7DN,2014-07-21,fhrs_5_en-GB,5,,FHRS,0
404922,26-28 Middle Road,,Carrickfergus,Antrim,Juniors Fish & Chips,Takeaway/sandwich shop,7844,10,,563641,5,,54.73635300000000,826,808,sec2.envhealth@carrickffergus.org,Carrickfergus,http://www.carrickfergus.org/,-5.82469500000000,BT38 9DN,2014-09-02,fhrs_4_en-GB,4,,FHRS,0
404923,47b Victoria Road,,Carrickfergus,Antrim,K & L Catering,Other catering premises,7841,10,,563532,5,,54.72434700000000,402,808,sec2.envhealth@carrickffergus.org,Carrickfergus,http://www.carrickfergus.org/,-5.79328300000000,BT38 7JJ,2012-08-08,fhrs_3_en-GB,3,,FHRS,10
404924,3 Minorca Drive,,Carrickfergus,Antrim,Karuna Home,Hospitals/Childcare/Caring Premises,5,5,,563602,5,,,592,808,sec2.envhealth@carrickffergus.org,Carrickfergus,http://www.carrickfergus.org/,,,2013-03-21,fhrs_5_en-GB,5,,FHRS,5
404925,75a Belfast Road,,Carrickfergus,Antrim,KFC,Restaurant/Cafe/Canteen,1,5,,563539,0,,54.71077400000000,415,808,sec2.envhealth@carrickffergus.org,Carrickfergus,http://www.carrickfergus.org/,-5.82730700000000,BT38 8BX,2014-01-09,fhrs_5_en-GB,5,,FHRS,0
404926,1 Edenvale Avenue,,Carrickfergus,Antrim,"Kilroot Playgroup,",Hospitals/Childcare/Caring Premises,5,,,563510,,,54.72917500000000,353,808,sec2.envhealth@carrickffergus.org,Carrickfergus,http://www.carrickfergus.org/,-5.77524400000000,BT38 7NP,2013-12-12,fhrs_4_en-GB,4,,FHRS,
404927,236 Upper Road,Greenisland,Carrickfergus,Antrim,Knockagh Lodge,Hotel/bed & breakfast/guest house,7842,10,,563572,10,,54.70738500000000,523,808,sec2.envhealth@carrickffergus.org,Carrickfergus,http://www.carrickfergus.org/,-5.86511600000000,BT38 8RP,2013-12-05,fhrs_3_en-GB,3,,FHRS,10
404928,236 Upper Road,Greenisland,Carrickfergus,Antrim,Knockagh View Equestrian Centre,Restaurant/Cafe/Canteen,1,10,,563650,10,,54.70738500000000,849,808,sec2.envhealth@carrickffergus.org,Carrickfergus,http://www.carrickfergus.org/,-5.86511600000000,BT38 8RP,2014-06-20,fhrs_3_en-GB,3,,FHRS,5
404929,15 Victoria Road,,Carrickfergus,Antrim,Leathem's Newsagent And Post Office,Retailers - other,4613,10,,563528,0,,54.72236900000000,395,808,sec2.envhealth@carrickffergus.org,Carrickfergus,http://www.carrickfergus.org/,-5.79072000000000,BT38 7JE,2014-03-11,fhrs_4_en-GB,4,,FHRS,5
404930,75a Belfast Road,,Carrickfergus,Antrim,Lidl,Retailers - supermarkets/hypermarkets,7840,5,,563705,5,,54.71077400000000,958,808,sec2.envhealth@carrickffergus.org,Carrickfergus,http://www.carrickfergus.org/,-5.82730700000000,BT38 8BX,2014-05-13,fhrs_5_en-GB,5,,FHRS,0
404931,1 Adelaide Avenue,,Whitehead,Antrim,Little Einsteins Child Care Facility,Hospitals/Childcare/Caring Premises,5,10,,563669,10,,54.75531400000000,888,808,sec2.envhealth@carrickffergus.org,Carrickfergus,http://www.carrickfergus.org/,-5.71202600000000,BT38 9RZ,2014-03-18,fhrs_3_en-GB,3,,FHRS,5
404932,Hawthorn Grove,,Carrickfergus,Antrim,Lucky Chilli,Takeaway/sandwich shop,7844,5,,563488,15,,54.72045400000000,291,808,sec2.envhealth@carrickffergus.org,Carrickfergus,http://www.carrickfergus.org/,-5.81896600000000,BT38 8EG,2013-02-27,fhrs_2_en-GB,2,,FHRS,10
404933,Prince Andrew Way,North East Division,Carrickfergus,Antrim,Ma Ma Chef,Takeaway/sandwich shop,7844,10,,620814,10,,54.72955800000000,1105,808,sec2.envhealth@carrickffergus.org,Carrickfergus,http://www.carrickfergus.org/,-5.80164700000000,BT38 7TU,2013-12-05,fhrs_3_en-GB,3,,FHRS,5
404934,5 Glassillan Court,Greenisland,Carrickfergus,Antrim,Mace,Retailers - other,4613,10,,563557,5,,54.69586700000000,485,808,sec2.envhealth@carrickffergus.org,Carrickfergus,http://www.carrickfergus.org/,-5.87026600000000,BT38 8TD,2014-03-12,fhrs_4_en-GB,4,,FHRS,5
404935,2 North Road,,Carrickfergus,Antrim,MacNeice Fold,Hospitals/Childcare/Caring Premises,5,0,,563493,0,,54.71864700000000,304,808,sec2.envhealth@carrickffergus.org,Carrickfergus,http://www.carrickfergus.org/,-5.80791900000000,BT38 8LW,2012-08-31,fhrs_5_en-GB,5,,FHRS,5
404936,Marine Parade,,Whitehead,Antrim,Marine Bar,Pub/bar/nightclub,7843,10,,563580,5,,54.75398700000000,537,808,sec2.envhealth@carrickffergus.org,Carrickfergus,http://www.carrickfergus.org/,-5.70744000000000,BT38 9QN,2012-11-22,fhrs_3_en-GB,3,,FHRS,10
404937,10 Castle Street,,Carrickfergus,Antrim,Mayur Indian Restaurant,Restaurant/Cafe/Canteen,1,,,731390,,,54.71424100000000,1136,808,sec2.envhealth@carrickffergus.org,Carrickfergus,http://www.carrickfergus.org/,-5.80728700000000,BT38 7BE,2015-01-22,fhrs_5_en-GB,5,,FHRS,
404938,26 Middle Road,,Carrickfergus,Antrim,Mc Dowells At Carrick Milestone,Retailers - other,4613,5,,563427,5,,54.73635300000000,1014,808,sec2.envhealth@carrickffergus.org,Carrickfergus,http://www.carrickfergus.org/,-5.82469500000000,BT38 9DN,2013-11-28,fhrs_5_en-GB,5,,FHRS,0
404939,13 West Street,,Carrickfergus,Antrim,Mc Dowell's Butchers,Retailers - other,4613,5,,563639,10,,54.71461600000000,714,808,sec2.envhealth@carrickffergus.org,Carrickfergus,http://www.carrickfergus.org/,-5.80863300000000,BT38 7AR,2014-02-06,fhrs_4_en-GB,4,,FHRS,5
404940,2 Sloefield Drive,,Carrickfergus,Antrim,McCue Interior Fit Out,Restaurant/Cafe/Canteen,1,5,,563618,0,,54.71177600000000,630,808,sec2.envhealth@carrickffergus.org,Carrickfergus,http://www.carrickfergus.org/,-5.84212000000000,BT38 8GX,2014-02-26,fhrs_5_en-GB,5,,FHRS,0
404941,Rodger'S Quay,,Carrickfergus,Antrim,McDonald's,Restaurant/Cafe/Canteen,1,0,,563462,5,,54.71146600000000,174,808,sec2.envhealth@carrickffergus.org,Carrickfergus,http://www.carrickfergus.org/,-5.81181300000000,BT38 8BE,2013-05-29,fhrs_5_en-GB,5,,FHRS,5
404942,9 Windsor Avenue,,Whitehead,Antrim,McKee's Home Bakery,Retailers - other,4613,5,,563601,10,,54.75480700000000,591,808,sec2.envhealth@carrickffergus.org,Carrickfergus,http://www.carrickfergus.org/,-5.71183700000000,BT38 9RX,2014-10-14,fhrs_3_en-GB,3,,FHRS,10
404943,7 Glassillan Court,Greenisland,Carrickfergus,Antrim,McKee's Quality Meats,Retailers - other,4613,5,,563558,5,,54.69586700000000,487,808,sec2.envhealth@carrickffergus.org,Carrickfergus,http://www.carrickfergus.org/,-5.87026600000000,BT38 8TD,2013-03-15,fhrs_5_en-GB,5,,FHRS,5
404944,34 Kings Road,,Whitehead,Antrim,McMaster Home Farm Meats,Retailers - other,4613,0,,563597,10,,54.75406900000000,576,808,sec2.envhealth@carrickffergus.org,Carrickfergus,http://www.carrickfergus.org/,-5.71133500000000,BT38 9PT,2014-01-13,fhrs_4_en-GB,4,,FHRS,10
404945,Joymount,,Carrickfergus,Antrim,Mcmaster Home Farms Meats Stall,Mobile caterer,7846,10,,620815,10,,54.71632300000000,1108,808,sec2.envhealth@carrickffergus.org,Carrickfergus,http://www.carrickfergus.org/,-5.80362100000000,BT38 7DN,2013-12-12,fhrs_4_en-GB,4,,FHRS,0
404946,16-18 High Street,,Carrickfergus,Antrim,Medicare,Retailers - other,4613,,,581066,,,54.71535100000000,57,808,sec2.envhealth@carrickffergus.org,Carrickfergus,http://www.carrickfergus.org/,-5.80604800000000,BT38 7AF,2013-08-21,fhrs_exempt_en-GB,Exempt,,FHRS,
404947,1 Knockleigh Drive,Greenisland,Carrickfergus,Antrim,Medicare Greenisland,Retailers - other,4613,,,563425,,,54.69405500000000,1002,808,sec2.envhealth@carrickffergus.org,Carrickfergus,http://www.carrickfergus.org/,-5.86736700000000,BT38 8UT,2011-09-06,fhrs_exempt_en-GB,Exempt,,FHRS,
404948,9 Victoria Road,,Carrickfergus,Antrim,Medicare Victoria,Retailers - other,4613,,,563527,,,54.72236900000000,394,808,sec2.envhealth@carrickffergus.org,Carrickfergus,http://www.carrickfergus.org/,-5.79072000000000,BT38 7JE,2011-05-25,fhrs_exempt_en-GB,Exempt,,FHRS,
404949,10 North Street,,Carrickfergus,Antrim,Millar's Old Thyme Sweets,Retailers - other,4613,5,,563446,5,,54.71527500000000,1069,808,sec2.envhealth@carrickffergus.org,Carrickfergus,http://www.carrickfergus.org/,-5.80729400000000,BT38 7AQ,2013-01-30,fhrs_4_en-GB,4,,FHRS,10
404950,"1 Henry Gill Court, Ellis Street",,Carrickfergus,Antrim,Mindwise,Hospitals/Childcare/Caring Premises,5,5,,563609,5,,,608,808,sec2.envhealth@carrickffergus.org,Carrickfergus,http://www.carrickfergus.org/,,,2013-03-21,fhrs_4_en-GB,4,,FHRS,10
404951,84 Raw Brae Road,,Whitehead,Antrim,Minor Miracles Day Care Nursery,Hospitals/Childcare/Caring Premises,5,10,,563583,5,,54.74645700000000,545,808,sec2.envhealth@carrickffergus.org,Carrickfergus,http://www.carrickfergus.org/,-5.73754800000000,BT38 9SX,2013-03-27,fhrs_4_en-GB,4,,FHRS,5
404952,43 Ellis Street,,Carrickfergus,Antrim,Moghul 3 In 1 Takeaway,Takeaway/sandwich shop,7844,10,,563547,10,,54.71588800000000,450,808,sec2.envhealth@carrickffergus.org,Carrickfergus,http://www.carrickfergus.org/,-5.81637100000000,BT38 8AY,2014-08-06,fhrs_3_en-GB,3,,FHRS,5
404953,57-59 Irish Quarter West,,Carrickfergus,Antrim,Nautica Tattoo Studio,Restaurant/Cafe/Canteen,1,,,563651,,,54.71472400000000,85,808,sec2.envhealth@carrickffergus.org,Carrickfergus,http://www.carrickfergus.org/,-5.81263100000000,BT38 8AT,2012-10-01,fhrs_exempt_en-GB,Exempt,,FHRS,
404954,202 Larne Road,,Carrickfergus,Antrim,Neill's Newsagents,Retailers - other,4613,10,,563473,10,,54.72864000000000,237,808,sec2.envhealth@carrickffergus.org,Carrickfergus,http://www.carrickfergus.org/,-5.77403100000000,BT38 7NL,2013-10-22,fhrs_4_en-GB,4,,FHRS,0
404955,9 Governors Place,,Carrickfergus,Antrim,New Four Seasons Chinese Restaurant,Restaurant/Cafe/Canteen,1,10,,563543,15,,54.71388600000000,42,808,sec2.envhealth@carrickffergus.org,Carrickfergus,http://www.carrickfergus.org/,-5.80850100000000,BT38 7BN,2014-11-06,fhrs_2_en-GB,2,,FHRS,10
404956,Antrim Street,,Carrickfergus,Antrim,New Look,Retailers - other,4613,,,563702,,,54.71579900000000,947,808,sec2.envhealth@carrickffergus.org,Carrickfergus,http://www.carrickfergus.org/,-5.80599300000000,BT38 7DG,2013-11-21,fhrs_exempt_en-GB,Exempt,,FHRS,
404957,Oakfield Drive,,Carrickfergus,Antrim,Oakfield Primary School Kitchen,School/college/university,7845,0,,563521,0,,54.73492100000000,375,808,sec2.envhealth@carrickffergus.org,Carrickfergus,http://www.carrickfergus.org/,-5.80756800000000,BT38 7SP,2013-10-21,fhrs_5_en-GB,5,,FHRS,5
404958,1 Oakland Park,,Carrickfergus,Antrim,Oakland Stores,Retailers - other,4613,,,563522,,,54.73254700000000,377,808,sec2.envhealth@carrickffergus.org,Carrickfergus,http://www.carrickfergus.org/,-5.81041300000000,BT38 7QN,2014-09-23,fhrs_5_en-GB,5,,FHRS,
404959,1 Kings Road,,Whitehead,Antrim,Old Tea House,Restaurant/Cafe/Canteen,1,5,,563593,10,,54.75343500000000,567,808,sec2.envhealth@carrickffergus.org,Carrickfergus,http://www.carrickfergus.org/,-5.71248900000000,BT38 9PU,2015-01-08,fhrs_3_en-GB,3,,FHRS,10
404960,16 Market Place,,Carrickfergus,Antrim,Ollie's Bistro,Restaurant/Cafe/Canteen,1,5,,563614,10,,54.71469000000000,619,808,sec2.envhealth@carrickffergus.org,Carrickfergus,http://www.carrickfergus.org/,-5.80726300000000,BT38 7AW,2014-07-17,fhrs_3_en-GB,3,,FHRS,10
404961,Rodger'S Quay,,Carrickfergus,Antrim,Omniplex Cinema,Retailers - other,4613,5,,563460,10,,54.71146600000000,172,808,sec2.envhealth@carrickffergus.org,Carrickfergus,http://www.carrickfergus.org/,-5.81181300000000,BT38 8BE,2013-07-04,fhrs_4_en-GB,4,,FHRS,5
404962,9 West Street,,Carrickfergus,Antrim,One Stop Shop,Retailers - other,4613,5,,563469,0,,54.71461600000000,216,808,sec2.envhealth@carrickffergus.org,Carrickfergus,http://www.carrickfergus.org/,-5.80863300000000,BT38 7AR,2013-09-23,fhrs_5_en-GB,5,,FHRS,0
404963,27 North Street,,Carrickfergus,Antrim,O'Neills Home Bakery,Restaurant/Cafe/Canteen,1,10,,563458,10,,54.71527500000000,155,808,sec2.envhealth@carrickffergus.org,Carrickfergus,http://www.carrickfergus.org/,-5.80729400000000,BT38 7AQ,2013-10-15,fhrs_3_en-GB,3,,FHRS,10
404964,17 Joymount,,Carrickfergus,Antrim,"Ownie's Bistro, Joymount Arms",Restaurant/Cafe/Canteen,1,10,,563717,5,,54.71632300000000,99,808,sec2.envhealth@carrickffergus.org,Carrickfergus,http://www.carrickfergus.org/,-5.80362100000000,BT38 7DN,2013-03-26,fhrs_4_en-GB,4,,FHRS,5
404965,Marine Highway,,Carrickfergus,Antrim,Pa Pa Brown's Grill,Restaurant/Cafe/Canteen,1,,,563613,,,54.71525800000000,617,808,sec2.envhealth@carrickffergus.org,Carrickfergus,http://www.carrickfergus.org/,-5.80538500000000,BT38 7FG,2014-05-06,fhrs_4_en-GB,4,,FHRS,
404966,9 Glassillan Court,Greenisland,Carrickfergus,Antrim,Paiges Bakery,Retailers - other,4613,5,,681602,10,,54.69586700000000,1121,808,sec2.envhealth@carrickffergus.org,Carrickfergus,http://www.carrickfergus.org/,-5.87026600000000,BT38 8TD,2014-04-15,fhrs_4_en-GB,4,,FHRS,5
404967,8 Antrim Street,,Carrickfergus,Antrim,Papa's Kitchen,Takeaway/sandwich shop,7844,5,,563637,10,,54.71579900000000,712,808,sec2.envhealth@carrickffergus.org,Carrickfergus,http://www.carrickfergus.org/,-5.80599300000000,BT38 7DG,2014-07-22,fhrs_4_en-GB,4,,FHRS,5
404968,2 Hawthorn Grove,,Carrickfergus,Antrim,Planet Bingo,Restaurant/Cafe/Canteen,1,5,,563489,10,,54.72045400000000,293,808,sec2.envhealth@carrickffergus.org,Carrickfergus,http://www.carrickfergus.org/,-5.81896600000000,BT38 8EG,2013-06-11,fhrs_3_en-GB,3,,FHRS,10
404969,48 Station Road,Greenisland,,Antrim,Play Station After School Club,Hospitals/Childcare/Caring Premises,5,0,,563615,0,,54.69436900000000,620,808,sec2.envhealth@carrickffergus.org,Carrickfergus,http://www.carrickfergus.org/,-5.86477600000000,BT38 8TP,2013-04-18,fhrs_5_en-GB,5,,FHRS,5
404970,12a Antrim Street,,Carrickfergus,Antrim,Poundland,Retailers - other,4613,0,,563445,10,,54.71579900000000,1065,808,sec2.envhealth@carrickffergus.org,Carrickfergus,http://www.carrickfergus.org/,-5.80599300000000,BT38 7DG,2012-09-19,fhrs_4_en-GB,4,,FHRS,0
404971,12-14 High Street,,Carrickfergus,Antrim,Poundstretcher,Retailers - other,4613,5,,563714,0,,54.71535100000000,973,808,sec2.envhealth@carrickffergus.org,Carrickfergus,http://www.carrickfergus.org/,-5.80604800000000,BT38 7AF,2014-07-22,fhrs_5_en-GB,5,,FHRS,0
404972,Rodger'S Quay,,Carrickfergus,Antrim,Premier Inn,Hotel/bed & breakfast/guest house,7842,0,,563621,5,,,633,808,sec2.envhealth@carrickffergus.org,Carrickfergus,http://www.carrickfergus.org/,,,2013-08-01,fhrs_5_en-GB,5,,FHRS,5
404973,Bridewell Drive,,Carrickfergus,Antrim,Rainbow Playgroup,Hospitals/Childcare/Caring Premises,5,5,,563483,0,,54.72278700000000,281,808,sec2.envhealth@carrickffergus.org,Carrickfergus,http://www.carrickfergus.org/,-5.81031800000000,BT38 8LU,2012-09-17,fhrs_5_en-GB,5,,FHRS,0
404974,79 Shore Road,Greenisland,Carrickfergus,Antrim,Ravenhill Private Nursing Home,Hospitals/Childcare/Caring Premises,5,5,,563564,5,,54.69045600000000,503,808,sec2.envhealth@carrickffergus.org,Carrickfergus,http://www.carrickfergus.org/,-5.86657900000000,BT38 8UE,2015-01-06,fhrs_5_en-GB,5,,FHRS,5
404975,2 Larne Road,,Whitehead,Antrim,Raw Brae Service Station,Retailers - other,4613,10,,563576,5,,54.75798300000000,529,808,sec2.envhealth@carrickffergus.org,Carrickfergus,http://www.carrickfergus.org/,-5.72211400000000,BT38 9TF,2012-10-01,fhrs_4_en-GB,4,,FHRS,5
404976,159a Larne Road,Eden,Carrickfergus,Antrim,Rj's Fish And Chips,Takeaway/sandwich shop,7844,,,563653,,,54.73150200000000,857,808,sec2.envhealth@carrickffergus.org,Carrickfergus,http://www.carrickfergus.org/,-5.76839300000000,BT38 9BN,2013-05-22,fhrs_4_en-GB,4,,FHRS,
404977,61 Station Road,Greenisland,,Antrim,Rocking Horse Day Nursery,Hospitals/Childcare/Caring Premises,5,0,,563566,5,,54.69604200000000,512,808,sec2.envhealth@carrickffergus.org,Carrickfergus,http://www.carrickfergus.org/,-5.86695300000000,BT38 8UP,2014-03-25,fhrs_5_en-GB,5,,FHRS,5
404978,16-18 Green Street,,Carrickfergus,Antrim,Royal Oak,Restaurant/Cafe/Canteen,1,5,,563555,10,,54.71895700000000,48,808,sec2.envhealth@carrickffergus.org,Carrickfergus,http://www.carrickfergus.org/,-5.79629200000000,BT38 7DT,2014-12-02,fhrs_4_en-GB,4,,FHRS,5
404979,15 Upper Road,Greenisland,Carrickfergus,Antrim,Russells Shop For You,Retailers - other,4613,0,,563569,5,,54.70118400000000,519,808,sec2.envhealth@carrickffergus.org,Carrickfergus,http://www.carrickfergus.org/,-5.88399700000000,BT38 8RH,2012-04-20,fhrs_5_en-GB,5,,FHRS,5
404980,5 Meadowbank Road,,Carrickfergus,Antrim,Ryobi Canteen,Restaurant/Cafe/Canteen,1,5,,563470,5,,54.70872200000000,230,808,sec2.envhealth@carrickffergus.org,Carrickfergus,http://www.carrickfergus.org/,-5.84014100000000,BT38 8YF,2014-12-22,fhrs_5_en-GB,5,,FHRS,0
404981,1 Rodgers Quay,,Carrickfergus,Antrim,Sainsbury's Supermarket,Retailers - supermarkets/hypermarkets,7840,5,,563672,0,,54.71146600000000,891,808,sec2.envhealth@carrickffergus.org,Carrickfergus,http://www.carrickfergus.org/,-5.81181300000000,BT38 8BE,2014-01-22,fhrs_5_en-GB,5,,FHRS,0
404982,22 Marshallstown Road,,Carrickfergus,Antrim,Season Coffee Shop,Restaurant/Cafe/Canteen,1,5,,563684,10,,54.73559400000000,918,808,sec2.envhealth@carrickffergus.org,Carrickfergus,http://www.carrickfergus.org/,-5.80948800000000,BT38 9DE,2013-11-26,fhrs_4_en-GB,4,,FHRS,5
404983,41 Edenvale Avenue,,Carrickfergus,Antrim,Sense NI,Hospitals/Childcare/Caring Premises,5,5,,563511,5,,54.72917500000000,354,808,sec2.envhealth@carrickffergus.org,Carrickfergus,http://www.carrickfergus.org/,-5.77524400000000,BT38 7NP,2013-07-23,fhrs_4_en-GB,4,,FHRS,10
404984,45a Ellis Street,,Carrickfergus,Antrim,Shan Ho,Takeaway/sandwich shop,7844,5,,563704,0,,54.71588800000000,949,808,sec2.envhealth@carrickffergus.org,Carrickfergus,http://www.carrickfergus.org/,-5.81637100000000,BT38 8AY,2014-02-19,fhrs_5_en-GB,5,,FHRS,5
404985,Moyard Gardens,Greenisland,Carrickfergus,Antrim,Silverstream Primary School Kitchen,School/college/university,7845,0,,563562,5,,54.69183100000000,499,808,sec2.envhealth@carrickffergus.org,Carrickfergus,http://www.carrickfergus.org/,-5.86964000000000,BT38 8XD,2015-01-21,fhrs_5_en-GB,5,,FHRS,0
404986,71 Irish Quarter West,,Carrickfergus,Antrim,Simply Pizza,Takeaway/sandwich shop,7844,5,,563659,5,,54.71472400000000,87,808,sec2.envhealth@carrickffergus.org,Carrickfergus,http://www.carrickfergus.org/,-5.81263100000000,BT38 8AT,2013-03-07,fhrs_5_en-GB,5,,FHRS,0
404987,Larne Road,,Carrickfergus,Antrim,Sodexho Canteen Kilroot,Restaurant/Cafe/Canteen,1,0,,563617,0,,54.72541900000000,623,808,sec2.envhealth@carrickffergus.org,Carrickfergus,http://www.carrickfergus.org/,-5.76739300000000,BT38 7LX,2012-11-29,fhrs_5_en-GB,5,,FHRS,0
404988,2 North Street,,Carrickfergus,Antrim,Sozo Carrickfergus,Restaurant/Cafe/Canteen,1,0,,563455,5,,54.71527500000000,134,808,sec2.envhealth@carrickffergus.org,Carrickfergus,http://www.carrickfergus.org/,-5.80729400000000,BT38 7AQ,2014-11-13,fhrs_5_en-GB,5,,FHRS,5
404989,24 Bridewell Drive,,Carrickfergus,Antrim,Spar Sunnylands,Retailers - supermarkets/hypermarkets,7840,5,,563476,5,,54.72162300000000,266,808,sec2.envhealth@carrickffergus.org,Carrickfergus,http://www.carrickfergus.org/,-5.81253900000000,BT38 8JW,2014-06-17,fhrs_4_en-GB,4,,FHRS,10
404990,22 Edward Road,,Whitehead,Antrim,Spar Whitehead,Retailers - supermarkets/hypermarkets,7840,5,,563591,0,,54.75439100000000,565,808,sec2.envhealth@carrickffergus.org,Carrickfergus,http://www.carrickfergus.org/,-5.71266800000000,BT38 9RU,2013-05-15,fhrs_5_en-GB,5,,FHRS,5
404991,Rodger'S Quay,,Carrickfergus,Antrim,Springsteen's Easy Diner,Restaurant/Cafe/Canteen,1,5,,563463,5,,54.71146600000000,175,808,sec2.envhealth@carrickffergus.org,Carrickfergus,http://www.carrickfergus.org/,-5.81181300000000,BT38 8BE,2014-06-04,fhrs_5_en-GB,5,,FHRS,5
404992,Minorca Place,,Carrickfergus,Antrim,St Nicholas Playgroup,Hospitals/Childcare/Caring Premises,5,5,,563432,5,,54.71476000000000,1029,808,sec2.envhealth@carrickffergus.org,Carrickfergus,http://www.carrickfergus.org/,-5.81461600000000,BT38 8AU,2014-01-31,fhrs_5_en-GB,5,,FHRS,5
404993,Minorca Place,,Carrickfergus,Antrim,St Nicholas' Primary School Kitchen,School/college/university,7845,0,,563453,5,,54.71476000000000,128,808,sec2.envhealth@carrickffergus.org,Carrickfergus,http://www.carrickfergus.org/,-5.81461600000000,BT38 8AU,2013-12-11,fhrs_5_en-GB,5,,FHRS,0
404994,26-28 Middle Road,,Carrickfergus,Antrim,Subway At Carrick Milestone,Takeaway/sandwich shop,7844,5,,563636,10,,54.73635300000000,707,808,sec2.envhealth@carrickffergus.org,Carrickfergus,http://www.carrickfergus.org/,-5.82469500000000,BT38 9DN,2013-07-03,fhrs_4_en-GB,4,,FHRS,0
404995,75b Belfast Road,,Carrickfergus,Antrim,Subway At Fortfield,Takeaway/sandwich shop,7844,5,,620812,5,,54.71077400000000,1089,808,sec2.envhealth@carrickffergus.org,Carrickfergus,http://www.carrickfergus.org/,-5.82730700000000,BT38 8BX,2013-07-31,fhrs_5_en-GB,5,,FHRS,5
404996,20 Marshallstown Road,,Carrickfergus,Antrim,Sullatober Day Care Nursery,Hospitals/Childcare/Caring Premises,5,5,,563516,5,,54.73559400000000,364,808,sec2.envhealth@carrickffergus.org,Carrickfergus,http://www.carrickfergus.org/,-5.80948800000000,BT38 9DE,2014-05-22,fhrs_4_en-GB,4,,FHRS,10
404997,67 Bridewell Drive,,Carrickfergus,Antrim,Sunnylands Community Centre,Other catering premises,7841,,,563482,,,54.72182700000000,278,808,sec2.envhealth@carrickffergus.org,Carrickfergus,http://www.carrickfergus.org/,-5.81386300000000,BT38 8JN,2013-10-23,fhrs_exempt_en-GB,Exempt,,FHRS,
404998,45 Bridewell Drive,,Carrickfergus,Antrim,Sunnylands Meat Centre,Retailers - other,4613,5,,563478,5,,54.72182700000000,270,808,sec2.envhealth@carrickffergus.org,Carrickfergus,http://www.carrickfergus.org/,-5.81386300000000,BT38 8JN,2013-04-05,fhrs_5_en-GB,5,,FHRS,5
404999,120 Sunnylands Avenue,,Carrickfergus,Antrim,Sunnylands Nursery School Kitchen,School/college/university,7845,5,,563499,0,,54.72351100000000,321,808,sec2.envhealth@carrickffergus.org,Carrickfergus,http://www.carrickfergus.org/,-5.81608500000000,BT38 8JT,2013-10-16,fhrs_5_en-GB,5,,FHRS,0
405000,51 Bridewell Drive,,Carrickfergus,Antrim,Sunnylands Pharmacy,Retailers - other,4613,,,581064,,,54.72182700000000,272,808,sec2.envhealth@carrickffergus.org,Carrickfergus,http://www.carrickfergus.org/,-5.81386300000000,BT38 8JN,2013-08-08,fhrs_exempt_en-GB,Exempt,,FHRS,
405001,96 Sunnylands Avenue,,Carrickfergus,Antrim,Sunnylands Primary School Kitchen,School/college/university,7845,0,,563498,0,,54.72017900000000,320,808,sec2.envhealth@carrickffergus.org,Carrickfergus,http://www.carrickfergus.org/,-5.81367200000000,BT38 8JG,2013-10-16,fhrs_5_en-GB,5,,FHRS,5
405002,101 Hawthorn Avenue,,Carrickfergus,Antrim,Sunnylands Youth Centre,Other catering premises,7841,,,563487,,,54.72160200000000,290,808,sec2.envhealth@carrickffergus.org,Carrickfergus,http://www.carrickfergus.org/,-5.81786400000000,BT38 8EQ,2013-11-27,fhrs_exempt_en-GB,Exempt,,FHRS,
405003,24-28 High Street,,Carrickfergus,Antrim,Superdrug Stores Plc,Retailers - other,4613,5,,563623,10,,54.71535100000000,65,808,sec2.envhealth@carrickffergus.org,Carrickfergus,http://www.carrickfergus.org/,-5.80604800000000,BT38 7AF,2013-01-25,fhrs_4_en-GB,4,,FHRS,5
405004,61 Irish Quarter West,,Carrickfergus,Antrim,Superfry,Takeaway/sandwich shop,7844,10,,563655,10,,54.71472400000000,86,808,sec2.envhealth@carrickffergus.org,Carrickfergus,http://www.carrickfergus.org/,-5.81263100000000,BT38 8AT,2014-01-13,fhrs_3_en-GB,3,,FHRS,5
405005,38e Scotch Quarter,,Carrickfergus,Antrim,Take Thyme,Restaurant/Cafe/Canteen,1,5,,563606,0,,54.71802800000000,602,808,sec2.envhealth@carrickffergus.org,Carrickfergus,http://www.carrickfergus.org/,-5.79955500000000,BT38 7DP,2014-02-11,fhrs_5_en-GB,5,,FHRS,0
405006,34 Larne Road,,Carrickfergus,Antrim,Tamlaght Private Nursing Home,Hospitals/Childcare/Caring Premises,5,5,,563630,5,,54.72122600000000,7,808,sec2.envhealth@carrickffergus.org,Carrickfergus,http://www.carrickfergus.org/,-5.79211700000000,BT38 7DY,2014-01-20,fhrs_5_en-GB,5,,FHRS,5
405007,20 Balmoral Avenue,Whitehead,,Antrim,Tans After School Club,Hospitals/Childcare/Caring Premises,5,5,,563707,0,,54.75298600000000,960,808,sec2.envhealth@carrickffergus.org,Carrickfergus,http://www.carrickfergus.org/,-5.71201700000000,BT38 9QA,2013-09-05,fhrs_5_en-GB,5,,FHRS,5
405008,Minorca Place,Middle Division,Carrickfergus,Antrim,Tesco Customer Cafe And Staff Restbite (Avenance UK),Restaurant/Cafe/Canteen,1,5,,563616,10,,,621,808,sec2.envhealth@carrickffergus.org,Carrickfergus,http://www.carrickfergus.org/,,,2013-03-07,fhrs_4_en-GB,4,,FHRS,5
405009,Minorca Place,Middle Division,Carrickfergus,Antrim,Tesco Petrol Station,Retailers - other,4613,5,,681608,5,,,684,808,sec2.envhealth@carrickffergus.org,Carrickfergus,http://www.carrickfergus.org/,,,2013-11-28,fhrs_5_en-GB,5,,FHRS,5
405010,Minorca Place,Middle Division,Carrickfergus,Antrim,Tesco Supermarket,Retailers - supermarkets/hypermarkets,7840,5,,563612,0,,,615,808,sec2.envhealth@carrickffergus.org,Carrickfergus,http://www.carrickfergus.org/,,,2013-04-17,fhrs_5_en-GB,5,,FHRS,0
405011,12 Edward Road,,Whitehead,Antrim,The Bank House,Restaurant/Cafe/Canteen,1,5,,707709,5,,54.75323000000000,1129,808,sec2.envhealth@carrickffergus.org,Carrickfergus,http://www.carrickfergus.org/,-5.71063700000000,BT38 9QB,2014-08-05,fhrs_5_en-GB,5,,FHRS,0
405012,39 Victoria Street,,Carrickfergus,Antrim,The Bookstall,Retailers - other,4613,5,,563503,0,,54.71719400000000,328,808,sec2.envhealth@carrickffergus.org,Carrickfergus,http://www.carrickfergus.org/,-5.80909900000000,BT38 8AQ,2013-08-08,fhrs_5_en-GB,5,,FHRS,0
405013,53 Bridewell Drive,,Carrickfergus,Antrim,The Cake Shop,Retailers - other,4613,,,563479,,,54.72182700000000,273,808,sec2.envhealth@carrickffergus.org,Carrickfergus,http://www.carrickfergus.org/,-5.81386300000000,BT38 8JN,2014-02-06,fhrs_4_en-GB,4,,FHRS,
405014,6 Hawthorn Avenue,,Carrickfergus,Antrim,The Card Shop,Retailers - other,4613,10,,563640,15,,54.71836600000000,814,808,sec2.envhealth@carrickffergus.org,Carrickfergus,http://www.carrickfergus.org/,-5.81828600000000,BT38 8EB,2013-01-25,fhrs_2_en-GB,2,,FHRS,10
405015,13-15 High Street,,Carrickfergus,Antrim,The Central Bar (J D Wetherspoon),Restaurant/Cafe/Canteen,1,5,,563588,5,,54.71506600000000,56,808,sec2.envhealth@carrickffergus.org,Carrickfergus,http://www.carrickfergus.org/,-5.80567500000000,BT38 7AN,2014-05-12,fhrs_5_en-GB,5,,FHRS,5
405016,59 Bridewell Drive,,Carrickfergus,Antrim,The Chippy,Takeaway/sandwich shop,7844,5,,563480,5,,54.72182700000000,275,808,sec2.envhealth@carrickffergus.org,Carrickfergus,http://www.carrickfergus.org/,-5.81386300000000,BT38 8JN,2014-01-10,fhrs_4_en-GB,4,,FHRS,10
405017,107 Station Road,Greenisland,,Antrim,The Den Afterschool Club@greenisland Methodist Church,Hospitals/Childcare/Caring Premises,5,5,,563673,5,,54.69808900000000,892,808,sec2.envhealth@carrickffergus.org,Carrickfergus,http://www.carrickfergus.org/,-5.86937400000000,BT38 8UW,2013-04-24,fhrs_5_en-GB,5,,FHRS,0
405018,77 Irish Quarter West,,Carrickfergus,Antrim,The Favourite Bar,Pub/bar/nightclub,7843,10,,563663,5,,54.71472400000000,88,808,sec2.envhealth@carrickffergus.org,Carrickfergus,http://www.carrickfergus.org/,-5.81263100000000,BT38 8AT,2012-10-18,fhrs_4_en-GB,4,,FHRS,5
405019,Prince Andrew Way,North East Division,Carrickfergus,Antrim,The Friary,Takeaway/sandwich shop,7844,5,,620813,5,,54.72955800000000,1094,808,sec2.envhealth@carrickffergus.org,Carrickfergus,http://www.carrickfergus.org/,-5.80164700000000,BT38 7TU,2013-11-19,fhrs_5_en-GB,5,,FHRS,5
405020,25 Upper Station Road,Greenisland,Carrickfergus,Antrim,The Green Island,Retailers - other,4613,10,,563574,5,,54.70187100000000,527,808,sec2.envhealth@carrickffergus.org,Carrickfergus,http://www.carrickfergus.org/,-5.87547500000000,BT38 8RQ,2012-08-22,fhrs_4_en-GB,4,,FHRS,0
405021,32-36 West Street,,Carrickfergus,Antrim,The Keep Grill,Restaurant/Cafe/Canteen,1,0,,731391,10,,54.71461600000000,1147,808,sec2.envhealth@carrickffergus.org,Carrickfergus,http://www.carrickfergus.org/,-5.80863300000000,BT38 7AR,2014-11-21,fhrs_4_en-GB,4,,FHRS,5
405022,81 Irish Quarter West,,Carrickfergus,Antrim,The Munchies,Takeaway/sandwich shop,7844,10,,563679,5,,54.71472400000000,91,808,sec2.envhealth@carrickffergus.org,Carrickfergus,http://www.carrickfergus.org/,-5.81263100000000,BT38 8AT,2014-05-27,fhrs_4_en-GB,4,,FHRS,5
405023,63 Irish Quarter West,,Carrickfergus,Antrim,The Scullery,Takeaway/sandwich shop,7844,20,,563697,20,,54.71472400000000,935,808,sec2.envhealth@carrickffergus.org,Carrickfergus,http://www.carrickfergus.org/,-5.81263100000000,BT38 8AT,2014-03-06,fhrs_1_en-GB,1,,FHRS,10
405024,Rodger'S Quay,,Carrickfergus,Antrim,The Swift Bar,Pub/bar/nightclub,7843,5,,563629,5,,,686,808,sec2.envhealth@carrickffergus.org,Carrickfergus,http://www.carrickfergus.org/,,,2011-05-15,fhrs_5_en-GB,5,,FHRS,5
405025,Rodger'S Quay,,Carrickfergus,Antrim,The Swift Restaurant,Restaurant/Cafe/Canteen,1,5,,563619,5,,,631,808,sec2.envhealth@carrickffergus.org,Carrickfergus,http://www.carrickfergus.org/,,,2013-10-22,fhrs_4_en-GB,4,,FHRS,10
405026,77 Irish Quarter West,,Carrickfergus,Antrim,The Wine Store,Retailers - other,4613,,,563671,,,54.71472400000000,89,808,sec2.envhealth@carrickffergus.org,Carrickfergus,http://www.carrickfergus.org/,-5.81263100000000,BT38 8AT,2013-04-24,fhrs_exempt_en-GB,Exempt,,FHRS,
405027,,,,,Town & Country Style Burgers,Mobile caterer,7846,5,,571519,10,,,1086,808,sec2.envhealth@carrickffergus.org,Carrickfergus,http://www.carrickfergus.org/,,,2013-05-30,fhrs_4_en-GB,4,,FHRS,0
405028,79 Irish Quarter West,,Carrickfergus,Antrim,Tung Sing,Takeaway/sandwich shop,7844,10,,563678,15,,54.71472400000000,90,808,sec2.envhealth@carrickffergus.org,Carrickfergus,http://www.carrickfergus.org/,-5.81263100000000,BT38 8AT,2013-06-20,fhrs_2_en-GB,2,,FHRS,5
405029,112 Victoria Road,,Carrickfergus,Antrim,Ulidia College Kitchen,School/college/university,7845,5,,563535,0,,54.72620600000000,407,808,sec2.envhealth@carrickffergus.org,Carrickfergus,http://www.carrickfergus.org/,-5.79422200000000,BT38 7JL,2014-01-28,fhrs_5_en-GB,5,,FHRS,0
405030,3 Victoria Road,,Carrickfergus,Antrim,Victoria Hot Spot,Takeaway/sandwich shop,7844,5,,563525,10,,54.72236900000000,390,808,sec2.envhealth@carrickffergus.org,Carrickfergus,http://www.carrickfergus.org/,-5.79072000000000,BT38 7JE,2014-09-02,fhrs_4_en-GB,4,,FHRS,5
405031,36 Coronation Road,,Carrickfergus,Antrim,Victoria Primary School,School/college/university,7845,0,,563507,5,,54.72233500000000,345,808,sec2.envhealth@carrickffergus.org,Carrickfergus,http://www.carrickfergus.org/,-5.79328300000000,BT38 7EX,2013-10-11,fhrs_5_en-GB,5,,FHRS,0
405032,131a Station Road,Greenisland,Carrickfergus,Antrim,W Rankin Quality Potatoes,Retailers - other,4613,,,681607,,,,594,808,sec2.envhealth@carrickffergus.org,Carrickfergus,http://www.carrickfergus.org/,,,2014-04-01,fhrs_exempt_en-GB,Exempt,,FHRS,
405033,2 Chester Avenue,,Whitehead,Antrim,White Cliff Inn,Pub/bar/nightclub,7843,10,,563585,5,,54.75369000000000,556,808,sec2.envhealth@carrickffergus.org,Carrickfergus,http://www.carrickfergus.org/,-5.70838900000000,BT38 9QQ,2012-11-02,fhrs_4_en-GB,4,,FHRS,5
405034,17 Edward Road,Whitehead,Whitehead,Antrim,Whitehaven,Hospitals/Childcare/Caring Premises,5,,,563590,,,54.75439100000000,564,808,sec2.envhealth@carrickffergus.org,Carrickfergus,http://www.carrickfergus.org/,-5.71266800000000,BT38 9RU,2014-01-10,fhrs_5_en-GB,5,,FHRS,
405035,38 Marine Parade,,Whitehead,Antrim,Whitehead Glasgow Rangers Supporters Club,Restaurant/Cafe/Canteen,1,10,,563579,10,,54.75398700000000,536,808,sec2.envhealth@carrickffergus.org,Carrickfergus,http://www.carrickfergus.org/,-5.70744000000000,BT38 9QN,2013-06-14,fhrs_3_en-GB,3,,FHRS,10
405036,Mccrae'S Brae,,Whitehead,Antrim,Whitehead Golf Club,Restaurant/Cafe/Canteen,1,5,,563581,5,,54.76567300000000,538,808,sec2.envhealth@carrickffergus.org,Carrickfergus,http://www.carrickfergus.org/,-5.69824800000000,BT38 9NZ,2014-07-24,fhrs_5_en-GB,5,,FHRS,5
405037,3 Islandmagee Road,,Whitehead,Antrim,Whitehead Nursery School,Hospitals/Childcare/Caring Premises,5,5,,563645,0,,54.75726300000000,843,808,sec2.envhealth@carrickffergus.org,Carrickfergus,http://www.carrickfergus.org/,-5.71056400000000,BT38 9NE,2012-03-01,fhrs_4_en-GB,4,,FHRS,10
405038,1 Kings Road,,Whitehead,Antrim,Whitehead Presbyterian Church Hall (Banana Bunch Playgroup),Hospitals/Childcare/Caring Premises,5,5,,563592,0,,54.75343500000000,566,808,sec2.envhealth@carrickffergus.org,Carrickfergus,http://www.carrickfergus.org/,-5.71248900000000,BT38 9PU,2012-09-25,fhrs_5_en-GB,5,,FHRS,0
405039,3 Islandmagee Road,,Whitehead,Antrim,Whitehead Primary School Kitchen,School/college/university,7845,5,,563578,5,,54.75726300000000,535,808,sec2.envhealth@carrickffergus.org,Carrickfergus,http://www.carrickfergus.org/,-5.71056400000000,BT38 9NE,2013-12-09,fhrs_5_en-GB,5,,FHRS,0
405040,15-16 Marine Parade,,Whitehead,Antrim,Whitehead Private Nursing Home,Hospitals/Childcare/Caring Premises,5,5,,563598,5,,54.75220500000000,581,808,sec2.envhealth@carrickffergus.org,Carrickfergus,http://www.carrickfergus.org/,-5.70869000000000,BT38 9QP,2014-03-20,fhrs_4_en-GB,4,,FHRS,10
405041,5 Chester Avenue,,Whitehead,Antrim,Whitehead Wine Lodge,Retailers - other,4613,,,563587,,,54.75369000000000,558,808,sec2.envhealth@carrickffergus.org,Carrickfergus,http://www.carrickfergus.org/,-5.70838900000000,BT38 9QQ,2012-09-25,fhrs_exempt_en-GB,Exempt,,FHRS,
405042,4 Castleview Road,,Whitehead,Antrim,Whitehead Youth Centre,Other catering premises,7841,,,563646,,,54.75649900000000,844,808,sec2.envhealth@carrickffergus.org,Carrickfergus,http://www.carrickfergus.org/,-5.71059200000000,BT38 9NA,2014-03-26,fhrs_exempt_en-GB,Exempt,,FHRS,
405043,43 Victoria Road,,Carrickfergus,Antrim,Wilsons Mini Market,Retailers - supermarkets/hypermarkets,7840,5,,563530,5,,54.72236900000000,399,808,sec2.envhealth@carrickffergus.org,Carrickfergus,http://www.carrickfergus.org/,-5.79072000000000,BT38 7JE,2012-09-17,fhrs_5_en-GB,5,,FHRS,0
405044,43a Victoria Road,,Carrickfergus,Antrim,Wilson's Plaice,Takeaway/sandwich shop,7844,0,,563634,5,,54.72236900000000,703,808,sec2.envhealth@carrickffergus.org,Carrickfergus,http://www.carrickfergus.org/,-5.79072000000000,BT38 7JE,2014-08-06,fhrs_5_en-GB,5,,FHRS,0
405045,Rodger'S Quay,,Carrickfergus,Antrim,Windrose Bar & Bistro,Restaurant/Cafe/Canteen,1,,,563464,,,54.71146600000000,178,808,sec2.envhealth@carrickffergus.org,Carrickfergus,http://www.carrickfergus.org/,-5.81181300000000,BT38 8BE,2015-01-22,fhrs_4_en-GB,4,,FHRS,
405046,1 Victoria Road,,Carrickfergus,Antrim,Wineflair,Retailers - other,4613,,,563524,,,54.72236900000000,389,808,sec2.envhealth@carrickffergus.org,Carrickfergus,http://www.carrickfergus.org/,-5.79072000000000,BT38 7JE,2012-09-17,fhrs_exempt_en-GB,Exempt,,FHRS,
405047,Prince Andrew Way,North East Division,Carrickfergus,Antrim,Wineflair,Retailers - other,4613,,,634978,,,54.72955800000000,1106,808,sec2.envhealth@carrickffergus.org,Carrickfergus,http://www.carrickfergus.org/,-5.80164700000000,BT38 7TU,2013-12-10,fhrs_exempt_en-GB,Exempt,,FHRS,
405048,8 Woodburn Road,,Carrickfergus,Antrim,Winemark Off Sales,Retailers - other,4613,,,563485,,,54.72141100000000,285,808,sec2.envhealth@carrickffergus.org,Carrickfergus,http://www.carrickfergus.org/,-5.82718800000000,BT38 8PY,2013-10-22,fhrs_exempt_en-GB,Exempt,,FHRS,
405049,114 Woodburn Road,,Carrickfergus,Antrim,Woodburn Primary School Kitchen,School/college/university,7845,0,,563556,5,,54.73104900000000,481,808,sec2.envhealth@carrickffergus.org,Carrickfergus,http://www.carrickfergus.org/,-5.84822200000000,BT38 9AB,2013-04-30,fhrs_5_en-GB,5,,FHRS,5
405050,2 Woodburn Avenue,,Carrickfergus,Antrim,Woodlawn Primary School Kitchen,School/college/university,7845,0,,563504,5,,54.72367500000000,333,808,sec2.envhealth@carrickffergus.org,Carrickfergus,http://www.carrickfergus.org/,-5.82171100000000,BT38 8EZ,2013-10-07,fhrs_5_en-GB,5,,FHRS,0
405051,21 King'S Road,,Whitehead,Antrim,Yau Kee Chinese Takeaway,Takeaway/sandwich shop,7844,5,,563596,5,,54.75406900000000,574,808,sec2.envhealth@carrickffergus.org,Carrickfergus,http://www.carrickfergus.org/,-5.71133500000000,BT38 9PT,2013-07-03,fhrs_4_en-GB,4,,FHRS,10
405052,Rodger'S Quay,,Carrickfergus,Antrim,Zoo Park Cafe,Restaurant/Cafe/Canteen,1,5,,563465,5,,54.71146600000000,179,808,sec2.envhealth@carrickffergus.org,Carrickfergus,http://www.carrickfergus.org/,-5.81181300000000,BT38 8BE,2014-03-25,fhrs_5_en-GB,5,,FHRS,5
