,addressline1,addressline2,addressline3,addressline4,businessname,businesstype,businesstypeid,confidenceinmanagement,extractdate,fhrsid,hygiene,itemcount,latitude,localauthoritybusinessid,localauthoritycode,localauthorityemailaddress,localauthorityname,localauthoritywebsite,longitude,postcode,ratingdate,ratingkey,ratingvalue,returncode,schemetype,structural
405053,6 Hillsborough Road,Mealough,Carryduff,Down,A G NEWBERRY LIMITED (CHEMIST)/CARRYDUFF,Retailers - other,4613,,,709659,,,54.51372100000000,500177,809,environmentalhealth@castlereagh.gov.uk,Castlereagh,http://www.castlereagh.gov.uk,-5.89240400000000,BT8 8HR,2012-06-12,fhrs_exempt_en-GB,Exempt,,FHRS,
405054,,,Castlereagh,Down,A Little Bit Of Bliss Cakes,Other catering premises,7841,0,,709976,0,,,506564,809,environmentalhealth@castlereagh.gov.uk,Castlereagh,http://www.castlereagh.gov.uk,,,2013-05-29,fhrs_5_en-GB,5,,FHRS,0
405055,40 Rosneath Gardens,Carrowreagh,Dundonald,Down,AARON HOUSE KITCHEN ONLY (ARAMARK),Hospitals/Childcare/Caring Premises,5,5,,709904,0,,54.59245600000000,501914,809,environmentalhealth@castlereagh.gov.uk,Castlereagh,http://www.castlereagh.gov.uk,-5.78511800000000,BT16 1UN,2012-10-04,fhrs_5_en-GB,5,,FHRS,5
405056,Dundonald International Ice Bowl 111 Old Dundonald Road,,Dundonald,Co Down,ALASKA SPORTS DINER,Restaurant/Cafe/Canteen,1,5,,709644,5,,,500012,809,environmentalhealth@castlereagh.gov.uk,Castlereagh,http://www.castlereagh.gov.uk,,BT16 0XT,2014-09-11,fhrs_5_en-GB,5,,FHRS,5
405057,Carrowreagh Road,,Dundonald,Down,Am Catering Dish,Mobile caterer,7846,5,,709993,0,,54.59725200000000,506602,809,environmentalhealth@castlereagh.gov.uk,Castlereagh,http://www.castlereagh.gov.uk,-5.78202600000000,BT16 1QT,2014-06-02,fhrs_4_en-GB,4,,FHRS,10
405058,109 Old Milltown Road,Ballynavally,Belfast,Down,ARDNAVALLY SCOUT ACTIVITY CENTRE,Other catering premises,7841,,,709728,,,54.54850500000000,500514,809,environmentalhealth@castlereagh.gov.uk,Castlereagh,http://www.castlereagh.gov.uk,-5.94311600000000,BT8 7SP,2015-01-08,fhrs_exempt_en-GB,Exempt,,FHRS,
405059,1009 Upper Newtownards Road,Ballyregan,Dundonald,Down,ASDA STORES LTD,Retailers - supermarkets/hypermarkets,7840,0,,709816,0,,54.59442200000000,501519,809,environmentalhealth@castlereagh.gov.uk,Castlereagh,http://www.castlereagh.gov.uk,-5.80276000000000,BT16 1RN,2014-09-02,fhrs_5_en-GB,5,,FHRS,5
405060,32 School Road,Breda,Castlereagh,Down,ASHVALE DAY NURSERY,School/college/university,7845,0,,709847,0,,54.55785600000000,501690,809,environmentalhealth@castlereagh.gov.uk,Castlereagh,http://www.castlereagh.gov.uk,-5.91152500000000,BT8 6BT,2014-03-05,fhrs_5_en-GB,5,,FHRS,5
405061,344 Cregagh Road,Cregagh,Castlereagh,Down,AUSTINS CHEMIST,Retailers - other,4613,,,709669,,,54.57145900000000,500210,809,environmentalhealth@castlereagh.gov.uk,Castlereagh,http://www.castlereagh.gov.uk,-5.89387900000000,BT6 9EY,2012-05-21,fhrs_exempt_en-GB,Exempt,,FHRS,
405062,115 Milltown Road,Ballynavally,Belfast,Down,B & A Catering,Restaurant/Cafe/Canteen,1,0,,709729,0,,54.55030000000000,500516,809,environmentalhealth@castlereagh.gov.uk,Castlereagh,http://www.castlereagh.gov.uk,-5.94566900000000,BT8 7XP,2015-01-14,fhrs_5_en-GB,5,,FHRS,0
405063,2 Dunlady Road,Ballyregan,Belfast,Down,B & M RETAIL LTD,Retailers - supermarkets/hypermarkets,7840,0,,709967,0,,54.60496500000000,502112,809,environmentalhealth@castlereagh.gov.uk,Castlereagh,http://www.castlereagh.gov.uk,-5.79059900000000,BT16 1TT,2013-02-05,fhrs_5_en-GB,5,,FHRS,0
405064,21 Ballybeen Square,Ballybeen,Dundonald,Down,BALLYBEEN ACTIVITY CENTRE,Other catering premises,7841,,,709688,,,,500322,809,environmentalhealth@castlereagh.gov.uk,Castlereagh,http://www.castlereagh.gov.uk,,BT16 OQE,2011-05-13,fhrs_exempt_en-GB,Exempt,,FHRS,
405065,34 Ballybeen Square,Carrowreagh,Dundonald,Down,BALLYBEEN WOMEN'S CENTRE,Other catering premises,7841,,,709689,,,54.59049500000000,500324,809,environmentalhealth@castlereagh.gov.uk,Castlereagh,http://www.castlereagh.gov.uk,-5.79189300000000,BT16 2QE,2014-12-01,fhrs_exempt_en-GB,Exempt,,FHRS,
405066,Child & Adolescent Mental Health Services,,Newtownbreda,Down,BEECHCROFT UNIT,Hospitals/Childcare/Caring Premises,5,0,,709896,0,,54.56209500000000,501871,809,environmentalhealth@castlereagh.gov.uk,Castlereagh,http://www.castlereagh.gov.uk,-5.90414900000000,BT8 6HD,2014-02-20,fhrs_5_en-GB,5,,FHRS,0
405067,12 Royal Lodge Road,Ballydollaghan,Belfast,Down,BEECHILL CARE HOME,Hospitals/Childcare/Caring Premises,5,0,,709798,0,,54.54658400000000,501274,809,environmentalhealth@castlereagh.gov.uk,Castlereagh,http://www.castlereagh.gov.uk,-5.91435700000000,BT8 7UL,2013-05-16,fhrs_5_en-GB,5,,FHRS,0
405068,4 Kings Square,Tullycarnet,Belfast,Down,BELLS NEWSAGENCY,Retailers - other,4613,,,709702,,,54.58957400000000,500363,809,environmentalhealth@castlereagh.gov.uk,Castlereagh,http://www.castlereagh.gov.uk,-5.84492000000000,BT5 7EA,2013-02-11,fhrs_exempt_en-GB,Exempt,,FHRS,
405069,108 Belvoir Drive,Belvoir,Castlereagh,Down,BELVOIR ACTIVITY CENTRE,Other catering premises,7841,,,709645,,,,500015,809,environmentalhealth@castlereagh.gov.uk,Castlereagh,http://www.castlereagh.gov.uk,,BT8 4DT,2014-02-17,fhrs_exempt_en-GB,Exempt,,FHRS,
405070,60 Milltown Road,Ballynavally,Belfast,Down,BELVOIR FILLING STATION (HENDERSONS),Retailers - supermarkets/hypermarkets,7840,0,,709861,0,,54.54785000000000,501732,809,environmentalhealth@castlereagh.gov.uk,Castlereagh,http://www.castlereagh.gov.uk,-5.93841900000000,BT8 7SW,2014-11-25,fhrs_5_en-GB,5,,FHRS,5
405071,6 Drumart Square,Ballylenaghan Upper,Belfast,Down,BELVOIR NEWS & CONVENIENCE (SPAR),Retailers - supermarkets/hypermarkets,7840,5,,709787,0,,54.54952800000000,501192,809,environmentalhealth@castlereagh.gov.uk,Castlereagh,http://www.castlereagh.gov.uk,-5.92882900000000,BT8 7EY,2013-02-18,fhrs_5_en-GB,5,,FHRS,5
405072,73-75 Church Road,Breda,Castlereagh,Down,Belvoir Park Golf Club Catering,Restaurant/Cafe/Canteen,1,5,,709969,10,,54.56189400000000,506550,809,environmentalhealth@castlereagh.gov.uk,Castlereagh,http://www.castlereagh.gov.uk,-5.91328200000000,BT8 7AN,2014-11-07,fhrs_4_en-GB,4,,FHRS,5
405073,Belvoir Drive,Ballylenaghan Upper,Belfast,Down,BELVOIR PARK PRIMARY SCHOOL,School/college/university,7845,0,,709727,0,,54.55143300000000,500507,809,environmentalhealth@castlereagh.gov.uk,Castlereagh,http://www.castlereagh.gov.uk,-5.93095800000000,BT8 7DL,2014-03-13,fhrs_4_en-GB,4,,FHRS,10
405074,Comber Road,Dundonald,Castlereagh,Down,BILLY NEILL SOCCER CENTRE OF EXCELLENCE,Restaurant/Cafe/Canteen,1,,,709872,,,54.59785900000000,501760,809,environmentalhealth@castlereagh.gov.uk,Castlereagh,http://www.castlereagh.gov.uk,-5.93497100000000,BT16,2012-04-11,fhrs_exempt_en-GB,Exempt,,FHRS,
405075,146 Cregagh Road,Ballymaconaghy,Castlereagh,Down,BISTRO 5,Takeaway/sandwich shop,7844,20,,709668,0,,54.57798800000000,500206,809,environmentalhealth@castlereagh.gov.uk,Castlereagh,http://www.castlereagh.gov.uk,-5.89629600000000,BT6 9ET,2014-03-13,fhrs_1_en-GB,1,,FHRS,15
405076,Eastpoint Entertainment,Village,Dundonald,Down,BLUE CHICAGO GRILL,Restaurant/Cafe/Canteen,1,5,,709883,5,,54.58721100000000,501790,809,environmentalhealth@castlereagh.gov.uk,Castlereagh,http://www.castlereagh.gov.uk,-5.81787700000000,BT16 1XT,2014-09-25,fhrs_5_en-GB,5,,FHRS,5
405077,2 Craigleith Drive,,Ballybeen,Down,BOOTS,Retailers - other,4613,,,709898,,,54.58927600000000,501892,809,environmentalhealth@castlereagh.gov.uk,Castlereagh,http://www.castlereagh.gov.uk,-5.79155700000000,BT16 2QP,2013-08-19,fhrs_exempt_en-GB,Exempt,,FHRS,
405078,,Forestside Shopping Centre,Upper Galwally,Down,BOOTS THE CHEMISTS LTD,Retailers - other,4613,,,709748,,,,500625,809,environmentalhealth@castlereagh.gov.uk,Castlereagh,http://www.castlereagh.gov.uk,,BT8 4FY,2012-03-14,fhrs_exempt_en-GB,Exempt,,FHRS,
405079,2 Breda Terrace,Newtownbreda,Castlereagh,Down,BRAE VALLEY HOUSE,Hospitals/Childcare/Caring Premises,5,5,,709736,0,,,500565,809,environmentalhealth@castlereagh.gov.uk,Castlereagh,http://www.castlereagh.gov.uk,,BT8 4BY,2013-09-25,fhrs_5_en-GB,5,,FHRS,5
405080,60 Warren Grove,Braniel,Belfast,Down,BRANIEL COMMUNITY CENTRE,Other catering premises,7841,,,709756,,,54.57895000000000,500652,809,environmentalhealth@castlereagh.gov.uk,Castlereagh,http://www.castlereagh.gov.uk,-5.85285900000000,BT5 7PX,2011-07-28,fhrs_exempt_en-GB,Exempt,,FHRS,
405081,78 Ravenswood Park,Braniel,Belfast,Down,BRANIEL PHARMACY,Retailers - other,4613,,,709786,,,54.57772600000000,501167,809,environmentalhealth@castlereagh.gov.uk,Castlereagh,http://www.castlereagh.gov.uk,-5.85578500000000,BT5 7PT,2014-11-28,fhrs_exempt_en-GB,Exempt,,FHRS,
405082,30 Ravenswood Park,Braniel,Castlereagh,Down,BRANIEL PRIMARY & NURSERY SCHOOL,School/college/university,7845,0,,709726,0,,54.57834400000000,500505,809,environmentalhealth@castlereagh.gov.uk,Castlereagh,http://www.castlereagh.gov.uk,-5.86121200000000,BT5 7JU,2012-03-07,fhrs_5_en-GB,5,,FHRS,5
405083,,,Castlereagh,Down,BRIANS FISH & CHIPS,Mobile caterer,7846,5,,709733,0,,,500541,809,environmentalhealth@castlereagh.gov.uk,Castlereagh,http://www.castlereagh.gov.uk,,,2013-07-08,fhrs_5_en-GB,5,,FHRS,5
405084,16-17 Kings Square,Gilnahirk,Castlereagh,Down,BRIGHT LIVING COFFEE SHOP,Restaurant/Cafe/Canteen,1,10,,709857,15,,54.58957400000000,501721,809,environmentalhealth@castlereagh.gov.uk,Castlereagh,http://www.castlereagh.gov.uk,-5.84492000000000,BT5 7EA,2014-10-20,fhrs_2_en-GB,2,,FHRS,15
405085,Ravenswood Park,Braniel,Belfast,Down,Bright Minds @ Braniel,School/college/university,7845,0,,709975,0,,54.57834400000000,506561,809,environmentalhealth@castlereagh.gov.uk,Castlereagh,http://www.castlereagh.gov.uk,-5.86121200000000,BT5 7JU,2014-11-24,fhrs_5_en-GB,5,,FHRS,0
405086,2a Brooklands Avenue,Carrowreagh,Dundonald,Down,BROOKLANDS PRIMARY SCHOOL,School/college/university,7845,0,,709705,0,,54.59359700000000,500375,809,environmentalhealth@castlereagh.gov.uk,Castlereagh,http://www.castlereagh.gov.uk,-5.79396900000000,BT16 2PA,2014-05-01,fhrs_5_en-GB,5,,FHRS,5
405087,Drumkeen Retail Park,4 Bradford Court,Upper Galwally,Down,BURGER KING,Restaurant/Cafe/Canteen,1,0,,709777,0,,54.56530800000000,501124,809,environmentalhealth@castlereagh.gov.uk,Castlereagh,http://www.castlereagh.gov.uk,-5.90597900000000,BT8 6RB,2013-09-30,fhrs_5_en-GB,5,,FHRS,5
405088,,Forestside Shopping Centre,Upper Galwally,Down,CAFE LAURENT,Restaurant/Cafe/Canteen,1,5,,709749,0,,,500628,809,environmentalhealth@castlereagh.gov.uk,Castlereagh,http://www.castlereagh.gov.uk,,BT8 4FY,2014-08-21,fhrs_4_en-GB,4,,FHRS,10
405089,64 Comber Road,Dundonald,Castlereagh,Down,CAFE NOSH,Restaurant/Cafe/Canteen,1,5,,709828,5,,54.59416900000000,501600,809,environmentalhealth@castlereagh.gov.uk,Castlereagh,http://www.castlereagh.gov.uk,-5.81407000000000,BT16 2AB,2013-06-12,fhrs_5_en-GB,5,,FHRS,5
405090,40 Montgomery Road,Castlereagh,Castlereagh,Down,CAFE ROJO,Restaurant/Cafe/Canteen,1,5,,709818,0,,54.57821400000000,501521,809,environmentalhealth@castlereagh.gov.uk,Castlereagh,http://www.castlereagh.gov.uk,-5.88705000000000,BT6 9HL,2013-07-09,fhrs_4_en-GB,4,,FHRS,10
405091,6a Cairnshill Drive,Ballylenaghan Upper,Belfast,Down,CAIRNSHILL PRIMARY SCHOOL KITCHEN,School/college/university,7845,5,,709708,0,,54.55264300000000,500398,809,environmentalhealth@castlereagh.gov.uk,Castlereagh,http://www.castlereagh.gov.uk,-5.90208400000000,BT8 6RT,2014-03-13,fhrs_5_en-GB,5,,FHRS,5
405092,2 Marshalls Road,Lisnasharragh,Castlereagh,Down,CAMPBELL CATERING - ARAMARK AT SANGERS,Restaurant/Cafe/Canteen,1,5,,709890,0,,54.58058400000000,501833,809,environmentalhealth@castlereagh.gov.uk,Castlereagh,http://www.castlereagh.gov.uk,-5.88080200000000,BT5 6SR,2014-01-23,fhrs_5_en-GB,5,,FHRS,5
405093,43 Comber Road,Dundonald,Castlereagh,Down,CAMPBELLS HOME BAKERY,Retailers - other,4613,10,,709840,5,,54.59347300000000,501643,809,environmentalhealth@castlereagh.gov.uk,Castlereagh,http://www.castlereagh.gov.uk,-5.81334900000000,BT16 2AA,2013-08-05,fhrs_4_en-GB,4,,FHRS,5
405094,,,Castlereagh,Down,CARNIVAL CANDIES,Other catering premises,7841,5,,709866,0,,,501743,809,environmentalhealth@castlereagh.gov.uk,Castlereagh,http://www.castlereagh.gov.uk,,,2012-03-21,fhrs_5_en-GB,5,,FHRS,0
405095,,,Castlereagh,Down,CAROUSEL ICE CREAM,Retailers - other,4613,0,,709885,0,,,501807,809,environmentalhealth@castlereagh.gov.uk,Castlereagh,http://www.castlereagh.gov.uk,,,2012-10-31,fhrs_5_en-GB,5,,FHRS,0
405096,19 Church Road,Carryduff,Carryduff,Down,CARRYDUFF NURSING HOME,Hospitals/Childcare/Caring Premises,5,5,,709654,0,,54.51526500000000,500134,809,environmentalhealth@castlereagh.gov.uk,Castlereagh,http://www.castlereagh.gov.uk,-5.88559200000000,BT8 8DT,2015-01-23,fhrs_5_en-GB,5,,FHRS,5
405097,20a Church Road,Carryduff,Castlereagh,Down,CARRYDUFF PLAY GROUP,School/college/university,7845,5,,709783,0,,54.51526500000000,501151,809,environmentalhealth@castlereagh.gov.uk,Castlereagh,http://www.castlereagh.gov.uk,-5.88559200000000,BT8 8DT,2013-02-12,fhrs_5_en-GB,5,,FHRS,0
405098,Killynure Road,Carryduff,Carryduff,Down,CARRYDUFF PRIMARY SCHOOL KITCHEN,School/college/university,7845,0,,709655,0,,54.51373600000000,500135,809,environmentalhealth@castlereagh.gov.uk,Castlereagh,http://www.castlereagh.gov.uk,-5.88346200000000,BT8 8EE,2014-06-03,fhrs_5_en-GB,5,,FHRS,0
405099,14 Montgomery Road,Ballymaconaghy,Belfast,Down,CASTLEREAGH COLLEGE (CANTEEN),School/college/university,7845,10,,709676,5,,54.57741300000000,500228,809,environmentalhealth@castlereagh.gov.uk,Castlereagh,http://www.castlereagh.gov.uk,-5.89473200000000,BT6 9JD,2014-03-19,fhrs_4_en-GB,4,,FHRS,5
405100,117 Clonduff Drive,Lisnasharragh,Castlereagh,Down,CASTLEREAGH COMMUNITY CENTRE,Other catering premises,7841,,,709714,,,54.57647500000000,500434,809,environmentalhealth@castlereagh.gov.uk,Castlereagh,http://www.castlereagh.gov.uk,-5.88064400000000,BT6 9NT,2011-03-15,fhrs_exempt_en-GB,Exempt,,FHRS,
405101,135 Clonduff Drive,Lisnasharragh,Belfast,Down,CASTLEREAGH NURSERY SCHOOL DINING CENTRE,School/college/university,7845,0,,709715,0,,54.57752700000000,500435,809,environmentalhealth@castlereagh.gov.uk,Castlereagh,http://www.castlereagh.gov.uk,-5.87912000000000,BT6 9NS,2014-01-13,fhrs_5_en-GB,5,,FHRS,0
405102,Cedarhurst Road,Ballylenaghan Upper,Belfast,Down,CEDARHURST LODGE CARE HOME,Hospitals/Childcare/Caring Premises,5,5,,709792,0,,54.54918200000000,501237,809,environmentalhealth@castlereagh.gov.uk,Castlereagh,http://www.castlereagh.gov.uk,-5.91448700000000,BT8 7RH,2014-01-06,fhrs_5_en-GB,5,,FHRS,5
405103,130 Upper Knockbreda Road,Lisnasharragh,Belfast,Down,Cedars Residential Home,Hospitals/Childcare/Caring Premises,5,5,,709742,0,,54.57395900000000,500607,809,environmentalhealth@castlereagh.gov.uk,Castlereagh,http://www.castlereagh.gov.uk,-5.88116100000000,BT6 9QB,2014-09-09,fhrs_5_en-GB,5,,FHRS,5
405104,,,Castlereagh,Down,Ceeba Exotic Foods: Ceeba Treats & The Cooking Pot,Other catering premises,7841,0,,709923,0,,,501998,809,environmentalhealth@castlereagh.gov.uk,Castlereagh,http://www.castlereagh.gov.uk,,,2014-07-08,fhrs_5_en-GB,5,,FHRS,0
405105,Cottage,10a Killynure Road West,Carryduff,Down,CHEEKY CHERUBS & WEE MONKEYS COUNTRY,School/college/university,7845,10,,709788,5,,54.49948300000000,501213,809,environmentalhealth@castlereagh.gov.uk,Castlereagh,http://www.castlereagh.gov.uk,-5.88282500000000,BT8 8EA,2015-01-19,fhrs_3_en-GB,3,,FHRS,10
405106,Unit 21 Kings Square,,Gilnahirk,Co Down,Cherry Orchard,Restaurant/Cafe/Canteen,1,5,,710002,5,,54.58957400000000,506614,809,environmentalhealth@castlereagh.gov.uk,Castlereagh,http://www.castlereagh.gov.uk,-5.84492000000000,BT5 7EA,2014-09-24,fhrs_5_en-GB,5,,FHRS,5
405107,46 Gilnahirk Road,Tullycarnet,Belfast,Down,CHERRYVALLEY FILLING STATION (MAXOL),Retailers - other,4613,5,,709842,0,,54.58887100000000,501656,809,environmentalhealth@castlereagh.gov.uk,Castlereagh,http://www.castlereagh.gov.uk,-5.84735500000000,BT5 7DG,2013-07-17,fhrs_5_en-GB,5,,FHRS,0
405108,59 Rosetta Road,Ballymaconaghy,Belfast,Down,Chilli,Takeaway/sandwich shop,7844,5,,709992,5,,54.57078100000000,506600,809,environmentalhealth@castlereagh.gov.uk,Castlereagh,http://www.castlereagh.gov.uk,-5.90191000000000,BT6 0LR,2014-10-07,fhrs_4_en-GB,4,,FHRS,10
405109,224 Knock Road,Carnamuck,Belfast,Down,CHINA STAR,Takeaway/sandwich shop,7844,10,,709950,5,,54.57887700000000,502077,809,environmentalhealth@castlereagh.gov.uk,Castlereagh,http://www.castlereagh.gov.uk,-5.87108400000000,BT5 6QD,2014-08-28,fhrs_2_en-GB,2,,FHRS,15
405110,Millars Lane,Ballybeen,Dundonald,Down,CHRIST CHURCH (PRESBYTERIAN),Retailers - other,4613,,,709691,,,54.58596400000000,500330,809,environmentalhealth@castlereagh.gov.uk,Castlereagh,http://www.castlereagh.gov.uk,-5.79665600000000,BT16 2DA,2012-05-15,fhrs_exempt_en-GB,Exempt,,FHRS,
405111,126 Mount Merrion Avenue,Ballymaconaghy,Belfast,Down,"Church Of The Pentecost, Mount Merrion Parish Church",Other catering premises,7841,,,709666,,,54.57502300000000,500202,809,environmentalhealth@castlereagh.gov.uk,Castlereagh,http://www.castlereagh.gov.uk,-5.90299100000000,BT6 0FS,2010-09-22,fhrs_exempt_en-GB,Exempt,,FHRS,
405112,47 Comber Road,Church Quarter,Dundonald,Down,CINNAMON,Restaurant/Cafe/Canteen,1,10,,709807,0,,54.59347300000000,501315,809,environmentalhealth@castlereagh.gov.uk,Castlereagh,http://www.castlereagh.gov.uk,-5.81334900000000,BT16 2AA,2013-11-28,fhrs_4_en-GB,4,,FHRS,10
405113,Hughes Court,Ballymaconaghy,Belfast,Down,CLANMIL HOUSING,Other catering premises,7841,,,709782,,,54.57494000000000,501146,809,environmentalhealth@castlereagh.gov.uk,Castlereagh,http://www.castlereagh.gov.uk,-5.90342800000000,BT6 0LX,2011-11-10,fhrs_exempt_en-GB,Exempt,,FHRS,
405114,2 Mount Merrion Avenue,Ballymaconaghy,Belfast,Down,CLEAR PHARMACY,Retailers - other,4613,,,709909,,,54.57260700000000,501951,809,environmentalhealth@castlereagh.gov.uk,Castlereagh,http://www.castlereagh.gov.uk,-5.90515600000000,BT6 0FR,2014-11-07,fhrs_exempt_en-GB,Exempt,,FHRS,
405115,4 Drumart Square,Ballylenaghan Upper,Belfast,Down,CLEAR PHARMACY,Retailers - other,4613,,,709894,,,54.54952800000000,501858,809,environmentalhealth@castlereagh.gov.uk,Castlereagh,http://www.castlereagh.gov.uk,-5.92882900000000,BT8 7EY,2013-02-12,fhrs_exempt_en-GB,Exempt,,FHRS,
405116,111 Old Dundonald Road,,Dundonald,Co Down,Clip 'n Climb,Restaurant/Cafe/Canteen,1,0,,709974,0,,54.58721100000000,506560,809,environmentalhealth@castlereagh.gov.uk,Castlereagh,http://www.castlereagh.gov.uk,-5.81787700000000,BT16 1XT,2013-05-22,fhrs_5_en-GB,5,,FHRS,0
405117,5 Craigleith Drive,Dundonald,Castlereagh,Down,COD'S KITCHEN,Takeaway/sandwich shop,7844,10,,709908,5,,54.58927600000000,501938,809,environmentalhealth@castlereagh.gov.uk,Castlereagh,http://www.castlereagh.gov.uk,-5.79155700000000,BT16 2QP,2013-11-13,fhrs_3_en-GB,3,,FHRS,10
405118,14 Ballygowan Road,Carnamuck,Belfast,Down,Cooks Cafe,Restaurant/Cafe/Canteen,1,10,,709971,10,,54.57799100000000,506555,809,environmentalhealth@castlereagh.gov.uk,Castlereagh,http://www.castlereagh.gov.uk,-5.87230600000000,BT5 7LL,2014-12-03,fhrs_3_en-GB,3,,FHRS,5
405119,150 Kings Road,Gilnahirk,Castlereagh,Down,CO-OP LATE SHOP,Retailers - supermarkets/hypermarkets,7840,0,,709700,0,,54.58953300000000,500356,809,environmentalhealth@castlereagh.gov.uk,Castlereagh,http://www.castlereagh.gov.uk,-5.84668600000000,BT5 7EJ,2011-11-16,fhrs_4_en-GB,4,,FHRS,10
405120,69 Rosetta Road,Rosetta,Castlereagh,Down,CO-OP LATE SHOP,Retailers - supermarkets/hypermarkets,7840,0,,709759,5,,,500670,809,environmentalhealth@castlereagh.gov.uk,Castlereagh,http://www.castlereagh.gov.uk,,BT6 OLR,2012-09-10,fhrs_4_en-GB,4,,FHRS,10
405121,8 Ballygowan Road,Carnamuck,Belfast,Down,CO-OPERATIVE PHARMACY,Retailers - other,4613,,,709722,,,54.57799100000000,500485,809,environmentalhealth@castlereagh.gov.uk,Castlereagh,http://www.castlereagh.gov.uk,-5.87230600000000,BT5 7LL,2013-02-13,fhrs_exempt_en-GB,Exempt,,FHRS,
405122,30 Gilnahirk Road,Tullycarnet,Belfast,Down,CORRIE'S FARM BUTCHERS,Retailers - other,4613,5,,709926,0,,54.58887100000000,502002,809,environmentalhealth@castlereagh.gov.uk,Castlereagh,http://www.castlereagh.gov.uk,-5.84735500000000,BT5 7DG,2013-01-28,fhrs_5_en-GB,5,,FHRS,0
405123,38 Gransha Road,Gransha,Comber,Down,COUNTRY BUMPKINS (DAY NURSERY),School/college/university,7845,5,,709785,0,,54.54894800000000,501156,809,environmentalhealth@castlereagh.gov.uk,Castlereagh,http://www.castlereagh.gov.uk,-5.81866900000000,BT23 5RF,2014-04-01,fhrs_5_en-GB,5,,FHRS,0
405124,69 Mount Merrion Avenue,Cregagh,Castlereagh,Down,CREGAGH PRIMARY SCHOOL DINING CENTRE,School/college/university,7845,0,,709665,0,,,500201,809,environmentalhealth@castlereagh.gov.uk,Castlereagh,http://www.castlereagh.gov.uk,,BT6 OFL,2013-12-11,fhrs_5_en-GB,5,,FHRS,5
405125,Mount Merrion Avenue,Cregagh,Castlereagh,Down,CREGAGH YOUTH AND COMMUNITY CENTRE,Other catering premises,7841,,,709794,,,54.57576200000000,501264,809,environmentalhealth@castlereagh.gov.uk,Castlereagh,http://www.castlereagh.gov.uk,-5.90210200000000,BT6 0FL,2014-08-12,fhrs_exempt_en-GB,Exempt,,FHRS,
405126,224-228 Knock Road,Castlereagh,Castlereagh,Down,CURRY COTTAGE,Takeaway/sandwich shop,7844,,,709821,,,54.57887700000000,501558,809,environmentalhealth@castlereagh.gov.uk,Castlereagh,http://www.castlereagh.gov.uk,-5.87108400000000,BT5 6QD,2014-06-23,fhrs_5_en-GB,5,,FHRS,
405127,,,Castlereagh,Down,DAINTY LITTLE CUPCAKES,Other catering premises,7841,5,,709928,0,,,502005,809,environmentalhealth@castlereagh.gov.uk,Castlereagh,http://www.castlereagh.gov.uk,,,2011-09-16,fhrs_5_en-GB,5,,FHRS,0
405128,115 Old Dundonald Road,Ballyhanwood,Dundonald,Down,DAVID LLOYD LEISURE,Restaurant/Cafe/Canteen,1,0,,709766,0,,54.58631800000000,500994,809,environmentalhealth@castlereagh.gov.uk,Castlereagh,http://www.castlereagh.gov.uk,-5.82214800000000,BT16 1DL,2013-11-08,fhrs_5_en-GB,5,,FHRS,5
405129,,,Castlereagh,Down,Desserts 2u,Other catering premises,7841,0,,709986,0,,,506587,809,environmentalhealth@castlereagh.gov.uk,Castlereagh,http://www.castlereagh.gov.uk,,,2013-12-04,fhrs_5_en-GB,5,,FHRS,0
405130,Marshalls Road,Lisnasharragh,Castlereagh,Down,DIAGEO STAFF CANTEEN,Restaurant/Cafe/Canteen,1,5,,709845,0,,54.57976100000000,501683,809,environmentalhealth@castlereagh.gov.uk,Castlereagh,http://www.castlereagh.gov.uk,-5.88560900000000,BT5 6SL,2014-02-24,fhrs_5_en-GB,5,,FHRS,5
405131,226-228 Knock Road,Carnamuck,Belfast,Down,DOMINO'S PIZZA,Takeaway/sandwich shop,7844,0,,709725,0,,54.57887700000000,500503,809,environmentalhealth@castlereagh.gov.uk,Castlereagh,http://www.castlereagh.gov.uk,-5.87108400000000,BT5 6QD,2014-02-25,fhrs_5_en-GB,5,,FHRS,5
405132,48 Old Dundonald Road,Dundonald,Castlereagh,Down,DOMNALL INTERMEDIATE CARE CENTRE,Hospitals/Childcare/Caring Premises,5,5,,709831,5,,54.58687100000000,501612,809,environmentalhealth@castlereagh.gov.uk,Castlereagh,http://www.castlereagh.gov.uk,-5.80700400000000,BT16 2EH,2014-07-04,fhrs_4_en-GB,4,,FHRS,10
405133,,,Castlereagh,Down,DOWNSHIRE CAKES,Other catering premises,7841,0,,709901,0,,,501900,809,environmentalhealth@castlereagh.gov.uk,Castlereagh,http://www.castlereagh.gov.uk,,,2013-07-19,fhrs_5_en-GB,5,,FHRS,0
405134,28 Grahamsbridge Road,,Dundonald,Down,DUNDONALD EDUCATION CENTRE STAFF CANTEEN,Restaurant/Cafe/Canteen,1,5,,709707,0,,54.58865300000000,500380,809,environmentalhealth@castlereagh.gov.uk,Castlereagh,http://www.castlereagh.gov.uk,-5.79875400000000,BT16 2HS,2014-06-02,fhrs_5_en-GB,5,,FHRS,5
405135,East Link Road,Church Quarter,Dundonald,Down,DUNDONALD ELIM PENTECOSTAL CHURCH,Other catering premises,7841,,,709683,,,54.59140900000000,500281,809,environmentalhealth@castlereagh.gov.uk,Castlereagh,http://www.castlereagh.gov.uk,-5.80905000000000,BT16 2QR,2013-10-28,fhrs_exempt_en-GB,Exempt,,FHRS,
405136,Unit 20 Dundonald Enterprise Park,,Dundonald,Co Down,Dundonald Foodbank,Distributors/Transporters,7,,,709977,,,54.59725200000000,506566,809,environmentalhealth@castlereagh.gov.uk,Castlereagh,http://www.castlereagh.gov.uk,-5.78202600000000,BT16 1QT,2013-06-07,fhrs_exempt_en-GB,Exempt,,FHRS,
405137,764 Upper Newtownards Road,Dundonald,Castlereagh,Down,DUNDONALD HIGH SCHOOL,School/college/university,7845,0,,709653,0,,,500084,809,environmentalhealth@castlereagh.gov.uk,Castlereagh,http://www.castlereagh.gov.uk,,BT16 OTH,2014-12-08,fhrs_5_en-GB,5,,FHRS,0
405138,18 Dunlady Road,Dundonald,Castlereagh,Down,DUNLADY HOUSE NURSING HOME,Hospitals/Childcare/Caring Premises,5,5,,709682,5,,,500280,809,environmentalhealth@castlereagh.gov.uk,Castlereagh,http://www.castlereagh.gov.uk,,BT16 0TT,2013-12-16,fhrs_5_en-GB,5,,FHRS,5
405139,Forestside Shopping Ce,Upper Galwally,Newtownbreda,Down,DUNNES STORES,Retailers - other,4613,,,709827,,,,501598,809,environmentalhealth@castlereagh.gov.uk,Castlereagh,http://www.castlereagh.gov.uk,,BT8 4FX,2014-03-07,fhrs_exempt_en-GB,Exempt,,FHRS,
405140,Upper Braniel Road,Upper Braniel,Castlereagh,Down,EAGLES NEST ON THE HILLS,Restaurant/Cafe/Canteen,1,,,709937,,,54.56908700000000,502027,809,environmentalhealth@castlereagh.gov.uk,Castlereagh,http://www.castlereagh.gov.uk,-5.84643400000000,BT5 7TX,2012-09-04,fhrs_5_en-GB,5,,FHRS,
405141,,,Castlereagh,Down,EAT SWEET,Other catering premises,7841,5,,709968,0,,,502113,809,environmentalhealth@castlereagh.gov.uk,Castlereagh,http://www.castlereagh.gov.uk,,,2013-02-14,fhrs_5_en-GB,5,,FHRS,0
405142,The Junction,Ballynahinch Road,Carryduff,Down,EIGHT SOUTH,Restaurant/Cafe/Canteen,1,5,,709838,10,,54.51628600000000,501640,809,environmentalhealth@castlereagh.gov.uk,Castlereagh,http://www.castlereagh.gov.uk,-5.88801000000000,BT8 8DN,2014-05-15,fhrs_3_en-GB,3,,FHRS,10
405143,The Junction,Ballynahinch Road,Carryduff,Down,EIGHT SOUTH 2 GO,Takeaway/sandwich shop,7844,5,,709888,0,,54.51628600000000,501821,809,environmentalhealth@castlereagh.gov.uk,Castlereagh,http://www.castlereagh.gov.uk,-5.88801000000000,BT8 8DN,2013-07-24,fhrs_5_en-GB,5,,FHRS,5
405144,74 Old Milltown Road,Shaws Bridge,Ballynavally,Down,EMERALD CITY,Takeaway/sandwich shop,7844,5,,709773,10,,,501092,809,environmentalhealth@castlereagh.gov.uk,Castlereagh,http://www.castlereagh.gov.uk,,BT8 4SW,2014-06-09,fhrs_3_en-GB,3,,FHRS,10
405145,Belfast Auctions,10 Comber Road,Carryduff,Down,EMMA'S DINER,Restaurant/Cafe/Canteen,1,0,,709927,0,,54.51766700000000,502004,809,environmentalhealth@castlereagh.gov.uk,Castlereagh,http://www.castlereagh.gov.uk,-5.87861000000000,BT8 8AN,2015-01-08,fhrs_5_en-GB,5,,FHRS,0
405146,520 Saintfield Road,Knockbreckan,Carryduff,Down,Eurospar Brackenvale (hendersons),Retailers - supermarkets/hypermarkets,7840,5,,709873,0,,54.53014200000000,501763,809,environmentalhealth@castlereagh.gov.uk,Castlereagh,http://www.castlereagh.gov.uk,-5.89471000000000,BT8 8EU,2013-12-02,fhrs_4_en-GB,4,,FHRS,10
405147,,,Castlereagh,Down,FARM HOUSE TREATS,Manufacturers/packers,7839,0,,709921,0,,,501995,809,environmentalhealth@castlereagh.gov.uk,Castlereagh,http://www.castlereagh.gov.uk,,,2014-03-11,fhrs_5_en-GB,5,,FHRS,0
405148,77 Lisnabreeny Road,Lisnabreeny,Belfast,Down,FARMVIEW MEATS,Retailers - other,4613,0,,709734,0,,54.55164100000000,500551,809,environmentalhealth@castlereagh.gov.uk,Castlereagh,http://www.castlereagh.gov.uk,-5.87559400000000,BT6 9SR,2013-01-16,fhrs_5_en-GB,5,,FHRS,0
405149,231-237 Saintfield Road,Newtownbreda,Castlereagh,Down,FILLERZ CAFE,Restaurant/Cafe/Canteen,1,5,,709649,0,,54.54817700000000,500043,809,environmentalhealth@castlereagh.gov.uk,Castlereagh,http://www.castlereagh.gov.uk,-5.90622300000000,BT8 6PS,2013-11-12,fhrs_4_en-GB,4,,FHRS,10
405150,100 Upper Newtownards Road,Dundonald,Castlereagh,Down,FIRST STEPS DAY NURSERY,School/college/university,7845,5,,709942,0,,54.59679600000000,502051,809,environmentalhealth@castlereagh.gov.uk,Castlereagh,http://www.castlereagh.gov.uk,-5.81129800000000,BT16 1RH,2012-07-25,fhrs_5_en-GB,5,,FHRS,0
405151,Kings Road,,Gilnahirk,Co Down,First Steps Play Group,School/college/university,7845,0,,709984,0,,54.58869500000000,506581,809,environmentalhealth@castlereagh.gov.uk,Castlereagh,http://www.castlereagh.gov.uk,-5.83795700000000,BT5 7EH,2013-11-08,fhrs_5_en-GB,5,,FHRS,0
405152,39 Comber Road,,Dundonald,Co Down,FLETCHER MEATS,Retailers - other,4613,5,,709680,0,,,500256,809,environmentalhealth@castlereagh.gov.uk,Castlereagh,http://www.castlereagh.gov.uk,,BT16 OLN,2014-09-18,fhrs_5_en-GB,5,,FHRS,5
405153,26 Cairnshill Court,Ballylenaghan Upper,Belfast,Down,FOLD HOUSING ASSOCIATION,Hospitals/Childcare/Caring Premises,5,,,709914,,,54.54676100000000,501959,809,environmentalhealth@castlereagh.gov.uk,Castlereagh,http://www.castlereagh.gov.uk,-5.90380700000000,BT8 6TX,2014-11-21,fhrs_exempt_en-GB,Exempt,,FHRS,
405154,Topaz Service Station,Gilnahirk Road,Gilnahirk,Down,FOODIE FOLK LTD,Restaurant/Cafe/Canteen,1,10,,709955,5,,54.58345800000000,502088,809,environmentalhealth@castlereagh.gov.uk,Castlereagh,http://www.castlereagh.gov.uk,-5.84105000000000,BT5 7QL,2014-07-09,fhrs_3_en-GB,3,,FHRS,10
405155,,Fourwinds Shopping Centre,Newton Park,Down,FOUR NEWS,Retailers - other,4613,,,709695,,,,500342,809,environmentalhealth@castlereagh.gov.uk,Castlereagh,http://www.castlereagh.gov.uk,,BT8 4LX,2012-04-11,fhrs_exempt_en-GB,Exempt,,FHRS,
405156,71 Newton Park,Newtownbreda,Castlereagh,Down,FOUR WINDS CHEMIST,Retailers - other,4613,,,709692,,,,500332,809,environmentalhealth@castlereagh.gov.uk,Castlereagh,http://www.castlereagh.gov.uk,,BT8 4LN,2012-02-09,fhrs_exempt_en-GB,Exempt,,FHRS,
405157,Eastpoint Entertainment Village Old Dundonald Road,,Dundonald,Down,Funky Monkeys Soft Play Cafe,Restaurant/Cafe/Canteen,1,5,,735667,5,,54.58934200000000,506676,809,environmentalhealth@castlereagh.gov.uk,Castlereagh,http://www.castlereagh.gov.uk,-5.82293100000000,BT16 1YG,2015-01-06,fhrs_5_en-GB,5,,FHRS,5
405158,Comber Road,,Carryduff,Down,FUNTASTIC PLAY,Restaurant/Cafe/Canteen,1,5,,709965,5,,54.51766700000000,502106,809,environmentalhealth@castlereagh.gov.uk,Castlereagh,http://www.castlereagh.gov.uk,-5.87861000000000,BT8 8AN,2014-09-23,fhrs_5_en-GB,5,,FHRS,5
405159,East Point Entertainment Villa,Dundonald,Castlereagh,Down,GAZE,Restaurant/Cafe/Canteen,1,10,,709880,5,,54.58934200000000,501773,809,environmentalhealth@castlereagh.gov.uk,Castlereagh,http://www.castlereagh.gov.uk,-5.82293100000000,BT16 1YG,2014-04-28,fhrs_3_en-GB,3,,FHRS,10
405160,Hughes Court,Ballymaconaghy,Belfast,Down,GIBONEY HOUSE (CLANMIL HOUSING),Hospitals/Childcare/Caring Premises,5,5,,709667,0,,54.57494000000000,500203,809,environmentalhealth@castlereagh.gov.uk,Castlereagh,http://www.castlereagh.gov.uk,-5.90342800000000,BT6 0LX,2013-09-06,fhrs_5_en-GB,5,,FHRS,0
405161,109a Gilnahirk Road,Gortgrib,Belfast,Down,GILNAHIRK FILLING STATION (SHOP 4 YOU),Retailers - supermarkets/hypermarkets,7840,5,,709697,0,,54.58345800000000,500352,809,environmentalhealth@castlereagh.gov.uk,Castlereagh,http://www.castlereagh.gov.uk,-5.84105000000000,BT5 7QL,2014-02-19,fhrs_5_en-GB,5,,FHRS,5
405162,148 Gilnahirk Road,Gortgrib,Belfast,Down,GILNAHIRK PRIMARY SCHOOL,School/college/university,7845,0,,709699,5,,54.58328200000000,500355,809,environmentalhealth@castlereagh.gov.uk,Castlereagh,http://www.castlereagh.gov.uk,-5.83925000000000,BT5 7QQ,2011-09-26,fhrs_5_en-GB,5,,FHRS,0
405163,12a Comber Road,,Dundonald,Down,GOLDEN CHIP,Takeaway/sandwich shop,7844,5,,709678,0,,,500246,809,environmentalhealth@castlereagh.gov.uk,Castlereagh,http://www.castlereagh.gov.uk,,BT16 0AB,2014-03-10,fhrs_5_en-GB,5,,FHRS,5
405164,190 Saintfield Road,Ballylenaghan Upper,Castlereagh,Down,GOLDEN ELEPHANT (THAI RESTAURANT LTD),Restaurant/Cafe/Canteen,1,10,,709806,5,,54.55528000000000,501310,809,environmentalhealth@castlereagh.gov.uk,Castlereagh,http://www.castlereagh.gov.uk,-5.90698800000000,BT8 6NN,2014-02-03,fhrs_4_en-GB,4,,FHRS,5
405165,13 Greenway,Ballymaconaghy,Belfast,Down,GORDONS CHEMIST,Retailers - other,4613,,,709774,,,54.57532900000000,501093,809,environmentalhealth@castlereagh.gov.uk,Castlereagh,http://www.castlereagh.gov.uk,-5.89632400000000,BT6 0DT,2012-05-21,fhrs_exempt_en-GB,Exempt,,FHRS,
405166,,,Castlereagh,Down,GRANNY ORRS,Other catering premises,7841,0,,709824,0,,,501571,809,environmentalhealth@castlereagh.gov.uk,Castlereagh,http://www.castlereagh.gov.uk,,,2013-10-01,fhrs_5_en-GB,5,,FHRS,0
405167,19 Greenway,Ballymaconaghy,Belfast,Down,GREENWAY DROP-IN,Other catering premises,7841,,,709832,,,54.57532900000000,501616,809,environmentalhealth@castlereagh.gov.uk,Castlereagh,http://www.castlereagh.gov.uk,-5.89632400000000,BT6 0DT,2013-09-26,fhrs_exempt_en-GB,Exempt,,FHRS,
405168,192 Newtownbreda Road,Ballydollaghan,Belfast,Down,GREERVILLE MANOR CARE HOME,Hospitals/Childcare/Caring Premises,5,10,,709738,5,,54.54758300000000,500574,809,environmentalhealth@castlereagh.gov.uk,Castlereagh,http://www.castlereagh.gov.uk,-5.92545000000000,BT8 6QB,2014-07-03,fhrs_3_en-GB,3,,FHRS,10
405169,520 Saintfield Road,,Carryduff,Co Down,H & J Carnduff The Butchers,Retailers - other,4613,5,,709988,0,,54.53014200000000,506592,809,environmentalhealth@castlereagh.gov.uk,Castlereagh,http://www.castlereagh.gov.uk,-5.89471000000000,BT8 8EU,2013-12-02,fhrs_5_en-GB,5,,FHRS,0
405170,358-360 Cregagh Road,Cregagh,Cregagh,Down,Hamilton Mace Express,Retailers - supermarkets/hypermarkets,7840,5,,709670,0,,54.57145900000000,500212,809,environmentalhealth@castlereagh.gov.uk,Castlereagh,http://www.castlereagh.gov.uk,-5.89387900000000,BT6 9EY,2013-06-26,fhrs_5_en-GB,5,,FHRS,0
405171,7 Greenway,Cregagh,Castlereagh,Down,HAMILTON NEWSAGENCY,Retailers - other,4613,0,,709674,5,,,500217,809,environmentalhealth@castlereagh.gov.uk,Castlereagh,http://www.castlereagh.gov.uk,,BT6 ODT,2014-10-07,fhrs_5_en-GB,5,,FHRS,0
405172,Kinross Avenue,Tullycarnet,Belfast,Down,HANWOOD RESOURCE CENTRE,Other catering premises,7841,,,709809,,,54.58914700000000,501346,809,environmentalhealth@castlereagh.gov.uk,Castlereagh,http://www.castlereagh.gov.uk,-5.82759800000000,BT5 7GE,2013-07-01,fhrs_exempt_en-GB,Exempt,,FHRS,
405173,65 Comber Road,Dundonald,Castlereagh,Down,HAPPY VALLEY,Takeaway/sandwich shop,7844,5,,709881,0,,,501776,809,environmentalhealth@castlereagh.gov.uk,Castlereagh,http://www.castlereagh.gov.uk,,BT16 0AE,2014-03-31,fhrs_4_en-GB,4,,FHRS,10
405174,Upper Newtownards Road,Ballyregan,Dundonald,Down,Hard Hat Catering,Restaurant/Cafe/Canteen,1,10,,709985,5,,54.59679600000000,506583,809,environmentalhealth@castlereagh.gov.uk,Castlereagh,http://www.castlereagh.gov.uk,-5.81129800000000,BT16 1RH,2013-11-13,fhrs_3_en-GB,3,,FHRS,10
405175,91-93 Saintfield Road,Breda,Castlereagh,Down,HARMONY INN,Restaurant/Cafe/Canteen,1,10,,709903,10,,54.55604400000000,501903,809,environmentalhealth@castlereagh.gov.uk,Castlereagh,http://www.castlereagh.gov.uk,-5.90807700000000,BT8 7HN,2013-07-04,fhrs_3_en-GB,3,,FHRS,10
405176,Grahamsbridge Road,Dundonald,Castlereagh,Down,"HELM HOUSING, GRAHAMSBRIDGE MANOR",Hospitals/Childcare/Caring Premises,5,,,709930,,,,502008,809,environmentalhealth@castlereagh.gov.uk,Castlereagh,http://www.castlereagh.gov.uk,,BT16 0GZ,2014-11-05,fhrs_exempt_en-GB,Exempt,,FHRS,
405177,56-58 Upper Braniel Road,,Gilnahirk,Down,HILLMOUNT NURSERY CENTRE,Restaurant/Cafe/Canteen,1,5,,709755,0,,54.56908700000000,500647,809,environmentalhealth@castlereagh.gov.uk,Castlereagh,http://www.castlereagh.gov.uk,-5.84643400000000,BT5 7TX,2014-06-10,fhrs_5_en-GB,5,,FHRS,5
405178,21 Hollygate Park,Carryduff,Carryduff,Down,HOLLYGATE LODGE PRIVATE RETIREMENT HOME,Hospitals/Childcare/Caring Premises,5,5,,709660,0,,54.51620000000000,500180,809,environmentalhealth@castlereagh.gov.uk,Castlereagh,http://www.castlereagh.gov.uk,-5.88667100000000,BT8 8DZ,2014-11-21,fhrs_5_en-GB,5,,FHRS,5
405179,126 Upper Knockbreda Road,Lisnasharragh,Belfast,Down,HOLLYGATE NURSING HOME,Hospitals/Childcare/Caring Premises,5,0,,709768,5,,54.57395900000000,501063,809,environmentalhealth@castlereagh.gov.uk,Castlereagh,http://www.castlereagh.gov.uk,-5.88116100000000,BT6 9QB,2013-07-01,fhrs_5_en-GB,5,,FHRS,5
405180,,,Castlereagh,Down,Home Maeve Cakes,Other catering premises,7841,5,,709981,0,,,506574,809,environmentalhealth@castlereagh.gov.uk,Castlereagh,http://www.castlereagh.gov.uk,,,2013-08-22,fhrs_5_en-GB,5,,FHRS,0
405181,,Drumkeen Complex,Upper Galwally,Down,HOMEBASE,Retailers - other,4613,,,709750,,,,500629,809,environmentalhealth@castlereagh.gov.uk,Castlereagh,http://www.castlereagh.gov.uk,,BT8 4FY,2013-11-14,fhrs_exempt_en-GB,Exempt,,FHRS,
405182,,,Castlereagh,Down,HOT AND COLD NEW AND OLD DEZURTS,Other catering premises,7841,0,,709826,0,,,501595,809,environmentalhealth@castlereagh.gov.uk,Castlereagh,http://www.castlereagh.gov.uk,,,2013-01-15,fhrs_5_en-GB,5,,FHRS,5
405183,756 Upper Newtownards Road,Ballyregan,Dundonald,Down,HUNGRY HARRY'S/PAPA JOHNS,Takeaway/sandwich shop,7844,0,,709837,5,,54.59529700000000,501639,809,environmentalhealth@castlereagh.gov.uk,Castlereagh,http://www.castlereagh.gov.uk,-5.80142900000000,BT16 1LA,2013-05-24,fhrs_5_en-GB,5,,FHRS,5
405184,4 Hospital Road,Ballydollaghan,Belfast,Down,Hydebank Catering,Restaurant/Cafe/Canteen,1,10,,726380,10,,54.54330200000000,506658,809,environmentalhealth@castlereagh.gov.uk,Castlereagh,http://www.castlereagh.gov.uk,-5.92993200000000,BT8 8JP,2014-10-22,fhrs_3_en-GB,3,,FHRS,5
405185,6 Rosetta Road,Ballymaconaghy,Belfast,Down,IANS HOME BAKERY AND COFFEE SHOP,Manufacturers/packers,7839,10,,709758,10,,54.57169600000000,500663,809,environmentalhealth@castlereagh.gov.uk,Castlereagh,http://www.castlereagh.gov.uk,-5.90388800000000,BT6 0LT,2013-06-05,fhrs_3_en-GB,3,,FHRS,5
405186,556 Saintfield Road,Knockbreckan,Carryduff,Down,IVANHOE INN AND HOTEL,Hotel/bed & breakfast/guest house,7842,,,709663,,,54.53014200000000,500190,809,environmentalhealth@castlereagh.gov.uk,Castlereagh,http://www.castlereagh.gov.uk,-5.89471000000000,BT8 8EU,2014-10-15,fhrs_5_en-GB,5,,FHRS,
405187,,,Castlereagh,Down,J A R SUPPLIES LTD,Distributors/Transporters,7,,,709936,,,,502026,809,environmentalhealth@castlereagh.gov.uk,Castlereagh,http://www.castlereagh.gov.uk,,,2014-03-04,fhrs_exempt_en-GB,Exempt,,FHRS,
405188,,,Castlereagh,Down,J C CATERING,Other catering premises,7841,5,,709947,0,,,502064,809,environmentalhealth@castlereagh.gov.uk,Castlereagh,http://www.castlereagh.gov.uk,,,2012-03-23,fhrs_5_en-GB,5,,FHRS,0
405189,9 Greenway,Ballymaconaghy,Belfast,Down,J MAWHINNEY & SON,Retailers - other,4613,5,,709789,5,,54.57532900000000,501214,809,environmentalhealth@castlereagh.gov.uk,Castlereagh,http://www.castlereagh.gov.uk,-5.89632400000000,BT6 0DT,2014-08-20,fhrs_5_en-GB,5,,FHRS,5
405190,Upper Galwally,,Castlereagh,Down,J SAINSBURY LTD (OFF LICENCE SALES),Retailers - other,4613,,,709746,,,54.56388600000000,500613,809,environmentalhealth@castlereagh.gov.uk,Castlereagh,http://www.castlereagh.gov.uk,-5.90948500000000,BT8 6FX,2012-06-12,fhrs_exempt_en-GB,Exempt,,FHRS,
405191,Upper Galwally,,Castlereagh,Down,J SAINSBURY PLC,Retailers - supermarkets/hypermarkets,7840,0,,709744,0,,54.56388600000000,500611,809,environmentalhealth@castlereagh.gov.uk,Castlereagh,http://www.castlereagh.gov.uk,-5.90948500000000,BT8 6FX,2014-05-12,fhrs_5_en-GB,5,,FHRS,0
405192,Upper Galwally Road,Newtownbreda,Castlereagh,Down,J SAINSBURY PLC (PETROL FILLING STATION),Retailers - supermarkets/hypermarkets,7840,0,,709747,0,,,500617,809,environmentalhealth@castlereagh.gov.uk,Castlereagh,http://www.castlereagh.gov.uk,,BT8 4FX,2014-02-25,fhrs_5_en-GB,5,,FHRS,0
405193,5 Queensway,Carryduff,Carryduff,Down,Jackson Greens,Retailers - other,4613,5,,709812,0,,54.51767600000000,501492,809,environmentalhealth@castlereagh.gov.uk,Castlereagh,http://www.castlereagh.gov.uk,-5.88834000000000,BT8 8NX,2014-04-09,fhrs_5_en-GB,5,,FHRS,5
405194,,,Castlereagh,Down,Jane's Boutique Bakery,Other catering premises,7841,5,,709995,0,,,506605,809,environmentalhealth@castlereagh.gov.uk,Castlereagh,http://www.castlereagh.gov.uk,,,2014-05-19,fhrs_5_en-GB,5,,FHRS,0
405195,,,Castlereagh,Down,Jayne Dough Bake Co,Other catering premises,7841,10,,710009,0,,,506631,809,environmentalhealth@castlereagh.gov.uk,Castlereagh,http://www.castlereagh.gov.uk,,,2014-10-16,fhrs_4_en-GB,4,,FHRS,0
405196,,,Castlereagh,Down,JIREH CAKES,Other catering premises,7841,5,,709852,5,,,501714,809,environmentalhealth@castlereagh.gov.uk,Castlereagh,http://www.castlereagh.gov.uk,,,2010-11-22,fhrs_5_en-GB,5,,FHRS,5
405197,Spar Brackenvale,520 Saintfield Road,Carryduff,Down,JOHN BEATTIE (MOBILE FISH VAN),Mobile caterer,7846,5,,709940,5,,54.52844500000000,502042,809,environmentalhealth@castlereagh.gov.uk,Castlereagh,http://www.castlereagh.gov.uk,-5.90307900000000,BT8,2012-04-25,fhrs_5_en-GB,5,,FHRS,5
405198,,Carryduff Centre,Church Road,Down,JOHN DORY'S,Takeaway/sandwich shop,7844,5,,709658,5,,54.51365200000000,500160,809,environmentalhealth@castlereagh.gov.uk,Castlereagh,http://www.castlereagh.gov.uk,-5.88845500000000,BT8 8RB,2013-05-20,fhrs_5_en-GB,5,,FHRS,0
405199,1 Ballygowan Road,Castlereagh,Belfast,Down,JOHN DORY'S,Takeaway/sandwich shop,7844,0,,709772,0,,54.57737100000000,501087,809,environmentalhealth@castlereagh.gov.uk,Castlereagh,http://www.castlereagh.gov.uk,-5.87076000000000,BT5 7LH,2014-06-10,fhrs_5_en-GB,5,,FHRS,5
405200,Kings Square,Kings Road,Gilnahirk,Down,JOHN DORY'S TRADITIONAL FISH & CHIPS,Takeaway/sandwich shop,7844,5,,709889,0,,54.58957400000000,501827,809,environmentalhealth@castlereagh.gov.uk,Castlereagh,http://www.castlereagh.gov.uk,-5.84492000000000,BT5 7EA,2013-05-09,fhrs_5_en-GB,5,,FHRS,5
405201,J Sainsbury Plc,Unit 14,Forestside Shopping Centre,Down,JSR RESTAURANT (PUBLIC),Restaurant/Cafe/Canteen,1,5,,709745,0,,,500612,809,environmentalhealth@castlereagh.gov.uk,Castlereagh,http://www.castlereagh.gov.uk,,BT8 4FX,2013-05-23,fhrs_5_en-GB,5,,FHRS,5
405202,Newton Park,,Newtownbreda,Co Down,Kebabish,Takeaway/sandwich shop,7844,10,,710000,0,,54.55677500000000,506612,809,environmentalhealth@castlereagh.gov.uk,Castlereagh,http://www.castlereagh.gov.uk,-5.89993900000000,BT8 6LX,2014-09-10,fhrs_4_en-GB,4,,FHRS,10
405203,495 Saintfield Road,,Carryduff,Down,KENTUCKY FRIED CHICKEN,Restaurant/Cafe/Canteen,1,0,,709662,0,,,500188,809,environmentalhealth@castlereagh.gov.uk,Castlereagh,http://www.castlereagh.gov.uk,,BT8 1HG,2013-02-20,fhrs_5_en-GB,5,,FHRS,5
405204,520 Saintfield Road,Knockbreckan,Carryduff,Down,Khyber Restaurant,Restaurant/Cafe/Canteen,1,10,,709712,10,,54.53014200000000,500420,809,environmentalhealth@castlereagh.gov.uk,Castlereagh,http://www.castlereagh.gov.uk,-5.89471000000000,BT8 8EU,2014-03-10,fhrs_3_en-GB,3,,FHRS,10
405205,139 Belfast Road,Lisdoonan,Saintfield,Down,Kids Corner Playcare,School/college/university,7845,5,,710004,0,,54.49363600000000,506616,809,environmentalhealth@castlereagh.gov.uk,Castlereagh,http://www.castlereagh.gov.uk,-5.85542000000000,BT24 7HF,2014-10-07,fhrs_5_en-GB,5,,FHRS,0
405206,26 Church Road,Carryduff,Carryduff,Down,KILLYNURE HOUSE EMI RESIDENTIAL HOME,Hospitals/Childcare/Caring Premises,5,0,,709656,0,,54.51526500000000,500138,809,environmentalhealth@castlereagh.gov.uk,Castlereagh,http://www.castlereagh.gov.uk,-5.88559200000000,BT8 8DT,2014-09-15,fhrs_5_en-GB,5,,FHRS,5
405207,Melfort Drive,Kings Road,Tullycarnet,Down,KINGS ROAD NURSERY SCHOOL,School/college/university,7845,0,,709752,0,,54.58700700000000,500636,809,environmentalhealth@castlereagh.gov.uk,Castlereagh,http://www.castlereagh.gov.uk,-5.83551000000000,BT5 7FD,2014-10-07,fhrs_5_en-GB,5,,FHRS,5
405208,Saintfield Road,Ballydollaghan,Belfast,Down,KNOCKBRACKEN HEALTHCARE PARK,Hospitals/Childcare/Caring Premises,5,10,,709825,0,,54.54008000000000,501585,809,environmentalhealth@castlereagh.gov.uk,Castlereagh,http://www.castlereagh.gov.uk,-5.90563300000000,BT8 8BH,2014-04-02,fhrs_4_en-GB,4,,FHRS,10
405209,43 Upper Knockbreda Road,Castlereagh,Castlereagh,Down,KNOCKBREDA HIGH SCHOOL KITCHEN,School/college/university,7845,0,,709741,0,,,500605,809,environmentalhealth@castlereagh.gov.uk,Castlereagh,http://www.castlereagh.gov.uk,,BT6 ONE,2013-11-05,fhrs_5_en-GB,5,,FHRS,0
405210,Wynchurch Road,Ballymaconaghy,Belfast,Down,KNOCKBREDA PRIMARY SCHOOL DINING CENTRE,School/college/university,7845,0,,709760,0,,54.56764600000000,500678,809,environmentalhealth@castlereagh.gov.uk,Castlereagh,http://www.castlereagh.gov.uk,-5.90350900000000,BT6 0JJ,2013-12-10,fhrs_5_en-GB,5,,FHRS,5
405211,31a Comber Road,Dundonald,Castlereagh,Down,KOSY SOCIAL CLUB,Retailers - other,4613,0,,709679,0,,,500249,809,environmentalhealth@castlereagh.gov.uk,Castlereagh,http://www.castlereagh.gov.uk,,BT16 OAA,2013-05-07,fhrs_5_en-GB,5,,FHRS,0
405212,4 Queensway,Carryduff,Carryduff,Down,KYLE IRVINE FAMILY BUTCHERS,Retailers - other,4613,5,,709661,0,,54.51767600000000,500184,809,environmentalhealth@castlereagh.gov.uk,Castlereagh,http://www.castlereagh.gov.uk,-5.88834000000000,BT8 8NX,2013-02-05,fhrs_5_en-GB,5,,FHRS,0
405213,,,Castlereagh,Down,LA CREPERIE,Other catering premises,7841,5,,709895,5,,,501869,809,environmentalhealth@castlereagh.gov.uk,Castlereagh,http://www.castlereagh.gov.uk,,,2014-06-19,fhrs_5_en-GB,5,,FHRS,0
405214,117 Milltown Road,Ballynavally,Belfast,Down,LA FITNESS,Retailers - other,4613,,,709781,,,54.55030000000000,501144,809,environmentalhealth@castlereagh.gov.uk,Castlereagh,http://www.castlereagh.gov.uk,-5.94566900000000,BT8 7XP,2012-12-10,fhrs_exempt_en-GB,Exempt,,FHRS,
405215,41 Gransha Road,Gransha,Comber,Down,LA MON HOTEL AND COUNTRY CLUB,Hotel/bed & breakfast/guest house,7842,5,,709643,0,,54.54894800000000,500008,809,environmentalhealth@castlereagh.gov.uk,Castlereagh,http://www.castlereagh.gov.uk,-5.81866900000000,BT23 5RF,2014-12-02,fhrs_5_en-GB,5,,FHRS,5
405216,44 Manse Road,Castlereagh,Castlereagh,Down,LAGAN COLLEGE,School/college/university,7845,5,,709735,0,,,500552,809,environmentalhealth@castlereagh.gov.uk,Castlereagh,http://www.castlereagh.gov.uk,,BT8 4SA,2013-10-17,fhrs_5_en-GB,5,,FHRS,0
405217,5 Mayfair Avenue,Ballymaconaghy,Belfast,Down,LEE LAM HOUSE,Takeaway/sandwich shop,7844,10,,709672,0,,54.57811700000000,500215,809,environmentalhealth@castlereagh.gov.uk,Castlereagh,http://www.castlereagh.gov.uk,-5.89543800000000,BT6 9JA,2013-07-04,fhrs_4_en-GB,4,,FHRS,5
405218,415 Castlereagh Road,Lisnasharragh,Belfast,Down,LIDL,Retailers - supermarkets/hypermarkets,7840,0,,709769,0,,54.58100700000000,501066,809,environmentalhealth@castlereagh.gov.uk,Castlereagh,http://www.castlereagh.gov.uk,-5.88238900000000,BT5 6QP,2014-09-09,fhrs_5_en-GB,5,,FHRS,5
405219,133 Comber Road,Dundonald,Castlereagh,Down,LIMETREE RESIDENTIAL HOME,Hospitals/Childcare/Caring Premises,5,10,,709642,10,,,500004,809,environmentalhealth@castlereagh.gov.uk,Castlereagh,http://www.castlereagh.gov.uk,,BT16 OBT,2014-09-04,fhrs_3_en-GB,3,,FHRS,10
405220,2 Tudor Drive,Lisnasharragh,Belfast,Down,LISNASHARRAGH CENTRAL KITCHEN,School/college/university,7845,0,,709720,0,,54.57332900000000,500478,809,environmentalhealth@castlereagh.gov.uk,Castlereagh,http://www.castlereagh.gov.uk,-5.88673100000000,BT6 9LS,2014-11-26,fhrs_5_en-GB,5,,FHRS,0
405221,1 Dunlady Road,Ballybeen,Dundonald,Down,LITTLE GEMS DAY NURSERY,School/college/university,7845,0,,709652,0,,54.60496500000000,500081,809,environmentalhealth@castlereagh.gov.uk,Castlereagh,http://www.castlereagh.gov.uk,-5.79059900000000,BT16 1TT,2014-11-20,fhrs_5_en-GB,5,,FHRS,0
405222,Belfast Metropolitan College,Montgomery Road,Castlereagh,Down,LITTLE SCHOLAR'S CRECHE AND DAY CARE,School/college/university,7845,5,,709862,0,,54.57741300000000,501734,809,environmentalhealth@castlereagh.gov.uk,Castlereagh,http://www.castlereagh.gov.uk,-5.89473200000000,BT6 9JD,2012-01-12,fhrs_5_en-GB,5,,FHRS,0
405223,Edgar Avenue,,Carryduff,Co Down,LITTLE TREASURES,School/college/university,7845,5,,709918,0,,54.51847400000000,501988,809,environmentalhealth@castlereagh.gov.uk,Castlereagh,http://www.castlereagh.gov.uk,-5.88517900000000,BT8 8DQ,2014-09-23,fhrs_5_en-GB,5,,FHRS,0
405224,366 Cregagh Road,Cregagh,Castlereagh,Down,LIZ-MAR CAKE SHOP,Manufacturers/packers,7839,5,,709671,0,,54.57145900000000,500213,809,environmentalhealth@castlereagh.gov.uk,Castlereagh,http://www.castlereagh.gov.uk,-5.89387900000000,BT6 9EY,2015-01-20,fhrs_4_en-GB,4,,FHRS,10
405225,30 Millars Lane,Ballybeen,Castlereagh,Down,LONGSTONE SPECIAL SCHOOL KITCHEN,School/college/university,7845,5,,709690,10,,,500329,809,environmentalhealth@castlereagh.gov.uk,Castlereagh,http://www.castlereagh.gov.uk,,BT16 ODA,2015-01-20,fhrs_4_en-GB,4,,FHRS,5
405226,63 Church Road,Castlereagh,Castlereagh,Down,LOUGHVIEW INTEGRATED PRIMARY SCHOOL,School/college/university,7845,5,,709723,0,,54.56931600000000,500495,809,environmentalhealth@castlereagh.gov.uk,Castlereagh,http://www.castlereagh.gov.uk,-5.87461300000000,BT6 9SA,2013-11-26,fhrs_5_en-GB,5,,FHRS,5
405227,,,Castlereagh,Down,LUCY'S HOME BAKERY,Other catering premises,7841,5,,709962,0,,,502100,809,environmentalhealth@castlereagh.gov.uk,Castlereagh,http://www.castlereagh.gov.uk,,,2012-10-04,fhrs_5_en-GB,5,,FHRS,0
405228,2 Rosetta Road,,Rosetta,Down,MACE,Retailers - supermarkets/hypermarkets,7840,5,,709757,0,,,500661,809,environmentalhealth@castlereagh.gov.uk,Castlereagh,http://www.castlereagh.gov.uk,,BT6 OLT,2013-02-27,fhrs_4_en-GB,4,,FHRS,10
405229,31 Glen Road,Carnamuck,Castlereagh,Down,Mace,Restaurant/Cafe/Canteen,1,0,,709949,0,,54.57853700000000,502068,809,environmentalhealth@castlereagh.gov.uk,Castlereagh,http://www.castlereagh.gov.uk,-5.86556400000000,BT5 7LT,2014-04-15,fhrs_4_en-GB,4,,FHRS,10
405230,Enler Centre,Craigleith Drive,Dundonald,Down,Mace,Retailers - supermarkets/hypermarkets,7840,5,,710005,5,,,506618,809,environmentalhealth@castlereagh.gov.uk,Castlereagh,http://www.castlereagh.gov.uk,,BT16 0QG,2014-08-01,fhrs_5_en-GB,5,,FHRS,5
405231,15-17 Greenway,Ballymaconaghy,Belfast,Down,MACE GREENWAY/CREGAGH POST OFFICE,Retailers - supermarkets/hypermarkets,7840,5,,709675,0,,54.57532900000000,500221,809,environmentalhealth@castlereagh.gov.uk,Castlereagh,http://www.castlereagh.gov.uk,-5.89632400000000,BT6 0DT,2014-02-27,fhrs_5_en-GB,5,,FHRS,5
405232,73-75 Newton Park,Newtownbreda,Castlereagh,Down,MACE SUPERMARKET (J & J HASLETT LTD),Retailers - supermarkets/hypermarkets,7840,5,,709693,0,,,500333,809,environmentalhealth@castlereagh.gov.uk,Castlereagh,http://www.castlereagh.gov.uk,,BT8 4NL,2013-09-23,fhrs_5_en-GB,5,,FHRS,0
405233,,,Castlereagh,Down,Make Bake Eat,Other catering premises,7841,0,,710008,0,,,506628,809,environmentalhealth@castlereagh.gov.uk,Castlereagh,http://www.castlereagh.gov.uk,,,2014-10-01,fhrs_5_en-GB,5,,FHRS,0
405234,11 Greenway,Ballymaconaghy,Belfast,Down,MANTA RAY,Takeaway/sandwich shop,7844,5,,709851,0,,54.57532900000000,501708,809,environmentalhealth@castlereagh.gov.uk,Castlereagh,http://www.castlereagh.gov.uk,-5.89632400000000,BT6 0DT,2014-08-20,fhrs_5_en-GB,5,,FHRS,0
405235,188 Saintfield Road,Ballylenaghan Upper,Castlereagh,Down,Margherita's,Takeaway/sandwich shop,7844,5,,709980,10,,54.55528000000000,506573,809,environmentalhealth@castlereagh.gov.uk,Castlereagh,http://www.castlereagh.gov.uk,-5.90698800000000,BT8 6NN,2013-08-21,fhrs_3_en-GB,3,,FHRS,10
405236,,Forestside Shopping Centre,Upper Galwally,Down,MARKS AND SPENCER,Retailers - supermarkets/hypermarkets,7840,0,,709743,0,,54.56388600000000,500610,809,environmentalhealth@castlereagh.gov.uk,Castlereagh,http://www.castlereagh.gov.uk,-5.90948500000000,BT8 6FX,2014-04-24,fhrs_5_en-GB,5,,FHRS,0
405237,,Forestside Shopping Centre,Upper Galwally,Down,Martins,Retailers - other,4613,10,,709811,0,,54.56388600000000,501350,809,environmentalhealth@castlereagh.gov.uk,Castlereagh,http://www.castlereagh.gov.uk,-5.90948500000000,BT8 6FX,2013-01-21,fhrs_4_en-GB,4,,FHRS,0
405238,44 Gilnahirk Road,Tullycarnet,Belfast,Down,MASTER CHEF,Takeaway/sandwich shop,7844,10,,709943,10,,54.58887100000000,502054,809,environmentalhealth@castlereagh.gov.uk,Castlereagh,http://www.castlereagh.gov.uk,-5.84735500000000,BT5 7DG,2014-07-31,fhrs_3_en-GB,3,,FHRS,10
405239,Jet Service Station,Gilnahirk Road,Gilnahirk,Down,MAUD'S ICE CREAM (MAUD'S HEAVEN),Retailers - other,4613,5,,709919,0,,54.58345800000000,501991,809,environmentalhealth@castlereagh.gov.uk,Castlereagh,http://www.castlereagh.gov.uk,-5.84105000000000,BT5 7QL,2013-07-29,fhrs_5_en-GB,5,,FHRS,5
405240,352 Cregagh Road,Cregagh,Castlereagh,Down,MAUD'S TEMPTATIONS,Restaurant/Cafe/Canteen,1,5,,709853,0,,54.57145900000000,501715,809,environmentalhealth@castlereagh.gov.uk,Castlereagh,http://www.castlereagh.gov.uk,-5.89387900000000,BT6 9EY,2014-07-01,fhrs_5_en-GB,5,,FHRS,5
405241,919-923 Upper Newtownards Road,Ballyregan,Dundonald,Down,MCDONALDS,Restaurant/Cafe/Canteen,1,0,,709687,0,,54.59462200000000,500308,809,environmentalhealth@castlereagh.gov.uk,Castlereagh,http://www.castlereagh.gov.uk,-5.80782500000000,BT16 1RQ,2013-07-03,fhrs_5_en-GB,5,,FHRS,5
405242,536 Saintfield Road,Carryduff,Castlereagh,Down,MCDONALDS RESTAURANT LTD,Restaurant/Cafe/Canteen,1,0,,709764,0,,54.53014200000000,500985,809,environmentalhealth@castlereagh.gov.uk,Castlereagh,http://www.castlereagh.gov.uk,-5.89471000000000,BT8 8EU,2014-10-27,fhrs_5_en-GB,5,,FHRS,5
405243,1001 Upper Newtownards Road,Dundonald,Castlereagh,Down,MCGEES BUTCHER AT ASDA,Retailers - other,4613,10,,709906,0,,54.59442200000000,501923,809,environmentalhealth@castlereagh.gov.uk,Castlereagh,http://www.castlereagh.gov.uk,-5.80276000000000,BT16 1RN,2013-01-21,fhrs_4_en-GB,4,,FHRS,0
405244,34-36 Gilnahirk Road,Tullycarnet,Belfast,Down,MEDICARE,Retailers - other,4613,,,709912,,,54.58887100000000,501956,809,environmentalhealth@castlereagh.gov.uk,Castlereagh,http://www.castlereagh.gov.uk,-5.84735500000000,BT5 7DG,2011-02-14,fhrs_exempt_en-GB,Exempt,,FHRS,
405245,51 Comber Road,Church Quarter,Dundonald,Down,MEDICARE,Retailers - other,4613,,,709910,,,54.59347300000000,501954,809,environmentalhealth@castlereagh.gov.uk,Castlereagh,http://www.castlereagh.gov.uk,-5.81334900000000,BT16 2AA,2014-02-12,fhrs_exempt_en-GB,Exempt,,FHRS,
405246,967-969 Upper Newtownards Rd,Dundonald,Castlereagh,Down,MEDICARE,Retailers - other,4613,,,709913,,,54.59455100000000,501957,809,environmentalhealth@castlereagh.gov.uk,Castlereagh,http://www.castlereagh.gov.uk,-5.80587900000000,BT16 1RL,2014-02-27,fhrs_exempt_en-GB,Exempt,,FHRS,
405247,Kings Square,Kings Road,Gilnahirk,Down,MEDICARE,Retailers - other,4613,,,709911,,,54.57949200000000,501955,809,environmentalhealth@castlereagh.gov.uk,Castlereagh,http://www.castlereagh.gov.uk,-5.86211100000000,BT5 7LA,2014-03-19,fhrs_exempt_en-GB,Exempt,,FHRS,
405248,,Forestside Shopping Centre,Upper Galwally,Down,MEDICARE PHARMACY,Retailers - other,4613,,,709849,,,54.56388600000000,501697,809,environmentalhealth@castlereagh.gov.uk,Castlereagh,http://www.castlereagh.gov.uk,-5.90948500000000,BT8 6FX,2011-07-11,fhrs_exempt_en-GB,Exempt,,FHRS,
405249,35d Comber Road,Dundonald,Castlereagh,Down,MITTO CHINESE TAKEAWAY,Takeaway/sandwich shop,7844,20,,709892,15,,54.59347300000000,501838,809,environmentalhealth@castlereagh.gov.uk,Castlereagh,http://www.castlereagh.gov.uk,-5.81334900000000,BT16 2AA,2014-11-20,fhrs_1_en-GB,1,,FHRS,10
405250,58 Comber Road,Church Quarter,Dundonald,Down,Moat Lodge Service Station,Retailers - supermarkets/hypermarkets,7840,10,,709997,0,,54.59416900000000,506607,809,environmentalhealth@castlereagh.gov.uk,Castlereagh,http://www.castlereagh.gov.uk,-5.81407000000000,BT16 2AB,2014-03-10,fhrs_4_en-GB,4,,FHRS,10
405251,57 Comber Road,Dundonald,Castlereagh,Down,MOAT NEWSAGENCY,Retailers - other,4613,5,,709795,10,,,501265,809,environmentalhealth@castlereagh.gov.uk,Castlereagh,http://www.castlereagh.gov.uk,,BT16 0AA,2012-08-17,fhrs_4_en-GB,4,,FHRS,0
405252,Moat Park,Dundonald,Castlereagh,Down,MOAT PARK BOWLING PAVILION,Restaurant/Cafe/Canteen,1,,,709876,,,54.59344300000000,501766,809,environmentalhealth@castlereagh.gov.uk,Castlereagh,http://www.castlereagh.gov.uk,-5.79076300000000,BT16,2012-06-13,fhrs_exempt_en-GB,Exempt,,FHRS,
405253,Newton Park,,Newtownbreda,Down,MODERN CHINA,Takeaway/sandwich shop,7844,10,,709917,15,,54.55677500000000,501984,809,environmentalhealth@castlereagh.gov.uk,Castlereagh,http://www.castlereagh.gov.uk,-5.89993900000000,BT8 6LX,2014-11-06,fhrs_2_en-GB,2,,FHRS,10
405254,36a Church Road,Moneyreagh,Moneyreagh,Down,MONEYREAGH COMMUNITY CENTRE,Other catering premises,7841,,,709907,,,54.53234600000000,501936,809,environmentalhealth@castlereagh.gov.uk,Castlereagh,http://www.castlereagh.gov.uk,-5.82734100000000,BT23 6BB,2013-11-13,fhrs_exempt_en-GB,Exempt,,FHRS,
405255,1 Hillmount Drive,Moneyreagh,Moneyreagh,Down,MONEYREAGH LTD,Retailers - other,4613,10,,709945,0,,54.53355200000000,502056,809,environmentalhealth@castlereagh.gov.uk,Castlereagh,http://www.castlereagh.gov.uk,-5.82941000000000,BT23 6BE,2014-03-25,fhrs_4_en-GB,4,,FHRS,0
405256,36 Church Road,Moneyreagh,Moneyreagh,Down,MONEYREAGH PRIMARY SCHOOL DINING CENTRE,School/college/university,7845,0,,709731,0,,54.53234600000000,500533,809,environmentalhealth@castlereagh.gov.uk,Castlereagh,http://www.castlereagh.gov.uk,-5.82734100000000,BT23 6BB,2014-06-16,fhrs_5_en-GB,5,,FHRS,0
405257,Saintfield Road,Breda,Castlereagh,Down,MONSOON/ACCESSORIZE,Retailers - other,4613,,,709779,,,54.56388600000000,501131,809,environmentalhealth@castlereagh.gov.uk,Castlereagh,http://www.castlereagh.gov.uk,-5.90948500000000,BT8 6FX,2012-11-26,fhrs_exempt_en-GB,Exempt,,FHRS,
405258,,,,,Mother & Babies Group At Moneyreagh Pres Church,Other catering premises,7841,0,,718027,0,,,506645,809,environmentalhealth@castlereagh.gov.uk,Castlereagh,http://www.castlereagh.gov.uk,,,2014-11-05,fhrs_5_en-GB,5,,FHRS,0
405259,1 Tullyhubbert Road,Moneyreagh,Moneyreagh,Down,MOTHER HUBBERT'S NURSERY,School/college/university,7845,10,,709938,0,,54.52047100000000,502033,809,environmentalhealth@castlereagh.gov.uk,Castlereagh,http://www.castlereagh.gov.uk,-5.82851300000000,BT23 6BY,2012-04-12,fhrs_4_en-GB,4,,FHRS,5
405260,166 Kings Road,Tullycarnet,Belfast,Down,MOUNT LENS CARE HOME,Hospitals/Childcare/Caring Premises,5,5,,709701,0,,54.58907100000000,500358,809,environmentalhealth@castlereagh.gov.uk,Castlereagh,http://www.castlereagh.gov.uk,-5.84242400000000,BT5 7EL,2014-07-03,fhrs_5_en-GB,5,,FHRS,5
405261,54 Rosetta Road,Ballymaconaghy,Belfast,Down,MOUNT MERRION FILLING STATION,Retailers - other,4613,5,,709869,0,,54.57169600000000,501749,809,environmentalhealth@castlereagh.gov.uk,Castlereagh,http://www.castlereagh.gov.uk,-5.90388800000000,BT6 0LT,2014-02-27,fhrs_5_en-GB,5,,FHRS,0
405262,53 Saintfield Road,Newtownbreda,Castlereagh,Down,MOUNT ORIEL DAY CENTRE,Hospitals/Childcare/Caring Premises,5,5,,709740,0,,,500578,809,environmentalhealth@castlereagh.gov.uk,Castlereagh,http://www.castlereagh.gov.uk,,BT8 4HL,2013-11-15,fhrs_5_en-GB,5,,FHRS,0
405263,45 Saintfield Road,Newtownbreda,Castlereagh,Down,MOUNT ORIEL PLAYGROUP,School/college/university,7845,5,,709739,0,,,500577,809,environmentalhealth@castlereagh.gov.uk,Castlereagh,http://www.castlereagh.gov.uk,,BT8 4HJ,2011-09-11,fhrs_5_en-GB,5,,FHRS,0
405264,,,Castlereagh,Down,Nanny Annie's Homemade Cakes,Other catering premises,7841,0,,729986,0,,,506710,809,environmentalhealth@castlereagh.gov.uk,Castlereagh,http://www.castlereagh.gov.uk,,,2015-01-09,fhrs_5_en-GB,5,,FHRS,0
405265,,Town & Country Shopping Centre,16 Ballynahinch Road,Down,NEW CENTURY,Takeaway/sandwich shop,7844,20,,709803,5,,54.51628600000000,501303,809,environmentalhealth@castlereagh.gov.uk,Castlereagh,http://www.castlereagh.gov.uk,-5.88801000000000,BT8 8DN,2013-10-17,fhrs_1_en-GB,1,,FHRS,5
405266,,Forestside Shopping Centre,Upper Galwally,Down,NEW LOOK,Retailers - other,4613,,,709790,,,54.56388600000000,501218,809,environmentalhealth@castlereagh.gov.uk,Castlereagh,http://www.castlereagh.gov.uk,-5.90948500000000,BT8 6FX,2013-11-13,fhrs_exempt_en-GB,Exempt,,FHRS,
405267,96a Newtownbreda Road,Newtownbreda,Castlereagh,Down,NEWTOWNBREDA GOSPEL HALL,Other catering premises,7841,,,709737,,,,500573,809,environmentalhealth@castlereagh.gov.uk,Castlereagh,http://www.castlereagh.gov.uk,,BT8 4BP,2014-02-10,fhrs_exempt_en-GB,Exempt,,FHRS,
405268,108 Newtownbreda Road,Newtownbreda,Castlereagh,Down,NEWTOWNBREDA HIGH SCHOOL KITCHEN,School/college/university,7845,0,,709647,0,,,500036,809,environmentalhealth@castlereagh.gov.uk,Castlereagh,http://www.castlereagh.gov.uk,,BT8 4PY,2014-01-15,fhrs_5_en-GB,5,,FHRS,0
405269,,Forestside Shopping Centre,Upper Galwally,Down,NEXT,Retailers - other,4613,,,709767,,,54.56388600000000,501007,809,environmentalhealth@castlereagh.gov.uk,Castlereagh,http://www.castlereagh.gov.uk,-5.90948500000000,BT8 6FX,2012-11-26,fhrs_exempt_en-GB,Exempt,,FHRS,
405270,636 Saintfield Road,Carryduff,Carryduff,Down,NICHOLL FUEL OILS LTD - JAMISONS,Retailers - supermarkets/hypermarkets,7840,10,,709933,5,,54.52196000000000,502016,809,environmentalhealth@castlereagh.gov.uk,Castlereagh,http://www.castlereagh.gov.uk,-5.88722300000000,BT8 8BT,2014-10-23,fhrs_4_en-GB,4,,FHRS,5
405271,24 Ballymaconaghy Road,,Newtownbreda,Co Down,NO 19 RESTAURANT & GRILL,Restaurant/Cafe/Canteen,1,5,,709964,5,,54.55065600000000,502104,809,environmentalhealth@castlereagh.gov.uk,Castlereagh,http://www.castlereagh.gov.uk,-5.88910900000000,BT8 6SB,2014-07-22,fhrs_4_en-GB,4,,FHRS,10
405272,40 Upper Mealough Road,Mealough,Carryduff,Down,NORTH DOWN TURKEYS,Manufacturers/packers,7839,5,,709664,0,,54.52895500000000,500196,809,environmentalhealth@castlereagh.gov.uk,Castlereagh,http://www.castlereagh.gov.uk,-5.91178000000000,BT8 8LR,2012-12-14,fhrs_4_en-GB,4,,FHRS,10
405273,Unit 2 969 Upper Newtownards Road,,Dundonald,Co Down,Olitaz,Restaurant/Cafe/Canteen,1,10,,709979,0,,54.59352300000000,506572,809,environmentalhealth@castlereagh.gov.uk,Castlereagh,http://www.castlereagh.gov.uk,-5.80027100000000,BT16 2NA,2013-10-11,fhrs_4_en-GB,4,,FHRS,10
405274,Eastpoint Entertainment Village Old Dundonald Road,,Dundonald,Co Down,OMNIPLEX CINEMA,Other catering premises,7841,5,,709870,0,,54.58721100000000,501753,809,environmentalhealth@castlereagh.gov.uk,Castlereagh,http://www.castlereagh.gov.uk,-5.81787700000000,BT16 1XT,2015-01-20,fhrs_5_en-GB,5,,FHRS,0
405275,120 Gilnahirk Road,Gortgrib,Belfast,Down,OUR LADY & ST PATRICKS COLLEGE,School/college/university,7845,5,,709704,5,,54.58511600000000,500374,809,environmentalhealth@castlereagh.gov.uk,Castlereagh,http://www.castlereagh.gov.uk,-5.84286500000000,BT5 7DL,2014-05-28,fhrs_5_en-GB,5,,FHRS,5
405276,57 Hillsborough Road,Mealough,Carryduff,Down,PADDINGTON LODGE (DAY NURSERY),School/college/university,7845,,,709762,,,54.51350500000000,500965,809,environmentalhealth@castlereagh.gov.uk,Castlereagh,http://www.castlereagh.gov.uk,-5.89703300000000,BT8 8HS,2014-06-09,fhrs_5_en-GB,5,,FHRS,
405277,290 Saintfield Road,Newtownbreda,Castlereagh,Down,PATS NEWSAGENT CONFECTIONER,Retailers - other,4613,0,,709841,5,,,501648,809,environmentalhealth@castlereagh.gov.uk,Castlereagh,http://www.castlereagh.gov.uk,,BT8 4PE,2013-06-12,fhrs_5_en-GB,5,,FHRS,0
405278,111a Old Dundonald Road,Ballyhanwood,Dundonald,Down,PIRATES ADVENTURE GOLF,Retailers - other,4613,,,709814,,,54.58721100000000,501511,809,environmentalhealth@castlereagh.gov.uk,Castlereagh,http://www.castlereagh.gov.uk,-5.81787700000000,BT16 1XT,2012-02-09,fhrs_exempt_en-GB,Exempt,,FHRS,
405279,,,Castlereagh,Down,Pizza Vantastica,Mobile caterer,7846,,,710001,,,,506613,809,environmentalhealth@castlereagh.gov.uk,Castlereagh,http://www.castlereagh.gov.uk,,,2014-09-11,fhrs_5_en-GB,5,,FHRS,
405280,38 Old Saintfield Road,Ballydollaghan,Carryduff,Down,PLAY DAYS NURSERY,School/college/university,7845,0,,709648,0,,54.53772800000000,500038,809,environmentalhealth@castlereagh.gov.uk,Castlereagh,http://www.castlereagh.gov.uk,-5.89900100000000,BT8 8EY,2014-04-14,fhrs_5_en-GB,5,,FHRS,0
405281,117 Milltown Road,,Belvoir,Down,RAMADA PLAZA HOTEL,Hotel/bed & breakfast/guest house,7842,10,,709780,0,,,501143,809,environmentalhealth@castlereagh.gov.uk,Castlereagh,http://www.castlereagh.gov.uk,,BT8 7PX,2014-01-08,fhrs_4_en-GB,4,,FHRS,10
405282,6 Granton Park,Tullycarnet,Belfast,Down,RED CHILLI,Takeaway/sandwich shop,7844,5,,709905,10,,54.58887100000000,501922,809,environmentalhealth@castlereagh.gov.uk,Castlereagh,http://www.castlereagh.gov.uk,-5.83022800000000,BT5 7AH,2013-11-12,fhrs_4_en-GB,4,,FHRS,5
405283,Roselawn Crematorium,129 Ballygowan Road,Castlereagh,Down,REFLECTIONS COFFEE SHOP,Restaurant/Cafe/Canteen,1,10,,709822,0,,54.56228600000000,501563,809,environmentalhealth@castlereagh.gov.uk,Castlereagh,http://www.castlereagh.gov.uk,-5.85610000000000,BT5 7TZ,2013-07-22,fhrs_4_en-GB,4,,FHRS,10
405284,28 Drumalig Road,Killinure,Carryduff,Down,ROCKMOUNT GOLF CLUB,Restaurant/Cafe/Canteen,1,5,,709732,0,,54.49404500000000,500538,809,environmentalhealth@castlereagh.gov.uk,Castlereagh,http://www.castlereagh.gov.uk,-5.88787600000000,BT8 8EQ,2014-07-23,fhrs_5_en-GB,5,,FHRS,5
405285,65 Upper Braniel Road,Braniel,Belfast,Down,RODGERS MEATS BUTCHER,Retailers - other,4613,0,,709886,0,,54.56908700000000,501809,809,environmentalhealth@castlereagh.gov.uk,Castlereagh,http://www.castlereagh.gov.uk,-5.84643400000000,BT5 7TX,2013-01-09,fhrs_5_en-GB,5,,FHRS,0
405286,52 Rosetta Road,Ballymaconaghy,Belfast,Down,ROSETTA PHARMACY,Retailers - other,4613,,,709791,,,54.57169600000000,501236,809,environmentalhealth@castlereagh.gov.uk,Castlereagh,http://www.castlereagh.gov.uk,-5.90388800000000,BT6 0LT,2012-06-13,fhrs_exempt_en-GB,Exempt,,FHRS,
405287,,105a Gilnahirk Road,Gilnahirk,Down,ROSIE'S TRADITIONAL FISH AND CHIPS,Takeaway/sandwich shop,7844,10,,709836,0,,54.58345800000000,501638,809,environmentalhealth@castlereagh.gov.uk,Castlereagh,http://www.castlereagh.gov.uk,-5.84105000000000,BT5 7QL,2012-11-21,fhrs_4_en-GB,4,,FHRS,10
405288,King'S Square,Kings Road,Gilnahirk,Down,ROYS HOME BAKERY,Manufacturers/packers,7839,10,,709703,0,,54.58957400000000,500372,809,environmentalhealth@castlereagh.gov.uk,Castlereagh,http://www.castlereagh.gov.uk,-5.84492000000000,BT5 7EA,2014-01-07,fhrs_4_en-GB,4,,FHRS,10
405289,Alanbrooke Road,,Castlereagh,Down,Russell Cellars Work Canteen,Restaurant/Cafe/Canteen,1,0,,709939,0,,54.57845400000000,502034,809,environmentalhealth@castlereagh.gov.uk,Castlereagh,http://www.castlereagh.gov.uk,-5.88948100000000,BT6 9PR,2014-10-02,fhrs_5_en-GB,5,,FHRS,0
405290,4 Old Saintfield Road,Ballydollaghan,Carryduff,Down,SAINTFIELD LODGE CARE HOME,Hospitals/Childcare/Caring Premises,5,10,,709709,0,,54.53772800000000,500404,809,environmentalhealth@castlereagh.gov.uk,Castlereagh,http://www.castlereagh.gov.uk,-5.89900100000000,BT8 8EY,2014-10-24,fhrs_4_en-GB,4,,FHRS,5
405291,,,Castlereagh,Down,SARA CAMPBELL CATERING,Other catering premises,7841,5,,709784,0,,,501153,809,environmentalhealth@castlereagh.gov.uk,Castlereagh,http://www.castlereagh.gov.uk,,,2013-09-05,fhrs_5_en-GB,5,,FHRS,0
405292,123 Milltown Road,Shaws Bridge,Ballynavally,Down,SHAWS BRIDGE SPORTS ASSOCIATION,Restaurant/Cafe/Canteen,1,10,,709730,0,,,500518,809,environmentalhealth@castlereagh.gov.uk,Castlereagh,http://www.castlereagh.gov.uk,,BT8 4XP,2012-09-26,fhrs_4_en-GB,4,,FHRS,5
405293,78 Old Milltown Road,Shawsbridge,Belvoir,Down,SHOP 4 YOU,Retailers - supermarkets/hypermarkets,7840,10,,709765,5,,,500991,809,environmentalhealth@castlereagh.gov.uk,Castlereagh,http://www.castlereagh.gov.uk,,BT8 4SW,2013-09-03,fhrs_4_en-GB,4,,FHRS,0
405294,,,Castlereagh,Down,SHORT 'N' SWEET,Other catering premises,7841,5,,709966,0,,,502108,809,environmentalhealth@castlereagh.gov.uk,Castlereagh,http://www.castlereagh.gov.uk,,,2013-01-15,fhrs_5_en-GB,5,,FHRS,0
405295,,,Castlereagh,Down,SHORTBREAD AND MORE....,Other catering premises,7841,5,,709879,0,,,501772,809,environmentalhealth@castlereagh.gov.uk,Castlereagh,http://www.castlereagh.gov.uk,,,2012-08-30,fhrs_5_en-GB,5,,FHRS,0
405296,,,Castlereagh,Down,SHOWTIME CATERING (MOBILE TRADER),Retailers - other,4613,5,,709805,0,,,501309,809,environmentalhealth@castlereagh.gov.uk,Castlereagh,http://www.castlereagh.gov.uk,,,2014-01-14,fhrs_5_en-GB,5,,FHRS,0
405297,5 Beechill Road,Newtownbreda,Castlereagh,Down,SMALL TALK DAY NURSERY,School/college/university,7845,10,,709771,0,,54.54743200000000,501072,809,environmentalhealth@castlereagh.gov.uk,Castlereagh,http://www.castlereagh.gov.uk,-5.90779200000000,BT8 7PT,2014-04-17,fhrs_4_en-GB,4,,FHRS,10
405298,C/O Thales,Alanbrooke Road,Castlereagh,Down,SODEXO LTD,Restaurant/Cafe/Canteen,1,0,,709959,0,,54.58014600000000,502096,809,environmentalhealth@castlereagh.gov.uk,Castlereagh,http://www.castlereagh.gov.uk,-5.88809500000000,BT6 9HB,2014-11-04,fhrs_5_en-GB,5,,FHRS,0
405299,30 Hillsborough Road,Carryduff,Castlereagh,Down,Solo Retailing Vivo Essentials,Retailers - other,4613,10,,709900,0,,,501898,809,environmentalhealth@castlereagh.gov.uk,Castlereagh,http://www.castlereagh.gov.uk,,BT8 3SW,2013-07-11,fhrs_2_en-GB,2,,FHRS,15
405300,T/A Moat Lodge Service Station,Comber Road,Dundonald,Down,SOMETHING FISHY (MOBILE FISH VAN),Mobile caterer,7846,5,,709941,5,,54.59344300000000,502043,809,environmentalhealth@castlereagh.gov.uk,Castlereagh,http://www.castlereagh.gov.uk,-5.79076300000000,BT16,2012-04-25,fhrs_5_en-GB,5,,FHRS,5
405301,80-82 Ravenswood Park,Braniel,Belfast,Down,Spar,Retailers - supermarkets/hypermarkets,7840,0,,709754,10,,54.57772600000000,500645,809,environmentalhealth@castlereagh.gov.uk,Castlereagh,http://www.castlereagh.gov.uk,-5.85578500000000,BT5 7PT,2013-11-20,fhrs_4_en-GB,4,,FHRS,5
405302,73 Comber Road,Church Quarter,Dundonald,Down,SPAR (HENDERSON RETAIL),Retailers - supermarkets/hypermarkets,7840,0,,709819,0,,54.59250900000000,501528,809,environmentalhealth@castlereagh.gov.uk,Castlereagh,http://www.castlereagh.gov.uk,-5.81123400000000,BT16 2AE,2013-10-23,fhrs_5_en-GB,5,,FHRS,0
405303,14b Ballynahinch Road,,Carryduff,Down,SPAR CARRYDUFF,Retailers - supermarkets/hypermarkets,7840,5,,709882,10,,54.51628600000000,501777,809,environmentalhealth@castlereagh.gov.uk,Castlereagh,http://www.castlereagh.gov.uk,-5.88801000000000,BT8 8DN,2013-06-18,fhrs_4_en-GB,4,,FHRS,5
405304,1d Ballygowan Road,Castlereagh,Castlereagh,Down,SPAR SUPERMARKET,Retailers - supermarkets/hypermarkets,7840,0,,709721,0,,54.57737100000000,500481,809,environmentalhealth@castlereagh.gov.uk,Castlereagh,http://www.castlereagh.gov.uk,-5.87076000000000,BT5 7LH,2014-04-16,fhrs_4_en-GB,4,,FHRS,10
405305,756-758 Upper Newtownards Road,Dundonald,Castlereagh,Down,SPAR SUPERMARKET/TEXACO,Retailers - supermarkets/hypermarkets,7840,0,,709686,5,,,500297,809,environmentalhealth@castlereagh.gov.uk,Castlereagh,http://www.castlereagh.gov.uk,,BT16 OLA,2012-09-19,fhrs_4_en-GB,4,,FHRS,10
405306,46 Wynchurch Walk,Castlereagh,Castlereagh,Down,ST BERNARDS PRIMARY SCHOOL DINING CENTRE,School/college/university,7845,0,,709761,0,,,500679,809,environmentalhealth@castlereagh.gov.uk,Castlereagh,http://www.castlereagh.gov.uk,,BT6 OJS,2013-04-15,fhrs_5_en-GB,5,,FHRS,0
405307,Church Green,Church Quarter,Dundonald,Down,ST ELIZABETHS (CHURCH OF IRELAND),Other catering premises,7841,,,709677,,,54.59293300000000,500233,809,environmentalhealth@castlereagh.gov.uk,Castlereagh,http://www.castlereagh.gov.uk,-5.80486700000000,BT16 2LP,2012-12-05,fhrs_exempt_en-GB,Exempt,,FHRS,
405308,4 Alderwood Hill,Newtownbreda,Castlereagh,Down,ST ITA'S PRIMARY SCHOOL (KITCHEN),School/college/university,7845,0,,709850,0,,54.54308000000000,501699,809,environmentalhealth@castlereagh.gov.uk,Castlereagh,http://www.castlereagh.gov.uk,-5.91543200000000,BT8 6YY,2013-09-10,fhrs_5_en-GB,5,,FHRS,5
405309,397 Castlereagh Road,Lisnasharragh,Belfast,Down,ST JOHNS PARISH CHURCH HALL,Other catering premises,7841,,,709713,,,54.58270100000000,500431,809,environmentalhealth@castlereagh.gov.uk,Castlereagh,http://www.castlereagh.gov.uk,-5.88471400000000,BT5 6AB,2013-06-27,fhrs_exempt_en-GB,Exempt,,FHRS,
405310,Knockbracken Drive,Knockbreckan,Carryduff,Down,ST JOSEPH'S PARISH CENTRE,Other catering premises,7841,,,709916,,,54.53030000000000,501969,809,environmentalhealth@castlereagh.gov.uk,Castlereagh,http://www.castlereagh.gov.uk,-5.88574100000000,BT8 8EX,2011-08-18,fhrs_exempt_en-GB,Exempt,,FHRS,
405311,8 Knockbracken Drive,Carryduff,Castlereagh,Down,ST JOSEPH'S PRIMARY SCHOOL KITCHEN,School/college/university,7845,0,,709902,0,,54.52844500000000,501902,809,environmentalhealth@castlereagh.gov.uk,Castlereagh,http://www.castlereagh.gov.uk,-5.90307900000000,BT8,2014-09-17,fhrs_5_en-GB,5,,FHRS,5
405312,Cherryhill Filling Station,756 Upper Newtownards Road,Dundonald,Down,SUBWAY,Takeaway/sandwich shop,7844,0,,709922,0,,54.59529700000000,501997,809,environmentalhealth@castlereagh.gov.uk,Castlereagh,http://www.castlereagh.gov.uk,-5.80142900000000,BT16 1LA,2013-07-10,fhrs_5_en-GB,5,,FHRS,5
405313,Commons Brae,188 Saintfield Road,Newtownbreda,Down,SUBWAY,Restaurant/Cafe/Canteen,1,0,,709834,0,,54.55528000000000,501627,809,environmentalhealth@castlereagh.gov.uk,Castlereagh,http://www.castlereagh.gov.uk,-5.90698800000000,BT8 6NN,2014-02-28,fhrs_5_en-GB,5,,FHRS,0
405314,Kings Square,Gilnahirk,Castlereagh,Down,SUBWAY,Takeaway/sandwich shop,7844,0,,709839,0,,54.58957400000000,501642,809,environmentalhealth@castlereagh.gov.uk,Castlereagh,http://www.castlereagh.gov.uk,-5.84492000000000,BT5 7EA,2014-04-11,fhrs_5_en-GB,5,,FHRS,5
405315,1b Ballygowan Road,,Castlereagh,Down,Subz Inc,Restaurant/Cafe/Canteen,1,5,,709972,5,,54.57743500000000,506556,809,environmentalhealth@castlereagh.gov.uk,Castlereagh,http://www.castlereagh.gov.uk,-5.87187000000000,BT5 7LH,2013-07-01,fhrs_5_en-GB,5,,FHRS,0
405316,Unit 8 Eastpoint Entertainment Village,,Dundonald,Down,Sugar Rays Smokehouse,Restaurant/Cafe/Canteen,1,5,,710003,5,,54.58721100000000,506615,809,environmentalhealth@castlereagh.gov.uk,Castlereagh,http://www.castlereagh.gov.uk,-5.81787700000000,BT16 1XT,2014-07-24,fhrs_5_en-GB,5,,FHRS,5
405317,13 Kings Square,Gilnahirk,Castlereagh,Down,SUPERVALU,Retailers - supermarkets/hypermarkets,7840,0,,709793,0,,54.58957400000000,501255,809,environmentalhealth@castlereagh.gov.uk,Castlereagh,http://www.castlereagh.gov.uk,-5.84492000000000,BT5 7EA,2014-07-08,fhrs_5_en-GB,5,,FHRS,5
405318,37 Comber Road,Church Quarter,Dundonald,Down,SWEET TREE CAFE,Restaurant/Cafe/Canteen,1,5,,709952,0,,54.59347300000000,502085,809,environmentalhealth@castlereagh.gov.uk,Castlereagh,http://www.castlereagh.gov.uk,-5.81334900000000,BT16 2AA,2014-07-10,fhrs_5_en-GB,5,,FHRS,5
405319,350 Cregagh Road,Cregagh,Castlereagh,Down,TASTE CAFE AND BISTRO,Restaurant/Cafe/Canteen,1,5,,709801,10,,54.57145900000000,501292,809,environmentalhealth@castlereagh.gov.uk,Castlereagh,http://www.castlereagh.gov.uk,-5.89387900000000,BT6 9EY,2014-02-24,fhrs_4_en-GB,4,,FHRS,5
405320,8-10 Comber Road,,Dundonald,Co Down,TASTY GARDEN,Takeaway/sandwich shop,7844,10,,709915,10,,,501963,809,environmentalhealth@castlereagh.gov.uk,Castlereagh,http://www.castlereagh.gov.uk,,BT16 0AB,2014-11-20,fhrs_2_en-GB,2,,FHRS,15
405321,Belvoir Park Golf Club,73 Church Road,Newtownbreda,Down,TEMPLE CATERING,Restaurant/Cafe/Canteen,1,5,,709946,5,,54.56189400000000,502063,809,environmentalhealth@castlereagh.gov.uk,Castlereagh,http://www.castlereagh.gov.uk,-5.91328200000000,BT8 7AN,2012-03-08,fhrs_5_en-GB,5,,FHRS,5
405322,170 Newtownbreda Road,Ballylenaghan Upper,Belfast,Down,TESCO CUSTOMER CARE AND STAFF RESTAURANT,Restaurant/Cafe/Canteen,1,0,,709829,0,,54.55153700000000,501602,809,environmentalhealth@castlereagh.gov.uk,Castlereagh,http://www.castlereagh.gov.uk,-5.92127700000000,BT8 6PZ,2014-03-07,fhrs_5_en-GB,5,,FHRS,0
405323,188 Saintfield Road,Newtownbreda,Castlereagh,Down,TESCO EXPRESS,Retailers - supermarkets/hypermarkets,7840,5,,709815,0,,54.52844500000000,501514,809,environmentalhealth@castlereagh.gov.uk,Castlereagh,http://www.castlereagh.gov.uk,-5.90307900000000,BT8,2012-01-26,fhrs_5_en-GB,5,,FHRS,5
405324,Rosetta Road,,Belfast,Co Antrim,Tesco Express,Retailers - supermarkets/hypermarkets,7840,0,,709998,0,,54.57078100000000,506609,809,environmentalhealth@castlereagh.gov.uk,Castlereagh,http://www.castlereagh.gov.uk,-5.90191000000000,BT6 0LR,2014-06-03,fhrs_5_en-GB,5,,FHRS,0
405325,170 Newtownbreda Road,Ballylenaghan Upper,Belfast,Down,TESCO FILLING STATION,Retailers - supermarkets/hypermarkets,7840,0,,709884,0,,54.55153700000000,501806,809,environmentalhealth@castlereagh.gov.uk,Castlereagh,http://www.castlereagh.gov.uk,-5.92127700000000,BT8 6PZ,2012-12-04,fhrs_5_en-GB,5,,FHRS,0
405326,172 Newtownbreda Road,,Newtownbreda,Down,TESCO NEWTOWNBREDA NI,Retailers - supermarkets/hypermarkets,7840,0,,709830,0,,54.55153700000000,501603,809,environmentalhealth@castlereagh.gov.uk,Castlereagh,http://www.castlereagh.gov.uk,-5.92127700000000,BT8 6PZ,2013-03-04,fhrs_5_en-GB,5,,FHRS,5
405327,86 Beechill Road,Ballylenaghan Upper,Belfast,Down,THAI LANNA,Mobile caterer,7846,0,,709953,0,,54.55125100000000,502086,809,environmentalhealth@castlereagh.gov.uk,Castlereagh,http://www.castlereagh.gov.uk,-5.91718000000000,BT8 7QN,2014-09-04,fhrs_5_en-GB,5,,FHRS,0
405328,734 Upper Newtownards Road,Ballyregan,Dundonald,Down,THE AMETHYST,Takeaway/sandwich shop,7844,10,,709835,5,,54.59473800000000,501635,809,environmentalhealth@castlereagh.gov.uk,Castlereagh,http://www.castlereagh.gov.uk,-5.80529600000000,BT16 1RJ,2014-03-13,fhrs_2_en-GB,2,,FHRS,15
405329,3 Church Road,Church Quarter,Dundonald,Down,The Apple Cart,Restaurant/Cafe/Canteen,1,5,,718026,5,,54.59319700000000,506629,809,environmentalhealth@castlereagh.gov.uk,Castlereagh,http://www.castlereagh.gov.uk,-5.80310500000000,BT16 2LN,2014-11-13,fhrs_4_en-GB,4,,FHRS,10
405330,188 Saintfield Road,,Newtownbreda,Co Down,The Atlantic,Takeaway/sandwich shop,7844,5,,709996,5,,54.55580500000000,506606,809,environmentalhealth@castlereagh.gov.uk,Castlereagh,http://www.castlereagh.gov.uk,-5.90617200000000,BT8 6HG,2014-05-13,fhrs_5_en-GB,5,,FHRS,5
405331,27 Church Road,Moneyreagh,Moneyreagh,Down,The Auld House,Restaurant/Cafe/Canteen,1,,,709994,,,54.53234600000000,506603,809,environmentalhealth@castlereagh.gov.uk,Castlereagh,http://www.castlereagh.gov.uk,-5.82734100000000,BT23 6BB,2014-10-31,fhrs_5_en-GB,5,,FHRS,
405332,14 Cedarhurst Road,Ballydollaghan,Belfast,Down,THE BEECHILL INN,Restaurant/Cafe/Canteen,1,5,,709776,5,,54.54918200000000,501116,809,environmentalhealth@castlereagh.gov.uk,Castlereagh,http://www.castlereagh.gov.uk,-5.91448700000000,BT8 7RH,2014-03-03,fhrs_4_en-GB,4,,FHRS,10
405333,,,Castlereagh,Down,THE CHIP STOP T/A O'NEILLS XL STOP & SHO,Mobile caterer,7846,5,,709931,10,,,502013,809,environmentalhealth@castlereagh.gov.uk,Castlereagh,http://www.castlereagh.gov.uk,,,2012-03-30,fhrs_4_en-GB,4,,FHRS,0
405334,,,Castlereagh,Down,THE COUNTRY KITCHEN,Mobile caterer,7846,0,,709843,0,,,501676,809,environmentalhealth@castlereagh.gov.uk,Castlereagh,http://www.castlereagh.gov.uk,,,2014-04-29,fhrs_5_en-GB,5,,FHRS,5
405335,Streamvale Farm,38 Ballyhanwood Road,Gilnahirk,Down,THE CREAMERY,Restaurant/Cafe/Canteen,1,0,,709641,0,,54.58285000000000,500001,809,environmentalhealth@castlereagh.gov.uk,Castlereagh,http://www.castlereagh.gov.uk,-5.81967300000000,BT5 7SN,2014-04-28,fhrs_5_en-GB,5,,FHRS,0
405336,,,Castlereagh,Down,The Dog House,Mobile caterer,7846,5,,735668,0,,,506759,809,environmentalhealth@castlereagh.gov.uk,Castlereagh,http://www.castlereagh.gov.uk,,,2015-02-03,fhrs_5_en-GB,5,,FHRS,0
405337,793 Upper Newtownards Road,Church Quarter,Dundonald,Down,The Elk Inn,Restaurant/Cafe/Canteen,1,0,,709820,0,,54.59465000000000,501539,809,environmentalhealth@castlereagh.gov.uk,Castlereagh,http://www.castlereagh.gov.uk,-5.81582400000000,BT16 2RE,2013-12-10,fhrs_5_en-GB,5,,FHRS,5
405338,9 Craigleith Drive,Carrowreagh,Dundonald,Down,THE ENLER COMPLEX,Other catering premises,7841,0,,709897,0,,54.58933400000000,501877,809,environmentalhealth@castlereagh.gov.uk,Castlereagh,http://www.castlereagh.gov.uk,-5.78980600000000,BT16 2RY,2014-10-16,fhrs_5_en-GB,5,,FHRS,0
405339,79 Saintfield Road,Breda,Castlereagh,Down,THE EVEREST RESTAURANT,Restaurant/Cafe/Canteen,1,10,,709887,5,,54.55604400000000,501813,809,environmentalhealth@castlereagh.gov.uk,Castlereagh,http://www.castlereagh.gov.uk,-5.90807700000000,BT8 7HN,2014-11-26,fhrs_4_en-GB,4,,FHRS,5
405340,,,Castlereagh,Down,The Farmers Market,Retailers - other,4613,5,,718025,5,,,506624,809,environmentalhealth@castlereagh.gov.uk,Castlereagh,http://www.castlereagh.gov.uk,,,2014-10-25,fhrs_5_en-GB,5,,FHRS,5
405341,,,Castlereagh,Down,The Fatted Calf Ltd,Other catering premises,7841,10,,709989,0,,,506594,809,environmentalhealth@castlereagh.gov.uk,Castlereagh,http://www.castlereagh.gov.uk,,,2014-03-11,fhrs_4_en-GB,4,,FHRS,5
405342,38-40 Gilnahirk Road,Tullycarnet,Belfast,Down,THE FOUR SEASONS,Retailers - other,4613,0,,709696,5,,54.58887100000000,500348,809,environmentalhealth@castlereagh.gov.uk,Castlereagh,http://www.castlereagh.gov.uk,-5.84735500000000,BT5 7DG,2014-06-09,fhrs_5_en-GB,5,,FHRS,0
405343,111 Newton Park,Newtownbreda,Castlereagh,Down,THE FOUR WINDS INN,Restaurant/Cafe/Canteen,1,5,,709763,5,,,500980,809,environmentalhealth@castlereagh.gov.uk,Castlereagh,http://www.castlereagh.gov.uk,,BT8 4LX,2013-11-01,fhrs_5_en-GB,5,,FHRS,0
405344,25 Church Road,Carryduff,Carryduff,Down,THE JOLLY FRYER,Takeaway/sandwich shop,7844,5,,709804,0,,54.51526500000000,501304,809,environmentalhealth@castlereagh.gov.uk,Castlereagh,http://www.castlereagh.gov.uk,-5.88559200000000,BT8 8DT,2013-07-25,fhrs_5_en-GB,5,,FHRS,5
405345,69 Church Road,Castlereagh,Castlereagh,Down,THE LEARNING TREE PLAYGROUP,School/college/university,7845,5,,709802,0,,54.56931600000000,501301,809,environmentalhealth@castlereagh.gov.uk,Castlereagh,http://www.castlereagh.gov.uk,-5.87461300000000,BT6 9SA,2014-04-01,fhrs_5_en-GB,5,,FHRS,0
405346,933 Upper Newtownards Road,Ballyregan,Dundonald,Down,The Lewis,Pub/bar/nightclub,7843,5,,709991,0,,54.59462200000000,506596,809,environmentalhealth@castlereagh.gov.uk,Castlereagh,http://www.castlereagh.gov.uk,-5.80782500000000,BT16 1RQ,2013-12-10,fhrs_4_en-GB,4,,FHRS,10
405347,2 Lock Keepers Lane,Ballynavally,Belfast,Down,THE LOCK KEEPER'S INN,Restaurant/Cafe/Canteen,1,,,709948,,,54.55362300000000,502067,809,environmentalhealth@castlereagh.gov.uk,Castlereagh,http://www.castlereagh.gov.uk,-5.94451200000000,BT8 7XT,2014-08-22,fhrs_5_en-GB,5,,FHRS,
405348,7 Elesington Court,Ballymaconaghy,Belfast,Down,THE LOTT,Restaurant/Cafe/Canteen,1,5,,709810,0,,54.57858000000000,501349,809,environmentalhealth@castlereagh.gov.uk,Castlereagh,http://www.castlereagh.gov.uk,-5.89620300000000,BT6 9JY,2013-12-06,fhrs_4_en-GB,4,,FHRS,10
405349,9 Elesington Court,Ballymaconaghy,Belfast,Down,THE PHAROAH,Takeaway/sandwich shop,7844,20,,709673,0,,54.57858000000000,500216,809,environmentalhealth@castlereagh.gov.uk,Castlereagh,http://www.castlereagh.gov.uk,-5.89620300000000,BT6 9JY,2013-10-22,fhrs_1_en-GB,1,,FHRS,10
405350,Kings Square,,Gilnahirk,Down,The Poet,Restaurant/Cafe/Canteen,1,,,709846,,,54.58957400000000,501688,809,environmentalhealth@castlereagh.gov.uk,Castlereagh,http://www.castlereagh.gov.uk,-5.84492000000000,BT5 7EA,2014-12-03,fhrs_4_en-GB,4,,FHRS,
405351,79 Newton Park,Newtownbreda,Castlereagh,Down,THE REAL MCCOY,Takeaway/sandwich shop,7844,5,,709778,5,,54.52151000000000,501128,809,environmentalhealth@castlereagh.gov.uk,Castlereagh,http://www.castlereagh.gov.uk,-5.93293500000000,BT8 8LN,2013-11-06,fhrs_5_en-GB,5,,FHRS,0
405352,78 Old Dundonald Road,,Dundonald,Co Down,The Secret Garden At Dundonald Nurseries,Restaurant/Cafe/Canteen,1,0,,709970,0,,54.57728900000000,506553,809,environmentalhealth@castlereagh.gov.uk,Castlereagh,http://www.castlereagh.gov.uk,-5.79301000000000,BT16 1XA,2014-11-18,fhrs_5_en-GB,5,,FHRS,0
405353,188 Saintfield Road,,Newtownbreda,Co Down,THE SILK,Takeaway/sandwich shop,7844,5,,709710,10,,54.55580500000000,500405,809,environmentalhealth@castlereagh.gov.uk,Castlereagh,http://www.castlereagh.gov.uk,-5.90617200000000,BT8 6HG,2015-01-13,fhrs_3_en-GB,3,,FHRS,10
405354,3 Drumart Square,Ballylenaghan Upper,Belfast,Down,THE SQUARE,Takeaway/sandwich shop,7844,5,,709797,0,,54.54952800000000,501271,809,environmentalhealth@castlereagh.gov.uk,Castlereagh,http://www.castlereagh.gov.uk,-5.92882900000000,BT8 7EY,2013-12-18,fhrs_4_en-GB,4,,FHRS,10
405355,5 Dunlady Road,,Dundonald,Down,TOR BANK SPECIAL SCHOOL DINING CENTRE,School/college/university,7845,5,,709685,0,,54.60496500000000,500287,809,environmentalhealth@castlereagh.gov.uk,Castlereagh,http://www.castlereagh.gov.uk,-5.79059900000000,BT16 1TT,2014-05-08,fhrs_5_en-GB,5,,FHRS,5
405356,Kinross Avenue,Tullycarnet,Belfast,Down,TULLYCARNET BOWLING PAVILION,Restaurant/Cafe/Canteen,1,,,709877,,,54.58914700000000,501767,809,environmentalhealth@castlereagh.gov.uk,Castlereagh,http://www.castlereagh.gov.uk,-5.82759800000000,BT5 7GE,2012-06-13,fhrs_exempt_en-GB,Exempt,,FHRS,
405357,Kinross Avenue,Tullycarnet,Belfast,Down,TULLYCARNET COMMUNITY CENTRE,Other catering premises,7841,,,709753,,,54.58999900000000,500637,809,environmentalhealth@castlereagh.gov.uk,Castlereagh,http://www.castlereagh.gov.uk,-5.82800200000000,BT5 7GF,2013-02-11,fhrs_exempt_en-GB,Exempt,,FHRS,
405358,10 Granton Park,Tullycarnet,Belfast,Down,TULLYCARNET POST OFFICE,Retailers - other,4613,0,,709775,0,,54.58887100000000,501114,809,environmentalhealth@castlereagh.gov.uk,Castlereagh,http://www.castlereagh.gov.uk,-5.83022800000000,BT5 7AH,2011-10-26,fhrs_5_en-GB,5,,FHRS,5
405359,325 Kings Road,Tullycarnet,Castlereagh,Down,TULLYCARNET SCHOOL MEALS,School/college/university,7845,0,,709751,0,,54.58869500000000,500635,809,environmentalhealth@castlereagh.gov.uk,Castlereagh,http://www.castlereagh.gov.uk,-5.83795700000000,BT5 7EH,2014-10-14,fhrs_5_en-GB,5,,FHRS,0
405360,993 Upper Newtownards Road,Ballyregan,Dundonald,Down,Turkish Pride,Takeaway/sandwich shop,7844,,,709999,,,54.59442200000000,506611,809,environmentalhealth@castlereagh.gov.uk,Castlereagh,http://www.castlereagh.gov.uk,-5.80276000000000,BT16 1RN,2014-08-27,fhrs_4_en-GB,4,,FHRS,
405361,700 Upper Newtownards Road,Dundonald,Castlereagh,Down,ULSTER HOSPITAL,Hospitals/Childcare/Caring Premises,5,10,,709684,0,,,500284,809,environmentalhealth@castlereagh.gov.uk,Castlereagh,http://www.castlereagh.gov.uk,,BT16 ORH,2014-07-31,fhrs_4_en-GB,4,,FHRS,5
405362,The Ulster Hospital Upper Newtownards Road,,Dundonald,Down,ULSTER HOSPITAL SNACK BARS,Restaurant/Cafe/Canteen,1,5,,709863,0,,54.59679600000000,501739,809,environmentalhealth@castlereagh.gov.uk,Castlereagh,http://www.castlereagh.gov.uk,-5.81129800000000,BT16 1RH,2013-12-05,fhrs_5_en-GB,5,,FHRS,0
405363,Beechill House,Beechill Road,Newtownbreda,Down,URS CANTEEN,Restaurant/Cafe/Canteen,1,10,,709855,0,,54.55066200000000,501718,809,environmentalhealth@castlereagh.gov.uk,Castlereagh,http://www.castlereagh.gov.uk,-5.91484500000000,BT8 7RJ,2014-03-24,fhrs_4_en-GB,4,,FHRS,10
405364,Unit 1 Cedarhurst Road,,Newtownbreda,Co Down,Vertigo Adventure Ltd,Restaurant/Cafe/Canteen,1,10,,709987,0,,54.54918200000000,506588,809,environmentalhealth@castlereagh.gov.uk,Castlereagh,http://www.castlereagh.gov.uk,-5.91448700000000,BT8 7RH,2013-11-19,fhrs_4_en-GB,4,,FHRS,10
405365,985 Upper Newtownards Road,Ballyregan,Dundonald,Down,Wah Fu,Takeaway/sandwich shop,7844,20,,709978,10,,54.59442200000000,506569,809,environmentalhealth@castlereagh.gov.uk,Castlereagh,http://www.castlereagh.gov.uk,-5.80276000000000,BT16 1RN,2013-09-19,fhrs_1_en-GB,1,,FHRS,10
405366,756 Upper Newtownards Road,Dundonald,Castlereagh,Down,WINEMARK,Retailers - other,4613,,,709867,,,,501745,809,environmentalhealth@castlereagh.gov.uk,Castlereagh,http://www.castlereagh.gov.uk,,BT16 0LA,2012-03-14,fhrs_exempt_en-GB,Exempt,,FHRS,
405367,77 Rosetta Road,Ballymaconaghy,Belfast,Down,WINEMARK,Retailers - other,4613,,,709868,,,54.57078100000000,501748,809,environmentalhealth@castlereagh.gov.uk,Castlereagh,http://www.castlereagh.gov.uk,-5.90191000000000,BT6 0LR,2012-03-14,fhrs_exempt_en-GB,Exempt,,FHRS,
405368,793 Upper Newtownards Road,Dundonald,Castlereagh,Down,WINEMARK (AT ELK),Retailers - other,4613,,,709865,,,,501742,809,environmentalhealth@castlereagh.gov.uk,Castlereagh,http://www.castlereagh.gov.uk,,BT16 0QY,2012-03-08,fhrs_exempt_en-GB,Exempt,,FHRS,
405369,123 Gilnahirk Road,Tullycarnet,Belfast,Down,WINEMARK 21,Retailers - other,4613,,,709698,,,54.58345800000000,500353,809,environmentalhealth@castlereagh.gov.uk,Castlereagh,http://www.castlereagh.gov.uk,-5.84105000000000,BT5 7QL,2013-07-18,fhrs_exempt_en-GB,Exempt,,FHRS,
405370,,Fourwinds Shopping Centre,Newton Park,Down,WINEMARK 71,Retailers - other,4613,,,709694,,,,500338,809,environmentalhealth@castlereagh.gov.uk,Castlereagh,http://www.castlereagh.gov.uk,,BT8 4LX,2012-06-12,fhrs_exempt_en-GB,Exempt,,FHRS,
405371,,Carryduff Centre,Church Road,Down,WINEMARK 73,Retailers - other,4613,,,709657,,,54.51526500000000,500154,809,environmentalhealth@castlereagh.gov.uk,Castlereagh,http://www.castlereagh.gov.uk,-5.88559200000000,BT8 8DT,2012-04-11,fhrs_exempt_en-GB,Exempt,,FHRS,
405372,224-226 Knock Road,Lower Braniel,Castlereagh,Down,WINEMARK 79,Retailers - other,4613,,,709724,,,54.57887700000000,500502,809,environmentalhealth@castlereagh.gov.uk,Castlereagh,http://www.castlereagh.gov.uk,-5.87108400000000,BT5 6QD,2012-06-13,fhrs_exempt_en-GB,Exempt,,FHRS,
405373,190 Saintfield Road,Knockbracken,Castlereagh,Down,WINEMARK 83,Retailers - other,4613,,,709711,,,,500414,809,environmentalhealth@castlereagh.gov.uk,Castlereagh,http://www.castlereagh.gov.uk,,BT8 4HG,2012-06-11,fhrs_exempt_en-GB,Exempt,,FHRS,
405374,Ballynahinch Road,,Carryduff,Down,Wineseller,Retailers - other,4613,,,709973,,,54.51628600000000,506557,809,environmentalhealth@castlereagh.gov.uk,Castlereagh,http://www.castlereagh.gov.uk,-5.88801000000000,BT8 8DN,2013-04-18,fhrs_exempt_en-GB,Exempt,,FHRS,
405375,Eastpoint Entertainment Village Old Dundonald Road,,Dundonald,Down,WOLFES GOURMET BURGERS,Restaurant/Cafe/Canteen,1,5,,709864,5,,54.58721100000000,501741,809,environmentalhealth@castlereagh.gov.uk,Castlereagh,http://www.castlereagh.gov.uk,-5.81787700000000,BT16 1XT,2014-02-21,fhrs_5_en-GB,5,,FHRS,0
405376,129 Ballynahinch Road,,Carryduff,Co Down,WOODLAWN GARDEN CENTRE/MAPLE CAFE,Restaurant/Cafe/Canteen,1,0,,709823,5,,54.50790900000000,501566,809,environmentalhealth@castlereagh.gov.uk,Castlereagh,http://www.castlereagh.gov.uk,-5.89349100000000,BT8 8DP,2014-04-17,fhrs_5_en-GB,5,,FHRS,5
405377,21 Colvin House,Dundonald Enterprise Park,Carrowreagh Road,Down,XPRESSO,Restaurant/Cafe/Canteen,1,5,,709796,0,,54.59725200000000,501266,809,environmentalhealth@castlereagh.gov.uk,Castlereagh,http://www.castlereagh.gov.uk,-5.78202600000000,BT16 1QT,2013-06-17,fhrs_5_en-GB,5,,FHRS,5
405378,21 Colvin House,Dundonald Enterprise Pk,Carrowreagh Road,Down,XPRESSO VAN,Mobile caterer,7846,10,,709960,0,,54.59725200000000,502097,809,environmentalhealth@castlereagh.gov.uk,Castlereagh,http://www.castlereagh.gov.uk,-5.78202600000000,BT16 1QT,2012-09-12,fhrs_4_en-GB,4,,FHRS,0
405379,60-64 Comber Road,Dundonald,Castlereagh,Down,XTRAVISION (NI) LIMITED,Retailers - other,4613,,,709681,,,,500269,809,environmentalhealth@castlereagh.gov.uk,Castlereagh,http://www.castlereagh.gov.uk,,BT16 0AB,2012-06-13,fhrs_exempt_en-GB,Exempt,,FHRS,
405380,61 Church Road,Castlereagh,Castlereagh,Down,YOUNG ONES (DAY NURSERY),School/college/university,7845,5,,709799,0,,54.56931600000000,501288,809,environmentalhealth@castlereagh.gov.uk,Castlereagh,http://www.castlereagh.gov.uk,-5.87461300000000,BT6 9SA,2014-03-31,fhrs_5_en-GB,5,,FHRS,5
405381,71 Saintfield Road,Newtownbreda,Castlereagh,Down,YOUR LOCAL BOOTS PHARMACY,Retailers - other,4613,,,709858,,,,501726,809,environmentalhealth@castlereagh.gov.uk,Castlereagh,http://www.castlereagh.gov.uk,,BT8 4HN,2011-12-08,fhrs_exempt_en-GB,Exempt,,FHRS,
405382,,,Castlereagh,Down,YUMMIE TREATS,Other catering premises,7841,5,,709929,0,,,502006,809,environmentalhealth@castlereagh.gov.uk,Castlereagh,http://www.castlereagh.gov.uk,,,2011-08-17,fhrs_5_en-GB,5,,FHRS,0
