,addressline1,addressline2,addressline3,addressline4,businessname,businesstype,businesstypeid,confidenceinmanagement,extractdate,fhrsid,hygiene,itemcount,latitude,localauthoritybusinessid,localauthoritycode,localauthorityemailaddress,localauthorityname,localauthoritywebsite,longitude,postcode,ratingdate,ratingkey,ratingvalue,returncode,schemetype,structural
405383,1 Causeway Street,,Portrush,Antrim,55 North,Restaurant/Cafe/Canteen,1,5,,67907,5,,55.19327400000000,1518,810,eh@colerainebc.gov.uk,Coleraine,http://www.colerainebc.gov.uk/,-6.63255300000000,BT56 8AQ,2014-05-07,fhrs_5_en-GB,5,,FHRS,5
405384,76 Coleraine Road,,Portrush,Antrim,A Amazing Bed And Breakfast,Hotel/bed & breakfast/guest house,7842,0,,70115,0,,55.19300700000000,1587,810,eh@colerainebc.gov.uk,Coleraine,http://www.colerainebc.gov.uk/,-6.65596700000000,BT56 8HN,2013-04-30,fhrs_5_en-GB,5,,FHRS,0
405385,81 Main Street,,Garvagh,Londonderry,A Pizza Garvagh,Takeaway/sandwich shop,7844,5,,534780,0,,54.98035600000000,2923,810,eh@colerainebc.gov.uk,Coleraine,http://www.colerainebc.gov.uk/,-6.68809000000000,BT51 5AB,2013-03-28,fhrs_5_en-GB,5,,FHRS,0
405386,14 Coleraine Road,,Portrush,Antrim,Aaranmore Lodge,Hotel/bed & breakfast/guest house,7842,0,,128757,0,,55.19764600000000,59,810,eh@colerainebc.gov.uk,Coleraine,http://www.colerainebc.gov.uk/,-6.65384800000000,BT56 8EA,2013-09-09,fhrs_5_en-GB,5,,FHRS,0
405387,8 Lever Road,,Portstewart,Londonderry,Abbeyfield House,Hospitals/Childcare/Caring Premises,5,5,,57869,0,,55.18276300000000,1296,810,eh@colerainebc.gov.uk,Coleraine,http://www.colerainebc.gov.uk/,-6.71650100000000,BT55 7EF,2013-04-25,fhrs_5_en-GB,5,,FHRS,0
405388,67-71 Main Street,,Portrush,Antrim,Adelphi Portrush,Hotel/bed & breakfast/guest house,7842,0,,76170,0,,55.20750600000000,1792,810,eh@colerainebc.gov.uk,Coleraine,http://www.colerainebc.gov.uk/,-6.65433200000000,BT56 8BN,2013-12-30,fhrs_5_en-GB,5,,FHRS,0
405389,8 Killowen Court,,Coleraine,Londonderry,Age Concern Causeway (lunch Club),Other catering premises,7841,5,,470767,5,,55.13115800000000,2844,810,eh@colerainebc.gov.uk,Coleraine,http://www.colerainebc.gov.uk/,-6.67811500000000,BT51 3TP,2014-09-03,fhrs_4_en-GB,4,,FHRS,10
405390,32a Mullaghinch Road,,Coleraine,Londonderry,Aghadowey Pre-school Play Group,School/college/university,7845,0,,131407,0,,55.03045500000000,629,810,eh@colerainebc.gov.uk,Coleraine,http://www.colerainebc.gov.uk/,-6.62059700000000,BT51 4AP,2013-05-01,fhrs_4_en-GB,4,,FHRS,10
405391,174 Agivey Road,Aghadowey,Coleraine,Londonderry,Agivey Lodge,Hotel/bed & breakfast/guest house,7842,0,,534781,0,,55.02653600000000,2925,810,eh@colerainebc.gov.uk,Coleraine,http://www.colerainebc.gov.uk/,-6.60073100000000,BT51 4AB,2013-03-15,fhrs_5_en-GB,5,,FHRS,0
405392,75 The Promenade,,Portstewart,Londonderry,Akaroa Guesthouse,Hotel/bed & breakfast/guest house,7842,0,,134974,0,,55.18397800000000,685,810,eh@colerainebc.gov.uk,Coleraine,http://www.colerainebc.gov.uk/,-6.71844000000000,BT55 7AF,2013-05-08,fhrs_5_en-GB,5,,FHRS,0
405393,83 The Promenade,,Portstewart,Londonderry,Alliance Pharmacy,Retailers - other,4613,,,118814,,,55.18283000000000,481,810,eh@colerainebc.gov.uk,Coleraine,http://www.colerainebc.gov.uk/,-6.71860200000000,BT55 7AG,2012-10-19,fhrs_exempt_en-GB,Exempt,,FHRS,
405394,23 Maghera Street,Kilrea,Coleraine,Londonderry,Al's Pizza Box,Takeaway/sandwich shop,7844,5,,137052,5,,54.95138400000000,717,810,eh@colerainebc.gov.uk,Coleraine,http://www.colerainebc.gov.uk/,-6.55717300000000,BT51 5QL,2014-07-03,fhrs_5_en-GB,5,,FHRS,5
405395,25 Portmore Road,,Portstewart,Londonderry,Amici Ristorante,Restaurant/Cafe/Canteen,1,5,,699791,5,,55.18824300000000,3112,810,eh@colerainebc.gov.uk,Coleraine,http://www.colerainebc.gov.uk/,-6.71657600000000,BT55 7BE,2014-09-04,fhrs_5_en-GB,5,,FHRS,5
405396,25 University Gardens,,Coleraine,Londonderry,An Cuileann Bed And Breakfast,Hotel/bed & breakfast/guest house,7842,0,,136093,0,,55.15285800000000,702,810,eh@colerainebc.gov.uk,Coleraine,http://www.colerainebc.gov.uk/,-6.66961600000000,BT52 1JT,2012-09-12,fhrs_5_en-GB,5,,FHRS,0
405397,73 Eglinton Street,,Portrush,Antrim,An Uladh Bed And Breakfast,Hotel/bed & breakfast/guest house,7842,0,,75188,0,,55.20277300000000,175,810,eh@colerainebc.gov.uk,Coleraine,http://www.colerainebc.gov.uk/,-6.65281100000000,BT56 8DZ,2013-01-08,fhrs_5_en-GB,5,,FHRS,0
405398,86 - 87 The Promenade,,Portstewart,Londonderry,Anchor Bar Complex,Pub/bar/nightclub,7843,5,,81776,5,,55.18397800000000,20,810,eh@colerainebc.gov.uk,Coleraine,http://www.colerainebc.gov.uk/,-6.71844000000000,BT55 7AF,2014-09-01,fhrs_5_en-GB,5,,FHRS,5
405399,,,,,Angel Cake Bakery,Other catering premises,7841,10,,188889,5,,,2868,810,eh@colerainebc.gov.uk,Coleraine,http://www.colerainebc.gov.uk/,,,2012-01-11,fhrs_4_en-GB,4,,FHRS,0
405400,,,,,Angel'snacks Catering,Other catering premises,7841,0,,534783,0,,,2943,810,eh@colerainebc.gov.uk,Coleraine,http://www.colerainebc.gov.uk/,,,2013-03-22,fhrs_5_en-GB,5,,FHRS,0
405401,77 Main Street,,Portrush,Antrim,Annes Tea Room,Restaurant/Cafe/Canteen,1,0,,135165,10,,55.20750600000000,687,810,eh@colerainebc.gov.uk,Coleraine,http://www.colerainebc.gov.uk/,-6.65433200000000,BT56 8BN,2014-11-05,fhrs_4_en-GB,4,,FHRS,5
405402,24 Portstewart Road,,Portrush,Antrim,Antique House,Hotel/bed & breakfast/guest house,7842,0,,714892,0,,55.19704900000000,3185,810,eh@colerainebc.gov.uk,Coleraine,http://www.colerainebc.gov.uk/,-6.65752700000000,BT56 8EQ,2014-10-22,fhrs_5_en-GB,5,,FHRS,0
405403,22&24 Bridge Street,Kilrea,Coleraine,Londonderry,Antrim Arms,Retailers - other,4613,5,,57045,5,,54.95221600000000,1289,810,eh@colerainebc.gov.uk,Coleraine,http://www.colerainebc.gov.uk/,-6.55310100000000,BT51 5RS,2014-01-13,fhrs_5_en-GB,5,,FHRS,5
405404,14 Eglinton Street,,Portrush,Antrim,Antrim House,Hotel/bed & breakfast/guest house,7842,0,,98889,0,,55.20448300000000,312,810,eh@colerainebc.gov.uk,Coleraine,http://www.colerainebc.gov.uk/,-6.65236100000000,BT56 8DX,2012-11-01,fhrs_5_en-GB,5,,FHRS,5
405405,16 Coleraine Road,,Portrush,Antrim,Anvershiel B & B,Hotel/bed & breakfast/guest house,7842,0,,134700,0,,55.19764600000000,682,810,eh@colerainebc.gov.uk,Coleraine,http://www.colerainebc.gov.uk/,-6.65384800000000,BT56 8EA,2013-11-12,fhrs_5_en-GB,5,,FHRS,0
405406,6 Sea Road,,Castlerock,Londonderry,Any Thyme Catering,Restaurant/Cafe/Canteen,1,5,,606739,0,,55.16600400000000,3024,810,eh@colerainebc.gov.uk,Coleraine,http://www.colerainebc.gov.uk/,-6.78611500000000,BT51 4RE,2013-10-18,fhrs_5_en-GB,5,,FHRS,5
405407,39 Tirkeeran Road,,Garvagh,Londonderry,Appletrees Childcare,Hospitals/Childcare/Caring Premises,5,5,,127232,5,,54.97037700000000,564,810,eh@colerainebc.gov.uk,Coleraine,http://www.colerainebc.gov.uk/,-6.70159500000000,BT51 5AX,2014-02-13,fhrs_5_en-GB,5,,FHRS,5
405408,,,,,Arbutus Caterers,Mobile caterer,7846,5,,466197,0,,,2949,810,eh@colerainebc.gov.uk,Coleraine,http://www.colerainebc.gov.uk/,,,2014-06-25,fhrs_5_en-GB,5,,FHRS,5
405409,The Arcadia,,Portrush,,Arcadia Beach Cafe,Restaurant/Cafe/Canteen,1,5,,113994,0,,,43,810,eh@colerainebc.gov.uk,Coleraine,http://www.colerainebc.gov.uk/,,,2014-05-30,fhrs_5_en-GB,5,,FHRS,0
405410,9 Seaview Drive North,,Portstewart,Londonderry,Ard Na Tra B & B,Hotel/bed & breakfast/guest house,7842,0,,90651,0,,55.17872600000000,248,810,eh@colerainebc.gov.uk,Coleraine,http://www.colerainebc.gov.uk/,-6.72042900000000,BT55 7JY,2012-08-28,fhrs_5_en-GB,5,,FHRS,0
405411,9 Riverside Regional Centre,,Coleraine,Londonderry,Argos Ltd,Retailers - other,4613,,,94689,,,55.12019100000000,2785,810,eh@colerainebc.gov.uk,Coleraine,http://www.colerainebc.gov.uk/,-6.67408800000000,BT51 3QQ,2014-04-10,fhrs_exempt_en-GB,Exempt,,FHRS,
405412,34 Seafield Park,,Portstewart,Londonderry,Arlington House B & B,Hotel/bed & breakfast/guest house,7842,0,,89936,5,,55.17805500000000,2427,810,eh@colerainebc.gov.uk,Coleraine,http://www.colerainebc.gov.uk/,-6.71815900000000,BT55 7JU,2012-04-17,fhrs_5_en-GB,5,,FHRS,0
405413,17 Eglinton Street,,Portrush,Antrim,Arrosto,Restaurant/Cafe/Canteen,1,5,,88494,10,,55.20448300000000,2321,810,eh@colerainebc.gov.uk,Coleraine,http://www.colerainebc.gov.uk/,-6.65236100000000,BT56 8DX,2014-07-07,fhrs_4_en-GB,4,,FHRS,5
405414,15 St. Pauls Road,,Articlave,Londonderry,Articlave Daycare Nursery,School/college/university,7845,10,,691932,10,,55.14628600000000,3084,810,eh@colerainebc.gov.uk,Coleraine,http://www.colerainebc.gov.uk/,-6.77353900000000,BT51 4UN,2014-08-15,fhrs_2_en-GB,2,,FHRS,15
405415,1 Ring Road,,Coleraine,Londonderry,Asda,Retailers - supermarkets/hypermarkets,7840,5,,135421,5,,55.14163100000000,691,810,eh@colerainebc.gov.uk,Coleraine,http://www.colerainebc.gov.uk/,-6.65666000000000,BT52 1QN,2013-07-19,fhrs_5_en-GB,5,,FHRS,5
405416,1 Ring Road,,Coleraine,Londonderry,Asda Petrol Filling Station,Retailers - other,4613,10,,101237,0,,55.14163100000000,330,810,eh@colerainebc.gov.uk,Coleraine,http://www.colerainebc.gov.uk/,-6.65666000000000,BT52 1QN,2013-02-04,fhrs_4_en-GB,4,,FHRS,5
405417,52 Mark Street,,Portrush,Antrim,Ashlea House,Hotel/bed & breakfast/guest house,7842,0,,119139,0,,55.20700900000000,484,810,eh@colerainebc.gov.uk,Coleraine,http://www.colerainebc.gov.uk/,-6.65488300000000,BT56 8BU,2012-08-22,fhrs_4_en-GB,4,,FHRS,10
405418,164 Station Road,,Portstewart,Londonderry,Ashleigh Guesthouse,Hotel/bed & breakfast/guest house,7842,0,,41412,10,,55.18347700000000,1027,810,eh@colerainebc.gov.uk,Coleraine,http://www.colerainebc.gov.uk/,-6.69913000000000,BT55 7PU,2013-06-11,fhrs_4_en-GB,4,,FHRS,0
405419,39&41 Main Street,,Portrush,Antrim,Atlantic Bar,Retailers - other,4613,10,,143373,10,,55.20750600000000,807,810,eh@colerainebc.gov.uk,Coleraine,http://www.colerainebc.gov.uk/,-6.65433200000000,BT56 8BN,2013-06-12,fhrs_2_en-GB,2,,FHRS,15
405420,12 Ballyreagh Road,,Portrush,Antrim,Atlantic Hot Food Take Away,Takeaway/sandwich shop,7844,5,,86258,0,,55.19685600000000,22,810,eh@colerainebc.gov.uk,Coleraine,http://www.colerainebc.gov.uk/,-6.67363000000000,BT56 8LS,2013-07-18,fhrs_4_en-GB,4,,FHRS,10
405421,103 Eglinton Street,,Portrush,Antrim,Atlantic View Guesthouse,Hotel/bed & breakfast/guest house,7842,5,,135997,5,,55.20277300000000,700,810,eh@colerainebc.gov.uk,Coleraine,http://www.colerainebc.gov.uk/,-6.65281100000000,BT56 8DZ,2013-01-29,fhrs_4_en-GB,4,,FHRS,10
405422,Bushmills Road,,Portrush,Antrim,Atlantis Hotel,Hotel/bed & breakfast/guest house,7842,5,,55849,5,,55.20094300000000,1261,810,eh@colerainebc.gov.uk,Coleraine,http://www.colerainebc.gov.uk/,-6.64250700000000,BT56 8JG,2014-08-18,fhrs_4_en-GB,4,,FHRS,10
405423,64 Mark Street,,Portrush,Antrim,Avarest House Bed And Breakfast,Hotel/bed & breakfast/guest house,7842,5,,50298,0,,55.20700900000000,112,810,eh@colerainebc.gov.uk,Coleraine,http://www.colerainebc.gov.uk/,-6.65488300000000,BT56 8BU,2013-10-07,fhrs_5_en-GB,5,,FHRS,5
405424,11 Dunluce Street,,Portrush,Antrim,Avenue Cafe - Goldrush,Restaurant/Cafe/Canteen,1,0,,127937,5,,55.20302300000000,576,810,eh@colerainebc.gov.uk,Coleraine,http://www.colerainebc.gov.uk/,-6.65189200000000,BT56 8DW,2014-07-16,fhrs_5_en-GB,5,,FHRS,5
405425,14 Riverside Regional Centre,,Coleraine,Londonderry,B & M Bargains,Retailers - other,4613,5,,92520,0,,55.12019100000000,2608,810,eh@colerainebc.gov.uk,Coleraine,http://www.colerainebc.gov.uk/,-6.67408800000000,BT51 3QQ,2013-09-16,fhrs_4_en-GB,4,,FHRS,10
405426,South Pier The Harbour,,Portrush,Antrim,Babushka Kitchen Cafe,Restaurant/Cafe/Canteen,1,5,,699797,5,,55.20727500000000,3189,810,eh@colerainebc.gov.uk,Coleraine,http://www.colerainebc.gov.uk/,-6.65869100000000,BT56 8DF,2014-08-08,fhrs_5_en-GB,5,,FHRS,5
405427,15 Bratwell Road,Macosquin,Coleraine,Londonderry,Badger Lodge,Hotel/bed & breakfast/guest house,7842,0,,89704,5,,55.11934900000000,2409,810,eh@colerainebc.gov.uk,Coleraine,http://www.colerainebc.gov.uk/,-6.80275000000000,BT51 4LB,2015-01-26,fhrs_5_en-GB,5,,FHRS,0
405428,70 Ballinteer Road,Macosquin,Coleraine,Londonderry,Ballinteer B & B,Hotel/bed & breakfast/guest house,7842,0,,86819,10,,55.11403900000000,2222,810,eh@colerainebc.gov.uk,Coleraine,http://www.colerainebc.gov.uk/,-6.71615100000000,BT51 4LZ,2013-11-08,fhrs_4_en-GB,4,,FHRS,10
405429,31 Ballyagan Road,,Garvagh,Londonderry,Ballyagan Strawberries,Other catering premises,7841,5,,702500,0,,54.99022500000000,3104,810,eh@colerainebc.gov.uk,Coleraine,http://www.colerainebc.gov.uk/,-6.66378600000000,BT51 5JE,2014-09-12,fhrs_5_en-GB,5,,FHRS,0
405430,50 Altikeeragh Road,,Castlerock,Londonderry,Ballyhackett Primary School,School/college/university,7845,0,,149949,0,,55.13870300000000,97,810,eh@colerainebc.gov.uk,Coleraine,http://www.colerainebc.gov.uk/,-6.81791400000000,BT51 4SR,2013-06-11,fhrs_5_en-GB,5,,FHRS,5
405431,40 Priestland Road,,Bushmills,Antrim,Ballyness Service Station,Retailers - other,4613,20,,51171,0,,55.19592800000000,1144,810,eh@colerainebc.gov.uk,Coleraine,http://www.colerainebc.gov.uk/,-6.53449300000000,BT57 8XB,2013-01-16,fhrs_1_en-GB,1,,FHRS,0
405432,28a Ballysally Road,Ballysally,Coleraine,Londonderry,Ballysally Nursery School,School/college/university,7845,5,,127627,0,,55.15029200000000,571,810,eh@colerainebc.gov.uk,Coleraine,http://www.colerainebc.gov.uk/,-6.66083900000000,BT52 2QA,2014-05-08,fhrs_5_en-GB,5,,FHRS,5
405433,52 Danes Hill Road,,Coleraine,Londonderry,Ballysally Primary School,School/college/university,7845,0,,127677,0,,55.14554900000000,572,810,eh@colerainebc.gov.uk,Coleraine,http://www.colerainebc.gov.uk/,-6.66005700000000,BT52 2QU,2014-10-22,fhrs_5_en-GB,5,,FHRS,5
405434,28 Ballysally Road,Ballysally,Coleraine,Londonderry,Ballysally Youth And Community Centre,Hospitals/Childcare/Caring Premises,5,10,,116679,5,,55.15029200000000,459,810,eh@colerainebc.gov.uk,Coleraine,http://www.colerainebc.gov.uk/,-6.66083900000000,BT52 2QA,2014-10-20,fhrs_4_en-GB,4,,FHRS,0
405435,60 Priestland Road,,Bushmills,Antrim,Ballytober Primary School Meals Kitchen,School/college/university,7845,0,,64977,5,,55.18919800000000,1455,810,eh@colerainebc.gov.uk,Coleraine,http://www.colerainebc.gov.uk/,-6.54938900000000,BT57 8UR,2014-04-30,fhrs_5_en-GB,5,,FHRS,5
405436,16 Eglinton Street,,Portrush,Antrim,Barry's Amusements (snack Bar),Restaurant/Cafe/Canteen,1,0,,67539,0,,55.20448300000000,1508,810,eh@colerainebc.gov.uk,Coleraine,http://www.colerainebc.gov.uk/,-6.65236100000000,BT56 8DX,2013-09-03,fhrs_5_en-GB,5,,FHRS,0
405437,,,,,Barts Ices (inz 3187),Retailers - other,4613,0,,41511,0,,,1029,810,eh@colerainebc.gov.uk,Coleraine,http://www.colerainebc.gov.uk/,,,2014-05-30,fhrs_5_en-GB,5,,FHRS,0
405438,,,,,Barts Ices (unz 2356),Retailers - other,4613,5,,719493,0,,,3232,810,eh@colerainebc.gov.uk,Coleraine,http://www.colerainebc.gov.uk/,,,2014-12-01,fhrs_5_en-GB,5,,FHRS,0
405439,2 Bayhead Road,,Portballintrae,Antrim,Bayview Hotel,Hotel/bed & breakfast/guest house,7842,5,,69266,0,,55.21528800000000,1556,810,eh@colerainebc.gov.uk,Coleraine,http://www.colerainebc.gov.uk/,-6.54653900000000,BT57 8RZ,2014-04-01,fhrs_4_en-GB,4,,FHRS,10
405440,6 Craig Vara,,Portrush,Antrim,Beaches And Cream,Retailers - other,4613,0,,682835,0,,55.20527600000000,3021,810,eh@colerainebc.gov.uk,Coleraine,http://www.colerainebc.gov.uk/,-6.65092000000000,BT56 8AJ,2014-07-02,fhrs_4_en-GB,4,,FHRS,10
405441,8 Ballyhome Road,,Coleraine,Londonderry,Beardiville Farmhouse Accommodation,Hotel/bed & breakfast/guest house,7842,0,,71733,0,,55.17737300000000,1630,810,eh@colerainebc.gov.uk,Coleraine,http://www.colerainebc.gov.uk/,-6.59508800000000,BT52 2LU,2013-01-23,fhrs_5_en-GB,5,,FHRS,0
405442,75 Main Street,,Garvagh,Londonderry,Bee Gees,Takeaway/sandwich shop,7844,5,,67258,5,,54.98035600000000,1500,810,eh@colerainebc.gov.uk,Coleraine,http://www.colerainebc.gov.uk/,-6.68809000000000,BT51 5AB,2014-06-27,fhrs_4_en-GB,4,,FHRS,10
405443,15 Isle Road,,Coleraine,,Bellisle Spa,Restaurant/Cafe/Canteen,1,5,,691931,5,,55.09433300000000,3082,810,eh@colerainebc.gov.uk,Coleraine,http://www.colerainebc.gov.uk/,-6.75893500000000,BT51 4JH,2014-08-12,fhrs_5_en-GB,5,,FHRS,0
405444,30-32 Main Street,,Garvagh,Londonderry,Bells Supermarket Ltd (garvagh),Retailers - supermarkets/hypermarkets,7840,10,,148001,0,,54.98453600000000,920,810,eh@colerainebc.gov.uk,Coleraine,http://www.colerainebc.gov.uk/,-6.68753200000000,BT51 5AD,2013-04-26,fhrs_4_en-GB,4,,FHRS,5
405445,43&45 Maghera Street,Kilrea,Coleraine,Londonderry,Bells Supermarket Ltd (kilrea),Retailers - supermarkets/hypermarkets,7840,5,,129090,10,,54.95138400000000,595,810,eh@colerainebc.gov.uk,Coleraine,http://www.colerainebc.gov.uk/,-6.55717300000000,BT51 5QL,2013-11-19,fhrs_4_en-GB,4,,FHRS,0
405446,42 The Promenade,,Portstewart,Londonderry,Ben And Jerrys,Restaurant/Cafe/Canteen,1,,,423587,,,55.18523200000000,2891,810,eh@colerainebc.gov.uk,Coleraine,http://www.colerainebc.gov.uk/,-6.71891800000000,BT55 7AE,2014-03-23,fhrs_1_en-GB,1,,FHRS,
405447,17 Lansdowne Crescent,,Portrush,Antrim,Bennet House,Hospitals/Childcare/Caring Premises,5,0,,95468,0,,55.20951300000000,2845,810,eh@colerainebc.gov.uk,Coleraine,http://www.colerainebc.gov.uk/,-6.65638500000000,BT56 8AY,2013-11-18,fhrs_5_en-GB,5,,FHRS,0
405448,25 Church Street,,Coleraine,Londonderry,Bentleys @ Dixons,Restaurant/Cafe/Canteen,1,5,,76297,10,,55.13194300000000,1797,810,eh@colerainebc.gov.uk,Coleraine,http://www.colerainebc.gov.uk/,-6.66940300000000,BT52 1AR,2014-08-15,fhrs_4_en-GB,4,,FHRS,5
405449,6 Sea Road,,Castlerock,Londonderry,Bertha's Bar,Retailers - other,4613,0,,145070,0,,55.16600400000000,850,810,eh@colerainebc.gov.uk,Coleraine,http://www.colerainebc.gov.uk/,-6.78611500000000,BT51 4RE,2012-05-23,fhrs_4_en-GB,4,,FHRS,10
405450,16 Causeway Street,,Portrush,Antrim,Beulah House Guesthouse,Hotel/bed & breakfast/guest house,7842,0,,58205,0,,55.20479200000000,1299,810,eh@colerainebc.gov.uk,Coleraine,http://www.colerainebc.gov.uk/,-6.65099900000000,BT56 8AB,2013-02-13,fhrs_5_en-GB,5,,FHRS,0
405451,19 New Row,,Coleraine,Londonderry,Big O Restaurant,Restaurant/Cafe/Canteen,1,10,,51626,10,,55.13051900000000,1158,810,eh@colerainebc.gov.uk,Coleraine,http://www.colerainebc.gov.uk/,-6.66973200000000,BT52 1AF,2014-07-29,fhrs_3_en-GB,3,,FHRS,5
405452,2 Captain Street Lower,,Coleraine,Londonderry,Bill And Bens,Restaurant/Cafe/Canteen,1,10,,668753,0,,55.13205000000000,3094,810,eh@colerainebc.gov.uk,Coleraine,http://www.colerainebc.gov.uk/,-6.67923000000000,BT51 3DT,2014-05-08,fhrs_4_en-GB,4,,FHRS,10
405453,4 Hillmans Fancy,,Coleraine,Londonderry,Black Tie Foods,Distributors/Transporters,7,10,,69554,5,,55.13139600000000,1566,810,eh@colerainebc.gov.uk,Coleraine,http://www.colerainebc.gov.uk/,-6.65963800000000,BT52 2DX,2014-06-12,fhrs_4_en-GB,4,,FHRS,5
405454,1 Plantation Road,,Garvagh,Londonderry,Blue Gate Lodge,Hospitals/Childcare/Caring Premises,5,5,,92287,0,,54.99052600000000,2596,810,eh@colerainebc.gov.uk,Coleraine,http://www.colerainebc.gov.uk/,-6.71339600000000,BT51 5ES,2014-06-17,fhrs_5_en-GB,5,,FHRS,5
405455,13 Main Street,,Portrush,Antrim,Bob & Berts,Restaurant/Cafe/Canteen,1,10,,92936,5,,55.20634800000000,2643,810,eh@colerainebc.gov.uk,Coleraine,http://www.colerainebc.gov.uk/,-6.65283200000000,BT56 8BL,2014-05-21,fhrs_3_en-GB,3,,FHRS,10
405456,60 The Promenade,,Portstewart,Londonderry,Bob & Berts,Restaurant/Cafe/Canteen,1,0,,595212,10,,55.18397800000000,2982,810,eh@colerainebc.gov.uk,Coleraine,http://www.colerainebc.gov.uk/,-6.71844000000000,BT55 7AF,2013-10-10,fhrs_4_en-GB,4,,FHRS,10
405457,15 Kingsgate Street,,Coleraine,Londonderry,Bob And Berts,Restaurant/Cafe/Canteen,1,10,,406869,15,,55.13178800000000,2883,810,eh@colerainebc.gov.uk,Coleraine,http://www.colerainebc.gov.uk/,-6.66748000000000,BT52 1LB,2015-01-05,fhrs_2_en-GB,2,,FHRS,10
405458,69 Cloyfin Road,,Coleraine,Londonderry,Bohill Care Home And Care Centre,Hospitals/Childcare/Caring Premises,5,5,,95474,0,,55.14903300000000,2846,810,eh@colerainebc.gov.uk,Coleraine,http://www.colerainebc.gov.uk/,-6.64122800000000,BT52 2NY,2014-12-17,fhrs_5_en-GB,5,,FHRS,5
405459,30-32 Kingsgate Street,,Coleraine,Londonderry,Bon Appetit,Restaurant/Cafe/Canteen,1,5,,534782,5,,55.13191200000000,2930,810,eh@colerainebc.gov.uk,Coleraine,http://www.colerainebc.gov.uk/,-6.66650300000000,BT52 1LE,2013-03-20,fhrs_5_en-GB,5,,FHRS,5
405460,67 The Promenade,,Portstewart,,Bon Appetit Cafe,Restaurant/Cafe/Canteen,1,5,,130146,5,,55.18397800000000,612,810,eh@colerainebc.gov.uk,Coleraine,http://www.colerainebc.gov.uk/,-6.71844000000000,BT55 7AF,2015-01-19,fhrs_4_en-GB,4,,FHRS,10
405461,26 Railway Road,,Coleraine,Londonderry,Boots Pharmacy,Retailers - other,4613,,,92228,,,55.13300900000000,2591,810,eh@colerainebc.gov.uk,Coleraine,http://www.colerainebc.gov.uk/,-6.66502400000000,BT52 1PE,2013-07-08,fhrs_exempt_en-GB,Exempt,,FHRS,
405462,26&28 Church Street,,Coleraine,,Boots The Chemist Ltd,Retailers - other,4613,,,51099,,,55.13194300000000,1142,810,eh@colerainebc.gov.uk,Coleraine,http://www.colerainebc.gov.uk/,-6.66940300000000,BT52 1AR,2013-11-08,fhrs_exempt_en-GB,Exempt,,FHRS,
405463,99 Coleraine Road,,Portrush,Antrim,Brae-mar B & B,Hotel/bed & breakfast/guest house,7842,10,,71388,0,,55.19300700000000,162,810,eh@colerainebc.gov.uk,Coleraine,http://www.colerainebc.gov.uk/,-6.65596700000000,BT56 8HN,2013-11-07,fhrs_4_en-GB,4,,FHRS,0
405464,,,,,Braemar Farm Mobile,Retailers - other,4613,,,410416,,,,2843,810,eh@colerainebc.gov.uk,Coleraine,http://www.colerainebc.gov.uk/,,,2012-10-17,fhrs_5_en-GB,5,,FHRS,
405465,,,,,Braemar Farm Mobile (j138 Ghs),Retailers - other,4613,10,,709129,5,,,3217,810,eh@colerainebc.gov.uk,Coleraine,http://www.colerainebc.gov.uk/,,,2014-08-18,fhrs_2_en-GB,2,,FHRS,15
405466,26 Castlerock Road,,Coleraine,Londonderry,Breezemount House,Hotel/bed & breakfast/guest house,7842,0,,53257,5,,55.01957800000000,120,810,eh@colerainebc.gov.uk,Coleraine,http://www.colerainebc.gov.uk/,-6.68847500000000,BT51 3HT,2013-03-28,fhrs_5_en-GB,5,,FHRS,5
405467,,,,,Brians Hot Food Wkz 4610,Mobile caterer,7846,5,,91368,5,,,2521,810,eh@colerainebc.gov.uk,Coleraine,http://www.colerainebc.gov.uk/,,,2013-05-14,fhrs_5_en-GB,5,,FHRS,0
405468,2 Lower Newmills Road,,Coleraine,Londonderry,Brookhill House,Hospitals/Childcare/Caring Premises,5,5,,126689,5,,55.13226100000000,558,810,eh@colerainebc.gov.uk,Coleraine,http://www.colerainebc.gov.uk/,-6.64932300000000,BT52 2JR,2014-09-11,fhrs_5_en-GB,5,,FHRS,0
405469,4 Lower Newmills Road,,Coleraine,Londonderry,Brookmount Nursing Home,Hospitals/Childcare/Caring Premises,5,5,,67620,5,,55.13226100000000,1510,810,eh@colerainebc.gov.uk,Coleraine,http://www.colerainebc.gov.uk/,-6.64932300000000,BT52 2JR,2014-10-31,fhrs_5_en-GB,5,,FHRS,5
405470,209 Agivey Road,Aghadowey,Coleraine,Londonderry,Brown Trout Golf And Country Inn,Restaurant/Cafe/Canteen,1,0,,122350,10,,55.03472800000000,509,810,eh@colerainebc.gov.uk,Coleraine,http://www.colerainebc.gov.uk/,-6.60219700000000,BT51 4AD,2014-01-14,fhrs_4_en-GB,4,,FHRS,10
405471,174 Ballybogy Road,,Ballybogy,Antrim,Browns Country House,Hotel/bed & breakfast/guest house,7842,0,,148032,0,,55.15461400000000,921,810,eh@colerainebc.gov.uk,Coleraine,http://www.colerainebc.gov.uk/,-6.57235700000000,BT52 2LP,2014-01-29,fhrs_5_en-GB,5,,FHRS,0
405472,7-11 Coleraine Road,,Portstewart,,Buds V G,Retailers - other,4613,10,,136140,0,,55.17908400000000,703,810,eh@colerainebc.gov.uk,Coleraine,http://www.colerainebc.gov.uk/,-6.71523800000000,BT55 7HP,2013-02-01,fhrs_2_en-GB,2,,FHRS,15
405473,81 The Promenade,,Portstewart,Londonderry,Burger Club,Restaurant/Cafe/Canteen,1,5,,55707,10,,55.18397800000000,1258,810,eh@colerainebc.gov.uk,Coleraine,http://www.colerainebc.gov.uk/,-6.71844000000000,BT55 7AF,2014-11-12,fhrs_4_en-GB,4,,FHRS,5
405474,8 Riverside Park North,,Coleraine,Londonderry,Burgerking,Restaurant/Cafe/Canteen,1,0,,78511,0,,55.12141200000000,187,810,eh@colerainebc.gov.uk,Coleraine,http://www.colerainebc.gov.uk/,-6.67160300000000,BT51 3GE,2013-05-01,fhrs_5_en-GB,5,,FHRS,0
405475,Bridge Street,,Coleraine,Londonderry,Burgerking,Restaurant/Cafe/Canteen,1,0,,149142,0,,55.13113100000000,952,810,eh@colerainebc.gov.uk,Coleraine,http://www.colerainebc.gov.uk/,-6.67314600000000,BT52 1DT,2013-09-04,fhrs_5_en-GB,5,,FHRS,0
405476,169 Bushmills Road,,Coleraine,Londonderry,Bush Filling Station,Retailers - supermarkets/hypermarkets,7840,5,,127517,0,,55.13770100000000,569,810,eh@colerainebc.gov.uk,Coleraine,http://www.colerainebc.gov.uk/,-6.66038300000000,BT52 2BS,2014-11-06,fhrs_5_en-GB,5,,FHRS,5
405477,50 Bushfoot Road,,Portballintrae,Antrim,Bushfoot Golf Club Ltd,Restaurant/Cafe/Canteen,1,,,70189,,,55.21580900000000,159,810,eh@colerainebc.gov.uk,Coleraine,http://www.colerainebc.gov.uk/,-6.53756400000000,BT57 8RR,,fhrs_awaitinginspection_en-GB,AwaitingInspection,,FHRS,
405478,283 Drumcroon Road,,Coleraine,Londonderry,Bushtown House Hotel,Hotel/bed & breakfast/guest house,7842,5,,58518,10,,55.10203400000000,1300,810,eh@colerainebc.gov.uk,Coleraine,http://www.colerainebc.gov.uk/,-6.69305100000000,BT51 3QT,2014-12-09,fhrs_3_en-GB,3,,FHRS,10
405479,,,,,Buttercup Lane,Other catering premises,7841,5,,699792,0,,,3121,810,eh@colerainebc.gov.uk,Coleraine,http://www.colerainebc.gov.uk/,,,2014-08-12,fhrs_5_en-GB,5,,FHRS,0
405480,Castlerock Road,,Coleraine,Londonderry,Cafe Loreto,School/college/university,7845,0,,151088,10,,55.13951300000000,999,810,eh@colerainebc.gov.uk,Coleraine,http://www.colerainebc.gov.uk/,-6.68981900000000,BT51 3JZ,2013-06-19,fhrs_4_en-GB,4,,FHRS,0
405481,11 Church Street,,Coleraine,Londonderry,Cafe M And The Gallery Restaurant,Restaurant/Cafe/Canteen,1,5,,88981,5,,55.13142900000000,236,810,eh@colerainebc.gov.uk,Coleraine,http://www.colerainebc.gov.uk/,-6.67004700000000,BT52 1AN,2013-11-15,fhrs_5_en-GB,5,,FHRS,5
405482,67b The Promenade,,Portstewart,Londonderry,Cafe Maud,Retailers - other,4613,0,,144526,0,,55.18397800000000,834,810,eh@colerainebc.gov.uk,Coleraine,http://www.colerainebc.gov.uk/,-6.71844000000000,BT55 7AF,2013-09-03,fhrs_5_en-GB,5,,FHRS,5
405483,19 Maghera Street,,Kilrea,Londonderry,Cafe Mena,Restaurant/Cafe/Canteen,1,5,,466196,5,,54.95138400000000,2948,810,eh@colerainebc.gov.uk,Coleraine,http://www.colerainebc.gov.uk/,-6.55717300000000,BT51 5QL,2014-08-14,fhrs_5_en-GB,5,,FHRS,0
405484,,,,,Cafe2u,Mobile caterer,7846,5,,709127,5,,,3072,810,eh@colerainebc.gov.uk,Coleraine,http://www.colerainebc.gov.uk/,,,2014-10-08,fhrs_5_en-GB,5,,FHRS,0
405485,16 Church Street,,Coleraine,Londonderry,Caffe Nero,Restaurant/Cafe/Canteen,1,5,,610495,0,,55.13184400000000,2997,810,eh@colerainebc.gov.uk,Coleraine,http://www.colerainebc.gov.uk/,-6.67015900000000,BT52 1AP,2013-11-05,fhrs_5_en-GB,5,,FHRS,5
405486,27 Curragh Road,Aghadowey,Coleraine,Londonderry,Camus House,Hotel/bed & breakfast/guest house,7842,0,,44659,0,,55.09998900000000,1083,810,eh@colerainebc.gov.uk,Coleraine,http://www.colerainebc.gov.uk/,-6.63523100000000,BT51 3RY,2012-11-12,fhrs_5_en-GB,5,,FHRS,0
405487,3b Railway Place,,Coleraine,Londonderry,Candy Arcade,Retailers - other,4613,,,92545,,,55.13382500000000,261,810,eh@colerainebc.gov.uk,Coleraine,http://www.colerainebc.gov.uk/,-6.66317800000000,BT52 1PQ,2013-07-08,fhrs_exempt_en-GB,Exempt,,FHRS,
405488,1c Railway Road,,Coleraine,Londonderry,Candy Corner,Retailers - other,4613,10,,88816,0,,55.13199400000000,2348,810,eh@colerainebc.gov.uk,Coleraine,http://www.colerainebc.gov.uk/,-6.66582600000000,BT52 1PD,2013-02-01,fhrs_4_en-GB,4,,FHRS,10
405489,39-41 Eglinton Street,,Portrush,Antrim,Cantley's Spar,Retailers - supermarkets/hypermarkets,7840,0,,49929,0,,55.20448300000000,111,810,eh@colerainebc.gov.uk,Coleraine,http://www.colerainebc.gov.uk/,-6.65236100000000,BT56 8DX,2014-12-16,fhrs_4_en-GB,4,,FHRS,10
405490,8 Captain Street Lower,,Coleraine,Londonderry,Captains Bar,Pub/bar/nightclub,7843,0,,118370,5,,55.13205000000000,477,810,eh@colerainebc.gov.uk,Coleraine,http://www.colerainebc.gov.uk/,-6.67923000000000,BT51 3DT,2012-09-10,fhrs_5_en-GB,5,,FHRS,0
405491,78 Carhill Road,,Garvagh,Londonderry,Carhill Primary School,School/college/university,7845,0,,52696,0,,54.94365000000000,1193,810,eh@colerainebc.gov.uk,Coleraine,http://www.colerainebc.gov.uk/,-6.68060900000000,BT51 5PQ,2013-06-12,fhrs_5_en-GB,5,,FHRS,5
405492,56 Carhill Road,,Garvagh,Londonderry,Carhill Vintage Tea Rooms,Restaurant/Cafe/Canteen,1,5,,719492,5,,54.96927600000000,3228,810,eh@colerainebc.gov.uk,Coleraine,http://www.colerainebc.gov.uk/,-6.68854500000000,BT51 5PF,2014-11-21,fhrs_5_en-GB,5,,FHRS,5
405493,41a Portstewart Road,,Coleraine,Londonderry,Carnadoon Bed And Breakfast,Hotel/bed & breakfast/guest house,7842,0,,145185,0,,55.14389100000000,854,810,eh@colerainebc.gov.uk,Coleraine,http://www.colerainebc.gov.uk/,-6.67187500000000,BT52 1RW,2012-11-07,fhrs_5_en-GB,5,,FHRS,0
405494,192 Coleraine Road,,Portstewart,Londonderry,Carnalbanagh House Guest House,Hotel/bed & breakfast/guest house,7842,5,,66555,5,,55.16537900000000,1496,810,eh@colerainebc.gov.uk,Coleraine,http://www.colerainebc.gov.uk/,-6.70612200000000,BT55 7PL,2013-03-20,fhrs_5_en-GB,5,,FHRS,5
405495,135 Atlantic Road,,Portrush,Londonderry,Carnalridge Primary School,School/college/university,7845,5,,56087,5,,55.18170700000000,1267,810,eh@colerainebc.gov.uk,Coleraine,http://www.colerainebc.gov.uk/,-6.65851400000000,BT56 8PB,2015-01-09,fhrs_5_en-GB,5,,FHRS,5
405496,120 Mussenden Road,,Castlerock,Londonderry,Carneety House,Hotel/bed & breakfast/guest house,7842,0,,61487,10,,55.15306300000000,1351,810,eh@colerainebc.gov.uk,Coleraine,http://www.colerainebc.gov.uk/,-6.78470400000000,BT51 4TX,2013-10-07,fhrs_4_en-GB,4,,FHRS,0
405497,,,,,Carton Ices (gnz 6407),Retailers - other,4613,5,,74289,0,,,1711,810,eh@colerainebc.gov.uk,Coleraine,http://www.colerainebc.gov.uk/,,,2013-04-18,fhrs_5_en-GB,5,,FHRS,5
405498,,,,,Carton Ices (knz 1628),Retailers - other,4613,5,,87729,0,,,2277,810,eh@colerainebc.gov.uk,Coleraine,http://www.colerainebc.gov.uk/,,,2012-09-18,fhrs_5_en-GB,5,,FHRS,5
405499,,,,,Carton's Ices (da55 Zdp),Retailers - other,4613,5,,133477,0,,,662,810,eh@colerainebc.gov.uk,Coleraine,http://www.colerainebc.gov.uk/,,,2013-04-18,fhrs_5_en-GB,5,,FHRS,0
405500,Castle Walk,Castlerock,Coleraine,Londonderry,Castlerock Community Playgroup,Hospitals/Childcare/Caring Premises,5,5,,90486,0,,55.16359500000000,2467,810,eh@colerainebc.gov.uk,Coleraine,http://www.colerainebc.gov.uk/,-6.78863600000000,BT51 4TP,2014-11-28,fhrs_5_en-GB,5,,FHRS,0
405501,65 Circular Road,,Castlerock,Londonderry,Castlerock Golf Club,Retailers - other,4613,0,,71996,0,,55.16563900000000,1638,810,eh@colerainebc.gov.uk,Coleraine,http://www.colerainebc.gov.uk/,-6.78557700000000,BT51 4TJ,2012-08-14,fhrs_5_en-GB,5,,FHRS,5
405502,120 Castleroe Road,,Coleraine,Londonderry,Castleroe Primary School,School/college/university,7845,5,,52608,0,,55.10737800000000,1190,810,eh@colerainebc.gov.uk,Coleraine,http://www.colerainebc.gov.uk/,-6.65746500000000,BT51 3RN,2014-01-16,fhrs_5_en-GB,5,,FHRS,0
405503,42 Priestland Road,,Bushmills,Antrim,Causeway B & B,Hotel/bed & breakfast/guest house,7842,0,,90066,0,,55.19592800000000,2438,810,eh@colerainebc.gov.uk,Coleraine,http://www.colerainebc.gov.uk/,-6.53449300000000,BT57 8XB,2012-05-10,fhrs_4_en-GB,4,,FHRS,10
405504,4 Newbridge Road,,Coleraine,Londonderry,Causeway Hospital,Hospitals/Childcare/Caring Premises,5,5,,50630,5,,55.12445900000000,1129,810,eh@colerainebc.gov.uk,Coleraine,http://www.colerainebc.gov.uk/,-6.65378800000000,BT52 1HS,2014-01-21,fhrs_5_en-GB,5,,FHRS,5
405505,113 Causeway Street,,Portrush,Antrim,Causeway Pre School,Hospitals/Childcare/Caring Premises,5,,,676567,,,55.20220000000000,3086,810,eh@colerainebc.gov.uk,Coleraine,http://www.colerainebc.gov.uk/,-6.64731700000000,BT56 8JE,2014-09-29,fhrs_5_en-GB,5,,FHRS,
405506,23 Abbey Street,,Coleraine,Londonderry,Causeway Women's Aid,Other catering premises,7841,5,,71170,5,,55.13049100000000,1612,810,eh@colerainebc.gov.uk,Coleraine,http://www.colerainebc.gov.uk/,-6.67211600000000,BT52 1DU,2012-09-12,fhrs_5_en-GB,5,,FHRS,0
405507,14 Shell Hill Square,,Coleraine,Londonderry,Centra Shell Hill Square,Retailers - supermarkets/hypermarkets,7840,0,,655732,5,,55.14890200000000,3065,810,eh@colerainebc.gov.uk,Coleraine,http://www.colerainebc.gov.uk/,-6.66678400000000,BT52 2RH,2014-04-10,fhrs_5_en-GB,5,,FHRS,5
405508,24c Northbrook Industrial Estate,Newmills Road,Coleraine,Londonderry,Cheeky Chimps Cafe,Restaurant/Cafe/Canteen,1,0,,70031,0,,55.12669800000000,1584,810,eh@colerainebc.gov.uk,Coleraine,http://www.colerainebc.gov.uk/,-6.64179800000000,BT52 2JB,2013-11-01,fhrs_5_en-GB,5,,FHRS,5
405509,15&17 Causeway Street,,Portrush,,Cheers Off Licence/springhill Bar,Retailers - other,4613,0,,145035,5,,55.20479200000000,849,810,eh@colerainebc.gov.uk,Coleraine,http://www.colerainebc.gov.uk/,-6.65099900000000,BT56 8AB,2014-08-27,fhrs_4_en-GB,4,,FHRS,10
405510,1 Dunluce Avenue,,Portrush,Antrim,Chequers,Takeaway/sandwich shop,7844,0,,115814,0,,55.20382300000000,450,810,eh@colerainebc.gov.uk,Coleraine,http://www.colerainebc.gov.uk/,-6.65195900000000,BT56 8DN,2013-07-01,fhrs_5_en-GB,5,,FHRS,5
405511,1 Sconce Road,,Articlave,Londonderry,Chequers Fast Food,Takeaway/sandwich shop,7844,5,,91177,0,,55.14529400000000,2507,810,eh@colerainebc.gov.uk,Coleraine,http://www.colerainebc.gov.uk/,-6.77140500000000,BT51 4UR,2013-08-28,fhrs_5_en-GB,5,,FHRS,5
405512,121 Coleraine Road,,Portrush,Antrim,Chequers Fast Food,Takeaway/sandwich shop,7844,5,,69408,5,,55.19300700000000,1560,810,eh@colerainebc.gov.uk,Coleraine,http://www.colerainebc.gov.uk/,-6.65596700000000,BT56 8HN,2014-07-16,fhrs_5_en-GB,5,,FHRS,5
405513,123 Millburn Road,,Coleraine,Londonderry,Chequers Fast Food,Takeaway/sandwich shop,7844,0,,94570,5,,55.13877200000000,2774,810,eh@colerainebc.gov.uk,Coleraine,http://www.colerainebc.gov.uk/,-6.66624300000000,BT52 1QY,2014-03-19,fhrs_5_en-GB,5,,FHRS,5
405514,Old Distillery Court,Long Commons,Coleraine,Londonderry,Chequers Fast Food,Takeaway/sandwich shop,7844,5,,79962,0,,55.12946400000000,193,810,eh@colerainebc.gov.uk,Coleraine,http://www.colerainebc.gov.uk/,-6.66779200000000,BT52 1LJ,2013-12-12,fhrs_5_en-GB,5,,FHRS,5
405515,Hillcrest Centre,121 Coleraine Road,Portrush,Antrim,Chequers Pizza.com,Takeaway/sandwich shop,7844,0,,409048,5,,55.19300700000000,2887,810,eh@colerainebc.gov.uk,Coleraine,http://www.colerainebc.gov.uk/,-6.65596700000000,BT56 8HN,2014-06-19,fhrs_5_en-GB,5,,FHRS,0
405516,18 Stone Row,,Coleraine,Londonderry,Chill Food Hall,Retailers - other,4613,5,,606851,0,,55.13098700000000,2998,810,eh@colerainebc.gov.uk,Coleraine,http://www.colerainebc.gov.uk/,-6.67070500000000,BT52 1EP,2014-11-13,fhrs_5_en-GB,5,,FHRS,5
405517,25 Mettican Road,,Garvagh,Londonderry,Choice Cuts Farm Shop,Retailers - other,4613,5,,714893,0,,55.00148100000000,3224,810,eh@colerainebc.gov.uk,Coleraine,http://www.colerainebc.gov.uk/,-6.69272900000000,BT51 5HS,2013-11-13,fhrs_5_en-GB,5,,FHRS,0
405518,6 Knocklynn Road,,Coleraine,Londonderry,Cinnamon,Restaurant/Cafe/Canteen,1,5,,68975,0,,55.11606100000000,1546,810,eh@colerainebc.gov.uk,Coleraine,http://www.colerainebc.gov.uk/,-6.63930700000000,BT52 1WT,2013-06-21,fhrs_5_en-GB,5,,FHRS,5
405519,37 Abercorn Court,,Portrush,Antrim,Clanmil Housing,Hospitals/Childcare/Caring Premises,5,0,,113569,5,,55.20071100000000,426,810,eh@colerainebc.gov.uk,Coleraine,http://www.colerainebc.gov.uk/,-6.64587600000000,BT56 8DT,2014-11-19,fhrs_5_en-GB,5,,FHRS,0
405520,16 Waterside Street,,Coleraine,Londonderry,Clear Pharmacy,Retailers - other,4613,,,150194,,,55.13190300000000,976,810,eh@colerainebc.gov.uk,Coleraine,http://www.colerainebc.gov.uk/,-6.67641300000000,BT51 3DP,2012-07-23,fhrs_exempt_en-GB,Exempt,,FHRS,
405521,5 Waterside Street,,Coleraine,Londonderry,Clear Pharmacy,Retailers - other,4613,,,132742,,,55.13190300000000,649,810,eh@colerainebc.gov.uk,Coleraine,http://www.colerainebc.gov.uk/,-6.67641300000000,BT51 3DP,2012-08-21,fhrs_exempt_en-GB,Exempt,,FHRS,
405522,40 Railway Road,,Coleraine,Londonderry,Clyde Tavern,Pub/bar/nightclub,7843,5,,92385,0,,55.13386200000000,260,810,eh@colerainebc.gov.uk,Coleraine,http://www.colerainebc.gov.uk/,-6.66413300000000,BT52 1PF,2013-11-18,fhrs_5_en-GB,5,,FHRS,0
405523,49 Causeway Street,,Portrush,Antrim,Coastview,Hotel/bed & breakfast/guest house,7842,10,,590536,0,,55.20384300000000,2950,810,eh@colerainebc.gov.uk,Coleraine,http://www.colerainebc.gov.uk/,-6.64968100000000,BT56 8AD,2013-09-20,fhrs_4_en-GB,4,,FHRS,0
405524,46 Glebe Road,,Castlerock,Londonderry,Coffee At Moorbrook,Restaurant/Cafe/Canteen,1,10,,691929,0,,55.14029500000000,3059,810,eh@colerainebc.gov.uk,Coleraine,http://www.colerainebc.gov.uk/,-6.80431800000000,BT51 4SW,2014-08-15,fhrs_4_en-GB,4,,FHRS,0
405525,23-33 Castlerock Road,,Coleraine,Londonderry,Coleraine Academical Institution Cafeteria,School/college/university,7845,5,,51329,5,,55.13662000000000,1149,810,eh@colerainebc.gov.uk,Coleraine,http://www.colerainebc.gov.uk/,-6.68561800000000,BT51 3LA,2014-05-09,fhrs_5_en-GB,5,,FHRS,0
405526,55 Lodge Road,,Coleraine,Londonderry,Coleraine Bowling Club,Pub/bar/nightclub,7843,10,,56365,5,,55.12923900000000,1274,810,eh@colerainebc.gov.uk,Coleraine,http://www.colerainebc.gov.uk/,-6.66358200000000,BT52 1NA,2012-05-31,fhrs_4_en-GB,4,,FHRS,5
405527,Carthall Road,,Coleraine,,Coleraine College,School/college/university,7845,0,,67412,0,,55.13395700000000,1504,810,eh@colerainebc.gov.uk,Coleraine,http://www.colerainebc.gov.uk/,-6.68272600000000,BT51 3LR,2013-06-12,fhrs_5_en-GB,5,,FHRS,5
405528,61 Ballycastle Road,,Coleraine,Londonderry,Coleraine Football Club Ltd,Pub/bar/nightclub,7843,5,,63884,5,,55.13405200000000,1411,810,eh@colerainebc.gov.uk,Coleraine,http://www.colerainebc.gov.uk/,-6.66099100000000,BT52 2DY,2012-02-24,fhrs_5_en-GB,5,,FHRS,5
405529,255 Dunhill Road,,Coleraine,Londonderry,Coleraine Garden Centre,Retailers - other,4613,,,109132,,,55.10699200000000,393,810,eh@colerainebc.gov.uk,Coleraine,http://www.colerainebc.gov.uk/,-6.69379800000000,BT51 3QJ,2014-08-29,fhrs_exempt_en-GB,Exempt,,FHRS,
405530,36 Lodge Road,,Coleraine,Londonderry,Coleraine High Junior Meals Kitchen,School/college/university,7845,0,,144876,0,,55.13042500000000,845,810,eh@colerainebc.gov.uk,Coleraine,http://www.colerainebc.gov.uk/,-6.66203800000000,BT52 1LZ,2013-05-14,fhrs_5_en-GB,5,,FHRS,5
405531,36 Lodge Road,,Coleraine,Londonderry,Coleraine High Senior Meals Kitchen,School/college/university,7845,0,,108870,0,,55.13042500000000,391,810,eh@colerainebc.gov.uk,Coleraine,http://www.colerainebc.gov.uk/,-6.66203800000000,BT52 1LZ,2013-05-13,fhrs_5_en-GB,5,,FHRS,5
405532,1 Rugby Avenue,,Coleraine,Londonderry,Coleraine Rugby Football And Cricket Club,Retailers - other,4613,5,,52633,5,,55.12098700000000,1191,810,eh@colerainebc.gov.uk,Coleraine,http://www.colerainebc.gov.uk/,-6.65823100000000,BT52 1JL,2014-09-08,fhrs_5_en-GB,5,,FHRS,5
405533,3a Union Street,,Coleraine,Londonderry,Coleraine Ulster Scots Resource Centre,Pub/bar/nightclub,7843,5,,95563,0,,55.13440000000000,2857,810,eh@colerainebc.gov.uk,Coleraine,http://www.colerainebc.gov.uk/,-6.66571500000000,BT52 1QB,2013-06-20,fhrs_5_en-GB,5,,FHRS,0
405534,Portstewart Road,,Coleraine,Londonderry,Coleraine Yacht Club,Pub/bar/nightclub,7843,10,,91969,5,,55.14027700000000,257,810,eh@colerainebc.gov.uk,Coleraine,http://www.colerainebc.gov.uk/,-6.62359700000000,BT52 1RS,2013-04-22,fhrs_4_en-GB,4,,FHRS,5
405535,81 Coolyvenny Road,,Coleraine,Londonderry,Coolmore House,Hotel/bed & breakfast/guest house,7842,0,,143420,5,,55.07889600000000,808,810,eh@colerainebc.gov.uk,Coleraine,http://www.colerainebc.gov.uk/,-6.66930100000000,BT51 3SF,2014-09-03,fhrs_5_en-GB,5,,FHRS,0
405536,32 Creamery Road,,Coleraine,Londonderry,Coronation Sports And Social Club,Pub/bar/nightclub,7843,10,,80976,0,,55.14621000000000,197,810,eh@colerainebc.gov.uk,Coleraine,http://www.colerainebc.gov.uk/,-6.60686500000000,BT52 2NE,2013-03-01,fhrs_4_en-GB,4,,FHRS,5
405537,7 Riverside Regional Centre,,Coleraine,Londonderry,Costa Coffee,Restaurant/Cafe/Canteen,1,10,,509994,10,,55.12019100000000,2965,810,eh@colerainebc.gov.uk,Coleraine,http://www.colerainebc.gov.uk/,-6.67408800000000,BT51 3QQ,2014-07-03,fhrs_3_en-GB,3,,FHRS,5
405538,1 Sconce Road,,Articlave,Londonderry,Costcutter,Retailers - other,4613,10,,41020,0,,55.14529400000000,1020,810,eh@colerainebc.gov.uk,Coleraine,http://www.colerainebc.gov.uk/,-6.77140500000000,BT51 4UR,2012-11-05,fhrs_4_en-GB,4,,FHRS,0
405539,4 Main Street,,Castlerock,Londonderry,Costcutter,Retailers - other,4613,5,,63847,5,,55.16628200000000,1410,810,eh@colerainebc.gov.uk,Coleraine,http://www.colerainebc.gov.uk/,-6.78970000000000,BT51 4RA,2015-02-02,fhrs_5_en-GB,5,,FHRS,5
405540,5 Crocknamack Street,,Portrush,Antrim,Costcutters,Retailers - other,4613,10,,62350,0,,55.19853700000000,1377,810,eh@colerainebc.gov.uk,Coleraine,http://www.colerainebc.gov.uk/,-6.64918500000000,BT56 8JX,2014-07-08,fhrs_4_en-GB,4,,FHRS,10
405541,9 Ringrash Road,Macosquin,Coleraine,Londonderry,Costcutters,Retailers - other,4613,0,,132985,0,,55.09882400000000,653,810,eh@colerainebc.gov.uk,Coleraine,http://www.colerainebc.gov.uk/,-6.71043500000000,BT51 4LH,2013-11-08,fhrs_5_en-GB,5,,FHRS,5
405542,,,,,Country Cooking,Mobile caterer,7846,5,,118459,5,,,478,810,eh@colerainebc.gov.uk,Coleraine,http://www.colerainebc.gov.uk/,,,2014-05-17,fhrs_5_en-GB,5,,FHRS,0
405543,26 The Promenade,,Portstewart,Londonderry,Craigmore House,Hotel/bed & breakfast/guest house,7842,5,,63800,0,,55.18523200000000,1409,810,eh@colerainebc.gov.uk,Coleraine,http://www.colerainebc.gov.uk/,-6.71891800000000,BT55 7AE,2013-02-20,fhrs_5_en-GB,5,,FHRS,5
405544,88 Ballyclogh Road,,Bushmills,Antrim,Creative Gardens,Restaurant/Cafe/Canteen,1,5,,70802,10,,55.19879200000000,160,810,eh@colerainebc.gov.uk,Coleraine,http://www.colerainebc.gov.uk/,-6.55086200000000,BT57 8XA,2014-06-13,fhrs_4_en-GB,4,,FHRS,5
405545,"Unit H, Diamond Centre Bridge Street",,Coleraine,Londonderry,Crocs Donuts And Coffee,Restaurant/Cafe/Canteen,1,0,,642703,0,,55.13113100000000,3055,810,eh@colerainebc.gov.uk,Coleraine,http://www.colerainebc.gov.uk/,-6.67314600000000,BT52 1DT,2014-02-19,fhrs_5_en-GB,5,,FHRS,0
405546,158 Station Road,,Portstewart,Londonderry,Cromore Halt,Restaurant/Cafe/Canteen,1,,,56208,,,55.18347700000000,127,810,eh@colerainebc.gov.uk,Coleraine,http://www.colerainebc.gov.uk/,-6.69913000000000,BT55 7PU,2014-12-04,fhrs_4_en-GB,4,,FHRS,
405547,127 Curragh Road,Aghadowey,Coleraine,Londonderry,Crowes Nest Community Playgroup,Hospitals/Childcare/Caring Premises,5,0,,70350,0,,55.05421800000000,1597,810,eh@colerainebc.gov.uk,Coleraine,http://www.colerainebc.gov.uk/,-6.60658800000000,BT51 4BT,2014-06-10,fhrs_5_en-GB,5,,FHRS,5
405548,1 Rhee Lane,Curragh Road,Coleraine,Londonderry,Crowfield House,Hotel/bed & breakfast/guest house,7842,5,,90013,0,,55.05520600000000,2433,810,eh@colerainebc.gov.uk,Coleraine,http://www.colerainebc.gov.uk/,-6.60422200000000,BT51 4BF,2012-05-11,fhrs_5_en-GB,5,,FHRS,0
405549,29 Sea Road,,Castlerock,Londonderry,Crusoe's Coffee Shop,Restaurant/Cafe/Canteen,1,10,,125937,10,,55.16424100000000,546,810,eh@colerainebc.gov.uk,Coleraine,http://www.colerainebc.gov.uk/,-6.78679600000000,BT51 4TN,2014-11-18,fhrs_3_en-GB,3,,FHRS,10
405550,Castlerock Road,,Coleraine,,Cuil Coffee,Restaurant/Cafe/Canteen,1,0,,69598,0,,55.13389200000000,1568,810,eh@colerainebc.gov.uk,Coleraine,http://www.colerainebc.gov.uk/,-6.68089400000000,BT51 3HP,2013-10-01,fhrs_5_en-GB,5,,FHRS,0
405551,129 Curragh Road,Aghadowey,Coleraine,Londonderry,Culcrow Primary School,School/college/university,7845,0,,53976,0,,55.05421800000000,1216,810,eh@colerainebc.gov.uk,Coleraine,http://www.colerainebc.gov.uk/,-6.60658800000000,BT51 4BT,2014-06-18,fhrs_5_en-GB,5,,FHRS,5
405552,9 Hillside,,Portstewart,Londonderry,Cul-erg Bed And Breakfast,Hotel/bed & breakfast/guest house,7842,0,,143316,0,,55.18811600000000,806,810,eh@colerainebc.gov.uk,Coleraine,http://www.colerainebc.gov.uk/,-6.71896600000000,BT55 7AZ,2013-10-07,fhrs_5_en-GB,5,,FHRS,0
405553,,,,,Cupboard Treats,Other catering premises,7841,0,,628514,5,,,2962,810,eh@colerainebc.gov.uk,Coleraine,http://www.colerainebc.gov.uk/,,,2013-12-10,fhrs_5_en-GB,5,,FHRS,0
405554,1 Sandel Village Centre,Knocklynn,Coleraine,Londonderry,Curleys Supermarkets,Retailers - other,4613,,,51285,,,55.11562300000000,1148,810,eh@colerainebc.gov.uk,Coleraine,http://www.colerainebc.gov.uk/,-6.63866300000000,BT52 1WW,2012-03-20,fhrs_exempt_en-GB,Exempt,,FHRS,
405555,112-114 Long Commons,,Coleraine,Londonderry,Curleys Wine Cellar,Retailers - other,4613,,,130530,,,55.12856500000000,618,810,eh@colerainebc.gov.uk,Coleraine,http://www.colerainebc.gov.uk/,-6.66852800000000,BT52 1LN,2012-03-02,fhrs_exempt_en-GB,Exempt,,FHRS,
405556,148 Ballycastle Road,,Coleraine,Londonderry,Cyclamen,Takeaway/sandwich shop,7844,0,,95358,0,,55.13406600000000,2834,810,eh@colerainebc.gov.uk,Coleraine,http://www.colerainebc.gov.uk/,-6.65658500000000,BT52 2DZ,2013-07-03,fhrs_5_en-GB,5,,FHRS,5
405557,45 Ballycairn Road,,Coleraine,Londonderry,D H Christie Fast Club,Hospitals/Childcare/Caring Premises,5,5,,730947,0,,55.13926800000000,3249,810,eh@colerainebc.gov.uk,Coleraine,http://www.colerainebc.gov.uk/,-6.68292700000000,BT51 3HX,2015-01-06,fhrs_4_en-GB,4,,FHRS,10
405558,45 Ballycairn Road,,Coleraine,Londonderry,D H Christie Primary School,School/college/university,7845,0,,65234,0,,55.13926800000000,1463,810,eh@colerainebc.gov.uk,Coleraine,http://www.colerainebc.gov.uk/,-6.68292700000000,BT51 3HX,2014-05-06,fhrs_5_en-GB,5,,FHRS,5
405559,18 Millburn Road,,Coleraine,Londonderry,D P P Staff Restaurant,Restaurant/Cafe/Canteen,1,0,,65203,0,,55.13999300000000,1462,810,eh@colerainebc.gov.uk,Coleraine,http://www.colerainebc.gov.uk/,-6.66863300000000,BT52 1QR,2014-11-04,fhrs_5_en-GB,5,,FHRS,5
405560,34 Damhead Road,,Coleraine,Londonderry,Damhead Primary School Meals Kitchen,School/college/university,7845,5,,128286,0,,55.10324000000000,582,810,eh@colerainebc.gov.uk,Coleraine,http://www.colerainebc.gov.uk/,-6.61683700000000,BT52 1UF,2014-05-09,fhrs_5_en-GB,5,,FHRS,0
405561,50 Old Coach Road,,Portstewart,Londonderry,Day Today,Retailers - supermarkets/hypermarkets,7840,10,,144830,0,,55.18657600000000,844,810,eh@colerainebc.gov.uk,Coleraine,http://www.colerainebc.gov.uk/,-6.71185600000000,BT55 7HB,2013-07-16,fhrs_4_en-GB,4,,FHRS,5
405562,,,,,Debbies Diner (sited At Newbridge Rd),Mobile caterer,7846,,,120841,,,,497,810,eh@colerainebc.gov.uk,Coleraine,http://www.colerainebc.gov.uk/,,,2014-01-07,fhrs_3_en-GB,3,,FHRS,
405563,45a Portstewart Road,,Portrush,Antrim,Dhu Varren House,Hospitals/Childcare/Caring Premises,5,5,,127738,0,,55.19704900000000,573,810,eh@colerainebc.gov.uk,Coleraine,http://www.colerainebc.gov.uk/,-6.65752700000000,BT56 8EQ,2013-02-27,fhrs_5_en-GB,5,,FHRS,5
405564,50 Glenkeen Road,Aghadowey,Coleraine,Londonderry,Diamond Garage,Retailers - other,4613,,,150141,,,55.03638100000000,974,810,eh@colerainebc.gov.uk,Coleraine,http://www.colerainebc.gov.uk/,-6.61080500000000,BT51 4BN,2012-06-07,fhrs_exempt_en-GB,Exempt,,FHRS,
405565,1 Abbey Street,,Coleraine,Londonderry,Diamond Pantry,Takeaway/sandwich shop,7844,10,,52545,5,,55.13102900000000,1188,810,eh@colerainebc.gov.uk,Coleraine,http://www.colerainebc.gov.uk/,-6.67208300000000,BT52 1DS,2014-10-06,fhrs_4_en-GB,4,,FHRS,0
405566,2a Castlerock Road,,Coleraine,Londonderry,Divine Wines,Retailers - other,4613,,,71357,,,55.13389200000000,1619,810,eh@colerainebc.gov.uk,Coleraine,http://www.colerainebc.gov.uk/,-6.68089400000000,BT51 3HP,2013-10-14,fhrs_exempt_en-GB,Exempt,,FHRS,
405567,"Unit 1, 173 Coleraine Road",,Portstewart,Londonderry,Divine Wines,Retailers - other,4613,,,89644,,,55.17125100000000,2403,810,eh@colerainebc.gov.uk,Coleraine,http://www.colerainebc.gov.uk/,-6.71010700000000,BT55 7HU,2015-01-20,fhrs_exempt_en-GB,Exempt,,FHRS,
405568,,,,,Dohertys Outside Catering Van 1 Grill,Mobile caterer,7846,5,,128974,5,,,593,810,eh@colerainebc.gov.uk,Coleraine,http://www.colerainebc.gov.uk/,,,2014-05-29,fhrs_5_en-GB,5,,FHRS,0
405569,,,,,Dohertys Outside Catering Van 2 Rt,Mobile caterer,7846,5,,89778,5,,,2414,810,eh@colerainebc.gov.uk,Coleraine,http://www.colerainebc.gov.uk/,,,2014-05-29,fhrs_5_en-GB,5,,FHRS,0
405570,,,,,Dohertys Outside Catering Van 3 Kitchen,Mobile caterer,7846,5,,90115,5,,,2440,810,eh@colerainebc.gov.uk,Coleraine,http://www.colerainebc.gov.uk/,,,2014-05-29,fhrs_5_en-GB,5,,FHRS,0
405571,,,,,Dohertys Outside Catering Van 4 Burrito,Mobile caterer,7846,5,,89802,5,,,2416,810,eh@colerainebc.gov.uk,Coleraine,http://www.colerainebc.gov.uk/,,,2014-05-29,fhrs_5_en-GB,5,,FHRS,0
405572,,,,,Dohertys Outside Catering Van 5 Nibs,Mobile caterer,7846,5,,446790,5,,,2937,810,eh@colerainebc.gov.uk,Coleraine,http://www.colerainebc.gov.uk/,,,2014-05-29,fhrs_5_en-GB,5,,FHRS,0
405573,2 Strand Road,East Crossreagh,Portstewart,Londonderry,Dominican Convent School Meals Kitchen,School/college/university,7845,0,,150171,0,,55.18192900000000,975,810,eh@colerainebc.gov.uk,Coleraine,http://www.colerainebc.gov.uk/,-6.72090700000000,BT55 7PF,2013-11-12,fhrs_5_en-GB,5,,FHRS,0
405574,3 Dunmore Street,,Coleraine,Londonderry,Domino's Pizza,Takeaway/sandwich shop,7844,0,,40330,0,,55.12959400000000,1011,810,eh@colerainebc.gov.uk,Coleraine,http://www.colerainebc.gov.uk/,-6.67062500000000,BT52 1EL,2013-04-10,fhrs_5_en-GB,5,,FHRS,5
405575,51 The Promenade,,Portstewart,Londonderry,Donuttree,Takeaway/sandwich shop,7844,0,,198237,0,,55.18523200000000,2858,810,eh@colerainebc.gov.uk,Coleraine,http://www.colerainebc.gov.uk/,-6.71891800000000,BT55 7AE,2013-09-26,fhrs_5_en-GB,5,,FHRS,5
405576,6 The Diamond,,Portstewart,Londonderry,Dream House,Takeaway/sandwich shop,7844,5,,93863,10,,55.18230600000000,2708,810,eh@colerainebc.gov.uk,Coleraine,http://www.colerainebc.gov.uk/,-6.71830500000000,BT55 7AA,2014-03-05,fhrs_3_en-GB,3,,FHRS,10
405577,3 Riverside Regional Centre,,Coleraine,Londonderry,Dunelm Mill Cafe Pausa,Restaurant/Cafe/Canteen,1,0,,95541,0,,55.12019100000000,2853,810,eh@colerainebc.gov.uk,Coleraine,http://www.colerainebc.gov.uk/,-6.67408800000000,BT51 3QQ,2013-09-24,fhrs_5_en-GB,5,,FHRS,0
405578,1-5 Bannside Wharf,,Coleraine,Londonderry,Dunnes Stores Coleraine,Restaurant/Cafe/Canteen,1,0,,43557,0,,55.13303800000000,106,810,eh@colerainebc.gov.uk,Coleraine,http://www.colerainebc.gov.uk/,-6.67259600000000,BT52 1BW,2014-06-13,fhrs_5_en-GB,5,,FHRS,5
405579,Unit 19 Loughanhill Industrial Estate,,Coleraine,Londonderry,Eat,Takeaway/sandwich shop,7844,10,,606740,0,,55.14778700000000,3033,810,eh@colerainebc.gov.uk,Coleraine,http://www.colerainebc.gov.uk/,-6.65118300000000,BT52 2NR,2013-10-18,fhrs_4_en-GB,4,,FHRS,0
405580,41 Castlerock Road,,Coleraine,Londonderry,Edenmore Residential Home,Hospitals/Childcare/Caring Premises,5,0,,51729,0,,55.13766700000000,1161,810,eh@colerainebc.gov.uk,Coleraine,http://www.colerainebc.gov.uk/,-6.68694700000000,BT51 3HR,2013-03-26,fhrs_5_en-GB,5,,FHRS,0
405581,3 Church Street,,Coleraine,Londonderry,Edinburgh Woollen Mill,Retailers - other,4613,,,143111,,,55.13142900000000,803,810,eh@colerainebc.gov.uk,Coleraine,http://www.colerainebc.gov.uk/,-6.67004700000000,BT52 1AN,2013-01-16,fhrs_exempt_en-GB,Exempt,,FHRS,
405582,49 Eglinton Street,,Portrush,Antrim,Eglinton Hotel,Hotel/bed & breakfast/guest house,7842,10,,55796,5,,55.20277300000000,126,810,eh@colerainebc.gov.uk,Coleraine,http://www.colerainebc.gov.uk/,-6.65281100000000,BT56 8DZ,2014-07-03,fhrs_3_en-GB,3,,FHRS,10
405583,47 New Row,,Coleraine,Londonderry,Ellies Sandwich Bar,Restaurant/Cafe/Canteen,1,0,,129986,0,,55.12991400000000,610,810,eh@colerainebc.gov.uk,Coleraine,http://www.colerainebc.gov.uk/,-6.67027000000000,BT52 1AE,2014-06-06,fhrs_5_en-GB,5,,FHRS,0
405584,9-13 Causeway Street,,Portrush,Antrim,Espresso Bistro,Restaurant/Cafe/Canteen,1,10,,699789,5,,55.20479200000000,3058,810,eh@colerainebc.gov.uk,Coleraine,http://www.colerainebc.gov.uk/,-6.65099900000000,BT56 8AB,2014-08-08,fhrs_3_en-GB,3,,FHRS,10
405585,121 Coleraine Road,,Portrush,Antrim,Eurospar Hillcrest,Retailers - supermarkets/hypermarkets,7840,5,,146341,5,,55.19300700000000,89,810,eh@colerainebc.gov.uk,Coleraine,http://www.colerainebc.gov.uk/,-6.65596700000000,BT56 8HN,2014-09-30,fhrs_4_en-GB,4,,FHRS,10
405586,36 Long Commons,,Coleraine,Londonderry,Exodus Trust,Restaurant/Cafe/Canteen,1,10,,54771,0,,55.13084300000000,1235,810,eh@colerainebc.gov.uk,Coleraine,http://www.colerainebc.gov.uk/,-6.66732300000000,BT52 1LH,2014-01-29,fhrs_4_en-GB,4,,FHRS,5
405587,168-170 Mussenden Road,,Articlave,Londonderry,Exorna Filling Station,Retailers - other,4613,5,,136636,0,,55.15306300000000,71,810,eh@colerainebc.gov.uk,Coleraine,http://www.colerainebc.gov.uk/,-6.78470400000000,BT51 4TX,2013-02-25,fhrs_5_en-GB,5,,FHRS,5
405588,15 Waterside Street,,Coleraine,Londonderry,Fab Kebab,Takeaway/sandwich shop,7844,10,,121890,10,,55.13190300000000,505,810,eh@colerainebc.gov.uk,Coleraine,http://www.colerainebc.gov.uk/,-6.67641300000000,BT51 3DP,2013-07-18,fhrs_3_en-GB,3,,FHRS,10
405589,53 Grove Road,,Garvagh,Londonderry,Fair View B & B,Hotel/bed & breakfast/guest house,7842,5,,91307,5,,54.94742500000000,2516,810,eh@colerainebc.gov.uk,Coleraine,http://www.colerainebc.gov.uk/,-6.65215900000000,BT51 5NY,2012-07-25,fhrs_5_en-GB,5,,FHRS,0
405590,62 Railway Road,,Coleraine,,Fairleys,Retailers - other,4613,0,,121251,0,,55.13386200000000,5,810,eh@colerainebc.gov.uk,Coleraine,http://www.colerainebc.gov.uk/,-6.66413300000000,BT52 1PF,2014-01-13,fhrs_4_en-GB,4,,FHRS,10
405591,8 Brook Street,,Coleraine,Londonderry,Fairleys House Of Wines,Retailers - other,4613,,,61560,,,55.13215200000000,1353,810,eh@colerainebc.gov.uk,Coleraine,http://www.colerainebc.gov.uk/,-6.66709100000000,BT52 1PW,2013-06-03,fhrs_exempt_en-GB,Exempt,,FHRS,
405592,10 Mark Street,,Portrush,Antrim,Fairways Residential Homes / Duncreggan,Hospitals/Childcare/Caring Premises,5,0,,89271,0,,55.20591600000000,238,810,eh@colerainebc.gov.uk,Coleraine,http://www.colerainebc.gov.uk/,-6.65360000000000,BT56 8BT,2014-11-20,fhrs_5_en-GB,5,,FHRS,5
405593,4a Brook Street,,Coleraine,,Farlows Fruit And Scoop Markets,Retailers - other,4613,10,,134171,5,,55.13382500000000,674,810,eh@colerainebc.gov.uk,Coleraine,http://www.colerainebc.gov.uk/,-6.66317800000000,BT52 1PQ,2013-03-15,fhrs_3_en-GB,3,,FHRS,10
405594,20 Maghera Street,,Kilrea,Londonderry,Farmers Rest,Retailers - other,4613,5,,143818,0,,54.95111200000000,815,810,eh@colerainebc.gov.uk,Coleraine,http://www.colerainebc.gov.uk/,-6.55701100000000,BT51 5QN,2012-02-27,fhrs_5_en-GB,5,,FHRS,5
405595,185 Coleraine Road,,Portstewart,Londonderry,Flowerfield Arts Centre (598),Restaurant/Cafe/Canteen,1,,,89319,,,55.17125100000000,2383,810,eh@colerainebc.gov.uk,Coleraine,http://www.colerainebc.gov.uk/,-6.71010700000000,BT55 7HU,2013-04-25,fhrs_exempt_en-GB,Exempt,,FHRS,
405596,10-10a Dunluce Street,,Portrush,Antrim,Flutters,Retailers - other,4613,,,132573,,,55.20302300000000,646,810,eh@colerainebc.gov.uk,Coleraine,http://www.colerainebc.gov.uk/,-6.65189200000000,BT56 8DW,2014-05-28,fhrs_exempt_en-GB,Exempt,,FHRS,
405597,11-17 Glenburn Crescent,,Coleraine,Londonderry,Focus On Family - Kid's Club,Hospitals/Childcare/Caring Premises,5,5,,143871,0,,55.14532500000000,816,810,eh@colerainebc.gov.uk,Coleraine,http://www.colerainebc.gov.uk/,-6.65848100000000,BT52 2QR,2014-01-23,fhrs_5_en-GB,5,,FHRS,5
405598,15 Church Street,,Coleraine,Londonderry,Forum Restaurant,Restaurant/Cafe/Canteen,1,10,,147093,10,,55.13148700000000,91,810,eh@colerainebc.gov.uk,Coleraine,http://www.colerainebc.gov.uk/,-6.66871200000000,BT52 1AW,2013-10-28,fhrs_4_en-GB,4,,FHRS,0
405599,6 Riverside Regional Centre,,Coleraine,Londonderry,Frankie & Bennys,Restaurant/Cafe/Canteen,1,5,,493096,10,,,2964,810,eh@colerainebc.gov.uk,Coleraine,http://www.colerainebc.gov.uk/,,BT51 3QA,2014-08-29,fhrs_4_en-GB,4,,FHRS,5
405600,8&10 Coleraine Street,Kilrea,Coleraine,Londonderry,Fry-r-tuck,Takeaway/sandwich shop,7844,10,,36792,5,,54.95217000000000,100,810,eh@colerainebc.gov.uk,Coleraine,http://www.colerainebc.gov.uk/,-6.55605300000000,BT51 5QD,2013-11-25,fhrs_4_en-GB,4,,FHRS,0
405601,51 Railway Road,,Coleraine,Londonderry,Fung Loi,Takeaway/sandwich shop,7844,5,,89418,5,,55.13386200000000,239,810,eh@colerainebc.gov.uk,Coleraine,http://www.colerainebc.gov.uk/,-6.66413300000000,BT52 1PF,2015-01-08,fhrs_5_en-GB,5,,FHRS,5
405602,49 Bushmills Road,,Coleraine,Londonderry,Fusion,Takeaway/sandwich shop,7844,,,470769,,,55.13589800000000,2932,810,eh@colerainebc.gov.uk,Coleraine,http://www.colerainebc.gov.uk/,-6.66223100000000,BT52 2BP,2014-07-10,fhrs_5_en-GB,5,,FHRS,
405603,41 Cloyfin Road,,Coleraine,Londonderry,Galbraith Bros,Retailers - other,4613,5,,621518,0,,55.14903300000000,3022,810,eh@colerainebc.gov.uk,Coleraine,http://www.colerainebc.gov.uk/,-6.64122800000000,BT52 2NY,2013-12-03,fhrs_5_en-GB,5,,FHRS,5
405604,17 Bushmills Road,,Coleraine,Londonderry,Gareths Take Away,Takeaway/sandwich shop,7844,,,52290,,,55.13518200000000,118,810,eh@colerainebc.gov.uk,Coleraine,http://www.colerainebc.gov.uk/,-6.66249000000000,BT52 2BN,2014-01-13,fhrs_5_en-GB,5,,FHRS,
405605,Castlerock Road,,Coleraine,Londonderry,Gareths Takeaway,Takeaway/sandwich shop,7844,5,,69497,0,,55.13389200000000,1563,810,eh@colerainebc.gov.uk,Coleraine,http://www.colerainebc.gov.uk/,-6.68089400000000,BT51 3HP,2014-06-16,fhrs_5_en-GB,5,,FHRS,5
405606,"Unit 2, 171 Coleraine Road",,Portstewart,Londonderry,Gareths Takeaway,Takeaway/sandwich shop,7844,5,,90052,0,,55.17125100000000,2437,810,eh@colerainebc.gov.uk,Coleraine,http://www.colerainebc.gov.uk/,-6.71010700000000,BT55 7HU,2013-05-09,fhrs_5_en-GB,5,,FHRS,0
405607,3 Bushmills Road,,Coleraine,Londonderry,Garry's Butchers,Retailers - other,4613,0,,84353,0,,55.13518200000000,2098,810,eh@colerainebc.gov.uk,Coleraine,http://www.colerainebc.gov.uk/,-6.66249000000000,BT52 2BN,2014-03-26,fhrs_5_en-GB,5,,FHRS,5
405608,15 Kilrea Road,Garvagh,Coleraine,Londonderry,Garvagh Care Home,Hospitals/Childcare/Caring Premises,5,5,,51916,0,,54.98226000000000,1167,810,eh@colerainebc.gov.uk,Coleraine,http://www.colerainebc.gov.uk/,-6.68302900000000,BT51 5LP,2014-09-22,fhrs_5_en-GB,5,,FHRS,5
405609,1 Coleraine Road,,Garvagh,Londonderry,Garvagh Pre-school Playgroup,Hospitals/Childcare/Caring Premises,5,0,,72119,0,,54.98746200000000,1641,810,eh@colerainebc.gov.uk,Coleraine,http://www.colerainebc.gov.uk/,-6.68556100000000,BT51 5HP,2014-06-20,fhrs_5_en-GB,5,,FHRS,0
405610,1 Coleraine Road,,Garvagh,Londonderry,Garvagh Primary School Meals Kitchen,School/college/university,7845,0,,56044,0,,54.98746200000000,1266,810,eh@colerainebc.gov.uk,Coleraine,http://www.colerainebc.gov.uk/,-6.68556100000000,BT51 5HP,2013-05-21,fhrs_5_en-GB,5,,FHRS,0
405611,95a Main Street,Garvagh,Coleraine,Londonderry,Garvagh Sports And Social Club,Retailers - other,4613,0,,84671,0,,54.98035600000000,2101,810,eh@colerainebc.gov.uk,Coleraine,http://www.colerainebc.gov.uk/,-6.68809000000000,BT51 5AB,2014-08-12,fhrs_5_en-GB,5,,FHRS,0
405612,123 Millburn Road,,Coleraine,Londonderry,Gaze,Takeaway/sandwich shop,7844,,,687001,,,55.13877200000000,3079,810,eh@colerainebc.gov.uk,Coleraine,http://www.colerainebc.gov.uk/,-6.66624300000000,BT52 1QY,2014-10-01,fhrs_2_en-GB,2,,FHRS,
405613,,,,,Georgina's Cakes,Other catering premises,7841,0,,42585,0,,,1050,810,eh@colerainebc.gov.uk,Coleraine,http://www.colerainebc.gov.uk/,,,2013-01-29,fhrs_5_en-GB,5,,FHRS,5
405614,140 Dunluce Road,,Portrush,Antrim,Gerrys Burger Bar,Takeaway/sandwich shop,7844,5,,70089,10,,55.19996600000000,1586,810,eh@colerainebc.gov.uk,Coleraine,http://www.colerainebc.gov.uk/,-6.61711300000000,BT56 8NB,2013-03-13,fhrs_4_en-GB,4,,FHRS,0
405615,27 Dunderg Road,Macosquin,Coleraine,Londonderry,Glebe House,Retailers - other,4613,5,,144386,0,,55.10148200000000,83,810,eh@colerainebc.gov.uk,Coleraine,http://www.colerainebc.gov.uk/,-6.70447500000000,BT51 4NE,2013-02-06,fhrs_5_en-GB,5,,FHRS,0
405616,12 Glenleary Road,,Coleraine,Londonderry,Glenleary Farm House,Hotel/bed & breakfast/guest house,7842,5,,89116,5,,55.09138800000000,237,810,eh@colerainebc.gov.uk,Coleraine,http://www.colerainebc.gov.uk/,-6.66971700000000,BT51 3QY,2014-01-13,fhrs_5_en-GB,5,,FHRS,0
405617,113 Eglinton Street,,Portrush,Antrim,Glenshane Bed And Breakfast,Hotel/bed & breakfast/guest house,7842,0,,52199,10,,55.20277300000000,1176,810,eh@colerainebc.gov.uk,Coleraine,http://www.colerainebc.gov.uk/,-6.65281100000000,BT56 8DZ,2013-07-16,fhrs_4_en-GB,4,,FHRS,0
405618,5 Curraghmore Road,Garvagh,Coleraine,Londonderry,Glenullin Gac Club,Pub/bar/nightclub,7843,5,,67513,5,,54.95441200000000,1507,810,eh@colerainebc.gov.uk,Coleraine,http://www.colerainebc.gov.uk/,-6.73551400000000,BT51 5DS,2013-02-04,fhrs_4_en-GB,4,,FHRS,10
405619,24 Beresford Court,,Coleraine,Londonderry,Golden Dragon Chinese Restaurant,Restaurant/Cafe/Canteen,1,5,,132228,0,,55.12856500000000,640,810,eh@colerainebc.gov.uk,Coleraine,http://www.colerainebc.gov.uk/,-6.66852800000000,BT52 1SU,2014-11-11,fhrs_5_en-GB,5,,FHRS,5
405620,4 The Diamond,,Coleraine,Londonderry,Gordons Chemist,Retailers - other,4613,,,137103,,,55.13092600000000,718,810,eh@colerainebc.gov.uk,Coleraine,http://www.colerainebc.gov.uk/,-6.67166300000000,BT52 1DE,2014-09-09,fhrs_exempt_en-GB,Exempt,,FHRS,
405621,6 New Row,,Coleraine,Londonderry,Gordons Chemist,Retailers - other,4613,,,64503,,,55.13051900000000,1435,810,eh@colerainebc.gov.uk,Coleraine,http://www.colerainebc.gov.uk/,-6.66973200000000,BT52 1AF,2012-06-13,fhrs_exempt_en-GB,Exempt,,FHRS,
405622,5-9 Main Street,,Portrush,Antrim,Gordons Chemists,Retailers - other,4613,,,51419,,,55.20634800000000,1152,810,eh@colerainebc.gov.uk,Coleraine,http://www.colerainebc.gov.uk/,-6.65283200000000,BT56 8BL,2012-05-10,fhrs_exempt_en-GB,Exempt,,FHRS,
405623,2 Gorran Road,,Garvagh,Londonderry,Gorran Primary School Meals Kitchen,School/college/university,7845,0,,108183,0,,55.02671000000000,385,810,eh@colerainebc.gov.uk,Coleraine,http://www.colerainebc.gov.uk/,-6.68225900000000,BT51 4HA,2014-11-07,fhrs_5_en-GB,5,,FHRS,5
405624,52 Ballyagan Road,,Garvagh,Londonderry,Gortin Glen,Hotel/bed & breakfast/guest house,7842,0,,64581,5,,55.00758900000000,1438,810,eh@colerainebc.gov.uk,Coleraine,http://www.colerainebc.gov.uk/,-6.63943500000000,BT51 4EJ,2013-11-06,fhrs_5_en-GB,5,,FHRS,0
405625,50 Dunluce Road,,Bushmills,Antrim,Gort-na-capple B And B,Hotel/bed & breakfast/guest house,7842,0,,74543,0,,55.20822900000000,1721,810,eh@colerainebc.gov.uk,Coleraine,http://www.colerainebc.gov.uk/,-6.54445600000000,BT57 8SH,2012-05-18,fhrs_5_en-GB,5,,FHRS,0
405626,3-5 Greenmount Avenue,,Coleraine,Londonderry,Greenmount Spar,Retailers - supermarkets/hypermarkets,7840,10,,147301,10,,55.11715500000000,915,810,eh@colerainebc.gov.uk,Coleraine,http://www.colerainebc.gov.uk/,-6.68495600000000,BT51 3QB,2013-09-02,fhrs_3_en-GB,3,,FHRS,5
405627,1 Strand Road,,Portstewart,Londonderry,Griddle Bakery,Manufacturers/packers,7839,5,,55103,5,,55.18121400000000,1243,810,eh@colerainebc.gov.uk,Coleraine,http://www.colerainebc.gov.uk/,-6.71958000000000,BT55 7LS,2014-01-09,fhrs_5_en-GB,5,,FHRS,5
405628,25 Kingsgate Street,,Coleraine,Londonderry,Ground,Restaurant/Cafe/Canteen,1,5,,42731,10,,55.13165100000000,1053,810,eh@colerainebc.gov.uk,Coleraine,http://www.colerainebc.gov.uk/,-6.66652800000000,BT52 1LD,2013-09-24,fhrs_3_en-GB,3,,FHRS,10
405629,52 - 56 Main Street,,Portrush,Antrim,Ground Espresso Bar,Restaurant/Cafe/Canteen,1,5,,76198,0,,55.20634800000000,1793,810,eh@colerainebc.gov.uk,Coleraine,http://www.colerainebc.gov.uk/,-6.65283200000000,BT56 8BL,2014-02-06,fhrs_4_en-GB,4,,FHRS,10
405630,Railway Place,,Coleraine,Londonderry,Ground Espresso Bar,Restaurant/Cafe/Canteen,1,5,,559572,5,,55.13382500000000,2986,810,eh@colerainebc.gov.uk,Coleraine,http://www.colerainebc.gov.uk/,-6.66317800000000,BT52 1PQ,2013-06-19,fhrs_5_en-GB,5,,FHRS,5
405631,5 Bushmills Road,,Coleraine,Londonderry,H G Henderson Chemist,Retailers - other,4613,,,61846,,,55.13518200000000,1362,810,eh@colerainebc.gov.uk,Coleraine,http://www.colerainebc.gov.uk/,-6.66249000000000,BT52 2BN,2011-11-07,fhrs_exempt_en-GB,Exempt,,FHRS,
405632,60 Railway Road,,Coleraine,Londonderry,Happy Haddock,Takeaway/sandwich shop,7844,20,,682836,15,,55.13386200000000,3106,810,eh@colerainebc.gov.uk,Coleraine,http://www.colerainebc.gov.uk/,-6.66413300000000,BT52 1PF,2014-07-16,fhrs_1_en-GB,1,,FHRS,15
405633,29 Killowen Street,,Coleraine,Londonderry,Happy House,Takeaway/sandwich shop,7844,20,,131579,10,,55.13123900000000,631,810,eh@colerainebc.gov.uk,Coleraine,http://www.colerainebc.gov.uk/,-6.67736000000000,BT51 3DB,2014-08-12,fhrs_1_en-GB,1,,FHRS,10
405634,1 Cuilrath Street,,Coleraine,Londonderry,Happy Kids Out Of School Club (127),Other catering premises,7841,,,90898,,,55.13609200000000,2499,810,eh@colerainebc.gov.uk,Coleraine,http://www.colerainebc.gov.uk/,-6.65211000000000,BT52 2ER,2013-04-30,fhrs_exempt_en-GB,Exempt,,FHRS,
405635,5-6 Harbour Road,,Portrush,Antrim,Harbour Bistro,Pub/bar/nightclub,7843,0,,147417,0,,55.20727500000000,919,810,eh@colerainebc.gov.uk,Coleraine,http://www.colerainebc.gov.uk/,-6.65869100000000,BT56 8DF,2014-04-02,fhrs_4_en-GB,4,,FHRS,10
405636,31&32 The Promenade,,Portstewart,Londonderry,Harbour Chippie,Takeaway/sandwich shop,7844,10,,45121,15,,55.18523200000000,1095,810,eh@colerainebc.gov.uk,Coleraine,http://www.colerainebc.gov.uk/,-6.71891800000000,BT55 7AE,2014-06-04,fhrs_2_en-GB,2,,FHRS,10
405637,17 Kerr Street,,Portrush,Antrim,Harbour Heights,Hotel/bed & breakfast/guest house,7842,0,,53747,0,,55.20576500000000,121,810,eh@colerainebc.gov.uk,Coleraine,http://www.colerainebc.gov.uk/,-6.65450100000000,BT56 8DG,2013-10-15,fhrs_5_en-GB,5,,FHRS,0
405638,1-3 Circular Road,,Coleraine,Londonderry,Harbour Take Away,Takeaway/sandwich shop,7844,5,,691930,0,,55.13343000000000,3067,810,eh@colerainebc.gov.uk,Coleraine,http://www.colerainebc.gov.uk/,-6.66977700000000,BT52 1PS,2014-08-04,fhrs_4_en-GB,4,,FHRS,10
405639,Ballycastle Road,,Coleraine,Londonderry,Harpurs Hill Centre,Other catering premises,7841,10,,76051,0,,55.13406600000000,1788,810,eh@colerainebc.gov.uk,Coleraine,http://www.colerainebc.gov.uk/,-6.65658500000000,BT52 2DZ,2013-11-22,fhrs_4_en-GB,4,,FHRS,0
405640,1a Cuilrath Street,,Coleraine,Londonderry,Harpurs Hill Children And Family Centre,Hospitals/Childcare/Caring Premises,5,0,,64412,0,,55.13609200000000,1431,810,eh@colerainebc.gov.uk,Coleraine,http://www.colerainebc.gov.uk/,-6.65211000000000,BT52 2ER,2014-12-08,fhrs_5_en-GB,5,,FHRS,5
405641,156 Ballycastle Road,,Coleraine,Londonderry,Harpurs Hill Newsagent,Retailers - other,4613,,,52335,,,55.13425700000000,1181,810,eh@colerainebc.gov.uk,Coleraine,http://www.colerainebc.gov.uk/,-6.65267400000000,BT52 2EH,2015-01-12,fhrs_exempt_en-GB,Exempt,,FHRS,
405642,1 Cuilrath Street,,Coleraine,Londonderry,Harpurs Hill Ps And Nursery Unit,School/college/university,7845,0,,72077,0,,55.13609200000000,164,810,eh@colerainebc.gov.uk,Coleraine,http://www.colerainebc.gov.uk/,-6.65211000000000,BT52 2ER,2014-12-03,fhrs_5_en-GB,5,,FHRS,5
405643,118 Strand Road,East Crossreagh,Portstewart,Londonderry,Harrys Shack,Restaurant/Cafe/Canteen,1,10,,714890,0,,55.17214300000000,3183,810,eh@colerainebc.gov.uk,Coleraine,http://www.colerainebc.gov.uk/,-6.72486200000000,BT55 7PG,2014-10-17,fhrs_4_en-GB,4,,FHRS,5
405644,,,,,Haute Caketure,Other catering premises,7841,10,,456358,5,,,2944,810,eh@colerainebc.gov.uk,Coleraine,http://www.colerainebc.gov.uk/,,,2012-09-25,fhrs_4_en-GB,4,,FHRS,0
405645,31 Drumcroon Road,,Garvagh,Londonderry,Heathfield,Hotel/bed & breakfast/guest house,7842,0,,107279,0,,55.00963200000000,378,810,eh@colerainebc.gov.uk,Coleraine,http://www.colerainebc.gov.uk/,-6.67558300000000,BT51 4EB,2013-05-16,fhrs_5_en-GB,5,,FHRS,0
405646,,,,,Helen's House,Other catering premises,7841,0,,727819,0,,,3227,810,eh@colerainebc.gov.uk,Coleraine,http://www.colerainebc.gov.uk/,,,2014-12-09,fhrs_5_en-GB,5,,FHRS,0
405647,22 Church Street,,Coleraine,Londonderry,Heralds At 22,Restaurant/Cafe/Canteen,1,5,,82966,0,,55.13194300000000,202,810,eh@colerainebc.gov.uk,Coleraine,http://www.colerainebc.gov.uk/,-6.66940300000000,BT52 1AR,2013-03-06,fhrs_5_en-GB,5,,FHRS,5
405648,59 The Promenade,,Portstewart,Londonderry,Herron's Country Fried Chicken,Takeaway/sandwich shop,7844,5,,680085,10,,55.18397800000000,3113,810,eh@colerainebc.gov.uk,Coleraine,http://www.colerainebc.gov.uk/,-6.71844000000000,BT55 7AF,2014-06-19,fhrs_4_en-GB,4,,FHRS,5
405649,Castlerock Road,,Coleraine,,Hezlet Court,Hospitals/Childcare/Caring Premises,5,5,,42499,5,,55.13389200000000,1048,810,eh@colerainebc.gov.uk,Coleraine,http://www.colerainebc.gov.uk/,-6.68089400000000,BT51 3HP,2014-06-12,fhrs_5_en-GB,5,,FHRS,0
405650,1 Ballywoolen Road,,Castlerock,Londonderry,Hezlett Primary School Meals Kitchen,School/college/university,7845,0,,55746,0,,55.15382800000000,1259,810,eh@colerainebc.gov.uk,Coleraine,http://www.colerainebc.gov.uk/,-6.78123000000000,BT51 4TZ,2014-12-15,fhrs_5_en-GB,5,,FHRS,5
405651,3-5 Bath Street,,Portrush,Antrim,Hidden Cove,Restaurant/Cafe/Canteen,1,5,,55674,0,,55.20793400000000,1257,810,eh@colerainebc.gov.uk,Coleraine,http://www.colerainebc.gov.uk/,-6.65408200000000,BT56 8AW,2013-06-16,fhrs_4_en-GB,4,,FHRS,10
405652,60 Loguestown Road,,Portrush,Antrim,Hilltop Foods Llp,Restaurant/Cafe/Canteen,1,5,,91667,5,,55.18604100000000,2544,810,eh@colerainebc.gov.uk,Coleraine,http://www.colerainebc.gov.uk/,-6.66296800000000,BT56 8PD,2014-10-17,fhrs_2_en-GB,2,,FHRS,15
405653,8 Church Street,,Coleraine,Londonderry,Holland And Barrett,Retailers - other,4613,5,,104197,5,,55.13184400000000,354,810,eh@colerainebc.gov.uk,Coleraine,http://www.colerainebc.gov.uk/,-6.67015900000000,BT52 1AP,2012-06-27,fhrs_5_en-GB,5,,FHRS,5
405654,10 Dhu Varren Park,,Portrush,Antrim,Home Sweet Home B & B,Hotel/bed & breakfast/guest house,7842,10,,423588,0,,55.19602700000000,2892,810,eh@colerainebc.gov.uk,Coleraine,http://www.colerainebc.gov.uk/,-6.66021500000000,BT56 8EL,2012-07-02,fhrs_4_en-GB,4,,FHRS,0
405655,129 Carhill Road,,Swatragh,Londonderry,Homemade By Hayley,Other catering premises,7841,5,,734697,0,,54.92694500000000,3245,810,eh@colerainebc.gov.uk,Coleraine,http://www.colerainebc.gov.uk/,-6.67365300000000,BT46 5RA,2015-01-20,fhrs_5_en-GB,5,,FHRS,0
405656,9 Railway Road,,Coleraine,Londonderry,Homemade Cafe,Restaurant/Cafe/Canteen,1,5,,65185,5,,55.13199400000000,1461,810,eh@colerainebc.gov.uk,Coleraine,http://www.colerainebc.gov.uk/,-6.66582600000000,BT52 1PD,2014-07-28,fhrs_5_en-GB,5,,FHRS,5
405657,,,,,Hooked On Health,Retailers - other,4613,10,,128166,0,,,58,810,eh@colerainebc.gov.uk,Coleraine,http://www.colerainebc.gov.uk/,,,2013-01-11,fhrs_4_en-GB,4,,FHRS,5
405658,24 Railway Road,,Coleraine,Londonderry,Hope And Gloria Emporium,Restaurant/Cafe/Canteen,1,5,,432948,5,,55.13300900000000,2903,810,eh@colerainebc.gov.uk,Coleraine,http://www.colerainebc.gov.uk/,-6.66502400000000,BT52 1PE,2014-06-06,fhrs_4_en-GB,4,,FHRS,10
405659,,,,,Hot Mini Doughnuts,Mobile caterer,7846,0,,76355,5,,,1799,810,eh@colerainebc.gov.uk,Coleraine,http://www.colerainebc.gov.uk/,,,2013-06-10,fhrs_5_en-GB,5,,FHRS,5
405660,126 Main Street,,Portrush,Antrim,Hot Wok,Restaurant/Cafe/Canteen,1,0,,719489,5,,55.20806900000000,3218,810,eh@colerainebc.gov.uk,Coleraine,http://www.colerainebc.gov.uk/,-6.65657500000000,BT56 8DA,2014-11-20,fhrs_5_en-GB,5,,FHRS,5
405661,9&10 The Promenade,,Portstewart,Londonderry,Ice House,Restaurant/Cafe/Canteen,1,5,,90695,10,,55.18674300000000,2482,810,eh@colerainebc.gov.uk,Coleraine,http://www.colerainebc.gov.uk/,-6.71918300000000,BT55 7AD,2014-08-19,fhrs_4_en-GB,4,,FHRS,5
405662,21a Railway Road,,Coleraine,Londonderry,Iceland Food Ltd,Retailers - other,4613,5,,668751,5,,55.13199400000000,3052,810,eh@colerainebc.gov.uk,Coleraine,http://www.colerainebc.gov.uk/,-6.66582600000000,BT52 1PD,2014-04-28,fhrs_5_en-GB,5,,FHRS,5
405663,3 Dunluce Street,,Portrush,Antrim,Indian Ocean,Takeaway/sandwich shop,7844,10,,136481,5,,55.20382300000000,708,810,eh@colerainebc.gov.uk,Coleraine,http://www.colerainebc.gov.uk/,-6.65195900000000,BT56 8DN,2013-11-14,fhrs_3_en-GB,3,,FHRS,10
405664,85 The Promenade,,Portstewart,Londonderry,Indian Ocean,Takeaway/sandwich shop,7844,5,,90757,5,,55.18283000000000,2487,810,eh@colerainebc.gov.uk,Coleraine,http://www.colerainebc.gov.uk/,-6.71860200000000,BT55 7AG,2014-09-09,fhrs_4_en-GB,4,,FHRS,10
405665,4 Riverside Park East,,Coleraine,Londonderry,Indus Valley Restaurant,Restaurant/Cafe/Canteen,1,5,,141378,5,,55.12183800000000,778,810,eh@colerainebc.gov.uk,Coleraine,http://www.colerainebc.gov.uk/,-6.67437900000000,BT51 3NA,2013-07-11,fhrs_5_en-GB,5,,FHRS,5
405666,50 Ballyreagh Road,,Portrush,Antrim,Inn On The Coast,Hotel/bed & breakfast/guest house,7842,10,,432947,0,,55.19659800000000,2901,810,eh@colerainebc.gov.uk,Coleraine,http://www.colerainebc.gov.uk/,-6.67879000000000,BT56 8LT,2014-03-20,fhrs_4_en-GB,4,,FHRS,10
405667,1 Ring Road,,Coleraine,Londonderry,Instore Asda Cafe Compass Group,Restaurant/Cafe/Canteen,1,5,,730945,0,,55.14163100000000,3236,810,eh@colerainebc.gov.uk,Coleraine,http://www.colerainebc.gov.uk/,-6.65666000000000,BT52 1QN,2015-01-14,fhrs_5_en-GB,5,,FHRS,5
405668,277 Dunhill Road,,Coleraine,Londonderry,Ivan Wilson Mace,Retailers - supermarkets/hypermarkets,7840,5,,89813,0,,55.10699200000000,2417,810,eh@colerainebc.gov.uk,Coleraine,http://www.colerainebc.gov.uk/,-6.69379800000000,BT51 3QJ,2013-09-30,fhrs_5_en-GB,5,,FHRS,5
405669,,,,,Ivans Chippie,Mobile caterer,7846,0,,95047,5,,,2803,810,eh@colerainebc.gov.uk,Coleraine,http://www.colerainebc.gov.uk/,,,2013-10-10,fhrs_5_en-GB,5,,FHRS,0
405670,1 Captain Street Lower,,Coleraine,Londonderry,J D Wetherspoon,Pub/bar/nightclub,7843,0,,118097,5,,55.13205000000000,474,810,eh@colerainebc.gov.uk,Coleraine,http://www.colerainebc.gov.uk/,-6.67923000000000,BT51 3DT,2014-03-05,fhrs_5_en-GB,5,,FHRS,0
405671,45&46 The Promenade,,Portstewart,Londonderry,J E Toms And Sons,Retailers - other,4613,10,,59099,0,,55.18523200000000,1305,810,eh@colerainebc.gov.uk,Coleraine,http://www.colerainebc.gov.uk/,-6.71891800000000,BT55 7AE,2013-07-30,fhrs_4_en-GB,4,,FHRS,5
405672,119-121 Drumagarner Road,,Kilrea,Londonderry,J Mccotter And Sons,Retailers - other,4613,0,,52034,5,,54.93354600000000,1171,810,eh@colerainebc.gov.uk,Coleraine,http://www.colerainebc.gov.uk/,-6.57806300000000,BT51 5TF,2013-05-09,fhrs_5_en-GB,5,,FHRS,0
405673,8 Dunluce Street,,Portrush,Antrim,J V Campbell Pharmacy,Retailers - other,4613,,,106670,,,55.20382300000000,372,810,eh@colerainebc.gov.uk,Coleraine,http://www.colerainebc.gov.uk/,-6.65195900000000,BT56 8DN,2014-10-31,fhrs_exempt_en-GB,Exempt,,FHRS,
405674,,,,,Jack Frost Ices,Retailers - other,4613,5,,89693,0,,,2408,810,eh@colerainebc.gov.uk,Coleraine,http://www.colerainebc.gov.uk/,,,2013-03-15,fhrs_5_en-GB,5,,FHRS,0
405675,2 Sandel Village Centre,Knocklynn,Coleraine,Londonderry,Jade House,Takeaway/sandwich shop,7844,0,,198239,5,,55.11562300000000,2860,810,eh@colerainebc.gov.uk,Coleraine,http://www.colerainebc.gov.uk/,-6.63866300000000,BT52 1WW,2013-10-01,fhrs_5_en-GB,5,,FHRS,5
405676,44 The Promenade,,Portstewart,Londonderry,Jam Jar,Restaurant/Cafe/Canteen,1,5,,55925,0,,55.18523200000000,1263,810,eh@colerainebc.gov.uk,Coleraine,http://www.colerainebc.gov.uk/,-6.71891800000000,BT55 7AE,2013-06-18,fhrs_5_en-GB,5,,FHRS,5
405677,,,,,Jams And Cakes,Other catering premises,7841,10,,423586,0,,,2879,810,eh@colerainebc.gov.uk,Coleraine,http://www.colerainebc.gov.uk/,,,2012-07-04,fhrs_4_en-GB,4,,FHRS,0
405678,,,,,Jenny's Jems,Other catering premises,7841,5,,77080,0,,,1803,810,eh@colerainebc.gov.uk,Coleraine,http://www.colerainebc.gov.uk/,,,2013-10-31,fhrs_5_en-GB,5,,FHRS,0
405679,15-17 Main Street,,Portrush,Antrim,Jingles,Retailers - other,4613,,,51688,,,55.20634800000000,116,810,eh@colerainebc.gov.uk,Coleraine,http://www.colerainebc.gov.uk/,-6.65283200000000,BT56 8BL,2014-10-07,fhrs_exempt_en-GB,Exempt,,FHRS,
405680,45 Railway Road,,Coleraine,Londonderry,Just Good,Restaurant/Cafe/Canteen,1,5,,706610,5,,55.13386200000000,3187,810,eh@colerainebc.gov.uk,Coleraine,http://www.colerainebc.gov.uk/,-6.66413300000000,BT52 1PF,2014-09-15,fhrs_5_en-GB,5,,FHRS,5
405681,9 Church Lane,,Coleraine,Londonderry,Kabanos,Retailers - other,4613,0,,64196,5,,55.13223500000000,1422,810,eh@colerainebc.gov.uk,Coleraine,http://www.colerainebc.gov.uk/,-6.66898500000000,BT52 1AG,2014-02-05,fhrs_5_en-GB,5,,FHRS,0
405682,40 Drumsaragh Road,,Kilrea,Londonderry,Karina Lodge Private Nursing Home,Hospitals/Childcare/Caring Premises,5,5,,136772,5,,54.94146200000000,712,810,eh@colerainebc.gov.uk,Coleraine,http://www.colerainebc.gov.uk/,-6.58432200000000,BT51 5XN,2014-09-18,fhrs_5_en-GB,5,,FHRS,0
405683,56 Coleraine Road,,Portstewart,Londonderry,Karlitos,Restaurant/Cafe/Canteen,1,10,,466194,10,,55.17732400000000,2929,810,eh@colerainebc.gov.uk,Coleraine,http://www.colerainebc.gov.uk/,-6.71523100000000,BT55 7JR,2014-08-12,fhrs_3_en-GB,3,,FHRS,10
405684,1 Mountsandel Road,,Coleraine,Londonderry,Karolina Intl Foods Ltd,Retailers - supermarkets/hypermarkets,7840,5,,187761,5,,55.12726100000000,2861,810,eh@colerainebc.gov.uk,Coleraine,http://www.colerainebc.gov.uk/,-6.66838300000000,BT52 1JB,2014-01-17,fhrs_5_en-GB,5,,FHRS,5
405685,Limavady Road,Garvagh,Garvagh,Londonderry,Kathleen L Thompson Fold,Hospitals/Childcare/Caring Premises,5,0,,117748,0,,54.98404600000000,470,810,eh@colerainebc.gov.uk,Coleraine,http://www.colerainebc.gov.uk/,-6.68953100000000,BT51 5EB,2012-11-23,fhrs_5_en-GB,5,,FHRS,5
405686,59 Altikeeragh Road,,Castlerock,Londonderry,Keeragh Lodge,Hotel/bed & breakfast/guest house,7842,0,,72555,0,,55.13870300000000,1653,810,eh@colerainebc.gov.uk,Coleraine,http://www.colerainebc.gov.uk/,-6.81791400000000,BT51 4SR,2013-07-18,fhrs_5_en-GB,5,,FHRS,0
405687,3a Railway Place,,Coleraine,Londonderry,Keiths - Macs Market,Retailers - other,4613,,,143998,,,55.13382500000000,819,810,eh@colerainebc.gov.uk,Coleraine,http://www.colerainebc.gov.uk/,-6.66317800000000,BT52 1PQ,2014-05-28,fhrs_exempt_en-GB,Exempt,,FHRS,
405688,,,,,Kennedys,Mobile caterer,7846,0,,85020,0,,,2121,810,eh@colerainebc.gov.uk,Coleraine,http://www.colerainebc.gov.uk/,,,2014-06-06,fhrs_5_en-GB,5,,FHRS,0
405689,1 Main Street,,Garvagh,Londonderry,Kennys Eurospar,Retailers - supermarkets/hypermarkets,7840,5,,94779,0,,54.98427700000000,2794,810,eh@colerainebc.gov.uk,Coleraine,http://www.colerainebc.gov.uk/,-6.68683700000000,BT51 5AA,2013-03-13,fhrs_5_en-GB,5,,FHRS,5
405690,1 Lower Newmills Road,,Coleraine,Londonderry,Kennys Spar,Retailers - supermarkets/hypermarkets,7840,5,,86797,10,,55.13226100000000,2221,810,eh@colerainebc.gov.uk,Coleraine,http://www.colerainebc.gov.uk/,-6.64932300000000,BT52 2JR,2013-03-07,fhrs_4_en-GB,4,,FHRS,0
405691,66 Hanover Place,,Coleraine,Londonderry,Kentucky Fried Chicken (kfc),Restaurant/Cafe/Canteen,1,5,,40792,5,,55.13022800000000,1017,810,eh@colerainebc.gov.uk,Coleraine,http://www.colerainebc.gov.uk/,-6.67353600000000,BT52 1EB,2013-03-15,fhrs_5_en-GB,5,,FHRS,5
405692,Castle Erin Road,,Portrush,Antrim,Kiddieland,Restaurant/Cafe/Canteen,1,5,,90260,0,,55.20419100000000,245,810,eh@colerainebc.gov.uk,Coleraine,http://www.colerainebc.gov.uk/,-6.65438100000000,BT56 8DH,2013-09-02,fhrs_5_en-GB,5,,FHRS,0
405693,20-30 Killowen Street,,Coleraine,Londonderry,Killowen House,Hospitals/Childcare/Caring Premises,5,5,,61616,10,,55.13004100000000,1355,810,eh@colerainebc.gov.uk,Coleraine,http://www.colerainebc.gov.uk/,-6.67705400000000,BT51 3DD,2014-11-13,fhrs_4_en-GB,4,,FHRS,0
405694,90 Killowen Street,,Coleraine,,Killowen Lunch Club,Other catering premises,7841,0,,85686,0,,55.13004100000000,2168,810,eh@colerainebc.gov.uk,Coleraine,http://www.colerainebc.gov.uk/,-6.67705400000000,BT51 3DD,2013-10-15,fhrs_5_en-GB,5,,FHRS,0
405695,92 Killowen Street,,Coleraine,Londonderry,Killowen Parents & Toddlers (353),Hospitals/Childcare/Caring Premises,5,0,,89858,0,,55.13004100000000,2420,810,eh@colerainebc.gov.uk,Coleraine,http://www.colerainebc.gov.uk/,-6.67705400000000,BT51 3DD,2011-11-07,fhrs_5_en-GB,5,,FHRS,5
405696,55 Shuttle Hill,,Coleraine,,Killowen Primary School Meals,School/college/university,7845,0,,149905,0,,55.12756700000000,969,810,eh@colerainebc.gov.uk,Coleraine,http://www.colerainebc.gov.uk/,-6.67588200000000,BT51 3BZ,2014-12-04,fhrs_5_en-GB,5,,FHRS,0
405697,15 Moneygran Road,,Kilrea,Londonderry,Kilrea Community Playgroup,School/college/university,7845,0,,52785,0,,54.94786000000000,1195,810,eh@colerainebc.gov.uk,Coleraine,http://www.colerainebc.gov.uk/,-6.54717100000000,BT51 5SJ,2014-06-16,fhrs_5_en-GB,5,,FHRS,0
405698,47 Lisnagrot Road,,Kilrea,Londonderry,Kilrea Golf Club (catering),Restaurant/Cafe/Canteen,1,5,,706609,0,,54.94537400000000,3126,810,eh@colerainebc.gov.uk,Coleraine,http://www.colerainebc.gov.uk/,-6.55189500000000,BT51 5SF,2014-10-01,fhrs_5_en-GB,5,,FHRS,5
405699,5 Lisnagrot Road,,Kilrea,Londonderry,Kilrea Primary School Meals Kitchen,School/college/university,7845,5,,55641,0,,54.94860000000000,1256,810,eh@colerainebc.gov.uk,Coleraine,http://www.colerainebc.gov.uk/,-6.55423000000000,BT51 5SE,2014-03-19,fhrs_5_en-GB,5,,FHRS,0
405700,26 Garvagh Road,Kilrea,Coleraine,Londonderry,Kilrea Service Station,Retailers - other,4613,5,,41630,0,,54.95202200000000,1031,810,eh@colerainebc.gov.uk,Coleraine,http://www.colerainebc.gov.uk/,-6.56256700000000,BT51 5QP,2013-03-14,fhrs_4_en-GB,4,,FHRS,10
405701,22-24 Central Avenue,,Portstewart,Londonderry,Kinder Kidz,Hospitals/Childcare/Caring Premises,5,0,,95518,10,,55.18547000000000,2850,810,eh@colerainebc.gov.uk,Coleraine,http://www.colerainebc.gov.uk/,-6.71426300000000,BT55 7BT,2013-11-22,fhrs_4_en-GB,4,,FHRS,0
405702,3 Church Lane,,Coleraine,Londonderry,Kittys Of Coleraine,Manufacturers/packers,7839,0,,51863,0,,55.13223500000000,1166,810,eh@colerainebc.gov.uk,Coleraine,http://www.colerainebc.gov.uk/,-6.66898500000000,BT52 1AG,2014-06-04,fhrs_5_en-GB,5,,FHRS,0
405703,47 Main Street,,Portrush,Antrim,Kiwi's Brew Bar,Retailers - other,4613,5,,727817,0,,55.20750600000000,3125,810,eh@colerainebc.gov.uk,Coleraine,http://www.colerainebc.gov.uk/,-6.65433200000000,BT56 8BN,2014-12-09,fhrs_5_en-GB,5,,FHRS,5
405704,31 Central Avenue,,Portstewart,Londonderry,Knock B & B,Hotel/bed & breakfast/guest house,7842,5,,470768,5,,55.18624200000000,2921,810,eh@colerainebc.gov.uk,Coleraine,http://www.colerainebc.gov.uk/,-6.71332700000000,BT55 7BS,2012-11-19,fhrs_5_en-GB,5,,FHRS,0
405705,40 Newbridge Road,,Coleraine,Londonderry,Knockintern Filling Station,Retailers - other,4613,5,,45148,0,,55.11691000000000,1096,810,eh@colerainebc.gov.uk,Coleraine,http://www.colerainebc.gov.uk/,-6.63250700000000,BT52 1TP,2012-08-29,fhrs_5_en-GB,5,,FHRS,5
405706,2 Castle Erin Road,,Portrush,Antrim,Koko,Restaurant/Cafe/Canteen,1,5,,699793,5,,55.20419100000000,3124,810,eh@colerainebc.gov.uk,Coleraine,http://www.colerainebc.gov.uk/,-6.65438100000000,BT56 8DH,2014-08-07,fhrs_5_en-GB,5,,FHRS,5
405707,,,,,Kookycook-fresh Pesto,Other catering premises,7841,0,,491800,0,,,2952,810,eh@colerainebc.gov.uk,Coleraine,http://www.colerainebc.gov.uk/,,,2012-12-10,fhrs_5_en-GB,5,,FHRS,0
405708,72 Kylemore Road,,Coleraine,Londonderry,Kylemore Nursery School,School/college/university,7845,0,,105816,0,,55.12657300000000,365,810,eh@colerainebc.gov.uk,Coleraine,http://www.colerainebc.gov.uk/,-6.68195000000000,BT51 3HG,2013-09-30,fhrs_4_en-GB,4,,FHRS,10
405709,171 Coleraine Road,,Portstewart,Londonderry,Larkhill Service Station,Retailers - supermarkets/hypermarkets,7840,0,,122747,0,,55.17125100000000,512,810,eh@colerainebc.gov.uk,Coleraine,http://www.colerainebc.gov.uk/,-6.71010700000000,BT55 7HU,2014-11-07,fhrs_4_en-GB,4,,FHRS,10
405710,32-34 Kyles Brae,,Coleraine,Londonderry,Laurel Hill Spar,Retailers - supermarkets/hypermarkets,7840,10,,73715,5,,55.12194600000000,17,810,eh@colerainebc.gov.uk,Coleraine,http://www.colerainebc.gov.uk/,-6.67939100000000,BT51 3PY,2014-05-21,fhrs_4_en-GB,4,,FHRS,5
405711,,,,,Laverty Mobile Catering (mkz 2130),Mobile caterer,7846,5,,445046,5,,,2920,810,eh@colerainebc.gov.uk,Coleraine,http://www.colerainebc.gov.uk/,,,2014-07-18,fhrs_5_en-GB,5,,FHRS,5
405712,,,,,Laverty Mobile Catering (piw4747),Mobile caterer,7846,5,,62718,5,,,1387,810,eh@colerainebc.gov.uk,Coleraine,http://www.colerainebc.gov.uk/,,,2014-07-18,fhrs_5_en-GB,5,,FHRS,5
405713,,,,,Laverty's Mobile Catering,Mobile caterer,7846,0,,68899,0,,,1543,810,eh@colerainebc.gov.uk,Coleraine,http://www.colerainebc.gov.uk/,,,2013-10-21,fhrs_4_en-GB,4,,FHRS,10
405714,2 Riverside Park North,,Coleraine,Londonderry,Lidl Northern Ireland Gmbh Coleraine 2,Retailers - supermarkets/hypermarkets,7840,0,,71113,0,,55.12141200000000,1610,810,eh@colerainebc.gov.uk,Coleraine,http://www.colerainebc.gov.uk/,-6.67160300000000,BT51 3GE,2014-02-18,fhrs_5_en-GB,5,,FHRS,0
405715,55 Glenmanus Road,,Portrush,Antrim,Lidl Northern Ireland Portrush,Retailers - supermarkets/hypermarkets,7840,0,,448154,5,,55.19347000000000,2917,810,eh@colerainebc.gov.uk,Coleraine,http://www.colerainebc.gov.uk/,-6.65727100000000,BT56 8HU,2014-03-11,fhrs_5_en-GB,5,,FHRS,5
405716,"Unit B, 4 Main Street",Castlerock,Coleraine,Londonderry,Lil J's Bakery,Manufacturers/packers,7839,0,,727818,0,,55.16631000000000,3220,810,eh@colerainebc.gov.uk,Coleraine,http://www.colerainebc.gov.uk/,-6.78977800000000,BT51 4RA,2014-12-12,fhrs_5_en-GB,5,,FHRS,5
405717,8 Bushmills Road,,Portrush,Antrim,Linksview,Hotel/bed & breakfast/guest house,7842,0,,89894,0,,55.19952900000000,2424,810,eh@colerainebc.gov.uk,Coleraine,http://www.colerainebc.gov.uk/,-6.63822000000000,BT56 8JF,2015-01-20,fhrs_5_en-GB,5,,FHRS,0
405718,136b Dunluce Road,,Portrush,Antrim,Lisa's Takeaway,Takeaway/sandwich shop,7844,5,,54847,10,,55.19963100000000,1237,810,eh@colerainebc.gov.uk,Coleraine,http://www.colerainebc.gov.uk/,-6.63523300000000,BT56 8JQ,2013-07-17,fhrs_4_en-GB,4,,FHRS,5
405719,108 Ballyrashane Road,,Coleraine,Londonderry,Lisnagalt Lodge,Hotel/bed & breakfast/guest house,7842,0,,114667,0,,55.13858200000000,438,810,eh@colerainebc.gov.uk,Coleraine,http://www.colerainebc.gov.uk/,-6.59265700000000,BT52 2LJ,2013-02-06,fhrs_5_en-GB,5,,FHRS,0
405720,12 Sea Road,,Castlerock,Londonderry,Little Blue Beach Coffee Shop,Restaurant/Cafe/Canteen,1,5,,586655,5,,55.16530600000000,3001,810,eh@colerainebc.gov.uk,Coleraine,http://www.colerainebc.gov.uk/,-6.78643400000000,BT51 4TL,2013-09-12,fhrs_5_en-GB,5,,FHRS,0
405721,24a Beresford Court,,Coleraine,Londonderry,Little Papa's,Takeaway/sandwich shop,7844,5,,90860,5,,55.12856500000000,2496,810,eh@colerainebc.gov.uk,Coleraine,http://www.colerainebc.gov.uk/,-6.66852800000000,BT52 1SU,2013-09-11,fhrs_5_en-GB,5,,FHRS,5
405722,1 Castlerock Road,,Coleraine,Londonderry,Lloyds Pharmacy,Retailers - other,4613,,,102198,,,55.13272900000000,338,810,eh@colerainebc.gov.uk,Coleraine,http://www.colerainebc.gov.uk/,-6.67886200000000,BT51 3GZ,2013-05-24,fhrs_exempt_en-GB,Exempt,,FHRS,
405723,19 Sea Road,Castlerock,Coleraine,Londonderry,Lloyds Pharmacy Limited,Retailers - other,4613,,,52968,,,55.16424100000000,12,810,eh@colerainebc.gov.uk,Coleraine,http://www.colerainebc.gov.uk/,-6.78679600000000,BT51 4TN,2012-08-24,fhrs_exempt_en-GB,Exempt,,FHRS,
405724,102a Lodge Road,,Coleraine,Londonderry,Lodge Hotel And Travelstop,Hotel/bed & breakfast/guest house,7842,5,,58777,0,,55.12617500000000,1302,810,eh@colerainebc.gov.uk,Coleraine,http://www.colerainebc.gov.uk/,-6.65868400000000,BT52 1NF,2013-03-13,fhrs_5_en-GB,5,,FHRS,5
405725,2 Queen Street,,Coleraine,Londonderry,Lost And Found Brew Bar And Cafe,Restaurant/Cafe/Canteen,1,10,,642704,0,,55.13246300000000,3061,810,eh@colerainebc.gov.uk,Coleraine,http://www.colerainebc.gov.uk/,-6.67176900000000,BT52 1BE,2014-03-12,fhrs_4_en-GB,4,,FHRS,10
405726,,,,,Lou's Cupcakes,Other catering premises,7841,10,,438682,5,,,2922,810,eh@colerainebc.gov.uk,Coleraine,http://www.colerainebc.gov.uk/,,,2012-07-31,fhrs_4_en-GB,4,,FHRS,0
405727,,,,,L's Kitchen,Mobile caterer,7846,0,,91326,0,,,2518,810,eh@colerainebc.gov.uk,Coleraine,http://www.colerainebc.gov.uk/,,,2013-11-04,fhrs_5_en-GB,5,,FHRS,5
405728,,,,,L's Kitchen (van 2),Mobile caterer,7846,5,,545865,0,,,2992,810,eh@colerainebc.gov.uk,Coleraine,http://www.colerainebc.gov.uk/,,,2013-05-09,fhrs_5_en-GB,5,,FHRS,0
405729,71/73 Main Street,Garvagh,Coleraine,Londonderry,Lucky Dragon,Takeaway/sandwich shop,7844,5,,61645,5,,54.98035600000000,1356,810,eh@colerainebc.gov.uk,Coleraine,http://www.colerainebc.gov.uk/,-6.68809000000000,BT51 5AB,2014-08-07,fhrs_5_en-GB,5,,FHRS,5
405730,Units A1 - A4 Sperrin Business Park Ballycastle Road,,Coleraine,Londonderry,Luckys Bingo Snack Bar,Restaurant/Cafe/Canteen,1,10,,95264,5,,55.13307000000000,2826,810,eh@colerainebc.gov.uk,Coleraine,http://www.colerainebc.gov.uk/,-6.65418800000000,BT52 2DH,2014-12-03,fhrs_4_en-GB,4,,FHRS,5
405731,2 Loughanhill Industrial Estate,,Coleraine,Londonderry,Lynas Food Outlet,Distributors/Transporters,7,0,,655729,5,,55.14778700000000,3043,810,eh@colerainebc.gov.uk,Coleraine,http://www.colerainebc.gov.uk/,-6.65118300000000,BT52 2NR,2014-04-02,fhrs_5_en-GB,5,,FHRS,5
405732,11 Loughanhill Industrial Estate,,Coleraine,Londonderry,Lynas Foodservice Ltd Staff Canteen,Restaurant/Cafe/Canteen,1,0,,72979,5,,55.14778700000000,1669,810,eh@colerainebc.gov.uk,Coleraine,http://www.colerainebc.gov.uk/,-6.65118300000000,BT52 2NR,2014-05-28,fhrs_5_en-GB,5,,FHRS,5
405733,,,,,Lynne Pollard Home Baking,Other catering premises,7841,5,,655736,5,,,3081,810,eh@colerainebc.gov.uk,Coleraine,http://www.colerainebc.gov.uk/,,,2014-04-07,fhrs_5_en-GB,5,,FHRS,5
405734,80 Causeway Street,,Portrush,Antrim,M R M Stores,Retailers - other,4613,0,,66215,0,,55.20384300000000,1490,810,eh@colerainebc.gov.uk,Coleraine,http://www.colerainebc.gov.uk/,-6.64968100000000,BT56 8AD,2013-11-21,fhrs_5_en-GB,5,,FHRS,0
405735,24 Ramsey Park,Macosquin,Coleraine,Londonderry,Macosquin Community Playgroup,Hospitals/Childcare/Caring Premises,5,5,,144398,0,,55.10021300000000,830,810,eh@colerainebc.gov.uk,Coleraine,http://www.colerainebc.gov.uk/,-6.71103300000000,BT51 4NF,2013-03-19,fhrs_5_en-GB,5,,FHRS,5
405736,34 Dunderg Road,Macosquin,Coleraine,Londonderry,Macosquin Primary School Meals Kitchen,School/college/university,7845,0,,144353,0,,55.10025000000000,829,810,eh@colerainebc.gov.uk,Coleraine,http://www.colerainebc.gov.uk/,-6.70860400000000,BT51 4ND,2014-11-13,fhrs_5_en-GB,5,,FHRS,0
405737,34 Dunderg Road,Macosquin,Coleraine,Londonderry,Macosquin Ps (breakfast Club),School/college/university,7845,0,,87938,0,,55.10025000000000,2294,810,eh@colerainebc.gov.uk,Coleraine,http://www.colerainebc.gov.uk/,-6.70860400000000,BT51 4ND,2012-05-11,fhrs_5_en-GB,5,,FHRS,0
405738,17 Waterside Street,,Coleraine,Londonderry,Mactucky's,Takeaway/sandwich shop,7844,5,,90360,5,,55.13190300000000,2457,810,eh@colerainebc.gov.uk,Coleraine,http://www.colerainebc.gov.uk/,-6.67641300000000,BT51 3DP,2013-01-09,fhrs_5_en-GB,5,,FHRS,0
405739,18 Maddybenny Park,,Coleraine,Londonderry,Maddybenny Farmhouse,Hotel/bed & breakfast/guest house,7842,5,,70917,0,,55.17831400000000,1604,810,eh@colerainebc.gov.uk,Coleraine,http://www.colerainebc.gov.uk/,-6.66611500000000,BT52 2PT,2013-04-04,fhrs_5_en-GB,5,,FHRS,5
405740,2 Nursery Avenue,,Portstewart,Londonderry,Madelayne Court Nursing Home,Hospitals/Childcare/Caring Premises,5,10,,94503,10,,55.17461200000000,2768,810,eh@colerainebc.gov.uk,Coleraine,http://www.colerainebc.gov.uk/,-6.71622900000000,BT55 7LG,2014-09-05,fhrs_3_en-GB,3,,FHRS,5
405741,41 Magheraboy Road,,Portrush,Londonderry,Magherabuoy House Hotel,Hotel/bed & breakfast/guest house,7842,10,,150421,5,,55.18727500000000,982,810,eh@colerainebc.gov.uk,Coleraine,http://www.colerainebc.gov.uk/,-6.65017800000000,BT56 8NX,2014-06-10,fhrs_2_en-GB,2,,FHRS,15
405742,36 Mark Street,,Portrush,Antrim,Malvern House,Hotel/bed & breakfast/guest house,7842,0,,144736,0,,55.20591600000000,841,810,eh@colerainebc.gov.uk,Coleraine,http://www.colerainebc.gov.uk/,-6.65360000000000,BT56 8BT,2013-07-24,fhrs_5_en-GB,5,,FHRS,0
405743,,,,,Mama's Kitchen,Mobile caterer,7846,5,,74657,5,,,1726,810,eh@colerainebc.gov.uk,Coleraine,http://www.colerainebc.gov.uk/,,,2014-06-19,fhrs_4_en-GB,4,,FHRS,10
405744,50 Eglinton Street,,Portrush,Antrim,Mandalay,Hotel/bed & breakfast/guest house,7842,0,,94595,5,,55.20026100000000,2777,810,eh@colerainebc.gov.uk,Coleraine,http://www.colerainebc.gov.uk/,-6.65399500000000,BT56 8DY,2014-04-15,fhrs_5_en-GB,5,,FHRS,0
405745,30 Railway Road,,Coleraine,Londonderry,Mandarin Palace Chinese Restaurant,Takeaway/sandwich shop,7844,5,,115156,10,,55.13300900000000,443,810,eh@colerainebc.gov.uk,Coleraine,http://www.colerainebc.gov.uk/,-6.66502400000000,BT52 1PE,2014-08-28,fhrs_4_en-GB,4,,FHRS,5
405746,69 Bridge Street,,Kilrea,Londonderry,Manor Sports Complex,Restaurant/Cafe/Canteen,1,10,,147330,5,,54.95188100000000,916,810,eh@colerainebc.gov.uk,Coleraine,http://www.colerainebc.gov.uk/,-6.55291000000000,BT51 5RR,2014-12-01,fhrs_4_en-GB,4,,FHRS,5
405747,9 Bushmills Road,,Coleraine,Londonderry,Marjorie Janes,Restaurant/Cafe/Canteen,1,5,,730946,5,,55.13518200000000,3244,810,eh@colerainebc.gov.uk,Coleraine,http://www.colerainebc.gov.uk/,-6.66249000000000,BT52 2BN,2015-01-12,fhrs_5_en-GB,5,,FHRS,5
405748,3 Railway Place,,Coleraine,Londonderry,Market Cafe - Macs Market,Restaurant/Cafe/Canteen,1,0,,77228,5,,55.13382500000000,181,810,eh@colerainebc.gov.uk,Coleraine,http://www.colerainebc.gov.uk/,-6.66317800000000,BT52 1PQ,2014-04-11,fhrs_5_en-GB,5,,FHRS,5
405749,13 The Diamond,,Coleraine,Londonderry,Marks And Spencer Plc,Retailers - supermarkets/hypermarkets,7840,0,,150597,0,,55.13092600000000,987,810,eh@colerainebc.gov.uk,Coleraine,http://www.colerainebc.gov.uk/,-6.67166300000000,BT52 1DE,2012-05-16,fhrs_5_en-GB,5,,FHRS,5
405750,6 Abbey Street,,Coleraine,Londonderry,Marthas House,Restaurant/Cafe/Canteen,1,0,,466195,0,,55.13102900000000,2931,810,eh@colerainebc.gov.uk,Coleraine,http://www.colerainebc.gov.uk/,-6.67208300000000,BT52 1DS,2014-08-18,fhrs_5_en-GB,5,,FHRS,5
405751,,,,,Mary And Stephen Glenn,Other catering premises,7841,10,,642705,0,,,3068,810,eh@colerainebc.gov.uk,Coleraine,http://www.colerainebc.gov.uk/,,,2014-02-11,fhrs_4_en-GB,4,,FHRS,0
405752,30&32 Newmarket Street,,Coleraine,Londonderry,Mary Craigs Bar,Retailers - other,4613,5,,122640,5,,55.12960500000000,511,810,eh@colerainebc.gov.uk,Coleraine,http://www.colerainebc.gov.uk/,-6.66919800000000,BT52 1EH,2014-07-11,fhrs_5_en-GB,5,,FHRS,5
405753,29-31 Main Street,Garvagh,Coleraine,Londonderry,Mc Atamneys Butchers,Retailers - other,4613,5,,143498,5,,54.98427700000000,81,810,eh@colerainebc.gov.uk,Coleraine,http://www.colerainebc.gov.uk/,-6.68683700000000,BT51 5AA,2014-01-31,fhrs_5_en-GB,5,,FHRS,5
405754,1 Maghera Street,Kilrea,Coleraine,Londonderry,Mc Cloys Chemist,Retailers - other,4613,,,51390,,,54.95138400000000,1151,810,eh@colerainebc.gov.uk,Coleraine,http://www.colerainebc.gov.uk/,-6.55717300000000,BT51 5QL,2012-06-17,fhrs_exempt_en-GB,Exempt,,FHRS,
405755,8 Riverside Park East,,Coleraine,Londonderry,Mc Donalds Restaurant,Restaurant/Cafe/Canteen,1,0,,148305,0,,55.12183800000000,930,810,eh@colerainebc.gov.uk,Coleraine,http://www.colerainebc.gov.uk/,-6.67437900000000,BT51 3NA,2014-04-04,fhrs_5_en-GB,5,,FHRS,5
405756,62 The Promenade,,Portstewart,Londonderry,Mc Intyres,Retailers - other,4613,,,121495,,,55.18397800000000,502,810,eh@colerainebc.gov.uk,Coleraine,http://www.colerainebc.gov.uk/,-6.71844000000000,BT55 7AF,2015-01-27,fhrs_exempt_en-GB,Exempt,,FHRS,
405757,13-15 Abbey Street,,Coleraine,Londonderry,Mcatamneys Butchers,Retailers - other,4613,5,,714889,0,,55.13102900000000,3178,810,eh@colerainebc.gov.uk,Coleraine,http://www.colerainebc.gov.uk/,-6.67208300000000,BT52 1DS,2014-10-29,fhrs_5_en-GB,5,,FHRS,0
405758,6& 8 Bridge Street,Kilrea,Coleraine,Londonderry,Mcatamneys Butchers,Retailers - other,4613,10,,45091,5,,54.95221600000000,1094,810,eh@colerainebc.gov.uk,Coleraine,http://www.colerainebc.gov.uk/,-6.55310100000000,BT51 5RS,2014-06-20,fhrs_4_en-GB,4,,FHRS,5
405759,1 Main Street,,Garvagh,Londonderry,Mcatamney's Express,Retailers - other,4613,,,534785,,,54.98427700000000,2956,810,eh@colerainebc.gov.uk,Coleraine,http://www.colerainebc.gov.uk/,-6.68683700000000,BT51 5AA,2013-06-25,fhrs_5_en-GB,5,,FHRS,
405760,121 Coleraine Road,,Portrush,Antrim,Mcclareys Butchers,Retailers - other,4613,20,,628516,0,,55.19300700000000,3051,810,eh@colerainebc.gov.uk,Coleraine,http://www.colerainebc.gov.uk/,-6.65596700000000,BT56 8HN,2014-01-02,fhrs_1_en-GB,1,,FHRS,15
405761,60 - 62 Danes Hill Road,Ballysally,Coleraine,Londonderry,Mccreadies Todays Local,Retailers - other,4613,20,,95038,5,,55.14802300000000,2802,810,eh@colerainebc.gov.uk,Coleraine,http://www.colerainebc.gov.uk/,-6.65873500000000,BT52 2QS,2013-10-11,fhrs_1_en-GB,1,,FHRS,0
405762,1 Ring Road,,Coleraine,Londonderry,Mcgees Butchers,Retailers - other,4613,0,,94761,0,,55.14163100000000,2792,810,eh@colerainebc.gov.uk,Coleraine,http://www.colerainebc.gov.uk/,-6.65666000000000,BT52 1QN,2013-06-05,fhrs_5_en-GB,5,,FHRS,0
405763,154 Ballycastle Road,,Coleraine,Londonderry,Mckinneys Bakery,Manufacturers/packers,7839,5,,45275,0,,55.13425700000000,1099,810,eh@colerainebc.gov.uk,Coleraine,http://www.colerainebc.gov.uk/,-6.65267400000000,BT52 2EH,2014-11-24,fhrs_4_en-GB,4,,FHRS,10
405764,3 Railway Road,,Coleraine,Londonderry,Mclaughlin Bakery,Manufacturers/packers,7839,10,,44469,5,,55.13199400000000,1079,810,eh@colerainebc.gov.uk,Coleraine,http://www.colerainebc.gov.uk/,-6.66582600000000,BT52 1PD,2014-08-15,fhrs_4_en-GB,4,,FHRS,5
405765,91 The Promenade,,Portstewart,Londonderry,Mclaughlin's Bakery,Manufacturers/packers,7839,0,,89762,0,,55.18283000000000,2413,810,eh@colerainebc.gov.uk,Coleraine,http://www.colerainebc.gov.uk/,-6.71860200000000,BT55 7AG,2013-10-04,fhrs_5_en-GB,5,,FHRS,0
405766,3 Meadow Park,,Portstewart,Londonderry,Meadow Park Lodge,Hotel/bed & breakfast/guest house,7842,0,,90300,5,,55.18335000000000,2452,810,eh@colerainebc.gov.uk,Coleraine,http://www.colerainebc.gov.uk/,-6.69564900000000,BT55 7ST,2012-05-24,fhrs_5_en-GB,5,,FHRS,0
405767,65 Circular Road,,Castlerock,Londonderry,Mels Cuisine (castlerock Golf Club),Restaurant/Cafe/Canteen,1,5,,121762,0,,55.16563900000000,504,810,eh@colerainebc.gov.uk,Coleraine,http://www.colerainebc.gov.uk/,-6.78557700000000,BT51 4TJ,2013-09-12,fhrs_5_en-GB,5,,FHRS,5
405768,,,,,Melvyn Heath,Other catering premises,7841,5,,642699,0,,,2999,810,eh@colerainebc.gov.uk,Coleraine,http://www.colerainebc.gov.uk/,,,2014-02-19,fhrs_5_en-GB,5,,FHRS,0
405769,13-14 The Diamond,,Kilrea,Londonderry,Memory Lane Tea Room,Restaurant/Cafe/Canteen,1,0,,655730,0,,54.95119600000000,3046,810,eh@colerainebc.gov.uk,Coleraine,http://www.colerainebc.gov.uk/,-6.55571300000000,BT51 5QH,2014-03-11,fhrs_5_en-GB,5,,FHRS,5
405770,25 The Diamond,Kilrea,Coleraine,Londonderry,Mercers Arms,Retailers - other,4613,10,,64607,0,,54.95180000000000,1439,810,eh@colerainebc.gov.uk,Coleraine,http://www.colerainebc.gov.uk/,-6.55516100000000,BT51 5QJ,2014-11-21,fhrs_4_en-GB,4,,FHRS,10
405771,3-4 Harbour Road,,Portrush,,Mermaid Cafe (waterworld),Restaurant/Cafe/Canteen,1,20,,52494,20,,55.20727500000000,1186,810,eh@colerainebc.gov.uk,Coleraine,http://www.colerainebc.gov.uk/,-6.65869100000000,BT56 8DF,2014-06-26,fhrs_1_en-GB,1,,FHRS,10
405772,,,,,Millars Catering,Mobile caterer,7846,0,,52423,0,,,1184,810,eh@colerainebc.gov.uk,Coleraine,http://www.colerainebc.gov.uk/,,,2013-09-25,fhrs_5_en-GB,5,,FHRS,0
405773,5 Linden Avenue,,Coleraine,Londonderry,Millburn Community Pre-school Playgroup,Hospitals/Childcare/Caring Premises,5,5,,71635,10,,55.13967700000000,1627,810,eh@colerainebc.gov.uk,Coleraine,http://www.colerainebc.gov.uk/,-6.66277900000000,BT52 2AN,2013-12-09,fhrs_4_en-GB,4,,FHRS,5
405774,2 Greenaway Drive,,Coleraine,Londonderry,Millburn Primary School,School/college/university,7845,0,,49982,5,,55.13885200000000,1111,810,eh@colerainebc.gov.uk,Coleraine,http://www.colerainebc.gov.uk/,-6.66203800000000,BT52 2AQ,2015-01-05,fhrs_5_en-GB,5,,FHRS,5
405775,33 Dhu Varren,,Portrush,Antrim,Millstrand Integrated Primary School,School/college/university,7845,0,,140880,0,,55.19765200000000,77,810,eh@colerainebc.gov.uk,Coleraine,http://www.colerainebc.gov.uk/,-6.66339600000000,BT56 8EW,2013-10-09,fhrs_5_en-GB,5,,FHRS,5
405776,,,,,Mini Do!nuts,Mobile caterer,7846,0,,92764,0,,,2629,810,eh@colerainebc.gov.uk,Coleraine,http://www.colerainebc.gov.uk/,,,2013-08-31,fhrs_5_en-GB,5,,FHRS,0
405777,,,,,Mister Angelo,Retailers - other,4613,0,,657732,5,,,3062,810,eh@colerainebc.gov.uk,Coleraine,http://www.colerainebc.gov.uk/,,,2014-04-17,fhrs_5_en-GB,5,,FHRS,5
405778,24 Cromore Road,,Coleraine,Londonderry,Moka (bridge),Restaurant/Cafe/Canteen,1,0,,606742,5,,55.15092600000000,3038,810,eh@colerainebc.gov.uk,Coleraine,http://www.colerainebc.gov.uk/,-6.68026900000000,BT52 1SA,2013-10-22,fhrs_5_en-GB,5,,FHRS,5
405779,31 New Row,,Coleraine,Londonderry,Mona Lisa,Restaurant/Cafe/Canteen,1,10,,696081,0,,55.13068400000000,3080,810,eh@colerainebc.gov.uk,Coleraine,http://www.colerainebc.gov.uk/,-6.67008800000000,BT52 1AD,2014-08-18,fhrs_4_en-GB,4,,FHRS,5
405780,5 Craigaboney Road,,Bushmills,Antrim,Montalto House,Hotel/bed & breakfast/guest house,7842,0,,63573,0,,55.19939300000000,1403,810,eh@colerainebc.gov.uk,Coleraine,http://www.colerainebc.gov.uk/,-6.54177800000000,BT57 8XD,2012-01-16,fhrs_5_en-GB,5,,FHRS,0
405781,The Rope Walk,,Coleraine,Londonderry,Montra Centre,Other catering premises,7841,0,,71932,0,,55.12525600000000,1636,810,eh@colerainebc.gov.uk,Coleraine,http://www.colerainebc.gov.uk/,-6.68063000000000,BT51 3BS,2013-09-19,fhrs_5_en-GB,5,,FHRS,0
405782,The Rope Walk,,Coleraine,Londonderry,Montra Social Club,Pub/bar/nightclub,7843,0,,51785,0,,55.12525600000000,1163,810,eh@colerainebc.gov.uk,Coleraine,http://www.colerainebc.gov.uk/,-6.68063000000000,BT51 3BS,2013-05-08,fhrs_5_en-GB,5,,FHRS,0
405783,16c Eglinton Street,,Portrush,Antrim,Moons Off License,Retailers - other,4613,,,188219,,,55.20277300000000,2864,810,eh@colerainebc.gov.uk,Coleraine,http://www.colerainebc.gov.uk/,-6.65281100000000,BT56 8DZ,2015-01-21,fhrs_exempt_en-GB,Exempt,,FHRS,
405784,81a Main Street,,Garvagh,Londonderry,Morellis @ Cafe Roma,Restaurant/Cafe/Canteen,1,5,,668749,10,,54.98035600000000,3045,810,eh@colerainebc.gov.uk,Coleraine,http://www.colerainebc.gov.uk/,-6.68809000000000,BT51 5AB,2014-04-24,fhrs_4_en-GB,4,,FHRS,5
405785,Unit 5 Peninsula Apartments Eglinton Street,,Portrush,Antrim,Morellis Cafe Lido,Restaurant/Cafe/Canteen,1,0,,92808,10,,55.20448300000000,2633,810,eh@colerainebc.gov.uk,Coleraine,http://www.colerainebc.gov.uk/,-6.65236100000000,BT56 8DX,2014-06-18,fhrs_4_en-GB,4,,FHRS,5
405786,7 Eglinton Street,,Portrush,Antrim,Morellis Gelateria,Retailers - other,4613,10,,88563,0,,55.20448300000000,2327,810,eh@colerainebc.gov.uk,Coleraine,http://www.colerainebc.gov.uk/,-6.65236100000000,BT56 8DX,2013-08-02,fhrs_4_en-GB,4,,FHRS,0
405787,53-56 The Promenade,,Portstewart,,Morelli's Of Portstewart Ltd,Restaurant/Cafe/Canteen,1,5,,133768,5,,55.18397800000000,667,810,eh@colerainebc.gov.uk,Coleraine,http://www.colerainebc.gov.uk/,-6.71844000000000,BT55 7AF,2014-11-24,fhrs_5_en-GB,5,,FHRS,5
405788,57 The Promenade,,Portstewart,Londonderry,Morelli's To Go,Retailers - other,4613,0,,89635,0,,55.18397800000000,2402,810,eh@colerainebc.gov.uk,Coleraine,http://www.colerainebc.gov.uk/,-6.71844000000000,BT55 7AF,2013-09-09,fhrs_5_en-GB,5,,FHRS,0
405789,74 The Promenade,,Portstewart,Londonderry,Mount Oriel Guest House,Hotel/bed & breakfast/guest house,7842,0,,102310,10,,55.18397800000000,339,810,eh@colerainebc.gov.uk,Coleraine,http://www.colerainebc.gov.uk/,-6.71844000000000,BT55 7AF,2012-05-03,fhrs_4_en-GB,4,,FHRS,10
405790,5 Hillmans Way,,Coleraine,Londonderry,Mountcharles (avx),Restaurant/Cafe/Canteen,1,5,,134460,5,,55.13176000000000,679,810,eh@colerainebc.gov.uk,Coleraine,http://www.colerainebc.gov.uk/,-6.65757200000000,BT52 2DA,2014-04-17,fhrs_5_en-GB,5,,FHRS,0
405791,6 Rugby Avenue,Lodge,Coleraine,Londonderry,Mountfern Adult Centre,Hospitals/Childcare/Caring Premises,5,0,,144466,0,,55.12098700000000,832,810,eh@colerainebc.gov.uk,Coleraine,http://www.colerainebc.gov.uk/,-6.65823100000000,BT52 1JL,2013-05-29,fhrs_5_en-GB,5,,FHRS,5
405792,10 Rugby Avenue,Lodge,Coleraine,Londonderry,Mountfern Challenging Behaviour Unit,Hospitals/Childcare/Caring Premises,5,0,,94753,0,,55.12098700000000,2791,810,eh@colerainebc.gov.uk,Coleraine,http://www.colerainebc.gov.uk/,-6.65823100000000,BT52 1JL,2014-06-12,fhrs_5_en-GB,5,,FHRS,0
405793,3 Glenfern Court,,Coleraine,Londonderry,Mountsandel Meats,Retailers - other,4613,0,,65319,0,,55.11709800000000,1466,810,eh@colerainebc.gov.uk,Coleraine,http://www.colerainebc.gov.uk/,-6.65662200000000,BT52 1NL,2013-04-26,fhrs_5_en-GB,5,,FHRS,0
405794,1 Riverside Park,,Coleraine,Londonderry,Movie House Coleraine,Restaurant/Cafe/Canteen,1,5,,141518,0,,55.11973100000000,780,810,eh@colerainebc.gov.uk,Coleraine,http://www.colerainebc.gov.uk/,-6.67808500000000,BT51 3AW,2015-01-13,fhrs_5_en-GB,5,,FHRS,5
405795,14 Main Street,,Portrush,Antrim,Mr Chips,Takeaway/sandwich shop,7844,5,,144586,5,,55.20806900000000,836,810,eh@colerainebc.gov.uk,Coleraine,http://www.colerainebc.gov.uk/,-6.65657500000000,BT56 8DA,2014-04-09,fhrs_5_en-GB,5,,FHRS,5
405796,22 Main Street,,Portrush,Antrim,Mr Chips Diner,Restaurant/Cafe/Canteen,1,0,,70426,0,,55.20634800000000,16,810,eh@colerainebc.gov.uk,Coleraine,http://www.colerainebc.gov.uk/,-6.65283200000000,BT56 8BL,2013-06-14,fhrs_5_en-GB,5,,FHRS,5
405797,,,,,Mr William Mc Kane (314),Retailers - other,4613,,,61122,,,,1339,810,eh@colerainebc.gov.uk,Coleraine,http://www.colerainebc.gov.uk/,,,2013-01-08,fhrs_exempt_en-GB,Exempt,,FHRS,
405798,Unit 12 Old Court Market Castlerock Road,,Coleraine,Londonderry,Mullans Butchers,Retailers - other,4613,0,,88418,0,,55.13389200000000,2315,810,eh@colerainebc.gov.uk,Coleraine,http://www.colerainebc.gov.uk/,-6.68089400000000,BT51 3HP,2013-09-05,fhrs_5_en-GB,5,,FHRS,5
405799,19 The Diamond,Kilrea,Coleraine,Londonderry,Mullins Ice Cream Shop,Retailers - other,4613,5,,63144,0,,54.95144800000000,1399,810,eh@colerainebc.gov.uk,Coleraine,http://www.colerainebc.gov.uk/,-6.55503300000000,BT51 5QQ,2013-12-13,fhrs_5_en-GB,5,,FHRS,5
405800,9 Curraghmore Road,,Garvagh,Londonderry,Naiscoil Ghleann An Lolair,Hospitals/Childcare/Caring Premises,5,10,,642700,5,,54.95441200000000,3031,810,eh@colerainebc.gov.uk,Coleraine,http://www.colerainebc.gov.uk/,-6.73551400000000,BT51 5DS,2014-03-10,fhrs_3_en-GB,3,,FHRS,10
405801,Strand Road,,Portstewart,Londonderry,National Trust Portstewart Strand (129),Retailers - other,4613,,,88910,,,55.17214300000000,2355,810,eh@colerainebc.gov.uk,Coleraine,http://www.colerainebc.gov.uk/,-6.72486200000000,BT55 7PG,2013-09-13,fhrs_exempt_en-GB,Exempt,,FHRS,
405802,52a Gateside Road,,Coleraine,Londonderry,Neely's Bed And Breakfast,Hotel/bed & breakfast/guest house,7842,0,,142322,0,,55.16216600000000,79,810,eh@colerainebc.gov.uk,Coleraine,http://www.colerainebc.gov.uk/,-6.64366800000000,BT52 2PB,2013-01-08,fhrs_4_en-GB,4,,FHRS,10
405803,54 Kerr Street,,Portrush,Antrim,Neptune & Prawn,Restaurant/Cafe/Canteen,1,5,,714888,5,,55.20709600000000,3123,810,eh@colerainebc.gov.uk,Coleraine,http://www.colerainebc.gov.uk/,-6.65627800000000,BT56 8DQ,2014-10-15,fhrs_5_en-GB,5,,FHRS,5
405804,12 Church Street,,Kilrea,Londonderry,New Golden House,Takeaway/sandwich shop,7844,10,,39985,5,,54.95023300000000,1006,810,eh@colerainebc.gov.uk,Coleraine,http://www.colerainebc.gov.uk/,-6.55562300000000,BT51 5QU,2014-09-29,fhrs_3_en-GB,3,,FHRS,10
405805,Unit 24/26 The Diamond Centre Bridge Street,,Coleraine,Londonderry,New Look Retailer,Retailers - other,4613,,,92925,,,55.13113100000000,2642,810,eh@colerainebc.gov.uk,Coleraine,http://www.colerainebc.gov.uk/,-6.67314600000000,BT52 1DT,2014-02-18,fhrs_exempt_en-GB,Exempt,,FHRS,
405806,54 New Row,,Coleraine,Londonderry,New Society,Restaurant/Cafe/Canteen,1,10,,88292,10,,55.13051900000000,2306,810,eh@colerainebc.gov.uk,Coleraine,http://www.colerainebc.gov.uk/,-6.66973200000000,BT52 1AF,2014-09-23,fhrs_3_en-GB,3,,FHRS,10
405807,2 - 4 Church Street,,Coleraine,Londonderry,Next,Retailers - other,4613,,,54205,,,55.13184400000000,1222,810,eh@colerainebc.gov.uk,Coleraine,http://www.colerainebc.gov.uk/,-6.67015900000000,BT52 1AP,2012-05-10,fhrs_exempt_en-GB,Exempt,,FHRS,
405808,,,,,Nice Buns By Sheryl,Other catering premises,7841,0,,628515,0,,,3042,810,eh@colerainebc.gov.uk,Coleraine,http://www.colerainebc.gov.uk/,,,2014-01-14,fhrs_5_en-GB,5,,FHRS,0
405809,19 Main Street,,Portrush,Antrim,Nisa Drinks,Retailers - other,4613,,,93109,,,55.20634800000000,2656,810,eh@colerainebc.gov.uk,Coleraine,http://www.colerainebc.gov.uk/,-6.65283200000000,BT56 8BL,2013-09-06,fhrs_exempt_en-GB,Exempt,,FHRS,
405810,25 Main Street,,Portrush,Antrim,Nisa Local,Retailers - supermarkets/hypermarkets,7840,10,,96058,0,,55.20634800000000,29,810,eh@colerainebc.gov.uk,Coleraine,http://www.colerainebc.gov.uk/,-6.65283200000000,BT56 8BL,2014-10-08,fhrs_4_en-GB,4,,FHRS,10
405811,,,,,Noeleen Grissam,Other catering premises,7841,5,,446788,5,,,2915,810,eh@colerainebc.gov.uk,Coleraine,http://www.colerainebc.gov.uk/,,,2012-08-30,fhrs_5_en-GB,5,,FHRS,0
405812,21 Cloyfin Road,,Coleraine,Londonderry,North Coast Integrated College Canteen,School/college/university,7845,5,,133371,5,,55.14249700000000,66,810,eh@colerainebc.gov.uk,Coleraine,http://www.colerainebc.gov.uk/,-6.65536000000000,BT52 2NU,2015-01-07,fhrs_5_en-GB,5,,FHRS,5
405813,Union Street,,Coleraine,Londonderry,North Regional College,School/college/university,7845,5,,145101,5,,55.13439600000000,851,810,eh@colerainebc.gov.uk,Coleraine,http://www.colerainebc.gov.uk/,-6.66860000000000,BT52 1QA,2014-11-04,fhrs_5_en-GB,5,,FHRS,5
405814,13 Old Coach Road,,Portstewart,Londonderry,Northgate Bed And Breakfast,Hotel/bed & breakfast/guest house,7842,0,,87437,0,,55.18694400000000,226,810,eh@colerainebc.gov.uk,Coleraine,http://www.colerainebc.gov.uk/,-6.71522000000000,BT55 7BX,2013-05-10,fhrs_5_en-GB,5,,FHRS,5
405815,10 University Park,,Coleraine,Londonderry,Number 10 B & B,Hotel/bed & breakfast/guest house,7842,10,,88461,0,,55.15421400000000,2319,810,eh@colerainebc.gov.uk,Coleraine,http://www.colerainebc.gov.uk/,-6.67038700000000,BT52 1JU,2013-09-26,fhrs_4_en-GB,4,,FHRS,0
405816,6 Lansdowne Crescent,,Portrush,Antrim,Oakdene Guest House,Hotel/bed & breakfast/guest house,7842,10,,555250,0,,55.20951300000000,3000,810,eh@colerainebc.gov.uk,Coleraine,http://www.colerainebc.gov.uk/,-6.65638500000000,BT56 8AY,2013-04-24,fhrs_4_en-GB,4,,FHRS,10
405817,33a Railway Road,,Coleraine,Londonderry,Oasis Gaming Centre,Restaurant/Cafe/Canteen,1,5,,537923,5,,55.13300900000000,271,810,eh@colerainebc.gov.uk,Coleraine,http://www.colerainebc.gov.uk/,-6.66502400000000,BT52 1PE,2013-04-19,fhrs_5_en-GB,5,,FHRS,5
405818,3 The Diamond,Kilrea,Coleraine,Londonderry,O'briens,Retailers - other,4613,5,,74118,0,,54.95154800000000,1703,810,eh@colerainebc.gov.uk,Coleraine,http://www.colerainebc.gov.uk/,-6.55588800000000,BT51 5QG,2013-05-15,fhrs_5_en-GB,5,,FHRS,5
405819,8 Killowen Court,,Coleraine,Londonderry,Occasional Creche At West Bann Development Ltd,Hospitals/Childcare/Caring Premises,5,5,,71403,0,,55.13115800000000,1620,810,eh@colerainebc.gov.uk,Coleraine,http://www.colerainebc.gov.uk/,-6.67811500000000,BT51 3TP,2014-08-14,fhrs_5_en-GB,5,,FHRS,0
405820,5 Eglinton Street,,Portrush,Antrim,Ocean Cafe,Restaurant/Cafe/Canteen,1,0,,94669,5,,55.20448300000000,2783,810,eh@colerainebc.gov.uk,Coleraine,http://www.colerainebc.gov.uk/,-6.65236100000000,BT56 8DX,2014-05-23,fhrs_5_en-GB,5,,FHRS,5
405821,6 Captain Street Lower,,Coleraine,Londonderry,Ocho Tapas Bistro,Restaurant/Cafe/Canteen,1,10,,628518,15,,55.13205000000000,3066,810,eh@colerainebc.gov.uk,Coleraine,http://www.colerainebc.gov.uk/,-6.67923000000000,BT51 3DT,2014-12-03,fhrs_2_en-GB,2,,FHRS,10
405822,80 Drumagarner Road,,Kilrea,Londonderry,Old Point Inn,Pub/bar/nightclub,7843,0,,51938,0,,54.93825800000000,1168,810,eh@colerainebc.gov.uk,Coleraine,http://www.colerainebc.gov.uk/,-6.57160900000000,BT51 5TE,2013-07-05,fhrs_5_en-GB,5,,FHRS,5
405823,22-24 Maghera Street,,Kilrea,Londonderry,Owenies,Retailers - other,4613,5,,133909,5,,54.95111200000000,669,810,eh@colerainebc.gov.uk,Coleraine,http://www.colerainebc.gov.uk/,-6.55701100000000,BT51 5QN,2014-10-02,fhrs_5_en-GB,5,,FHRS,5
405824,76&77 The Promenade,,Portstewart,Londonderry,P Osborne Family Butcher,Retailers - other,4613,5,,136393,0,,55.18397800000000,707,810,eh@colerainebc.gov.uk,Coleraine,http://www.colerainebc.gov.uk/,-6.71844000000000,BT55 7AF,2012-10-23,fhrs_5_en-GB,5,,FHRS,5
405825,1 Bushmills Road,,Coleraine,Londonderry,Patsys Bar,Retailers - other,4613,0,,128492,5,,55.13518200000000,585,810,eh@colerainebc.gov.uk,Coleraine,http://www.colerainebc.gov.uk/,-6.66249000000000,BT52 2BN,2014-10-09,fhrs_5_en-GB,5,,FHRS,0
405826,22a The Promenade,,Portstewart,Londonderry,Paul McElhone (723)(1234) (CP396),Retailers - other,4613,,,139763,,,55.18674300000000,756,810,eh@colerainebc.gov.uk,Coleraine,http://www.colerainebc.gov.uk/,-6.71918300000000,BT55 7AD,2012-08-24,fhrs_exempt_en-GB,Exempt,,FHRS,
405827,6a Rugby Avenue,,Coleraine,,Pavestone Centre,Hospitals/Childcare/Caring Premises,5,0,,94740,0,,55.12098700000000,2790,810,eh@colerainebc.gov.uk,Coleraine,http://www.colerainebc.gov.uk/,-6.65823100000000,BT52 1JL,2013-07-05,fhrs_5_en-GB,5,,FHRS,0
405828,3 Waterside Street,,Coleraine,Londonderry,Peking Garden Chinese Take Away,Takeaway/sandwich shop,7844,0,,88340,5,,55.13190300000000,231,810,eh@colerainebc.gov.uk,Coleraine,http://www.colerainebc.gov.uk/,-6.67641300000000,BT51 3DP,2013-10-08,fhrs_5_en-GB,5,,FHRS,5
405829,,,,,Philip Linton,Retailers - other,4613,10,,516476,0,,,2934,810,eh@colerainebc.gov.uk,Coleraine,http://www.colerainebc.gov.uk/,,,2013-02-16,fhrs_4_en-GB,4,,FHRS,0
405830,72 Main Street,,Portrush,Antrim,Phils Amusements,Retailers - other,4613,,,106047,,,55.20750600000000,367,810,eh@colerainebc.gov.uk,Coleraine,http://www.colerainebc.gov.uk/,-6.65433200000000,BT56 8BN,2012-05-09,fhrs_exempt_en-GB,Exempt,,FHRS,
405831,8 Stone Row,,Coleraine,Londonderry,Pieces Of Eight,Restaurant/Cafe/Canteen,1,10,,122039,10,,55.13098700000000,506,810,eh@colerainebc.gov.uk,Coleraine,http://www.colerainebc.gov.uk/,-6.67070500000000,BT52 1EP,2013-06-13,fhrs_3_en-GB,3,,FHRS,10
405832,76 Main Street,,Portrush,Antrim,Pizza Casa,Restaurant/Cafe/Canteen,1,5,,150817,0,,55.20750600000000,992,810,eh@colerainebc.gov.uk,Coleraine,http://www.colerainebc.gov.uk/,-6.65433200000000,BT56 8BN,2013-03-08,fhrs_5_en-GB,5,,FHRS,5
405833,4 Waterside Street,,Coleraine,Londonderry,Pizza Pomodoro,Restaurant/Cafe/Canteen,1,0,,123148,5,,55.13190300000000,516,810,eh@colerainebc.gov.uk,Coleraine,http://www.colerainebc.gov.uk/,-6.67641300000000,BT51 3DP,2014-02-04,fhrs_5_en-GB,5,,FHRS,0
405834,13 The Rope Walk,,Coleraine,,Playhouse Activity Centre,Hospitals/Childcare/Caring Premises,5,5,,71330,0,,55.12535600000000,1618,810,eh@colerainebc.gov.uk,Coleraine,http://www.colerainebc.gov.uk/,-6.68158300000000,BT51 3EZ,2015-01-07,fhrs_5_en-GB,5,,FHRS,0
405835,34 Beach Road,,Portballintrae,Antrim,Portballintrae Boat Club,Pub/bar/nightclub,7843,5,,55394,5,,55.21872900000000,1250,810,eh@colerainebc.gov.uk,Coleraine,http://www.colerainebc.gov.uk/,-6.54358500000000,BT57 8RT,2014-07-31,fhrs_5_en-GB,5,,FHRS,5
405836,12 Waterside Street,,Coleraine,Londonderry,Porterhouse,Retailers - other,4613,20,,137882,10,,55.13190300000000,73,810,eh@colerainebc.gov.uk,Coleraine,http://www.colerainebc.gov.uk/,-6.67641300000000,BT51 3DP,2014-05-06,fhrs_1_en-GB,1,,FHRS,15
405837,75 Bann Road,,Kilrea,Londonderry,Portneal,Hotel/bed & breakfast/guest house,7842,5,,40712,0,,54.95700000000000,1016,810,eh@colerainebc.gov.uk,Coleraine,http://www.colerainebc.gov.uk/,-6.54378100000000,BT51 5RX,2014-07-03,fhrs_5_en-GB,5,,FHRS,5
405838,12a Dunluce Avenue,,Portrush,Antrim,Portrush Discount Store,Retailers - other,4613,,,150959,,,55.20302300000000,996,810,eh@colerainebc.gov.uk,Coleraine,http://www.colerainebc.gov.uk/,-6.65189200000000,BT56 8DW,2013-06-12,fhrs_exempt_en-GB,Exempt,,FHRS,
405839,185 Bushmills Road,,Portrush,Antrim,Portrush Filling Station,Retailers - other,4613,5,,148100,5,,55.20094300000000,924,810,eh@colerainebc.gov.uk,Coleraine,http://www.colerainebc.gov.uk/,-6.64250700000000,BT56 8JG,2014-01-21,fhrs_5_en-GB,5,,FHRS,0
405840,75 Crocknamack Road,,Portrush,Antrim,Portrush Pre-school Playgroup,School/college/university,7845,5,,138652,0,,55.19970000000000,74,810,eh@colerainebc.gov.uk,Coleraine,http://www.colerainebc.gov.uk/,-6.64788900000000,BT56 8JW,2013-11-14,fhrs_5_en-GB,5,,FHRS,0
405841,75 Crocknamack Road,,Portrush,Antrim,Portrush Primary School Meals Kitchen,School/college/university,7845,0,,142926,0,,55.19970000000000,800,810,eh@colerainebc.gov.uk,Coleraine,http://www.colerainebc.gov.uk/,-6.64788900000000,BT56 8JW,2013-09-11,fhrs_5_en-GB,5,,FHRS,5
405842,16 Dunluce Street,,Portrush,,Portrush Royal British Legion,Pub/bar/nightclub,7843,0,,62284,0,,55.20302300000000,1375,810,eh@colerainebc.gov.uk,Coleraine,http://www.colerainebc.gov.uk/,-6.65189200000000,BT56 8DW,2014-11-14,fhrs_2_en-GB,2,,FHRS,15
405843,North Quay Harbour Road,,Portrush,Antrim,Portrush Sea Tours,Retailers - other,4613,0,,570404,0,,55.20727500000000,2979,810,eh@colerainebc.gov.uk,Coleraine,http://www.colerainebc.gov.uk/,-6.65869100000000,BT56 8DF,2013-07-05,fhrs_5_en-GB,5,,FHRS,0
405844,7 Eglinton Street,,Portrush,Antrim,Portrush Toys And Souvenirs,Retailers - other,4613,,,92795,,,55.20448300000000,2631,810,eh@colerainebc.gov.uk,Coleraine,http://www.colerainebc.gov.uk/,-6.65236100000000,BT56 8DX,2013-11-08,fhrs_exempt_en-GB,Exempt,,FHRS,
405845,7 Harbour Road,,Portrush,Antrim,Portrush Yacht Club,Pub/bar/nightclub,7843,0,,55531,0,,55.20727500000000,1253,810,eh@colerainebc.gov.uk,Coleraine,http://www.colerainebc.gov.uk/,-6.65869100000000,BT56 8DF,2012-09-14,fhrs_5_en-GB,5,,FHRS,5
405846,2 Coleraine Road,,Portstewart,Londonderry,Portstewart Arms / Spuds,Retailers - other,4613,5,,135990,0,,55.18128900000000,70,810,eh@colerainebc.gov.uk,Coleraine,http://www.colerainebc.gov.uk/,-6.71734900000000,BT55 7JW,2013-07-16,fhrs_5_en-GB,5,,FHRS,5
405847,32 St Johns Close,,Portstewart,,Portstewart Football Club,Pub/bar/nightclub,7843,0,,62740,0,,55.17947100000000,1388,810,eh@colerainebc.gov.uk,Coleraine,http://www.colerainebc.gov.uk/,-6.71359300000000,BT55 7HJ,2014-02-18,fhrs_5_en-GB,5,,FHRS,0
405848,117 Strand Road,,Portstewart,Londonderry,Portstewart Golf Club,Retailers - other,4613,5,,74316,5,,55.17214300000000,1712,810,eh@colerainebc.gov.uk,Coleraine,http://www.colerainebc.gov.uk/,-6.72486200000000,BT55 7PG,2012-09-14,fhrs_5_en-GB,5,,FHRS,0
405849,117 Strand Road,,Portstewart,Londonderry,Portstewart Golf Club - Cl Catering,Pub/bar/nightclub,7843,5,,65116,0,,55.17214300000000,1459,810,eh@colerainebc.gov.uk,Coleraine,http://www.colerainebc.gov.uk/,-6.72486200000000,BT55 7PG,2013-07-01,fhrs_5_en-GB,5,,FHRS,5
405850,22-24 Central Avenue,,Portstewart,,Portstewart Primary School Meals Kitchen,School/college/university,7845,5,,105202,0,,55.18547000000000,361,810,eh@colerainebc.gov.uk,Coleraine,http://www.colerainebc.gov.uk/,-6.71426300000000,BT55 7BT,2014-09-04,fhrs_5_en-GB,5,,FHRS,5
405851,76a Long Commons,,Coleraine,Londonderry,Potters Snooker And Pool Club,Restaurant/Cafe/Canteen,1,10,,682834,5,,55.13084300000000,1268,810,eh@colerainebc.gov.uk,Coleraine,http://www.colerainebc.gov.uk/,-6.66732300000000,BT52 1LH,2014-07-10,fhrs_4_en-GB,4,,FHRS,5
405852,17 - 23 Church Street,,Coleraine,Londonderry,Poundland,Retailers - supermarkets/hypermarkets,7840,5,,429535,5,,55.13148700000000,2902,810,eh@colerainebc.gov.uk,Coleraine,http://www.colerainebc.gov.uk/,-6.66871200000000,BT52 1AW,2012-07-19,fhrs_5_en-GB,5,,FHRS,5
405853,4 Riverside Regional Centre,,Coleraine,Londonderry,Poundstretcher,Retailers - other,4613,5,,632945,0,,55.12019100000000,3069,810,eh@colerainebc.gov.uk,Coleraine,http://www.colerainebc.gov.uk/,-6.67408800000000,BT51 3QQ,2014-01-21,fhrs_5_en-GB,5,,FHRS,0
405854,20 Lansdowne Crescent,,Portrush,Antrim,Prospect B & B,Hotel/bed & breakfast/guest house,7842,0,,81771,0,,55.20951300000000,2,810,eh@colerainebc.gov.uk,Coleraine,http://www.colerainebc.gov.uk/,-6.65638500000000,BT56 8AY,2013-05-08,fhrs_5_en-GB,5,,FHRS,0
405855,15&17 Maghera Street,Kilrea,Coleraine,Londonderry,Prosperous House,Takeaway/sandwich shop,7844,0,,55611,0,,54.95138400000000,1255,810,eh@colerainebc.gov.uk,Coleraine,http://www.colerainebc.gov.uk/,-6.55717300000000,BT51 5QL,2014-08-11,fhrs_5_en-GB,5,,FHRS,5
405856,63 Eglinton Street,,Portrush,Antrim,Quays,Pub/bar/nightclub,7843,,,655733,,,55.20277300000000,3074,810,eh@colerainebc.gov.uk,Coleraine,http://www.colerainebc.gov.uk/,-6.65281100000000,BT56 8DZ,2014-12-05,fhrs_5_en-GB,5,,FHRS,
405857,7 Bridge Street,,Coleraine,Londonderry,Queens Arms,Retailers - other,4613,10,,134507,0,,55.13182000000000,68,810,eh@colerainebc.gov.uk,Coleraine,http://www.colerainebc.gov.uk/,-6.67288800000000,BT52 1DR,2012-03-29,fhrs_4_en-GB,4,,FHRS,10
405858,23 Green Road,,Articlave,Londonderry,Quilly Farmhouse,Hotel/bed & breakfast/guest house,7842,0,,55270,10,,55.13518000000000,1248,810,eh@colerainebc.gov.uk,Coleraine,http://www.colerainebc.gov.uk/,-6.73894500000000,BT51 4LX,2013-04-25,fhrs_4_en-GB,4,,FHRS,0
405859,53 Railway Road,,Coleraine,Londonderry,Railway Arms,Pub/bar/nightclub,7843,0,,122549,5,,55.13386200000000,510,810,eh@colerainebc.gov.uk,Coleraine,http://www.colerainebc.gov.uk/,-6.66413300000000,BT52 1PF,2013-04-25,fhrs_5_en-GB,5,,FHRS,5
405860,11 Railway Road,,Coleraine,Londonderry,Railway Meats,Retailers - other,4613,0,,114741,0,,55.13199400000000,439,810,eh@colerainebc.gov.uk,Coleraine,http://www.colerainebc.gov.uk/,-6.66582600000000,BT52 1PD,2013-06-07,fhrs_5_en-GB,5,,FHRS,5
405861,1 Knockbracken Park,,Coleraine,Londonderry,Rainbows Private Day Nursery,School/college/university,7845,5,,117837,5,,55.11315400000000,471,810,eh@colerainebc.gov.uk,Coleraine,http://www.colerainebc.gov.uk/,-6.64042400000000,BT52 1WP,2014-10-15,fhrs_5_en-GB,5,,FHRS,0
405862,73 Main Street,,Portrush,Antrim,Ramada Portrush,Hotel/bed & breakfast/guest house,7842,0,,146968,0,,55.20750600000000,904,810,eh@colerainebc.gov.uk,Coleraine,http://www.colerainebc.gov.uk/,-6.65433200000000,BT56 8BN,2013-05-23,fhrs_5_en-GB,5,,FHRS,0
405863,8 Ramore Avenue,,Portrush,Antrim,Ramona Guest House,Hotel/bed & breakfast/guest house,7842,5,,51495,0,,55.20975400000000,1154,810,eh@colerainebc.gov.uk,Coleraine,http://www.colerainebc.gov.uk/,-6.65786900000000,BT56 8BB,2013-03-04,fhrs_5_en-GB,5,,FHRS,0
405864,1 Harbour Road,,Portrush,Antrim,Ramore Restaurants Limited,Restaurant/Cafe/Canteen,1,10,,80748,10,,55.20727500000000,196,810,eh@colerainebc.gov.uk,Coleraine,http://www.colerainebc.gov.uk/,-6.65869000000000,BT56 8DF,2014-11-27,fhrs_3_en-GB,3,,FHRS,10
405865,92 Union Street,,Coleraine,Londonderry,Rathain Fold,Hospitals/Childcare/Caring Premises,5,0,,135465,0,,55.13512900000000,692,810,eh@colerainebc.gov.uk,Coleraine,http://www.colerainebc.gov.uk/,-6.66501600000000,BT52 1QW,2014-06-03,fhrs_5_en-GB,5,,FHRS,0
405866,58 Mountsandel Road,,Coleraine,Londonderry,Ratheane Private Nursing Home,Hospitals/Childcare/Caring Premises,5,5,,79013,0,,55.12026200000000,19,810,eh@colerainebc.gov.uk,Coleraine,http://www.colerainebc.gov.uk/,-6.66088800000000,BT52 1JF,2014-02-25,fhrs_5_en-GB,5,,FHRS,5
405867,Bushmills Road,,Portrush,Antrim,Rathmore Golf Club,Pub/bar/nightclub,7843,10,,134020,0,,55.20094300000000,671,810,eh@colerainebc.gov.uk,Coleraine,http://www.colerainebc.gov.uk/,-6.64250700000000,BT56 8JG,2013-02-22,fhrs_4_en-GB,4,,FHRS,10
405868,135 Atlantic Road,,Portrush,Londonderry,Ridge Club,Hospitals/Childcare/Caring Premises,5,5,,94653,5,,55.18170700000000,2782,810,eh@colerainebc.gov.uk,Coleraine,http://www.colerainebc.gov.uk/,-6.65851400000000,BT56 8PB,2014-04-23,fhrs_5_en-GB,5,,FHRS,0
405869,184 Castleroe Road,,Coleraine,Londonderry,Riding For The Disabled Coleraine,Restaurant/Cafe/Canteen,1,0,,615840,0,,55.09626200000000,2480,810,eh@colerainebc.gov.uk,Coleraine,http://www.colerainebc.gov.uk/,-6.65063200000000,BT51 3RW,2013-11-21,fhrs_5_en-GB,5,,FHRS,5
405870,3 Riverside Park North,,Coleraine,Londonderry,Riverside Table Table And Coleraine Premier Inn,Hotel/bed & breakfast/guest house,7842,5,,88399,0,,55.12141200000000,2313,810,eh@colerainebc.gov.uk,Coleraine,http://www.colerainebc.gov.uk/,-6.67160300000000,BT51 3GE,2013-04-17,fhrs_5_en-GB,5,,FHRS,5
405871,Cromore Road,Ballysally,Coleraine,Londonderry,Riverside Theatre University Of Ulster,Retailers - other,4613,0,,119280,0,,55.15092600000000,485,810,eh@colerainebc.gov.uk,Coleraine,http://www.colerainebc.gov.uk/,-6.68026900000000,BT52 1SA,2014-04-30,fhrs_5_en-GB,5,,FHRS,0
405872,37 Abbey Street,,Coleraine,Londonderry,Rnib Northern Ireland,Pub/bar/nightclub,7843,10,,139809,5,,55.12987800000000,757,810,eh@colerainebc.gov.uk,Coleraine,http://www.colerainebc.gov.uk/,-6.67198000000000,BT52 1EX,2012-05-11,fhrs_4_en-GB,4,,FHRS,5
405873,Rnli Boathouse Harbour,,Portrush,Antrim,Rnli Souvenir Shop,Retailers - other,4613,,,76269,,,55.20727500000000,1796,810,eh@colerainebc.gov.uk,Coleraine,http://www.colerainebc.gov.uk/,-6.65869100000000,BT56 8DF,2012-11-05,fhrs_exempt_en-GB,Exempt,,FHRS,
405874,9 Somerset Road,,Coleraine,Londonderry,Roadside Garage Limited,Restaurant/Cafe/Canteen,1,5,,719490,0,,55.11792000000000,322,810,eh@colerainebc.gov.uk,Coleraine,http://www.colerainebc.gov.uk/,-6.67921000000000,BT51 3LL,2014-11-26,fhrs_5_en-GB,5,,FHRS,0
405875,11-15 Bridge Street,,Coleraine,Londonderry,Rocca,Restaurant/Cafe/Canteen,1,10,,95111,0,,55.13182000000000,2810,810,eh@colerainebc.gov.uk,Coleraine,http://www.colerainebc.gov.uk/,-6.67288800000000,BT52 1DR,2013-03-07,fhrs_4_en-GB,4,,FHRS,0
405876,3 Main Street,,Castlerock,Londonderry,Rock Cafe,Restaurant/Cafe/Canteen,1,10,,369078,10,,55.16628200000000,2877,810,eh@colerainebc.gov.uk,Coleraine,http://www.colerainebc.gov.uk/,-6.78970000000000,BT51 4RA,2013-07-25,fhrs_3_en-GB,3,,FHRS,5
405877,7 Rock Drive,,Portstewart,Londonderry,Rock House Holiday Home,Hotel/bed & breakfast/guest house,7842,5,,59609,5,,55.17528200000000,131,810,eh@colerainebc.gov.uk,Coleraine,http://www.colerainebc.gov.uk/,-6.72355300000000,BT55 7PE,2013-08-01,fhrs_5_en-GB,5,,FHRS,0
405878,54 Kerr Street,,Portrush,Antrim,Rogues Bar,Retailers - other,4613,0,,145360,5,,55.20709600000000,86,810,eh@colerainebc.gov.uk,Coleraine,http://www.colerainebc.gov.uk/,-6.65627800000000,BT56 8DQ,2013-07-25,fhrs_4_en-GB,4,,FHRS,10
405879,2 Shuttle Hill,Churchland,Coleraine,Londonderry,Roost Bar,Retailers - other,4613,0,,144136,5,,55.12756700000000,823,810,eh@colerainebc.gov.uk,Coleraine,http://www.colerainebc.gov.uk/,-6.67588200000000,BT51 3BZ,2013-11-12,fhrs_5_en-GB,5,,FHRS,0
405880,15&16 The Promenade,,Portstewart,,Roughans,Restaurant/Cafe/Canteen,1,5,,51819,10,,55.18674300000000,1164,810,eh@colerainebc.gov.uk,Coleraine,http://www.colerainebc.gov.uk/,-6.71918300000000,BT55 7AD,2014-11-14,fhrs_4_en-GB,4,,FHRS,5
405881,4a Newbridge Road,,Coleraine,Londonderry,Roy Stewart Hospital Shop,Retailers - other,4613,5,,65592,5,,55.11691000000000,1475,810,eh@colerainebc.gov.uk,Coleraine,http://www.colerainebc.gov.uk/,-6.63250700000000,BT52 1TP,2012-02-03,fhrs_5_en-GB,5,,FHRS,5
405882,21 Lever Road,,Portstewart,,Royal British Legion Club Portstewart,Pub/bar/nightclub,7843,5,,133963,0,,55.18315700000000,670,810,eh@colerainebc.gov.uk,Coleraine,http://www.colerainebc.gov.uk/,-6.71636200000000,BT55 7BN,2013-10-17,fhrs_5_en-GB,5,,FHRS,0
405883,233 Ballybogy Road,,Portrush,Antrim,Royal Court Hotel,Hotel/bed & breakfast/guest house,7842,5,,114591,5,,55.20172400000000,437,810,eh@colerainebc.gov.uk,Coleraine,http://www.colerainebc.gov.uk/,-6.60745600000000,BT56 8NF,2014-08-28,fhrs_5_en-GB,5,,FHRS,5
405884,Dunluce Road,,Portrush,Antrim,Royal Portrush Golf Club,Pub/bar/nightclub,7843,0,,118937,0,,55.19996600000000,482,810,eh@colerainebc.gov.uk,Coleraine,http://www.colerainebc.gov.uk/,-6.61711300000000,BT56 8NB,2014-01-08,fhrs_5_en-GB,5,,FHRS,5
405885,Dunluce Road,,Portrush,Antrim,Royal Portrush Golf Club (ladies Branch),Pub/bar/nightclub,7843,10,,56824,0,,55.19996600000000,1286,810,eh@colerainebc.gov.uk,Coleraine,http://www.colerainebc.gov.uk/,-6.61711300000000,BT56 8NB,2014-02-11,fhrs_4_en-GB,4,,FHRS,5
405886,8 Sea Road,,Castlerock,Londonderry,Ruths Home Bakery,Manufacturers/packers,7839,0,,55338,0,,55.16600400000000,1249,810,eh@colerainebc.gov.uk,Coleraine,http://www.colerainebc.gov.uk/,-6.78611500000000,BT51 4RE,2013-09-25,fhrs_5_en-GB,5,,FHRS,5
405887,62 Main Street,,Garvagh,Londonderry,S J Wilkinson (714) (1485),Retailers - other,4613,,,67941,,,54.98235200000000,1519,810,eh@colerainebc.gov.uk,Coleraine,http://www.colerainebc.gov.uk/,-6.68825900000000,BT51 5AE,2014-01-13,fhrs_exempt_en-GB,Exempt,,FHRS,
405888,10 Riverside Park,,Coleraine,Londonderry,Sainsburys,Retailers - supermarkets/hypermarkets,7840,0,,141510,5,,55.11973100000000,78,810,eh@colerainebc.gov.uk,Coleraine,http://www.colerainebc.gov.uk/,-6.67808500000000,BT51 3AW,2015-01-26,fhrs_5_en-GB,5,,FHRS,0
405889,24 Riverside Regional Centre,,Coleraine,Londonderry,Sainsbury's Petrol Station,Retailers - other,4613,0,,65157,0,,55.12019100000000,146,810,eh@colerainebc.gov.uk,Coleraine,http://www.colerainebc.gov.uk/,-6.67408800000000,BT51 3QQ,2013-04-30,fhrs_4_en-GB,4,,FHRS,10
405890,12a Dunluce Avenue,,Portrush,Antrim,Salad Bowl,Retailers - other,4613,5,,116762,0,,55.20302300000000,46,810,eh@colerainebc.gov.uk,Coleraine,http://www.colerainebc.gov.uk/,-6.65189200000000,BT56 8DW,2012-10-24,fhrs_5_en-GB,5,,FHRS,0
405891,6 Queen Street,,Coleraine,Londonderry,Salad Bowl Farm Shop,Retailers - other,4613,5,,717150,5,,55.13246300000000,3109,810,eh@colerainebc.gov.uk,Coleraine,http://www.colerainebc.gov.uk/,-6.67176900000000,BT52 1BE,2014-11-12,fhrs_5_en-GB,5,,FHRS,5
405892,101 Daneshill Road,Ballysally,Coleraine,Londonderry,Sally's Healthy Eating Cafe,Restaurant/Cafe/Canteen,1,5,,88547,0,,55.14664500000000,2326,810,eh@colerainebc.gov.uk,Coleraine,http://www.colerainebc.gov.uk/,-6.65922000000000,BT52 2QJ,2013-07-01,fhrs_5_en-GB,5,,FHRS,5
405893,8 Rugby Avenue,Lodge,Coleraine,Londonderry,Sandelford Special School (452),School/college/university,7845,0,,142660,0,,55.12098700000000,796,810,eh@colerainebc.gov.uk,Coleraine,http://www.colerainebc.gov.uk/,-6.65823100000000,BT52 1JL,2013-10-08,fhrs_5_en-GB,5,,FHRS,5
405894,35 Church Street,,Coleraine,Londonderry,Savers Health & Beauty,Retailers - other,4613,,,730944,,,55.13148600000000,3230,810,eh@colerainebc.gov.uk,Coleraine,http://www.colerainebc.gov.uk/,-6.66871200000000,BT52 1AW,2015-01-08,fhrs_exempt_en-GB,Exempt,,FHRS,
405895,Gateside Road,,Coleraine,Londonderry,Scotts Farm Shop,Retailers - other,4613,10,,699794,0,,55.14778700000000,3127,810,eh@colerainebc.gov.uk,Coleraine,http://www.colerainebc.gov.uk/,-6.65118300000000,BT52 2NR,2014-08-11,fhrs_2_en-GB,2,,FHRS,15
405896,12 Bath Terrace,,Portrush,Antrim,Seabank Private Residential Home,Hospitals/Childcare/Caring Premises,5,0,,55133,0,,55.20699600000000,1244,810,eh@colerainebc.gov.uk,Coleraine,http://www.colerainebc.gov.uk/,-6.65210300000000,BT56 8AN,2014-05-20,fhrs_5_en-GB,5,,FHRS,5
405897,44 Main Street,,Portrush,Antrim,Seaside Savers,Takeaway/sandwich shop,7844,0,,732592,0,,55.20634800000000,3247,810,eh@colerainebc.gov.uk,Coleraine,http://www.colerainebc.gov.uk/,-6.65283200000000,BT56 8BL,2015-01-19,fhrs_5_en-GB,5,,FHRS,0
405898,Castlerock Road,,Coleraine,Londonderry,Serco Integrated Services,Restaurant/Cafe/Canteen,1,0,,61776,5,,55.13381800000000,1360,810,eh@colerainebc.gov.uk,Coleraine,http://www.colerainebc.gov.uk/,-6.67990800000000,BT51 3HS,2014-06-06,fhrs_5_en-GB,5,,FHRS,0
405899,25 The Promenade,,Portstewart,Londonderry,Sheila's,Retailers - other,4613,0,,92016,0,,55.18674300000000,2574,810,eh@colerainebc.gov.uk,Coleraine,http://www.colerainebc.gov.uk/,-6.71918300000000,BT55 7AD,2013-08-02,fhrs_5_en-GB,5,,FHRS,0
405900,78 The Promenade,,Portstewart,Londonderry,Shenanigans,Pub/bar/nightclub,7843,5,,123459,0,,55.18397800000000,519,810,eh@colerainebc.gov.uk,Coleraine,http://www.colerainebc.gov.uk/,-6.71844000000000,BT55 7AF,2015-01-16,fhrs_4_en-GB,4,,FHRS,10
405901,4-6 Coleraine Street,,Kilrea,Londonderry,Shields Pharmacy,Retailers - other,4613,,,129756,,,54.95217000000000,607,810,eh@colerainebc.gov.uk,Coleraine,http://www.colerainebc.gov.uk/,-6.55605300000000,BT51 5QD,2012-11-05,fhrs_exempt_en-GB,Exempt,,FHRS,
405902,110a Gateside Road,,Portrush,Londonderry,Shola Coach House B & B,Hotel/bed & breakfast/guest house,7842,5,,74450,0,,55.18563000000000,1717,810,eh@colerainebc.gov.uk,Coleraine,http://www.colerainebc.gov.uk/,-6.63159800000000,BT56 8NP,2013-03-22,fhrs_5_en-GB,5,,FHRS,5
405903,,,,,Simply Irresistible,Mobile caterer,7846,10,,331993,0,,,2893,810,eh@colerainebc.gov.uk,Coleraine,http://www.colerainebc.gov.uk/,,,2013-12-09,fhrs_4_en-GB,4,,FHRS,0
405904,61 Eglinton Street,,Portrush,Antrim,Simpson Pharmacy,Retailers - other,4613,,,52221,,,55.20026100000000,1177,810,eh@colerainebc.gov.uk,Coleraine,http://www.colerainebc.gov.uk/,-6.65399500000000,BT56 8DY,2013-11-11,fhrs_exempt_en-GB,Exempt,,FHRS,
405905,Dunluce Avenue,,Portrush,Antrim,Skerries Fold (463),Hospitals/Childcare/Caring Premises,5,5,,86949,0,,55.20272500000000,223,810,eh@colerainebc.gov.uk,Coleraine,http://www.colerainebc.gov.uk/,-6.65009500000000,BT56 8PY,2012-05-16,fhrs_4_en-GB,4,,FHRS,10
405906,116 Carrowreagh Road,,Garvagh,Londonderry,Skysports Catering,Restaurant/Cafe/Canteen,1,5,,91676,0,,54.98664500000000,2545,810,eh@colerainebc.gov.uk,Coleraine,http://www.colerainebc.gov.uk/,-6.64309600000000,BT51 5LQ,2014-07-24,fhrs_5_en-GB,5,,FHRS,5
405907,335 Dunhill Road,,Coleraine,Londonderry,Somerset Service Station,Retailers - supermarkets/hypermarkets,7840,5,,58870,5,,55.10699200000000,1303,810,eh@colerainebc.gov.uk,Coleraine,http://www.colerainebc.gov.uk/,-6.69379800000000,BT51 3QJ,2013-04-16,fhrs_5_en-GB,5,,FHRS,5
405908,121 Millburn Road,,Coleraine,Londonderry,Spar,Retailers - other,4613,5,,127319,5,,55.13877200000000,565,810,eh@colerainebc.gov.uk,Coleraine,http://www.colerainebc.gov.uk/,-6.66624300000000,BT52 1QY,2014-02-18,fhrs_5_en-GB,5,,FHRS,5
405909,12-14 Knocklynn Road,,Coleraine,Londonderry,Spar,Retailers - supermarkets/hypermarkets,7840,5,,132946,5,,55.14027700000000,652,810,eh@colerainebc.gov.uk,Coleraine,http://www.colerainebc.gov.uk/,-6.62359700000000,BT52 2WT,2015-01-12,fhrs_5_en-GB,5,,FHRS,5
405910,Castlerock Road,,Coleraine,Londonderry,Spar,Retailers - supermarkets/hypermarkets,7840,0,,149808,5,,55.13389200000000,967,810,eh@colerainebc.gov.uk,Coleraine,http://www.colerainebc.gov.uk/,-6.68089400000000,BT51 3HP,2014-01-15,fhrs_5_en-GB,5,,FHRS,5
405911,69 Main Street,,Garvagh,Londonderry,Spar Garvagh,Retailers - other,4613,0,,54986,5,,54.98035600000000,124,810,eh@colerainebc.gov.uk,Coleraine,http://www.colerainebc.gov.uk/,-6.68809000000000,BT51 5AB,2013-03-22,fhrs_5_en-GB,5,,FHRS,5
405912,158 Ballycastle Road,,Coleraine,Londonderry,Spar Harpurs Hill,Retailers - supermarkets/hypermarkets,7840,0,,55800,0,,55.13425700000000,1260,810,eh@colerainebc.gov.uk,Coleraine,http://www.colerainebc.gov.uk/,-6.65267400000000,BT52 2EH,2014-10-08,fhrs_4_en-GB,4,,FHRS,10
405913,24 Cromore Road,,Coleraine,Londonderry,Spar Uuc,Retailers - other,4613,10,,74523,0,,55.15092600000000,172,810,eh@colerainebc.gov.uk,Coleraine,http://www.colerainebc.gov.uk/,-6.68026900000000,BT52 1SA,2014-10-01,fhrs_4_en-GB,4,,FHRS,10
405914,5 Lower Newmills Road,,Coleraine,Londonderry,Sperrin Sports And Social Club,Retailers - other,4613,5,,103324,5,,55.13226100000000,347,810,eh@colerainebc.gov.uk,Coleraine,http://www.colerainebc.gov.uk/,-6.64932300000000,BT52 2JR,2014-12-22,fhrs_5_en-GB,5,,FHRS,5
405915,23a Main Street,,Portrush,Antrim,Spinnaker Restaurant,Restaurant/Cafe/Canteen,1,5,,86629,5,,55.20634800000000,221,810,eh@colerainebc.gov.uk,Coleraine,http://www.colerainebc.gov.uk/,-6.65283200000000,BT56 8BL,2014-06-17,fhrs_5_en-GB,5,,FHRS,5
405916,21d Railway Road,,Coleraine,Londonderry,Sports Cafe,Restaurant/Cafe/Canteen,1,5,,150506,10,,55.17122900000000,984,810,eh@colerainebc.gov.uk,Coleraine,http://www.colerainebc.gov.uk/,-6.63628200000000,BT52 2PD,2013-09-23,fhrs_4_en-GB,4,,FHRS,5
405917,7 Ballystrone Road,,Coleraine,Londonderry,Springwell Manor Health Farm (accommodation),Hotel/bed & breakfast/guest house,7842,0,,126080,0,,55.10315500000000,549,810,eh@colerainebc.gov.uk,Coleraine,http://www.colerainebc.gov.uk/,-6.73973500000000,BT51 4JF,2015-01-28,fhrs_5_en-GB,5,,FHRS,0
405918,3 Agivey Road,,Kilrea,Londonderry,St Columbas Pre-school Group,School/college/university,7845,0,,95278,0,,54.95837500000000,2827,810,eh@colerainebc.gov.uk,Coleraine,http://www.colerainebc.gov.uk/,-6.55589200000000,BT51 5UT,2013-10-07,fhrs_5_en-GB,5,,FHRS,0
405919,3 Agivey Road,,Kilrea,Londonderry,St Columbas Primary School Meals Kitchen,School/college/university,7845,5,,103490,5,,54.95837500000000,348,810,eh@colerainebc.gov.uk,Coleraine,http://www.colerainebc.gov.uk/,-6.55589200000000,BT51 5UT,2014-05-09,fhrs_5_en-GB,5,,FHRS,5
405920,79 Boleran Road,,Garvagh,Londonderry,St Columbas Primary School Meals Kitchen,School/college/university,7845,5,,87112,0,,55.01671100000000,224,810,eh@colerainebc.gov.uk,Coleraine,http://www.colerainebc.gov.uk/,-6.73553900000000,BT51 5EQ,2015-01-30,fhrs_5_en-GB,5,,FHRS,5
405921,24a Lever Road,,Portstewart,Londonderry,St Colums Pre-school Centre,School/college/university,7845,0,,61148,0,,55.18276300000000,1340,810,eh@colerainebc.gov.uk,Coleraine,http://www.colerainebc.gov.uk/,-6.71650100000000,BT55 7EF,2013-09-09,fhrs_5_en-GB,5,,FHRS,0
405922,24 Lever Road,,Portstewart,,St Colums Primary School,School/college/university,7845,0,,50116,0,,55.18276300000000,1115,810,eh@colerainebc.gov.uk,Coleraine,http://www.colerainebc.gov.uk/,-6.71650100000000,BT55 7EF,2014-12-04,fhrs_5_en-GB,5,,FHRS,5
405923,30-38 Hazelbank Road,,Coleraine,Londonderry,St Johns Primary School Meals Kitchen,School/college/university,7845,0,,150664,0,,55.13052600000000,989,810,eh@colerainebc.gov.uk,Coleraine,http://www.colerainebc.gov.uk/,-6.68194500000000,BT51 3DX,2013-04-29,fhrs_5_en-GB,5,,FHRS,0
405924,6 Beresford Avenue,,Coleraine,Londonderry,St Joseph's College,School/college/university,7845,0,,86444,10,,55.12604900000000,220,810,eh@colerainebc.gov.uk,Coleraine,http://www.colerainebc.gov.uk/,-6.66596200000000,BT52 1HJ,2013-03-11,fhrs_4_en-GB,4,,FHRS,0
405925,37 Glen Road,Garvagh,Garvagh,Londonderry,St Josephs Primary School Meals Kitchen,School/college/university,7845,0,,130678,0,,54.95625300000000,62,810,eh@colerainebc.gov.uk,Coleraine,http://www.colerainebc.gov.uk/,-6.73720500000000,BT51 5DB,2012-10-04,fhrs_5_en-GB,5,,FHRS,5
405926,Nursery Avenue,,Coleraine,Londonderry,St Malachy's Pre-school Playgroup,Hospitals/Childcare/Caring Premises,5,0,,75021,0,,55.12851000000000,1742,810,eh@colerainebc.gov.uk,Coleraine,http://www.colerainebc.gov.uk/,-6.66352800000000,BT52 1LP,2014-06-24,fhrs_5_en-GB,5,,FHRS,0
405927,2 Beresford Avenue,,Coleraine,,St Malachys Primary School,School/college/university,7845,0,,86094,0,,55.12604900000000,219,810,eh@colerainebc.gov.uk,Coleraine,http://www.colerainebc.gov.uk/,-6.66596200000000,BT52 1HJ,2013-04-23,fhrs_5_en-GB,5,,FHRS,5
405928,109a Causeway Street,,Portrush,Antrim,St Patricks Primary School Meals Kitchen,School/college/university,7845,0,,103967,0,,55.20220000000000,352,810,eh@colerainebc.gov.uk,Coleraine,http://www.colerainebc.gov.uk/,-6.64731700000000,BT56 8JE,2014-03-12,fhrs_5_en-GB,5,,FHRS,5
405929,5 Churchtown Road,,Garvagh,Londonderry,St Patricks Primary School Meals Kitchen,School/college/university,7845,0,,132801,0,,54.97528600000000,65,810,eh@colerainebc.gov.uk,Coleraine,http://www.colerainebc.gov.uk/,-6.70285800000000,BT51 5BA,2013-01-21,fhrs_5_en-GB,5,,FHRS,5
405930,11 Bann Road,,Kilrea,Londonderry,St Pauls College School Meals Kitchen,School/college/university,7845,0,,103612,0,,54.95391200000000,349,810,eh@colerainebc.gov.uk,Coleraine,http://www.colerainebc.gov.uk/,-6.54618700000000,BT51 5RU,2015-01-20,fhrs_5_en-GB,5,,FHRS,5
405931,1 Kingsgate Street,,Coleraine,Londonderry,Starbucks Coffee Company,Restaurant/Cafe/Canteen,1,0,,71229,5,,55.13178800000000,1614,810,eh@colerainebc.gov.uk,Coleraine,http://www.colerainebc.gov.uk/,-6.66748000000000,BT52 1LB,2013-09-04,fhrs_5_en-GB,5,,FHRS,0
405932,10 Hillmans Way,,Coleraine,Londonderry,Stephen Moffitt Event Catering,Mobile caterer,7846,10,,632944,15,,55.13207600000000,3064,810,eh@colerainebc.gov.uk,Coleraine,http://www.colerainebc.gov.uk/,-6.65693400000000,BT52 2ED,2014-10-18,fhrs_2_en-GB,2,,FHRS,10
405933,24 Cromore Road,,Coleraine,Londonderry,Stepping Stones Creche,School/college/university,7845,0,,42370,0,,55.15092600000000,1045,810,eh@colerainebc.gov.uk,Coleraine,http://www.colerainebc.gov.uk/,-6.68026900000000,BT52 1SA,2014-04-08,fhrs_5_en-GB,5,,FHRS,5
405934,10&12 Bridge Street,Kilrea,Coleraine,Londonderry,Stevensons,Retailers - other,4613,0,,51751,0,,54.95221600000000,1162,810,eh@colerainebc.gov.uk,Coleraine,http://www.colerainebc.gov.uk/,-6.55310100000000,BT51 5RS,2013-07-08,fhrs_5_en-GB,5,,FHRS,5
405935,105 Strand Road,East Crossreagh,Portstewart,Londonderry,Strand House,Hotel/bed & breakfast/guest house,7842,0,,70264,0,,55.17391100000000,1593,810,eh@colerainebc.gov.uk,Coleraine,http://www.colerainebc.gov.uk/,-6.72298500000000,BT55 7LZ,2013-08-07,fhrs_5_en-GB,5,,FHRS,0
405936,7-13 Strand Road,,Coleraine,Londonderry,Strand Service Station,Retailers - other,4613,5,,103214,5,,55.13016500000000,346,810,eh@colerainebc.gov.uk,Coleraine,http://www.colerainebc.gov.uk/,-6.67603100000000,BT51 3AA,2012-11-26,fhrs_5_en-GB,5,,FHRS,5
405937,63 Strand Road,East Crossreagh,Portstewart,Londonderry,Strandeen Guest House,Hotel/bed & breakfast/guest house,7842,0,,133684,0,,55.17989500000000,666,810,eh@colerainebc.gov.uk,Coleraine,http://www.colerainebc.gov.uk/,-6.72138100000000,BT55 7LU,2013-11-07,fhrs_5_en-GB,5,,FHRS,5
405938,1 Blagh Road,,Coleraine,Londonderry,Strawberry Fayre,Restaurant/Cafe/Canteen,1,,,55886,,,55.15652500000000,1262,810,eh@colerainebc.gov.uk,Coleraine,http://www.colerainebc.gov.uk/,-6.63079100000000,BT52 2PG,2014-09-29,fhrs_5_en-GB,5,,FHRS,
405939,78 Main Street,,Portrush,Antrim,Street Bites,Takeaway/sandwich shop,7844,0,,570406,0,,55.20750600000000,2991,810,eh@colerainebc.gov.uk,Coleraine,http://www.colerainebc.gov.uk/,-6.65433200000000,BT56 8BN,2013-07-08,fhrs_5_en-GB,5,,FHRS,5
405940,24 Cromore Road,,Coleraine,Londonderry,Student Union Bar,Restaurant/Cafe/Canteen,1,5,,709128,5,,55.15092600000000,3115,810,eh@colerainebc.gov.uk,Coleraine,http://www.colerainebc.gov.uk/,-6.68026900000000,BT52 1SA,2014-10-07,fhrs_5_en-GB,5,,FHRS,5
405941,24 Cromore Road,,Coleraine,,Students Union Shop,Retailers - other,4613,0,,628517,0,,55.15092600000000,3053,810,eh@colerainebc.gov.uk,Coleraine,http://www.colerainebc.gov.uk/,-6.68026900000000,BT52 1SA,2014-01-08,fhrs_5_en-GB,5,,FHRS,0
405942,21 Railway Road,,Coleraine,Londonderry,Subway Coleraine,Restaurant/Cafe/Canteen,1,5,,668754,5,,55.13199400000000,3101,810,eh@colerainebc.gov.uk,Coleraine,http://www.colerainebc.gov.uk/,-6.66582600000000,BT52 1PD,2014-05-12,fhrs_4_en-GB,4,,FHRS,10
405943,66 New Row,,Coleraine,Londonderry,Sun Do Chinese Restaurant,Restaurant/Cafe/Canteen,1,0,,118548,10,,55.12909800000000,479,810,eh@colerainebc.gov.uk,Coleraine,http://www.colerainebc.gov.uk/,-6.67046900000000,BT52 1EJ,2014-03-13,fhrs_4_en-GB,4,,FHRS,5
405944,10 The Diamond,,Portstewart,Londonderry,Sun Po Chinese,Takeaway/sandwich shop,7844,10,,67758,15,,55.18230600000000,1514,810,eh@colerainebc.gov.uk,Coleraine,http://www.colerainebc.gov.uk/,-6.71830500000000,BT55 7AA,2014-11-04,fhrs_2_en-GB,2,,FHRS,10
405945,,,,,Sundae Over The Rainbow,Other catering premises,7841,5,,699796,0,,,3182,810,eh@colerainebc.gov.uk,Coleraine,http://www.colerainebc.gov.uk/,,,2014-07-03,fhrs_5_en-GB,5,,FHRS,5
405946,40 Ardina Road,,Articlave,Londonderry,Sunshine,Takeaway/sandwich shop,7844,10,,56873,10,,55.14627700000000,1287,810,eh@colerainebc.gov.uk,Coleraine,http://www.colerainebc.gov.uk/,-6.76991700000000,BT51 4UF,2014-11-19,fhrs_3_en-GB,3,,FHRS,10
405947,1 Church Street,,Coleraine,Londonderry,Superdrug,Retailers - other,4613,,,110262,,,55.13142900000000,400,810,eh@colerainebc.gov.uk,Coleraine,http://www.colerainebc.gov.uk/,-6.67004700000000,BT52 1AN,2013-03-12,fhrs_exempt_en-GB,Exempt,,FHRS,
405948,8a The Diamond,,Portstewart,Londonderry,Superfry,Takeaway/sandwich shop,7844,5,,127373,0,,55.18230600000000,566,810,eh@colerainebc.gov.uk,Coleraine,http://www.colerainebc.gov.uk/,-6.71830500000000,BT55 7AA,2014-05-07,fhrs_4_en-GB,4,,FHRS,10
405949,160&162 Station Road,,Portstewart,Londonderry,Supervalu Portstewart,Retailers - supermarkets/hypermarkets,7840,0,,41828,5,,55.18347700000000,1035,810,eh@colerainebc.gov.uk,Coleraine,http://www.colerainebc.gov.uk/,-6.69913000000000,BT55 7PU,2013-10-08,fhrs_5_en-GB,5,,FHRS,5
405950,,,,,Supreme Catering,Mobile caterer,7846,10,,74427,5,,,1716,810,eh@colerainebc.gov.uk,Coleraine,http://www.colerainebc.gov.uk/,,,2013-06-10,fhrs_4_en-GB,4,,FHRS,5
405951,,,,,Sweet Mania,Other catering premises,7841,5,,610496,0,,,3007,810,eh@colerainebc.gov.uk,Coleraine,http://www.colerainebc.gov.uk/,,,2013-10-31,fhrs_5_en-GB,5,,FHRS,0
405952,56a Main Street,,Portrush,Antrim,Sweets And Treats,Retailers - other,4613,20,,75049,0,,55.20634800000000,1743,810,eh@colerainebc.gov.uk,Coleraine,http://www.colerainebc.gov.uk/,-6.65283200000000,BT56 8BL,2013-02-01,fhrs_1_en-GB,1,,FHRS,10
405953,2 New Market Street,,Coleraine,Londonderry,T & J O'kane Ltd (market Bar),Retailers - other,4613,5,,89980,5,,55.12960500000000,243,810,eh@colerainebc.gov.uk,Coleraine,http://www.colerainebc.gov.uk/,-6.66919800000000,BT52 1EH,2013-04-30,fhrs_5_en-GB,5,,FHRS,5
405954,12 Killyvally Road,Garvagh,Coleraine,Londonderry,T.b.f. Thompson Ministries,Restaurant/Cafe/Canteen,1,0,,65274,5,,54.98299300000000,1464,810,eh@colerainebc.gov.uk,Coleraine,http://www.colerainebc.gov.uk/,-6.68356700000000,BT51 5LU,2015-01-08,fhrs_5_en-GB,5,,FHRS,0
405955,15-17 Church Street,,Kilrea,Londonderry,Talk O The Town,Retailers - other,4613,5,,76377,5,,54.95023300000000,18,810,eh@colerainebc.gov.uk,Coleraine,http://www.colerainebc.gov.uk/,-6.55562300000000,BT51 5QU,2013-08-09,fhrs_5_en-GB,5,,FHRS,5
405956,,,,,Tasty Kitchen,Mobile caterer,7846,5,,91512,5,,,2533,810,eh@colerainebc.gov.uk,Coleraine,http://www.colerainebc.gov.uk/,,,2013-06-12,fhrs_5_en-GB,5,,FHRS,5
405957,15 Sea Road,,Castlerock,Londonderry,Temple Bistro,Pub/bar/nightclub,7843,5,,75859,0,,55.16530600000000,178,810,eh@colerainebc.gov.uk,Coleraine,http://www.colerainebc.gov.uk/,-6.78643400000000,BT51 4TL,2013-06-21,fhrs_4_en-GB,4,,FHRS,10
405958,34 Dunderg Road,Macosquin,Coleraine,Londonderry,Ten5 @ Macosquin Primary School,Hospitals/Childcare/Caring Premises,5,5,,87910,0,,55.10025000000000,2292,810,eh@colerainebc.gov.uk,Coleraine,http://www.colerainebc.gov.uk/,-6.70860400000000,BT51 4ND,2014-02-13,fhrs_5_en-GB,5,,FHRS,0
405959,2 Bannfield Road,,Coleraine,Londonderry,Tesco,Retailers - supermarkets/hypermarkets,7840,0,,84098,0,,55.12829400000000,208,810,eh@colerainebc.gov.uk,Coleraine,http://www.colerainebc.gov.uk/,-6.67168800000000,BT52 1HU,2013-05-02,fhrs_5_en-GB,5,,FHRS,5
405960,164 Coleraine Road,,Portstewart,Londonderry,Tesco Stores Ltd Portstewart,Retailers - supermarkets/hypermarkets,7840,0,,87740,0,,55.16537900000000,2278,810,eh@colerainebc.gov.uk,Coleraine,http://www.colerainebc.gov.uk/,-6.70612200000000,BT55 7PL,2013-05-02,fhrs_5_en-GB,5,,FHRS,5
405961,,,,,"The ""stickemup"" Lolly Pop Co",Retailers - other,4613,5,,668755,5,,,3110,810,eh@colerainebc.gov.uk,Coleraine,http://www.colerainebc.gov.uk/,,,2014-06-02,fhrs_5_en-GB,5,,FHRS,5
405962,4-5 Church Lane,,Coleraine,,The Belfry Deli,Retailers - other,4613,10,,64952,0,,55.13223500000000,1454,810,eh@colerainebc.gov.uk,Coleraine,http://www.colerainebc.gov.uk/,-6.66898500000000,BT52 1AG,2014-08-05,fhrs_4_en-GB,4,,FHRS,5
405963,233 Loughan Road,,Coleraine,Londonderry,The Boatyard Coffee Shop,Restaurant/Cafe/Canteen,1,0,,432949,0,,55.09242500000000,2906,810,eh@colerainebc.gov.uk,Coleraine,http://www.colerainebc.gov.uk/,-6.61533000000000,BT52 1UD,2014-01-16,fhrs_5_en-GB,5,,FHRS,5
405964,11 Brook Green,,Coleraine,Londonderry,The Brook Dementia Services,Hospitals/Childcare/Caring Premises,5,20,,116605,5,,55.13661200000000,458,810,eh@colerainebc.gov.uk,Coleraine,http://www.colerainebc.gov.uk/,-6.66669200000000,BT52 1QG,2015-01-13,fhrs_1_en-GB,1,,FHRS,5
405965,9 Lime Market Street,,Coleraine,Londonderry,The Bulls Eye,Pub/bar/nightclub,7843,5,,91026,5,,55.12875700000000,2500,810,eh@colerainebc.gov.uk,Coleraine,http://www.colerainebc.gov.uk/,-6.66965000000000,BT52 1HD,2014-09-19,fhrs_4_en-GB,4,,FHRS,10
405966,2b Dunluce Street,,Portrush,Antrim,The Candy Store,Retailers - other,4613,10,,423589,5,,55.20382300000000,2898,810,eh@colerainebc.gov.uk,Coleraine,http://www.colerainebc.gov.uk/,-6.65195900000000,BT56 8DN,2012-07-02,fhrs_4_en-GB,4,,FHRS,0
405967,58-60 Main Street,Garvagh,Coleraine,Londonderry,The Central Bar,Retailers - other,4613,10,,67995,5,,54.98235200000000,1520,810,eh@colerainebc.gov.uk,Coleraine,http://www.colerainebc.gov.uk/,-6.68825900000000,BT51 5AE,2014-09-04,fhrs_4_en-GB,4,,FHRS,5
405968,1 Victoria Terrace,,Portstewart,Londonderry,The Chez Nous Guest House,Hotel/bed & breakfast/guest house,7842,0,,58310,10,,55.18858600000000,13,810,eh@colerainebc.gov.uk,Coleraine,http://www.colerainebc.gov.uk/,-6.71844900000000,BT55 7BA,2012-05-22,fhrs_4_en-GB,4,,FHRS,10
405969,2 The Rope Walk,,Coleraine,Londonderry,The Chip Inn,Takeaway/sandwich shop,7844,5,,114366,0,,55.12538900000000,434,810,eh@colerainebc.gov.uk,Coleraine,http://www.colerainebc.gov.uk/,-6.67966900000000,BT51 3HA,2013-02-19,fhrs_5_en-GB,5,,FHRS,5
405970,24a Garvagh Road,Kilrea,Coleraine,Londonderry,The Chippy Kilrea,Takeaway/sandwich shop,7844,5,,702501,0,,54.95202200000000,3188,810,eh@colerainebc.gov.uk,Coleraine,http://www.colerainebc.gov.uk/,-6.56256700000000,BT51 5QP,2014-09-11,fhrs_5_en-GB,5,,FHRS,5
405971,Unit 7 Kilrea Enterprise Agency,Kilrea,Coleraine,Londonderry,The Chocolate Lab,Manufacturers/packers,7839,0,,655728,0,,54.95023300000000,3004,810,eh@colerainebc.gov.uk,Coleraine,http://www.colerainebc.gov.uk/,-6.55562300000000,BT51 5QU,2014-03-21,fhrs_5_en-GB,5,,FHRS,0
405972,Unit 25 Sperrin Business Park,Ballycastle Road,Coleraine,Londonderry,The Chocolate Manor,Manufacturers/packers,7839,0,,687000,5,,55.13307000000000,3078,810,eh@colerainebc.gov.uk,Coleraine,http://www.colerainebc.gov.uk/,-6.65418800000000,BT52 2DH,2014-07-23,fhrs_5_en-GB,5,,FHRS,0
405973,10 Lansdowne Crescent,,Portrush,Antrim,The Clarmont B & B,Hotel/bed & breakfast/guest house,7842,0,,590539,0,,55.20951300000000,3002,810,eh@colerainebc.gov.uk,Coleraine,http://www.colerainebc.gov.uk/,-6.65638500000000,BT56 8AY,2013-09-26,fhrs_4_en-GB,4,,FHRS,10
405974,53 Main Street,,Garvagh,Londonderry,The Cornerstone Youth And Community Centre,Restaurant/Cafe/Canteen,1,,,76108,,,54.98427700000000,179,810,eh@colerainebc.gov.uk,Coleraine,http://www.colerainebc.gov.uk/,-6.68683700000000,BT51 5AA,2014-08-15,fhrs_exempt_en-GB,Exempt,,FHRS,
405975,25 Lodge Park,,Coleraine,Londonderry,The Cottage Care Home,Hospitals/Childcare/Caring Premises,5,0,,144913,5,,55.12651700000000,846,810,eh@colerainebc.gov.uk,Coleraine,http://www.colerainebc.gov.uk/,-6.65627400000000,BT52 1UN,2014-08-19,fhrs_5_en-GB,5,,FHRS,5
405976,29 Maghera Street,,Kilrea,Londonderry,The Country Kitchen,Restaurant/Cafe/Canteen,1,5,,676568,5,,54.95138400000000,3102,810,eh@colerainebc.gov.uk,Coleraine,http://www.colerainebc.gov.uk/,-6.55717300000000,BT51 5QL,2014-06-16,fhrs_5_en-GB,5,,FHRS,5
405977,78 Portstewart Road,,Coleraine,Londonderry,The Cranagh,Restaurant/Cafe/Canteen,1,5,,547969,5,,55.15047400000000,2967,810,eh@colerainebc.gov.uk,Coleraine,http://www.colerainebc.gov.uk/,-6.68668400000000,BT52 1SB,2013-04-30,fhrs_5_en-GB,5,,FHRS,5
405978,17a The Crescent,,Portstewart,Londonderry,The Crescent Cafe,Restaurant/Cafe/Canteen,1,10,,94680,5,,55.18248800000000,2784,810,eh@colerainebc.gov.uk,Coleraine,http://www.colerainebc.gov.uk/,-6.72023000000000,BT55 7AB,2014-08-11,fhrs_4_en-GB,4,,FHRS,5
405979,Riverside Park South,,Coleraine,Londonderry,The Diner,Restaurant/Cafe/Canteen,1,0,,615841,0,,55.11973100000000,3032,810,eh@colerainebc.gov.uk,Coleraine,http://www.colerainebc.gov.uk/,-6.67808500000000,BT51 3AW,2013-11-20,fhrs_5_en-GB,5,,FHRS,5
405980,100 Causeway Street,,Portrush,Antrim,The Dolphin,Takeaway/sandwich shop,7844,5,,145307,0,,55.20310200000000,858,810,eh@colerainebc.gov.uk,Coleraine,http://www.colerainebc.gov.uk/,-6.64848100000000,BT56 8AE,2014-06-19,fhrs_5_en-GB,5,,FHRS,0
405981,25a Drumcroon Road,,Garvagh,Londonderry,The Duck Pond Tea Room,Restaurant/Cafe/Canteen,1,5,,95439,5,,55.00963200000000,2842,810,eh@colerainebc.gov.uk,Coleraine,http://www.colerainebc.gov.uk/,-6.67558300000000,BT51 4EB,2014-06-02,fhrs_5_en-GB,5,,FHRS,5
405982,6 New Market Street,,Coleraine,Londonderry,The Forge Bar,Retailers - other,4613,20,,133956,0,,55.12960500000000,67,810,eh@colerainebc.gov.uk,Coleraine,http://www.colerainebc.gov.uk/,-6.66919800000000,BT52 1EH,2013-02-22,fhrs_1_en-GB,1,,FHRS,10
405983,1 Pates Lane,,Coleraine,Londonderry,The Gap Drop In Centre,Restaurant/Cafe/Canteen,1,0,,90402,10,,55.13027000000000,2460,810,eh@colerainebc.gov.uk,Coleraine,http://www.colerainebc.gov.uk/,-6.67827000000000,BT51 3DE,2012-05-14,fhrs_4_en-GB,4,,FHRS,10
405984,Castlerock Road,,Coleraine,Londonderry,The Golden Bowl,Takeaway/sandwich shop,7844,10,,64871,10,,55.13389200000000,1451,810,eh@colerainebc.gov.uk,Coleraine,http://www.colerainebc.gov.uk/,-6.68089400000000,BT51 3HP,2013-10-22,fhrs_3_en-GB,3,,FHRS,5
405985,2e Grange Road,,Coleraine,Londonderry,The Grange Bed And Breakfast,Hotel/bed & breakfast/guest house,7842,10,,63761,5,,55.12547600000000,1408,810,eh@colerainebc.gov.uk,Coleraine,http://www.colerainebc.gov.uk/,-6.66041600000000,BT52 1NG,2014-09-11,fhrs_4_en-GB,4,,FHRS,5
405986,19 Waterside Street,,Coleraine,Londonderry,The Grove Bar,Retailers - other,4613,5,,632942,0,,55.13190300000000,3056,810,eh@colerainebc.gov.uk,Coleraine,http://www.colerainebc.gov.uk/,-6.67641300000000,BT51 3DP,2014-02-03,fhrs_5_en-GB,5,,FHRS,0
405987,15 Stone Row,,Coleraine,Londonderry,The Health Store,Retailers - other,4613,5,,429538,0,,55.13098700000000,2909,810,eh@colerainebc.gov.uk,Coleraine,http://www.colerainebc.gov.uk/,-6.67070500000000,BT52 1EP,2014-08-15,fhrs_5_en-GB,5,,FHRS,0
405988,81 Craigmore Road,Ringsend,Coleraine,Londonderry,The Hecklers Bar,Retailers - other,4613,0,,133379,0,,55.03990500000000,660,810,eh@colerainebc.gov.uk,Coleraine,http://www.colerainebc.gov.uk/,-6.74852700000000,BT51 4HP,2012-12-12,fhrs_5_en-GB,5,,FHRS,0
405989,75 Crocknamack Road,,Portrush,Antrim,The Hop After Schools Club,Hospitals/Childcare/Caring Premises,5,0,,94703,0,,55.19970000000000,2788,810,eh@colerainebc.gov.uk,Coleraine,http://www.colerainebc.gov.uk/,-6.64788900000000,BT56 8JW,2014-11-25,fhrs_5_en-GB,5,,FHRS,0
405990,3 Rugby Avenue,,Coleraine,Londonderry,The Irish Society Primary School Kitchen,School/college/university,7845,5,,133140,0,,55.12098700000000,656,810,eh@colerainebc.gov.uk,Coleraine,http://www.colerainebc.gov.uk/,-6.65823100000000,BT52 1JL,2013-03-14,fhrs_5_en-GB,5,,FHRS,5
405991,,,,,The Little Cake Co,Other catering premises,7841,5,,699790,5,,,3085,810,eh@colerainebc.gov.uk,Coleraine,http://www.colerainebc.gov.uk/,,,2014-08-22,fhrs_5_en-GB,5,,FHRS,0
405992,11 Main Street,,Portrush,Antrim,The Meat Shop,Retailers - other,4613,10,,75395,0,,55.20634800000000,176,810,eh@colerainebc.gov.uk,Coleraine,http://www.colerainebc.gov.uk/,-6.65283200000000,BT56 8BL,2013-03-13,fhrs_4_en-GB,4,,FHRS,5
405993,24 Rugby Avenue,Lodge,Coleraine,Londonderry,The Mulberry Bush Private Day Nursery,School/college/university,7845,0,,65298,0,,55.12098700000000,1465,810,eh@colerainebc.gov.uk,Coleraine,http://www.colerainebc.gov.uk/,-6.65823100000000,BT52 1JL,2013-11-27,fhrs_4_en-GB,4,,FHRS,10
405994,95-97 Mark Street,,Portrush,Antrim,The Offshore Bar,Retailers - other,4613,0,,40479,0,,55.20700900000000,1013,810,eh@colerainebc.gov.uk,Coleraine,http://www.colerainebc.gov.uk/,-6.65488300000000,BT56 8BU,2013-04-25,fhrs_5_en-GB,5,,FHRS,0
405995,83 Main Street,,Garvagh,Londonderry,The Pantry,Restaurant/Cafe/Canteen,1,5,,619581,15,,54.98427700000000,3047,810,eh@colerainebc.gov.uk,Coleraine,http://www.colerainebc.gov.uk/,-6.68683700000000,BT51 5AA,2013-11-25,fhrs_2_en-GB,2,,FHRS,10
405996,22a Cloyfin Road,,Coleraine,Londonderry,The Pantry (right Price Carpets),Restaurant/Cafe/Canteen,1,5,,56735,0,,55.13518200000000,1284,810,eh@colerainebc.gov.uk,Coleraine,http://www.colerainebc.gov.uk/,-6.66249000000000,BT52 2BN,2013-10-09,fhrs_5_en-GB,5,,FHRS,0
405997,1 Rugby Avenue,,Coleraine,Londonderry,The Pantry (rugby Club),Pub/bar/nightclub,7843,0,,642701,0,,55.12098700000000,3041,810,eh@colerainebc.gov.uk,Coleraine,http://www.colerainebc.gov.uk/,-6.65823100000000,BT52 1JL,2014-03-18,fhrs_5_en-GB,5,,FHRS,0
405998,Unit 4 - 5 Loughanhill Industrial Estate,Gateside Road,Coleraine,Londonderry,The Popcorn Factory,Manufacturers/packers,7839,,,95095,,,55.14778700000000,2809,810,eh@colerainebc.gov.uk,Coleraine,http://www.colerainebc.gov.uk/,-6.65118300000000,BT52 2NR,2013-09-26,fhrs_exempt_en-GB,Exempt,,FHRS,
405999,53-57 Main Street,,Portrush,Antrim,The Port Hotel,Hotel/bed & breakfast/guest house,7842,5,,79258,5,,55.20750600000000,190,810,eh@colerainebc.gov.uk,Coleraine,http://www.colerainebc.gov.uk/,-6.65433200000000,BT56 8BN,2013-12-30,fhrs_4_en-GB,4,,FHRS,10
406000,26 Sea Road,,Castlerock,Londonderry,The Railway Diner,Takeaway/sandwich shop,7844,0,,150890,5,,55.16424100000000,994,810,eh@colerainebc.gov.uk,Coleraine,http://www.colerainebc.gov.uk/,-6.78679600000000,BT51 4TN,2013-11-21,fhrs_5_en-GB,5,,FHRS,5
406001,170-174 Coleraine Road,,Portstewart,,The Rock,Other catering premises,7841,0,,56920,0,,55.16537900000000,1288,810,eh@colerainebc.gov.uk,Coleraine,http://www.colerainebc.gov.uk/,-6.70612200000000,BT55 7PL,2013-10-04,fhrs_5_en-GB,5,,FHRS,5
406002,12 Railway Road,,Coleraine,Londonderry,The Sandwich Co,Restaurant/Cafe/Canteen,1,,,132434,,,55.13199400000000,644,810,eh@colerainebc.gov.uk,Coleraine,http://www.colerainebc.gov.uk/,-6.66582600000000,BT52 1PD,2014-02-12,fhrs_5_en-GB,5,,FHRS,
406003,4 Eglinton Lane,,Portrush,Antrim,The Scullery,Restaurant/Cafe/Canteen,1,20,,125721,15,,55.20403800000000,543,810,eh@colerainebc.gov.uk,Coleraine,http://www.colerainebc.gov.uk/,-6.65187300000000,BT56 8DJ,2014-10-29,fhrs_1_en-GB,1,,FHRS,15
406004,12 The Diamond,,Portstewart,Londonderry,The Sizzlin Sausage,Restaurant/Cafe/Canteen,1,5,,676566,5,,55.18230600000000,3083,810,eh@colerainebc.gov.uk,Coleraine,http://www.colerainebc.gov.uk/,-6.71830500000000,BT55 7AA,2014-06-12,fhrs_5_en-GB,5,,FHRS,5
406005,24 Cromore Road,,Coleraine,Londonderry,The Streat (uucoleraine Campus),Restaurant/Cafe/Canteen,1,5,,76019,0,,55.15092600000000,1787,810,eh@colerainebc.gov.uk,Coleraine,http://www.colerainebc.gov.uk/,-6.68026900000000,BT52 1SA,2013-04-26,fhrs_5_en-GB,5,,FHRS,5
406006,20 Kingsgate Street,,Coleraine,Londonderry,The Sweet Briar,Retailers - other,4613,0,,56704,5,,55.13178800000000,1283,810,eh@colerainebc.gov.uk,Coleraine,http://www.colerainebc.gov.uk/,-6.66748000000000,BT52 1LB,2013-03-20,fhrs_5_en-GB,5,,FHRS,5
406007,21 Ballyreagh Road,,Portrush,Antrim,The Tides,Restaurant/Cafe/Canteen,1,0,,570405,10,,55.19720700000000,2987,810,eh@colerainebc.gov.uk,Coleraine,http://www.colerainebc.gov.uk/,-6.67451400000000,BT56 8LR,2015-01-02,fhrs_4_en-GB,4,,FHRS,10
406008,45 Main Street,,Portrush,Antrim,The Trocadero,Restaurant/Cafe/Canteen,1,0,,128545,0,,55.20634800000000,586,810,eh@colerainebc.gov.uk,Coleraine,http://www.colerainebc.gov.uk/,-6.65283200000000,BT56 8BL,2014-03-10,fhrs_5_en-GB,5,,FHRS,5
406009,,,,,The Van,Mobile caterer,7846,5,,717149,0,,,3107,810,eh@colerainebc.gov.uk,Coleraine,http://www.colerainebc.gov.uk/,,,2014-11-05,fhrs_5_en-GB,5,,FHRS,0
406010,41-43 Main Street,Garvagh,Coleraine,Londonderry,The Vines,Restaurant/Cafe/Canteen,1,,,93010,,,54.98427700000000,2649,810,eh@colerainebc.gov.uk,Coleraine,http://www.colerainebc.gov.uk/,-6.68683700000000,BT51 5AA,2014-10-09,fhrs_2_en-GB,2,,FHRS,
406011,113 Craigmore Road,Ringsend,Coleraine,Londonderry,The Weefield B & B,Hotel/bed & breakfast/guest house,7842,5,,225449,5,,55.04336300000000,2884,810,eh@colerainebc.gov.uk,Coleraine,http://www.colerainebc.gov.uk/,-6.76512700000000,BT51 4HS,2012-02-24,fhrs_5_en-GB,5,,FHRS,0
406012,9 Swilly Park,,Portstewart,Londonderry,The Whins,Hotel/bed & breakfast/guest house,7842,5,,564445,0,,55.18759000000000,2978,810,eh@colerainebc.gov.uk,Coleraine,http://www.colerainebc.gov.uk/,-6.70150900000000,BT55 7FL,2013-06-27,fhrs_5_en-GB,5,,FHRS,0
406013,101-103 Mullaghinch Road,Aghadowey,Coleraine,Londonderry,Three Oaks Public House,Retailers - other,4613,5,,125091,5,,55.01072600000000,536,810,eh@colerainebc.gov.uk,Coleraine,http://www.colerainebc.gov.uk/,-6.60629900000000,BT51 4AX,2014-06-05,fhrs_5_en-GB,5,,FHRS,5
406014,,,,,Tilly's,Other catering premises,7841,5,,680084,5,,,3108,810,eh@colerainebc.gov.uk,Coleraine,http://www.colerainebc.gov.uk/,,,2014-06-10,fhrs_5_en-GB,5,,FHRS,0
406015,,,,,Tilly's Treats Ni,Other catering premises,7841,0,,719491,0,,,3226,810,eh@colerainebc.gov.uk,Coleraine,http://www.colerainebc.gov.uk/,,,2014-11-12,fhrs_5_en-GB,5,,FHRS,5
406016,Bridge Street,,Coleraine,Londonderry,Tk Maxx,Retailers - other,4613,,,137169,,,55.13113100000000,719,810,eh@colerainebc.gov.uk,Coleraine,http://www.colerainebc.gov.uk/,-6.67314600000000,BT52 1DT,2012-05-24,fhrs_exempt_en-GB,Exempt,,FHRS,
406017,1 New Row,,Kilrea,Londonderry,Toberdoney Fold (528),Hospitals/Childcare/Caring Premises,5,5,,128052,0,,54.95061800000000,578,810,eh@colerainebc.gov.uk,Coleraine,http://www.colerainebc.gov.uk/,-6.55932400000000,BT51 5QS,2012-06-13,fhrs_5_en-GB,5,,FHRS,0
406018,14 Ballyhome Road,,Coleraine,Antrim,Toberdornan House,Hotel/bed & breakfast/guest house,7842,0,,668756,0,,55.17737300000000,3114,810,eh@colerainebc.gov.uk,Coleraine,http://www.colerainebc.gov.uk/,-6.59508800000000,BT52 2LU,2014-05-13,fhrs_5_en-GB,5,,FHRS,0
406019,12 Ballyreagh Road,,Portrush,Antrim,Todays Express,Retailers - other,4613,5,,187543,5,,55.19685600000000,1573,810,eh@colerainebc.gov.uk,Coleraine,http://www.colerainebc.gov.uk/,-6.67363000000000,BT56 8LS,2012-08-01,fhrs_5_en-GB,5,,FHRS,5
406020,70 Ballyreagh Road,,Portstewart,Londonderry,Todays Express,Retailers - other,4613,10,,102448,0,,55.19403300000000,340,810,eh@colerainebc.gov.uk,Coleraine,http://www.colerainebc.gov.uk/,-6.69082500000000,BT55 7PT,2012-08-01,fhrs_4_en-GB,4,,FHRS,5
406021,3 Causeway Street,,Portrush,Antrim,Tom Toms Bakery,Manufacturers/packers,7839,5,,445045,10,,55.20479200000000,2911,810,eh@colerainebc.gov.uk,Coleraine,http://www.colerainebc.gov.uk/,-6.65099900000000,BT56 8AB,2014-02-19,fhrs_3_en-GB,3,,FHRS,10
406022,1b Lower Newmills Road,,Coleraine,Londonderry,Top Meats,Retailers - other,4613,5,,84197,5,,55.13226100000000,2087,810,eh@colerainebc.gov.uk,Coleraine,http://www.colerainebc.gov.uk/,-6.64932300000000,BT52 2JR,2014-10-21,fhrs_4_en-GB,4,,FHRS,10
406023,,,,,Tracys Kitchen,Mobile caterer,7846,5,,107389,0,,,379,810,eh@colerainebc.gov.uk,Coleraine,http://www.colerainebc.gov.uk/,,,2013-04-29,fhrs_5_en-GB,5,,FHRS,0
406024,,,,,Tracy's Treats,Other catering premises,7841,10,,555249,0,,,2993,810,eh@colerainebc.gov.uk,Coleraine,http://www.colerainebc.gov.uk/,,,2013-04-29,fhrs_4_en-GB,4,,FHRS,5
406025,5 Ballindreen Road,,Coleraine,Londonderry,Tramalis Guest House,Hotel/bed & breakfast/guest house,7842,0,,62316,0,,55.11584500000000,1376,810,eh@colerainebc.gov.uk,Coleraine,http://www.colerainebc.gov.uk/,-6.58645100000000,BT52 2JU,2013-06-17,fhrs_5_en-GB,5,,FHRS,0
406026,84 Main Street,,Portrush,Antrim,Trendy Co,Retailers - other,4613,0,,423584,0,,55.20750600000000,1898,810,eh@colerainebc.gov.uk,Coleraine,http://www.colerainebc.gov.uk/,-6.65433200000000,BT56 8BN,2014-06-12,fhrs_4_en-GB,4,,FHRS,10
406027,1-39 Coleraine Road,,Portstewart,,Tullaghmurry Fold,Hospitals/Childcare/Caring Premises,5,5,,150289,5,,55.17908400000000,979,810,eh@colerainebc.gov.uk,Coleraine,http://www.colerainebc.gov.uk/,-6.71523800000000,BT55 7HP,2014-11-19,fhrs_5_en-GB,5,,FHRS,0
406028,11 Waterside Street,,Coleraine,Londonderry,Turf N Surf,Takeaway/sandwich shop,7844,10,,668752,10,,55.13190300000000,3071,810,eh@colerainebc.gov.uk,Coleraine,http://www.colerainebc.gov.uk/,-6.67641300000000,BT51 3DP,2014-06-04,fhrs_3_en-GB,3,,FHRS,10
406029,48 Railway Road,,Coleraine,Londonderry,Turkish Kebab Pizza House,Takeaway/sandwich shop,7844,10,,91221,10,,55.13386200000000,2510,810,eh@colerainebc.gov.uk,Coleraine,http://www.colerainebc.gov.uk/,-6.66413300000000,BT52 1PF,2014-01-22,fhrs_3_en-GB,3,,FHRS,10
406030,35 Eglinton Street,,Portrush,Antrim,Uncle Saams,Restaurant/Cafe/Canteen,1,0,,74954,0,,55.20448300000000,174,810,eh@colerainebc.gov.uk,Coleraine,http://www.colerainebc.gov.uk/,-6.65236100000000,BT56 8DX,2014-02-13,fhrs_5_en-GB,5,,FHRS,5
406031,111 Main Street,Garvagh,Coleraine,Londonderry,Usshers Ice Cream Manufacturer,Manufacturers/packers,7839,5,,73541,0,,54.98035600000000,1692,810,eh@colerainebc.gov.uk,Coleraine,http://www.colerainebc.gov.uk/,-6.68809000000000,BT51 5AB,2014-10-06,fhrs_5_en-GB,5,,FHRS,0
406032,24 Cromore Road,,Coleraine,Londonderry,Uuc Su Food For Thought Sandwich Bar/snack Bar And Bar,Restaurant/Cafe/Canteen,1,0,,150217,0,,55.15092600000000,977,810,eh@colerainebc.gov.uk,Coleraine,http://www.colerainebc.gov.uk/,-6.68026900000000,BT52 1SA,2013-11-05,fhrs_5_en-GB,5,,FHRS,5
406033,6a Ballyclogh Road,,Bushmills,Antrim,Valley View Country House,Hotel/bed & breakfast/guest house,7842,0,,115803,0,,55.14914000000000,45,810,eh@colerainebc.gov.uk,Coleraine,http://www.colerainebc.gov.uk/,-6.52377000000000,BT57 8TU,2013-01-14,fhrs_5_en-GB,5,,FHRS,0
406034,29 Sea Road,,Castlerock,Londonderry,Village Butchers,Retailers - other,4613,10,,82729,10,,55.16424100000000,201,810,eh@colerainebc.gov.uk,Coleraine,http://www.colerainebc.gov.uk/,-6.78679600000000,BT51 4TN,2014-09-11,fhrs_3_en-GB,3,,FHRS,10
406035,24 St. Pauls Road,,Articlave,Londonderry,Village Tavern,Pub/bar/nightclub,7843,5,,39909,0,,55.14594000000000,1005,810,eh@colerainebc.gov.uk,Coleraine,http://www.colerainebc.gov.uk/,-6.77130700000000,BT51 4UW,2014-10-10,fhrs_5_en-GB,5,,FHRS,5
406036,10 Hillmans Way,,Coleraine,Londonderry,Vineyard Compassion,Other catering premises,7841,10,,95330,0,,55.13207600000000,2831,810,eh@colerainebc.gov.uk,Coleraine,http://www.colerainebc.gov.uk/,-6.65693400000000,BT52 2ED,2013-10-08,fhrs_1_en-GB,1,,FHRS,20
406037,7 Lower Newmills Road,,Coleraine,Londonderry,W D Meats Canteen,Restaurant/Cafe/Canteen,1,10,,132813,10,,55.13226100000000,650,810,eh@colerainebc.gov.uk,Coleraine,http://www.colerainebc.gov.uk/,-6.64932300000000,BT52 2JR,2014-06-05,fhrs_3_en-GB,3,,FHRS,5
406038,9 O'Hara Drive,,Portstewart,Londonderry,Walking Tours Ni B & B,Hotel/bed & breakfast/guest house,7842,10,,94699,10,,55.17640800000000,2787,810,eh@colerainebc.gov.uk,Coleraine,http://www.colerainebc.gov.uk/,-6.72386200000000,BT55 7PD,2014-07-16,fhrs_4_en-GB,4,,FHRS,0
406039,12 High Road,,Portstewart,Londonderry,Wanderin Heights Guest House,Hotel/bed & breakfast/guest house,7842,0,,143955,0,,55.18754600000000,818,810,eh@colerainebc.gov.uk,Coleraine,http://www.colerainebc.gov.uk/,-6.71601700000000,BT55 7BG,2013-05-08,fhrs_4_en-GB,4,,FHRS,10
406040,1 The Promenade,,Portstewart,,Warkes Deli,Restaurant/Cafe/Canteen,1,5,,94795,5,,55.18674300000000,2796,810,eh@colerainebc.gov.uk,Coleraine,http://www.colerainebc.gov.uk/,-6.71918300000000,BT55 7AD,2014-08-18,fhrs_5_en-GB,5,,FHRS,5
406041,1 Hanover Place,,Coleraine,Londonderry,Water Margin Chinese Restaurant,Restaurant/Cafe/Canteen,1,5,,62963,0,,55.13022800000000,1394,810,eh@colerainebc.gov.uk,Coleraine,http://www.colerainebc.gov.uk/,-6.67353600000000,BT52 1EB,2013-04-12,fhrs_5_en-GB,5,,FHRS,5
406042,10 Waterside Street,,Coleraine,Londonderry,Waterside Off Sales,Retailers - other,4613,,,52242,,,55.13190300000000,1178,810,eh@colerainebc.gov.uk,Coleraine,http://www.colerainebc.gov.uk/,-6.67641300000000,BT51 3DP,2013-10-22,fhrs_exempt_en-GB,Exempt,,FHRS,
406043,26 Ballywatt Road,,Coleraine,Antrim,Watt Fun Community Playgroup,Hospitals/Childcare/Caring Premises,5,0,,75616,0,,55.16386100000000,1770,810,eh@colerainebc.gov.uk,Coleraine,http://www.colerainebc.gov.uk/,-6.58106500000000,BT52 2LT,2013-09-18,fhrs_5_en-GB,5,,FHRS,0
406044,87a Dunluce Road,Dunluce,Bushmills,Antrim,Wee Cottage,Restaurant/Cafe/Canteen,1,10,,86640,0,,55.20970000000000,2210,810,eh@colerainebc.gov.uk,Coleraine,http://www.colerainebc.gov.uk/,-6.57853900000000,BT57 8UY,2013-07-05,fhrs_4_en-GB,4,,FHRS,5
406045,33 Main Street,,Garvagh,Londonderry,Wendy's Public House,Retailers - other,4613,10,,86977,0,,54.98427700000000,2231,810,eh@colerainebc.gov.uk,Coleraine,http://www.colerainebc.gov.uk/,-6.68683700000000,BT51 5AA,2013-05-15,fhrs_4_en-GB,4,,FHRS,0
406046,36 Station Road,,Portstewart,Londonderry,Whitewaves Guest House,Hotel/bed & breakfast/guest house,7842,0,,62921,0,,55.18778000000000,1393,810,eh@colerainebc.gov.uk,Coleraine,http://www.colerainebc.gov.uk/,-6.71095400000000,BT55 7DA,2013-10-03,fhrs_5_en-GB,5,,FHRS,5
406047,4 Bellhouse Lane,,Coleraine,,Whoosh,Restaurant/Cafe/Canteen,1,5,,534784,5,,55.13202600000000,2953,810,eh@colerainebc.gov.uk,Coleraine,http://www.colerainebc.gov.uk/,-6.67040300000000,BT52 1ED,2013-03-19,fhrs_5_en-GB,5,,FHRS,5
406048,Mountsandel Road,,Coleraine,Londonderry,Wilkinson Spar Mountsandel,Retailers - supermarkets/hypermarkets,7840,5,,142063,5,,55.11709700000000,786,810,eh@colerainebc.gov.uk,Coleraine,http://www.colerainebc.gov.uk/,-6.65662100000000,BT52 1NL,2015-01-22,fhrs_5_en-GB,5,,FHRS,0
406049,32 Craigmore Road,Blackhill,Coleraine,Londonderry,William Hunter Mushroom Farmer (246),Distributors/Transporters,7,,,129332,,,55.03209000000000,6,810,eh@colerainebc.gov.uk,Coleraine,http://www.colerainebc.gov.uk/,-6.69465700000000,BT51 4EX,2013-09-09,fhrs_exempt_en-GB,Exempt,,FHRS,
406050,5 Springbank Road,Castlerock,Coleraine,Londonderry,Willow Garden Tea Room,Restaurant/Cafe/Canteen,1,0,,130865,5,,55.15259200000000,622,810,eh@colerainebc.gov.uk,Coleraine,http://www.colerainebc.gov.uk/,-6.81157400000000,BT51 4RU,2014-05-02,fhrs_5_en-GB,5,,FHRS,0
406051,,,,,Willowfield,Hotel/bed & breakfast/guest house,7842,5,,516475,0,,,2910,810,eh@colerainebc.gov.uk,Coleraine,http://www.colerainebc.gov.uk/,,,2013-02-19,fhrs_5_en-GB,5,,FHRS,0
406052,72 The Promenade,,Portstewart,Londonderry,Wills Portstewart,Restaurant/Cafe/Canteen,1,10,,61733,10,,55.18397800000000,1359,810,eh@colerainebc.gov.uk,Coleraine,http://www.colerainebc.gov.uk/,-6.71844000000000,BT55 7AF,2014-08-07,fhrs_3_en-GB,3,,FHRS,10
406053,1a Lower Newmills Road,,Coleraine,Londonderry,Wineflair,Retailers - other,4613,,,88950,,,55.13226100000000,2358,810,eh@colerainebc.gov.uk,Coleraine,http://www.colerainebc.gov.uk/,-6.64932300000000,BT52 2JR,2014-11-11,fhrs_exempt_en-GB,Exempt,,FHRS,
406054,24b Garvagh Road,Kilrea,Coleraine,Londonderry,Wineflair,Retailers - other,4613,,,77144,,,54.95202200000000,1806,810,eh@colerainebc.gov.uk,Coleraine,http://www.colerainebc.gov.uk/,-6.56256700000000,BT51 5QP,2013-10-10,fhrs_exempt_en-GB,Exempt,,FHRS,
406055,1 Greenmount Avenue,,Coleraine,Londonderry,Winemark,Retailers - other,4613,,,70834,,,55.11715500000000,1601,810,eh@colerainebc.gov.uk,Coleraine,http://www.colerainebc.gov.uk/,-6.68495600000000,BT51 3QB,2014-08-29,fhrs_exempt_en-GB,Exempt,,FHRS,
406056,123 Millburn Road,,Coleraine,Londonderry,Winemark,Retailers - other,4613,,,76990,,,55.13877200000000,1800,810,eh@colerainebc.gov.uk,Coleraine,http://www.colerainebc.gov.uk/,-6.66624300000000,BT52 1QY,2013-01-22,fhrs_exempt_en-GB,Exempt,,FHRS,
406057,21 Bushmills Road,,Coleraine,Londonderry,Winemark,Retailers - other,4613,,,89714,,,55.13518200000000,241,810,eh@colerainebc.gov.uk,Coleraine,http://www.colerainebc.gov.uk/,-6.66249000000000,BT52 2BN,2014-10-07,fhrs_exempt_en-GB,Exempt,,FHRS,
406058,121 Coleraine Road,,Portrush,Antrim,Winemark Winemerchant Limited,Retailers - other,4613,,,65796,,,55.19300700000000,1482,810,eh@colerainebc.gov.uk,Coleraine,http://www.colerainebc.gov.uk/,-6.65596700000000,BT56 8HN,2014-01-13,fhrs_exempt_en-GB,Exempt,,FHRS,
406059,55 Eglinton Street,,Portrush,Antrim,Wing Hong,Restaurant/Cafe/Canteen,1,0,,44934,0,,55.20277300000000,1090,810,eh@colerainebc.gov.uk,Coleraine,http://www.colerainebc.gov.uk/,-6.65281100000000,BT56 8DZ,2013-12-13,fhrs_5_en-GB,5,,FHRS,0
406060,27 Moneygran Road,,Kilrea,Londonderry,Woodhall Residential Centre,School/college/university,7845,5,,64531,5,,54.94786000000000,1436,810,eh@colerainebc.gov.uk,Coleraine,http://www.colerainebc.gov.uk/,-6.54717100000000,BT51 5SJ,2014-10-03,fhrs_5_en-GB,5,,FHRS,0
406061,13&14 Lansdowne Crescent,,Portrush,Antrim,York House Residential Home,Hospitals/Childcare/Caring Premises,5,0,,107959,0,,55.20951300000000,383,810,eh@colerainebc.gov.uk,Coleraine,http://www.colerainebc.gov.uk/,-6.65638500000000,BT56 8AY,2014-06-06,fhrs_5_en-GB,5,,FHRS,5
406062,2 Station Road,,Portstewart,0,York Inn,Restaurant/Cafe/Canteen,1,0,,632943,0,,55.18778000000000,3060,810,eh@colerainebc.gov.uk,Coleraine,http://www.colerainebc.gov.uk/,-6.71095400000000,BT55 7DA,2014-01-16,fhrs_4_en-GB,4,,FHRS,10
406063,1 Ring Road,,Coleraine,Londonderry,Your Local Boots Pharmacy,Retailers - other,4613,,,72473,,,55.14163100000000,1651,810,eh@colerainebc.gov.uk,Coleraine,http://www.colerainebc.gov.uk/,-6.65666000000000,BT52 1QN,2012-07-18,fhrs_exempt_en-GB,Exempt,,FHRS,
406064,82 Beach Road,Portballintrae,Bushmills,Antrim,Your Store,Retailers - other,4613,10,,90313,5,,55.21872900000000,2453,810,eh@colerainebc.gov.uk,Coleraine,http://www.colerainebc.gov.uk/,-6.54358500000000,BT57 8RT,2014-10-23,fhrs_4_en-GB,4,,FHRS,5
