,addressline1,addressline2,addressline3,addressline4,businessname,businesstype,businesstypeid,confidenceinmanagement,extractdate,fhrsid,hygiene,itemcount,latitude,localauthoritybusinessid,localauthoritycode,localauthorityemailaddress,localauthorityname,localauthoritywebsite,longitude,postcode,ratingdate,ratingkey,ratingvalue,returncode,schemetype,structural
410293,1 Smithfield Square,Old Warren,Lisburn,Antrim,A J LOWRY PHARMACY,Retailers - other,4613,,,493186,,,54.51007600000000,1378,819,robert.lamont@lisburn.gov.uk,Lisburn,http://www.lisburn.gov.uk,-6.04608100000000,BT28 1TH,2013-10-01,fhrs_exempt_en-GB,Exempt,,FHRS,
410294,55 Sloan Street,Largymore,Lisburn,Antrim,A MULHOLLAND BUTCHER,Manufacturers/packers,7839,5,,458825,0,,54.50922800000000,905,819,robert.lamont@lisburn.gov.uk,Lisburn,http://www.lisburn.gov.uk,-6.03532800000000,BT27 5AG,2014-08-06,fhrs_5_en-GB,5,,FHRS,5
410295,,,,,A SWEET AFFAIR (NI),Other catering premises,7841,5,,720329,0,,,506670,819,robert.lamont@lisburn.gov.uk,Lisburn,http://www.lisburn.gov.uk,,,2014-11-03,fhrs_5_en-GB,5,,FHRS,5
410296,5 Lisburn Street,Hillsborough,Hillsborough,Down,ADAIR'S BAKERY,Manufacturers/packers,7839,0,,458836,0,,54.46376400000000,962,819,robert.lamont@lisburn.gov.uk,Lisburn,http://www.lisburn.gov.uk,-6.08342500000000,BT26 6AB,2013-12-03,fhrs_5_en-GB,5,,FHRS,0
410297,,,,,ADELE COWAN CHILDMINDING SERVICES,Hospitals/Childcare/Caring Premises,5,,,539843,,,,6201,819,robert.lamont@lisburn.gov.uk,Lisburn,http://www.lisburn.gov.uk,,,2011-11-22,fhrs_exempt_en-GB,Exempt,,FHRS,
410298,,,,,ADINE MCKEOWN - CHILDMINDER,Hospitals/Childcare/Caring Premises,5,,,539859,,,,6335,819,robert.lamont@lisburn.gov.uk,Lisburn,http://www.lisburn.gov.uk,,,2012-02-01,fhrs_exempt_en-GB,Exempt,,FHRS,
410299,53a Soldierstown Road,Aghalee,Aghalee,Armagh,AGHALEE CHURCH OF IRELAND (HOLY TRINITY),Other catering premises,7841,,,687410,,,54.50688800000000,3365,819,robert.lamont@lisburn.gov.uk,Lisburn,http://www.lisburn.gov.uk,-6.24715200000000,BT67 0ES,2014-07-03,fhrs_exempt_en-GB,Exempt,,FHRS,
410300,8e Lurgan Road,Killough,Aghalee,Armagh,AGHALEE PHARMACY PRACTICE,Retailers - other,4613,,,458317,,,54.52055300000000,2640,819,robert.lamont@lisburn.gov.uk,Lisburn,http://www.lisburn.gov.uk,-6.26893000000000,BT67 0DD,2013-04-04,fhrs_exempt_en-GB,Exempt,,FHRS,
410301,Tonagh Drive,,Lisburn,Antrim,Agota Efs,Retailers - other,4613,10,,710390,20,,54.49831600000000,7007,819,robert.lamont@lisburn.gov.uk,Lisburn,http://www.lisburn.gov.uk,-6.11231000000000,BT28 2TR,2014-09-09,fhrs_1_en-GB,1,,FHRS,10
410302,Lagmore Drive,Dunmurry,Dunmurry,,Aisling After Schools,Other catering premises,7841,0,,465813,0,,54.55225300000000,6457,819,robert.lamont@lisburn.gov.uk,Lisburn,http://www.lisburn.gov.uk,-6.02901000000000,BT17 0TD,2012-09-27,fhrs_5_en-GB,5,,FHRS,0
410303,180 Kingsway,Dunmurry,Dunmurry,Antrim,ALI'S,Takeaway/sandwich shop,7844,10,,458346,10,,54.55092600000000,361,819,robert.lamont@lisburn.gov.uk,Lisburn,http://www.lisburn.gov.uk,-6.00344600000000,BT17 9AD,2014-12-11,fhrs_3_en-GB,3,,FHRS,10
410304,,,,,ALLYS BUFFET,Other catering premises,7841,0,,458630,0,,,5941,819,robert.lamont@lisburn.gov.uk,Lisburn,http://www.lisburn.gov.uk,,,2012-10-16,fhrs_5_en-GB,5,,FHRS,0
410305,City Business Park,,Dunmurry,,AMYS CATERING,Mobile caterer,7846,10,,458770,5,,,6402,819,robert.lamont@lisburn.gov.uk,Lisburn,http://www.lisburn.gov.uk,,BT17,2014-04-03,fhrs_4_en-GB,4,,FHRS,5
410306,248 Ballynahinch Road,Ballycrune,Hillsborough,Down,ANAHILT PRIMARY SCHOOL,School/college/university,7845,0,,493235,0,,54.43592700000000,436,819,robert.lamont@lisburn.gov.uk,Lisburn,http://www.lisburn.gov.uk,-5.99534300000000,BT26 6BP,2014-09-26,fhrs_5_en-GB,5,,FHRS,0
410307,26 Grand Street,Lisnagarvy,Lisburn,Antrim,ANDERSONS TRADITIONAL FISH & CHIPS,Takeaway/sandwich shop,7844,5,,458809,0,,54.51625200000000,774,819,robert.lamont@lisburn.gov.uk,Lisburn,http://www.lisburn.gov.uk,-6.02798000000000,BT27 4UD,2014-12-02,fhrs_5_en-GB,5,,FHRS,5
410308,3a Market Lane,Old Warren,Lisburn,Antrim,Angelo's Lisburn,Restaurant/Cafe/Canteen,1,0,,466688,0,,54.51062500000000,6501,819,robert.lamont@lisburn.gov.uk,Lisburn,http://www.lisburn.gov.uk,-6.04279700000000,BT28 1YG,2014-11-26,fhrs_5_en-GB,5,,FHRS,5
410309,,,,,ANN MARIE CATNEY,Hospitals/Childcare/Caring Premises,5,,,539823,,,,5444,819,robert.lamont@lisburn.gov.uk,Lisburn,http://www.lisburn.gov.uk,,,2011-04-01,fhrs_exempt_en-GB,Exempt,,FHRS,
410310,246 Ballynahinch Road,Ballycrune,Hillsborough,Down,ANNAHILT CARE HOME,Hospitals/Childcare/Caring Premises,5,5,,458445,0,,54.43592700000000,4503,819,robert.lamont@lisburn.gov.uk,Lisburn,http://www.lisburn.gov.uk,-5.99534300000000,BT26 6BP,2014-05-14,fhrs_5_en-GB,5,,FHRS,5
410311,Trinity Terrace,,Lisburn,Antrim,AOH CLUB,Retailers - other,4613,0,,493211,0,,54.51044900000000,2106,819,robert.lamont@lisburn.gov.uk,Lisburn,http://www.lisburn.gov.uk,-6.05412400000000,BT28 1DG,2012-11-01,fhrs_5_en-GB,5,,FHRS,0
410312,12 Lissue Road,Teraghafeeva Or Lissue,Lisburn,Antrim,ARAMARK,Restaurant/Cafe/Canteen,1,0,,458546,10,,54.51238600000000,5553,819,robert.lamont@lisburn.gov.uk,Lisburn,http://www.lisburn.gov.uk,-6.10597900000000,BT28 2SZ,2014-09-17,fhrs_4_en-GB,4,,FHRS,10
410313,14 Lisburn Square,Old Warren,Lisburn,Antrim,ARGOS LIMITED,Retailers - other,4613,,,458350,,,54.51014200000000,3643,819,robert.lamont@lisburn.gov.uk,Lisburn,http://www.lisburn.gov.uk,-6.04734400000000,BT28 1TS,2012-07-27,fhrs_exempt_en-GB,Exempt,,FHRS,
410314,Unit 17a Bow Street Mall,Bow Street,Lisburn,Antrim,ARORA CAFE,Restaurant/Cafe/Canteen,1,5,,458406,0,,54.51245100000000,4140,819,robert.lamont@lisburn.gov.uk,Lisburn,http://www.lisburn.gov.uk,-6.04845400000000,BT28 1AU,2014-03-03,fhrs_5_en-GB,5,,FHRS,0
410315,18 Market Square,Lisnagarvy,Lisburn,Antrim,Arora@smythpatterson,Restaurant/Cafe/Canteen,1,5,,516333,0,,54.51121400000000,6530,819,robert.lamont@lisburn.gov.uk,Lisburn,http://www.lisburn.gov.uk,-6.04368000000000,BT28 1AG,2013-02-11,fhrs_5_en-GB,5,,FHRS,0
410316,245 Moira Road,Broughmore,Lisburn,Antrim,ASH HILL CHILDMINDING,Hospitals/Childcare/Caring Premises,5,,,539854,,,54.50035400000000,6304,819,robert.lamont@lisburn.gov.uk,Lisburn,http://www.lisburn.gov.uk,-6.13477100000000,BT28 2TU,2012-01-16,fhrs_exempt_en-GB,Exempt,,FHRS,
410317,11 Old Ballynahinch Road,Ballymacbrennan,Lisburn,Antrim,Ashvale Farm Shop,Restaurant/Cafe/Canteen,1,,,701450,,,54.48361100000000,6988,819,robert.lamont@lisburn.gov.uk,Lisburn,http://www.lisburn.gov.uk,-5.98936800000000,BT27 5PE,2014-11-27,fhrs_5_en-GB,5,,FHRS,
410318,7 Bachelors Walk,Lisnagarvy,Lisburn,Antrim,Atlas Womens Centre,Restaurant/Cafe/Canteen,1,0,,539870,0,,54.51326400000000,6585,819,robert.lamont@lisburn.gov.uk,Lisburn,http://www.lisburn.gov.uk,-6.04596000000000,BT28 1XJ,2013-04-10,fhrs_5_en-GB,5,,FHRS,5
410319,19 Ballynahinch Street,Hillsborough,Hillsborough,Down,Azora Health & Whole Foods,Retailers - other,4613,,,516334,,,54.46323100000000,6537,819,robert.lamont@lisburn.gov.uk,Lisburn,http://www.lisburn.gov.uk,-6.08212300000000,BT26 6AW,2013-04-22,fhrs_5_en-GB,5,,FHRS,
410320,45-47 Bow Street,Lisburn,Lisburn,Antrim,B & M BARGAINS,Retailers - other,4613,,,458581,,,,5754,819,robert.lamont@lisburn.gov.uk,Lisburn,http://www.lisburn.gov.uk,,BT28 1BT,2013-01-03,fhrs_exempt_en-GB,Exempt,,FHRS,
410321,76 Bachelors Walk,Lisnagarvy,Lisburn,Antrim,Bad Ass Burrito,Restaurant/Cafe/Canteen,1,10,,539871,10,,54.51297300000000,6590,819,robert.lamont@lisburn.gov.uk,Lisburn,http://www.lisburn.gov.uk,-6.04744100000000,BT28 1XN,2014-10-23,fhrs_3_en-GB,3,,FHRS,10
410322,118 A Lisburn Road,Ballypitmave,Glenavy,Antrim,BALLANCE HOUSE,Restaurant/Cafe/Canteen,1,5,,458767,0,,54.57623700000000,640,819,robert.lamont@lisburn.gov.uk,Lisburn,http://www.lisburn.gov.uk,-6.17526000000000,BT29 4NY,2012-07-04,fhrs_5_en-GB,5,,FHRS,5
410323,13 Moira Road,Aghadavy,Lisburn,Antrim,Ballinderry Inn,Hotel/bed & breakfast/guest house,7842,10,,458485,10,,54.51618800000000,5122,819,robert.lamont@lisburn.gov.uk,Lisburn,http://www.lisburn.gov.uk,-6.20924200000000,BT28 2HQ,2014-11-26,fhrs_3_en-GB,3,,FHRS,10
410324,41-43 Ballylesson Road,Ballycairn,Lisburn,Antrim,BALLYCAIRN PRESBYTERIAN CHURCH,Other catering premises,7841,,,458338,,,54.54677800000000,3426,819,robert.lamont@lisburn.gov.uk,Lisburn,http://www.lisburn.gov.uk,-5.93827200000000,BT8 8HG,2013-05-13,fhrs_exempt_en-GB,Exempt,,FHRS,
410325,2a Glenavy Road,Magheramesk,Moira,Antrim,BALLYCANAL MANOR BED & BREAKFAST,Hotel/bed & breakfast/guest house,7842,5,,458386,0,,54.49849600000000,4045,819,robert.lamont@lisburn.gov.uk,Lisburn,http://www.lisburn.gov.uk,-6.21035600000000,BT67 0LT,2012-07-17,fhrs_5_en-GB,5,,FHRS,0
410326,1a Killultagh Road,Derrykillultagh,Lisburn,Antrim,BALLYCARRICKMADDY PRIMARY SCHOOL,School/college/university,7845,0,,493193,5,,54.55282300000000,1534,819,robert.lamont@lisburn.gov.uk,Lisburn,http://www.lisburn.gov.uk,-6.14927100000000,BT28 2NX,2014-05-07,fhrs_5_en-GB,5,,FHRS,5
410327,16 Brokerstown Road,Ballymacoss,Lisburn,Antrim,BALLYMACASH PRIMARY SCHOOL,School/college/university,7845,0,,458834,0,,54.52131300000000,94,819,robert.lamont@lisburn.gov.uk,Lisburn,http://www.lisburn.gov.uk,-6.08401900000000,BT28 2EE,2013-04-16,fhrs_5_en-GB,5,,FHRS,5
410328,1 Johnston Way,Ballymacoss,Lisburn,Antrim,BALLYMACOSS HOUSE,Hospitals/Childcare/Caring Premises,5,5,,458420,5,,54.51977200000000,4321,819,robert.lamont@lisburn.gov.uk,Lisburn,http://www.lisburn.gov.uk,-6.07411400000000,BT28 2XE,2014-06-17,fhrs_5_en-GB,5,,FHRS,5
410329,41 Scroggy Road,,Glenavy,Co Antrim,BALLYMACRICKETT PRIMARY SCHOOL,School/college/university,7845,0,,458792,0,,54.57460900000000,678,819,robert.lamont@lisburn.gov.uk,Lisburn,http://www.lisburn.gov.uk,-6.22041400000000,BT29 4NE,2013-05-17,fhrs_5_en-GB,5,,FHRS,0
410330,22 Rock Road,Ballymacward Upper,Lisburn,Antrim,BALLYMACWARD PRE-SCHOOL PLAYGROUP,Other catering premises,7841,,,458647,,,54.57799500000000,5999,819,robert.lamont@lisburn.gov.uk,Lisburn,http://www.lisburn.gov.uk,-6.10548800000000,BT28 3SU,2013-02-13,fhrs_exempt_en-GB,Exempt,,FHRS,
410331,Blacks Road,,Belfast,,BALMORAL HOTEL,Hotel/bed & breakfast/guest house,7842,10,,458448,10,,54.56340600000000,4523,819,robert.lamont@lisburn.gov.uk,Lisburn,http://www.lisburn.gov.uk,-6.00176900000000,BT10 0NF,2014-11-13,fhrs_3_en-GB,3,,FHRS,10
410332,Unit 1 Tonagh Drive,Lisburn,Lisburn,Antrim,BALTIC COAST,Restaurant/Cafe/Canteen,1,10,,458740,10,,54.51008600000000,6310,819,robert.lamont@lisburn.gov.uk,Lisburn,http://www.lisburn.gov.uk,-6.05837200000000,BT28 1DY,2014-11-13,fhrs_3_en-GB,3,,FHRS,10
410333,15 Market Square East,Lisnagarvey,Lisburn,Antrim,Bar 15,Pub/bar/nightclub,7843,0,,608005,0,,54.51118200000000,6554,819,robert.lamont@lisburn.gov.uk,Lisburn,http://www.lisburn.gov.uk,-6.04226100000000,BT28 1AE,2015-01-05,fhrs_5_en-GB,5,,FHRS,0
410334,25 Ballantine Gardens,Ballymullan,Lisburn,Down,BARBARA MOORE,Hospitals/Childcare/Caring Premises,5,,,539860,,,54.50752300000000,6336,819,robert.lamont@lisburn.gov.uk,Lisburn,http://www.lisburn.gov.uk,-6.02495700000000,BT27 5FB,2012-02-09,fhrs_exempt_en-GB,Exempt,,FHRS,
410335,73 Ashmount Gardens,Largymore,Lisburn,Antrim,BARBOUR NURSERY SCHOOL,School/college/university,7845,0,,458821,0,,54.51069100000000,865,819,robert.lamont@lisburn.gov.uk,Lisburn,http://www.lisburn.gov.uk,-6.02968400000000,BT27 5BZ,2013-10-22,fhrs_5_en-GB,5,,FHRS,0
410336,16 Main Street,16 Main Street,Moira,Armagh,BAUHINIA PALACE,Restaurant/Cafe/Canteen,1,10,,458258,10,,54.47944900000000,1729,819,robert.lamont@lisburn.gov.uk,Lisburn,http://www.lisburn.gov.uk,-6.22991900000000,BT67 0LE,2014-12-10,fhrs_3_en-GB,3,,FHRS,10
410337,4 Dunmurry Lane,Dunmurry,Belfast,,BEECHLAWN HOUSE HOTEL,Hotel/bed & breakfast/guest house,7842,,,458509,,,54.55202200000000,537,819,robert.lamont@lisburn.gov.uk,Lisburn,http://www.lisburn.gov.uk,-5.99850800000000,BT17 9RR,2014-08-19,fhrs_5_en-GB,5,,FHRS,
410338,3 Dromore Road,Hillsborough,Hillsborough,Down,BEECHLAWN SCHOOL,School/college/university,7845,0,,458835,0,,54.45891700000000,945,819,robert.lamont@lisburn.gov.uk,Lisburn,http://www.lisburn.gov.uk,-6.08656600000000,BT26 6PA,2014-01-15,fhrs_5_en-GB,5,,FHRS,0
410339,1f Bentrim Road,Lisburn,Lisburn,Antrim,BEIJING CHINESE RESTAURANT,Restaurant/Cafe/Canteen,1,,,458586,,,54.51440400000000,5766,819,robert.lamont@lisburn.gov.uk,Lisburn,http://www.lisburn.gov.uk,-6.05534100000000,BT28 2GB,2013-06-20,fhrs_3_en-GB,3,,FHRS,
410340,1 Glenburn Road South,Old Forge,Dunmurry,Belfast,Belfast Bible College,School/college/university,7845,0,,458268,0,,54.54575400000000,1801,819,robert.lamont@lisburn.gov.uk,Lisburn,http://www.lisburn.gov.uk,-5.99604900000000,BT17 9JP,2013-05-30,fhrs_5_en-GB,5,,FHRS,0
410341,42 Main Street,Moira,Moira,Armagh,BELLE'S COFFEE HOUSE,Restaurant/Cafe/Canteen,1,10,,458558,0,,,5652,819,robert.lamont@lisburn.gov.uk,Lisburn,http://www.lisburn.gov.uk,,BT67 OLQ,2014-06-16,fhrs_4_en-GB,4,,FHRS,10
410342,232 Kingsway,Dunmurry,Dunmurry,Antrim,BELLEZZA ITALIAN CUISINE,Takeaway/sandwich shop,7844,0,,458588,0,,54.54994700000000,577,819,robert.lamont@lisburn.gov.uk,Lisburn,http://www.lisburn.gov.uk,-6.00674000000000,BT17 9AE,2014-02-27,fhrs_5_en-GB,5,,FHRS,5
410343,156 Belsize Road,Magheralave (Upper Belfast),Lisburn,Antrim,Belsize Service Station,Retailers - other,4613,10,,458239,0,,54.53125100000000,1547,819,robert.lamont@lisburn.gov.uk,Lisburn,http://www.lisburn.gov.uk,-6.04199500000000,BT27 4DR,2012-11-22,fhrs_4_en-GB,4,,FHRS,0
410344,Queensway,Derriaghy,Dunmurry,,BETHANY CHURCH OF THE NAZARENE,Other catering premises,7841,,,458332,,,,3294,819,robert.lamont@lisburn.gov.uk,Lisburn,http://www.lisburn.gov.uk,,BT17 4NQ,2012-03-29,fhrs_exempt_en-GB,Exempt,,FHRS,
410345,20 Pond Park Road,Clogher,Lisburn,Antrim,BIRDIES DAY NURSERY,Other catering premises,7841,5,,458197,5,,54.52284700000000,122,819,robert.lamont@lisburn.gov.uk,Lisburn,http://www.lisburn.gov.uk,-6.06020700000000,BT28 3LF,2013-06-03,fhrs_5_en-GB,5,,FHRS,0
410346,Beechland Drive,,Lisburn,Antrim,BLARIS FOLD,Hospitals/Childcare/Caring Premises,5,0,,458193,0,,54.50425500000000,1147,819,robert.lamont@lisburn.gov.uk,Lisburn,http://www.lisburn.gov.uk,-6.05168600000000,BT28 1LN,2014-11-12,fhrs_5_en-GB,5,,FHRS,0
410347,Stewartstown Road,,Belfast,,Blend,Restaurant/Cafe/Canteen,1,0,,701453,0,,54.54775300000000,7073,819,robert.lamont@lisburn.gov.uk,Lisburn,http://www.lisburn.gov.uk,-6.02690800000000,BT17 0DW,2014-08-22,fhrs_5_en-GB,5,,FHRS,0
410348,Unit 6 Lisburn Leisure Park,,Lisburn,Antrim,BLUE CHICAGO GRILL,Restaurant/Cafe/Canteen,1,5,,458620,0,,,5917,819,robert.lamont@lisburn.gov.uk,Lisburn,http://www.lisburn.gov.uk,,BT28 1PR,2013-09-24,fhrs_5_en-GB,5,,FHRS,5
410349,10 The Chimes,Hillsborough,Hillsborough,Down,BLUE DIAMOND (C.P.) LTD,Importers/Exporters,14,,,458768,,,54.46272100000000,6400,819,robert.lamont@lisburn.gov.uk,Lisburn,http://www.lisburn.gov.uk,-6.08227000000000,BT26 6AJ,2012-10-12,fhrs_exempt_en-GB,Exempt,,FHRS,
410350,The Cutts,,Belfast,,Bombardier Dunmurry,Restaurant/Cafe/Canteen,1,0,,655797,0,,54.54330000000000,6839,819,robert.lamont@lisburn.gov.uk,Lisburn,http://www.lisburn.gov.uk,-6.02108100000000,BT17 9HN,2014-03-20,fhrs_5_en-GB,5,,FHRS,0
410351,45 Main Street,Carnalbanagh East,Moira,Armagh,BOOTS CHEMIST,Retailers - other,4613,,,458571,,,54.48055200000000,5711,819,robert.lamont@lisburn.gov.uk,Lisburn,http://www.lisburn.gov.uk,-6.22670800000000,BT67 0LQ,2012-11-12,fhrs_exempt_en-GB,Exempt,,FHRS,
410352,57-59 Bow Street,Lisburn,Lisburn,Antrim,BOOTS THE CHEMIST LIMITED,Retailers - other,4613,,,458196,,,54.51116100000000,1182,819,robert.lamont@lisburn.gov.uk,Lisburn,http://www.lisburn.gov.uk,-6.04704900000000,BT28 1BJ,2014-06-24,fhrs_exempt_en-GB,Exempt,,FHRS,
410353,1b Sprucefield Shopping Centre,Sprucefield,Lisburn,Antrim,BOOTS THE CHEMIST LTD,Retailers - other,4613,,,466684,,,54.49105500000000,4822,819,robert.lamont@lisburn.gov.uk,Lisburn,http://www.lisburn.gov.uk,-6.05888900000000,BT27 5UJ,2012-07-26,fhrs_exempt_en-GB,Exempt,,FHRS,
410354,16 Market Square,Lisburn,Lisburn,Antrim,BOOTS UK LTD,Retailers - other,4613,,,458538,,,54.51121400000000,5505,819,robert.lamont@lisburn.gov.uk,Lisburn,http://www.lisburn.gov.uk,-6.04368000000000,BT28 1AG,2012-05-02,fhrs_exempt_en-GB,Exempt,,FHRS,
410355,21 Sloan Street,Largymore,Lisburn,Antrim,BOOTS UK LTD,Retailers - other,4613,,,458537,,,54.50922800000000,5504,819,robert.lamont@lisburn.gov.uk,Lisburn,http://www.lisburn.gov.uk,-6.03532800000000,BT27 5AG,2012-06-07,fhrs_exempt_en-GB,Exempt,,FHRS,
410356,3 Market Lane,Old Warren,Lisburn,Antrim,BOOTS UK LTD,Retailers - other,4613,,,458539,,,54.51062500000000,5507,819,robert.lamont@lisburn.gov.uk,Lisburn,http://www.lisburn.gov.uk,-6.04279700000000,BT28 1YG,2012-06-07,fhrs_exempt_en-GB,Exempt,,FHRS,
410357,99 Knockmore Road,Ballymacoss,Lisburn,Antrim,BOOTS UK LTD,Retailers - other,4613,,,493247,,,54.51380500000000,5506,819,robert.lamont@lisburn.gov.uk,Lisburn,http://www.lisburn.gov.uk,-6.08200800000000,BT28 2EA,2012-05-10,fhrs_exempt_en-GB,Exempt,,FHRS,
410358,88 Broom Park,Killeaton,Dunmurry,Belfast,Bradleys Day Today,Retailers - other,4613,0,,458454,0,,54.54775300000000,4584,819,robert.lamont@lisburn.gov.uk,Lisburn,http://www.lisburn.gov.uk,-6.02690800000000,BT17 0DW,2014-05-08,fhrs_4_en-GB,4,,FHRS,10
410359,92 Longstone Street,Lisburn,Lisburn,Antrim,BRADS,Takeaway/sandwich shop,7844,0,,458489,5,,54.50949100000000,5234,819,robert.lamont@lisburn.gov.uk,Lisburn,http://www.lisburn.gov.uk,-6.05937300000000,BT28 1TT,2014-01-28,fhrs_4_en-GB,4,,FHRS,10
410360,114 Longstone Street,Tonagh,Lisburn,Antrim,BRANNIGANS,Takeaway/sandwich shop,7844,5,,458389,5,,54.50968500000000,4059,819,robert.lamont@lisburn.gov.uk,Lisburn,http://www.lisburn.gov.uk,-6.05636800000000,BT28 1TR,2014-02-19,fhrs_5_en-GB,5,,FHRS,5
410361,Tonagh Avenue,Lisburn,Lisburn,Antrim,BREAKFAST CLUB AT TONAGH PRIMARY SCHOOL,Other catering premises,7841,,,493258,,,54.51045000000000,6272,819,robert.lamont@lisburn.gov.uk,Lisburn,http://www.lisburn.gov.uk,-6.05420100000000,BT28 1DG,2012-09-25,fhrs_exempt_en-GB,Exempt,,FHRS,
410362,55 Lagmore Dale,Lagmore,Dunmurry,Antrim,BRONAGH OCONNOR,Hospitals/Childcare/Caring Premises,5,,,539835,,,54.54785400000000,6134,819,robert.lamont@lisburn.gov.uk,Lisburn,http://www.lisburn.gov.uk,-6.03143200000000,BT17 0TF,2011-08-16,fhrs_exempt_en-GB,Exempt,,FHRS,
410363,25 Summerhill Road,,Belfast,Antrim,BROOK ACTIVITY CENTRE,Retailers - other,4613,,,458183,,,,1080,819,robert.lamont@lisburn.gov.uk,Lisburn,http://www.lisburn.gov.uk,,BT17 ORL,2014-08-27,fhrs_exempt_en-GB,Exempt,,FHRS,
410364,2 Horse Park,Ballyellough,Lisburn,Antrim,BROOKHALL HISTORICAL FARM,Other catering premises,7841,,,493192,,,54.53141900000000,1495,819,robert.lamont@lisburn.gov.uk,Lisburn,http://www.lisburn.gov.uk,-6.13040300000000,BT28 2QU,2014-07-25,fhrs_exempt_en-GB,Exempt,,FHRS,
410365,42e Cloona Park,Dunmurry,Dunmurry,Antrim,BROOKLANDS HEALTHCARE,Hospitals/Childcare/Caring Premises,5,5,,458176,5,,54.56405800000000,1028,819,robert.lamont@lisburn.gov.uk,Lisburn,http://www.lisburn.gov.uk,-6.01738500000000,BT17 0HH,2014-02-10,fhrs_5_en-GB,5,,FHRS,5
410366,25 Lisburn Road,,Craigavon,,BROOMHEDGE SERVICE STATION,Retailers - other,4613,0,,493198,0,,,1676,819,robert.lamont@lisburn.gov.uk,Lisburn,http://www.lisburn.gov.uk,,BT67 OJS,2012-07-23,fhrs_5_en-GB,5,,FHRS,0
410367,Wallace Avenue,Lisnagarvy,Lisburn,Antrim,BROWNLEE PRIMARY SCHOOL,School/college/university,7845,0,,458295,0,,54.51332900000000,2110,819,robert.lamont@lisburn.gov.uk,Lisburn,http://www.lisburn.gov.uk,-6.04223500000000,BT27 4AA,2012-09-11,fhrs_5_en-GB,5,,FHRS,5
410368,73 Belfast Road,Ballynacoy,Glenavy,Antrim,BUBBLES DAY CARE,Other catering premises,7841,5,,458757,10,,54.59219700000000,6371,819,robert.lamont@lisburn.gov.uk,Lisburn,http://www.lisburn.gov.uk,-6.17134300000000,BT29 4HR,2014-12-09,fhrs_4_en-GB,4,,FHRS,5
410369,1a Killultagh Road,Derrykillultagh,Lisburn,Antrim,Bubbles Wraparound,Other catering premises,7841,,,687412,,,54.55282300000000,6852,819,robert.lamont@lisburn.gov.uk,Lisburn,http://www.lisburn.gov.uk,-6.14927100000000,BT28 2NX,2014-09-11,fhrs_5_en-GB,5,,FHRS,
410370,Unit B Bow Street Mall Food Court,Bow Street,Lisburn,Antrim,BURGER KING,Restaurant/Cafe/Canteen,1,0,,458369,5,,54.51116100000000,3927,819,robert.lamont@lisburn.gov.uk,Lisburn,http://www.lisburn.gov.uk,-6.04704900000000,BT28 1BJ,2013-10-03,fhrs_5_en-GB,5,,FHRS,0
410371,85 Moira Road,Hillsborough,Hillsborough,Down,BUSY BEES PLAYGROUP,Other catering premises,7841,,,458326,,,54.46656000000000,3206,819,robert.lamont@lisburn.gov.uk,Lisburn,http://www.lisburn.gov.uk,-6.10288300000000,BT26 6DX,2013-09-24,fhrs_exempt_en-GB,Exempt,,FHRS,
410372,Unit 1-2 Graham Gardens,Lisburn,Lisburn,Antrim,CAFE @ INSPIRATIONS,Restaurant/Cafe/Canteen,1,,,458366,,,54.51229100000000,3860,819,robert.lamont@lisburn.gov.uk,Lisburn,http://www.lisburn.gov.uk,-6.04523400000000,BT28 1XE,2014-01-06,fhrs_5_en-GB,5,,FHRS,
410373,5b The Square,Hillsborough,Hillsborough,Down,Cafe Deelite,Restaurant/Cafe/Canteen,1,10,,499278,5,,54.46089100000000,6503,819,robert.lamont@lisburn.gov.uk,Lisburn,http://www.lisburn.gov.uk,-6.08413000000000,BT26 6AG,2014-07-30,fhrs_3_en-GB,3,,FHRS,10
410374,14 Market Square,Lisburn,Lisburn,Antrim,Cafe Nook,Restaurant/Cafe/Canteen,1,0,,687413,5,,54.51121400000000,6991,819,robert.lamont@lisburn.gov.uk,Lisburn,http://www.lisburn.gov.uk,-6.04368000000000,BT28 1AG,2014-06-25,fhrs_5_en-GB,5,,FHRS,0
410375,1a Glenavy Road,Magheramesk,Moira,Armagh,CAFE RENDEZVOUS,Restaurant/Cafe/Canteen,1,10,,458701,10,,54.49849600000000,6199,819,robert.lamont@lisburn.gov.uk,Lisburn,http://www.lisburn.gov.uk,-6.21035600000000,BT67 0LT,2013-06-12,fhrs_2_en-GB,2,,FHRS,15
410376,13 Antrim Street,Tonagh,Lisburn,Antrim,Cafe Thyme,Restaurant/Cafe/Canteen,1,10,,636153,5,,54.51245100000000,6766,819,robert.lamont@lisburn.gov.uk,Lisburn,http://www.lisburn.gov.uk,-6.04845400000000,BT28 1AU,2014-01-22,fhrs_4_en-GB,4,,FHRS,5
410377,Rathdown Walk,Lissue Industrial Estate,Lisburn,Antrim,CAFE VIC-RYN,Restaurant/Cafe/Canteen,1,10,,458390,5,,54.50214200000000,4061,819,robert.lamont@lisburn.gov.uk,Lisburn,http://www.lisburn.gov.uk,-6.10189900000000,BT28 2RF,2013-10-30,fhrs_4_en-GB,4,,FHRS,5
410378,40-46 Bow Street,,Lisburn,,Caffe Nero,Restaurant/Cafe/Canteen,1,0,,687415,0,,54.51116100000000,7018,819,robert.lamont@lisburn.gov.uk,Lisburn,http://www.lisburn.gov.uk,-6.04704900000000,BT28 1BJ,2014-06-30,fhrs_5_en-GB,5,,FHRS,5
410379,1a Backwood Road,Moira,Moira,Armagh,CAIROS COFFEE,Restaurant/Cafe/Canteen,1,5,,458786,0,,54.48574000000000,6484,819,robert.lamont@lisburn.gov.uk,Lisburn,http://www.lisburn.gov.uk,-6.24109700000000,BT67 0LJ,2012-10-23,fhrs_5_en-GB,5,,FHRS,0
410380,70 Longstone Street,Tonagh,Lisburn,Antrim,CAM HING,Takeaway/sandwich shop,7844,5,,458728,0,,54.50968500000000,6276,819,robert.lamont@lisburn.gov.uk,Lisburn,http://www.lisburn.gov.uk,-6.05636800000000,BT28 1TR,2014-04-16,fhrs_5_en-GB,5,,FHRS,5
410381,148 Ballylesson Road,Drumbo,Lisburn,,Cameron Landscapes & Garden Centre,Restaurant/Cafe/Canteen,1,5,,458472,0,,54.55978700000000,505,819,robert.lamont@lisburn.gov.uk,Lisburn,http://www.lisburn.gov.uk,-5.90419000000000,BT8 6JU,2013-10-31,fhrs_5_en-GB,5,,FHRS,0
410382,5-13 Hillsborough Road,Dromara,Dromara,Down,Carnbrooke Meats,Manufacturers/packers,7839,0,,458700,0,,54.38212100000000,6197,819,robert.lamont@lisburn.gov.uk,Lisburn,http://www.lisburn.gov.uk,-6.01800900000000,BT25 2BL,2011-10-20,fhrs_5_en-GB,5,,FHRS,5
410383,4 Hillsborough Road,,Dromara,Down,Carnbrooke Meats - Wholesale Butchers,Retailers - other,4613,0,,710388,0,,54.38212100000000,506635,819,robert.lamont@lisburn.gov.uk,Lisburn,http://www.lisburn.gov.uk,-6.01800900000000,BT25 2BL,2014-10-07,fhrs_5_en-GB,5,,FHRS,5
410384,336 Comber Road,Carr,Lisburn,Down,CARR PRIMARY SCHOOL,School/college/university,7845,0,,493267,0,,54.49832800000000,66,819,robert.lamont@lisburn.gov.uk,Lisburn,http://www.lisburn.gov.uk,-5.93396700000000,BT27 6TB,2012-11-29,fhrs_5_en-GB,5,,FHRS,5
410385,191 Kingsway,Dunmurry,Dunmurry,Antrim,CATCH MY PAL BILLIARDS & SNOOKER CLUB,Retailers - other,4613,,,493224,,,54.55125600000000,368,819,robert.lamont@lisburn.gov.uk,Lisburn,http://www.lisburn.gov.uk,-6.00380100000000,BT17 9RY,2012-10-24,fhrs_exempt_en-GB,Exempt,,FHRS,
410386,17 Glenwood Green,Aghnahough,Lisburn,Antrim,CATHERINE ANN SCULLION,Hospitals/Childcare/Caring Premises,5,,,539857,,,54.52917900000000,6328,819,robert.lamont@lisburn.gov.uk,Lisburn,http://www.lisburn.gov.uk,-6.08258500000000,BT28 3US,2012-03-06,fhrs_exempt_en-GB,Exempt,,FHRS,
410387,1a Glenavy Road,Ballyscolly,Lisburn,Antrim,CENTRA - BALLINDERRY SERVICE STATION,Retailers - supermarkets/hypermarkets,7840,5,,458356,5,,54.54284100000000,3745,819,robert.lamont@lisburn.gov.uk,Lisburn,http://www.lisburn.gov.uk,-6.19806100000000,BT28 2EU,2014-03-04,fhrs_5_en-GB,5,,FHRS,5
410388,2 Ballynahinch Road,Largymore,Lisburn,Antrim,CENTRA LISBURN,Retailers - other,4613,0,,458505,5,,54.50669400000000,5341,819,robert.lamont@lisburn.gov.uk,Lisburn,http://www.lisburn.gov.uk,-6.03696300000000,BT27 5EY,2013-10-15,fhrs_5_en-GB,5,,FHRS,0
410389,16 Main Street,Carnalbanagh West,Moira,Armagh,CENTRA MOIRA,Retailers - supermarkets/hypermarkets,7840,5,,516331,0,,54.47944900000000,6485,819,robert.lamont@lisburn.gov.uk,Lisburn,http://www.lisburn.gov.uk,-6.22991900000000,BT67 0LE,2015-01-14,fhrs_4_en-GB,4,,FHRS,10
410390,Unit 3a 47 Moira Road,Lisburn,Lisburn,Antrim,CHARLIES DEN,Restaurant/Cafe/Canteen,1,10,,458568,10,,54.50798200000000,5706,819,robert.lamont@lisburn.gov.uk,Lisburn,http://www.lisburn.gov.uk,-6.06724200000000,BT28 1RH,2014-10-21,fhrs_3_en-GB,3,,FHRS,10
410391,3 Kensington Close,Largymore,Lisburn,Antrim,CHERRYTREE CHILDCARE,Hospitals/Childcare/Caring Premises,5,,,539852,,,54.50426000000000,6250,819,robert.lamont@lisburn.gov.uk,Lisburn,http://www.lisburn.gov.uk,-6.03317400000000,BT27 5NL,2012-01-03,fhrs_exempt_en-GB,Exempt,,FHRS,
410392,182 Kingsway,Dunmurry,Dunmurry,Antrim,CHILLI HOUSE,Takeaway/sandwich shop,7844,20,,458648,10,,54.55092600000000,6000,819,robert.lamont@lisburn.gov.uk,Lisburn,http://www.lisburn.gov.uk,-6.00344600000000,BT17 9AD,2014-10-02,fhrs_1_en-GB,1,,FHRS,20
410393,111 Moss Road,Magheralave (Upper Belfast),Lisburn,Antrim,CHINA INN,Takeaway/sandwich shop,7844,0,,458594,5,,54.53119700000000,5792,819,robert.lamont@lisburn.gov.uk,Lisburn,http://www.lisburn.gov.uk,-6.03648200000000,BT27 4NY,2014-08-28,fhrs_4_en-GB,4,,FHRS,10
410394,8b Lurgan Road,Killough,Aghalee,Armagh,China Kitchen,Takeaway/sandwich shop,7844,10,,624707,10,,54.52055300000000,6671,819,robert.lamont@lisburn.gov.uk,Lisburn,http://www.lisburn.gov.uk,-6.26893000000000,BT67 0DD,2013-12-04,fhrs_3_en-GB,3,,FHRS,10
410395,Unit 6 Bow Street Mall Food Court,38 Bow Street,Lisburn,Antrim,CHOPSTIX NOODLE BAR,Takeaway/sandwich shop,7844,0,,458778,0,,54.51155600000000,6446,819,robert.lamont@lisburn.gov.uk,Lisburn,http://www.lisburn.gov.uk,-6.04758600000000,BT28 1BN,2014-10-15,fhrs_5_en-GB,5,,FHRS,5
410396,Lagmore Drive,Lagmore,Dunmurry,,CHRIST THE REDEEMER PRIMARY SCHOOL,School/college/university,7845,5,,458313,0,,54.55080700000000,253,819,robert.lamont@lisburn.gov.uk,Lisburn,http://www.lisburn.gov.uk,-6.03124300000000,BT17 0TG,2014-01-24,fhrs_5_en-GB,5,,FHRS,0
410397,11 Gravelhill Road,Lurganure,Lisburn,Antrim,CHUCKLEBUGS CHILDMINDING,Hospitals/Childcare/Caring Premises,5,,,539845,,,54.49665800000000,6204,819,robert.lamont@lisburn.gov.uk,Lisburn,http://www.lisburn.gov.uk,-6.11661600000000,BT28 2TN,2011-10-18,fhrs_exempt_en-GB,Exempt,,FHRS,
410398,44 North Circular Road,Lisnagarvy,Lisburn,Antrim,CIRCULAR LODGE BED & BREAKFAST,Hotel/bed & breakfast/guest house,7842,0,,493195,0,,54.51467500000000,1558,819,robert.lamont@lisburn.gov.uk,Lisburn,http://www.lisburn.gov.uk,-6.04824000000000,BT28 3AH,2011-09-16,fhrs_5_en-GB,5,,FHRS,0
410399,Unit A2 Bow Street Mall,Lisburn,Lisburn,Antrim,CLAIRES ACCESSORIES,Retailers - other,4613,,,466679,,,54.51170600000000,1968,819,robert.lamont@lisburn.gov.uk,Lisburn,http://www.lisburn.gov.uk,-6.05020400000000,BT28 1AW,2015-01-06,fhrs_exempt_en-GB,Exempt,,FHRS,
410400,48 Soldierstown Road,Aghalee,Aghalee,Armagh,CLENAGHANS,Restaurant/Cafe/Canteen,1,0,,458237,5,,,1539,819,robert.lamont@lisburn.gov.uk,Lisburn,http://www.lisburn.gov.uk,,BT67 OES,2013-07-24,fhrs_4_en-GB,4,,FHRS,10
410401,3 Lower Ballinderry Road,Ballyscolly,Lisburn,Antrim,CLENBELLE BED & BREAKFAST,Hotel/bed & breakfast/guest house,7842,0,,458777,0,,54.54008100000000,6445,819,robert.lamont@lisburn.gov.uk,Lisburn,http://www.lisburn.gov.uk,-6.21124000000000,BT28 2JA,2012-08-06,fhrs_5_en-GB,5,,FHRS,0
410402,218 Stewartstown Road,Poleglass,Dunmurry,Antrim,CLOVERHILL HOSTEL,Other catering premises,7841,,,458709,,,54.55680800000000,6233,819,robert.lamont@lisburn.gov.uk,Lisburn,http://www.lisburn.gov.uk,-6.02623900000000,BT17 0LB,2013-10-03,fhrs_exempt_en-GB,Exempt,,FHRS,
410403,Altona Road,Altona Road,Lisburn,Antrim,CLUB CLASS FITNESS AND LEISURE LTD,Restaurant/Cafe/Canteen,1,5,,458529,0,,54.50097600000000,5471,819,robert.lamont@lisburn.gov.uk,Lisburn,http://www.lisburn.gov.uk,-6.03949100000000,BT27 5QB,2013-09-26,fhrs_5_en-GB,5,,FHRS,0
410404,1 Haslems Lane,Old Warren,Lisburn,Antrim,COFFEE INC,Restaurant/Cafe/Canteen,1,10,,458551,5,,54.51061400000000,5575,819,robert.lamont@lisburn.gov.uk,Lisburn,http://www.lisburn.gov.uk,-6.04658000000000,BT28 1TW,2014-05-19,fhrs_3_en-GB,3,,FHRS,10
410405,Unit 9 Dairy Farm Centre,Stewartstown Road,Dunmurry,,Coffeeco,Restaurant/Cafe/Canteen,1,5,,701455,0,,54.55943200000000,7106,819,robert.lamont@lisburn.gov.uk,Lisburn,http://www.lisburn.gov.uk,-6.02241700000000,BT17 0SB,2014-09-11,fhrs_5_en-GB,5,,FHRS,5
410406,,,,,COLETTE LEYDEN,Hospitals/Childcare/Caring Premises,5,,,539829,,,,5463,819,robert.lamont@lisburn.gov.uk,Lisburn,http://www.lisburn.gov.uk,,,2011-04-01,fhrs_exempt_en-GB,Exempt,,FHRS,
410407,4 - 6 Market Place,,Lisburn,Antrim,Cookie Box,Restaurant/Cafe/Canteen,1,0,,706551,0,,54.51077100000000,7093,819,robert.lamont@lisburn.gov.uk,Lisburn,http://www.lisburn.gov.uk,-6.04847200000000,BT28 1AN,2014-10-01,fhrs_5_en-GB,5,,FHRS,0
410408,Unit 405 Lisburn Enterprise Park,,Lisburn,Antrim,COOKIE COACH COMPANY LTD,Distributors/Transporters,7,0,,458782,0,,54.51292600000000,6467,819,robert.lamont@lisburn.gov.uk,Lisburn,http://www.lisburn.gov.uk,-6.07587200000000,BT28 2BP,2012-09-05,fhrs_5_en-GB,5,,FHRS,0
410409,164 Longstone Street,Lisburn,Lisburn,Antrim,CO-OP WELCOME STORE,Retailers - supermarkets/hypermarkets,7840,5,,458290,0,,54.50949100000000,2064,819,robert.lamont@lisburn.gov.uk,Lisburn,http://www.lisburn.gov.uk,-6.05937300000000,BT28 1TT,2014-04-25,fhrs_5_en-GB,5,,FHRS,5
410410,100 Belsize Road,Magheralave (Upper Belfast),Lisburn,Antrim,CO-OPERATIVE STORES LTD,Retailers - supermarkets/hypermarkets,7840,0,,458347,0,,54.52340000000000,3617,819,robert.lamont@lisburn.gov.uk,Lisburn,http://www.lisburn.gov.uk,-6.03934300000000,BT27 4BP,2014-06-26,fhrs_5_en-GB,5,,FHRS,0
410411,134 Longstone Street,Tonagh,Lisburn,Antrim,COOPERS RESTAURANT,Restaurant/Cafe/Canteen,1,10,,458287,0,,54.50968500000000,2052,819,robert.lamont@lisburn.gov.uk,Lisburn,http://www.lisburn.gov.uk,-6.05636800000000,BT28 1TR,2014-02-25,fhrs_4_en-GB,4,,FHRS,10
410412,Dairyfarm Centre,,Dunmurry,,Copper Kettle,Restaurant/Cafe/Canteen,1,5,,701454,0,,54.56053800000000,7074,819,robert.lamont@lisburn.gov.uk,Lisburn,http://www.lisburn.gov.uk,-6.02023000000000,BT17 0AW,2014-08-28,fhrs_4_en-GB,4,,FHRS,10
410413,88b Carryduff Road,Carricknaveagh,Lisburn,Down,CORNER CAFE,Restaurant/Cafe/Canteen,1,5,,458618,0,,54.47956800000000,5914,819,robert.lamont@lisburn.gov.uk,Lisburn,http://www.lisburn.gov.uk,-5.90737000000000,BT27 6YL,2014-12-16,fhrs_5_en-GB,5,,FHRS,5
410414,Unit 23 Bow Street Mall,Lisburn,Lisburn,Antrim,COSTA COFFEE,Restaurant/Cafe/Canteen,1,0,,458649,0,,54.51116100000000,6008,819,robert.lamont@lisburn.gov.uk,Lisburn,http://www.lisburn.gov.uk,-6.04704900000000,BT28 1BJ,2014-11-03,fhrs_5_en-GB,5,,FHRS,5
410415,Unit 5 Governors Road,,Lisburn,Antrim,Costa Coffee,Restaurant/Cafe/Canteen,1,0,,636155,0,,54.51065500000000,6842,819,robert.lamont@lisburn.gov.uk,Lisburn,http://www.lisburn.gov.uk,-6.04962100000000,BT28 1EP,2014-02-12,fhrs_5_en-GB,5,,FHRS,5
410416,226 Stewartstown Road,Killeaton,Dunmurry,,COSTCUTTER,Retailers - other,4613,5,,458667,0,,54.55680800000000,6082,819,robert.lamont@lisburn.gov.uk,Lisburn,http://www.lisburn.gov.uk,-6.02623900000000,BT17 0LB,2014-10-16,fhrs_5_en-GB,5,,FHRS,0
410417,95 Pond Park Road,Clogher,Lisburn,Antrim,COSTCUTTER FILLING STATION,Retailers - other,4613,,,458428,,,54.52783800000000,4394,819,robert.lamont@lisburn.gov.uk,Lisburn,http://www.lisburn.gov.uk,-6.06669000000000,BT28 3RF,2014-09-09,fhrs_exempt_en-GB,Exempt,,FHRS,
410418,87 Main Street,Carnalbanagh East,Moira,Armagh,COUNTRY FRIED CHICKEN,Takeaway/sandwich shop,7844,0,,458515,5,,54.48171000000000,5414,819,robert.lamont@lisburn.gov.uk,Lisburn,http://www.lisburn.gov.uk,-6.22477500000000,BT67 0LH,2014-04-09,fhrs_5_en-GB,5,,FHRS,5
410419,27 Colinglen Road,Ballycullo Tom Of The Tae-End,Belfast,,COUNTRY OAKS DAYCARE,Other catering premises,7841,0,,458552,0,,54.57355300000000,5590,819,robert.lamont@lisburn.gov.uk,Lisburn,http://www.lisburn.gov.uk,-6.03709100000000,BT17 0LR,2014-04-23,fhrs_5_en-GB,5,,FHRS,0
410420,,,,,Crave Cupcakes,Other catering premises,7841,5,,465818,0,,,6500,819,robert.lamont@lisburn.gov.uk,Lisburn,http://www.lisburn.gov.uk,,,2012-10-17,fhrs_5_en-GB,5,,FHRS,0
410421,Ballynahinch Street,,Hillsborough,Down,CROMLYN FOLD,Hospitals/Childcare/Caring Premises,5,0,,458753,5,,54.46323100000000,6360,819,robert.lamont@lisburn.gov.uk,Lisburn,http://www.lisburn.gov.uk,-6.08212300000000,BT26 6AW,2012-08-01,fhrs_5_en-GB,5,,FHRS,0
410422,137b Hillsborough Old Road,Largymore,Lisburn,Antrim,CUDDLES DAY NURSERY,Other catering premises,7841,0,,458349,0,,54.50052400000000,3622,819,robert.lamont@lisburn.gov.uk,Lisburn,http://www.lisburn.gov.uk,-6.04156600000000,BT27 5QR,2014-07-23,fhrs_5_en-GB,5,,FHRS,0
410423,3 Knockmore Square,Knockmore,Lisburn,Antrim,D D MEATS,Manufacturers/packers,7839,10,,458377,10,,54.50833900000000,3953,819,robert.lamont@lisburn.gov.uk,Lisburn,http://www.lisburn.gov.uk,-6.06940200000000,BT28 1SZ,2014-04-30,fhrs_4_en-GB,4,,FHRS,0
410424,Units 5/6 Dairy Farm Centre,Stewartstown Road,Dunmurry,,DAIRY FARM ASSESSMENT CENTRE,Other catering premises,7841,5,,458177,5,,54.55729100000000,1036,819,robert.lamont@lisburn.gov.uk,Lisburn,http://www.lisburn.gov.uk,-6.02170200000000,BT17 0EA,2014-03-10,fhrs_5_en-GB,5,,FHRS,5
410425,Unit 11/12 Dairy Farm Centre,,Dunmurry,,DAIRYFARM PHARMACY,Retailers - other,4613,,,493220,,,54.56053800000000,351,819,robert.lamont@lisburn.gov.uk,Lisburn,http://www.lisburn.gov.uk,-6.02023000000000,BT17 0AW,2015-01-14,fhrs_exempt_en-GB,Exempt,,FHRS,
410426,Unit2 30-31 Colin Road,,Dunmurry,Antrim,DAISY DAYCARE,Other catering premises,7841,10,,465807,5,,54.56568100000000,6263,819,robert.lamont@lisburn.gov.uk,Lisburn,http://www.lisburn.gov.uk,-6.02267100000000,BT17 0LG,2015-01-07,fhrs_3_en-GB,3,,FHRS,10
410427,28 Market Square North,Lisnagarvy,Lisburn,Antrim,DALTONS,Restaurant/Cafe/Canteen,1,5,,458441,5,,54.51121400000000,4451,819,robert.lamont@lisburn.gov.uk,Lisburn,http://www.lisburn.gov.uk,-6.04368000000000,BT28 1AG,2013-06-20,fhrs_5_en-GB,5,,FHRS,5
410428,11-13 Lisburn Road,,Moira,Armagh,Day Today,Retailers - other,4613,10,,720334,5,,54.49457700000000,7150,819,robert.lamont@lisburn.gov.uk,Lisburn,http://www.lisburn.gov.uk,-6.18192600000000,BT67 0JR,2014-11-04,fhrs_3_en-GB,3,,FHRS,10
410429,2a Knockmore Square,Knockmore,Lisburn,Antrim,Day Today,Retailers - other,4613,5,,458433,5,,54.50833900000000,4420,819,robert.lamont@lisburn.gov.uk,Lisburn,http://www.lisburn.gov.uk,-6.06940200000000,BT28 1SZ,2011-03-16,fhrs_5_en-GB,5,,FHRS,0
410430,35 Lagmore Avenue,Lagmore,Belfast,Antrim,DEBORAHS CHILDCARE,Hospitals/Childcare/Caring Premises,5,,,539848,,,54.55708700000000,6228,819,robert.lamont@lisburn.gov.uk,Lisburn,http://www.lisburn.gov.uk,-6.04564200000000,BT17 0TA,2011-09-21,fhrs_exempt_en-GB,Exempt,,FHRS,
410431,3 Stewartstown Centre,Poleglass,Dunmurry,Antrim,DECLANS EXPRESS,Retailers - other,4613,10,,493216,5,,54.56185700000000,281,819,robert.lamont@lisburn.gov.uk,Lisburn,http://www.lisburn.gov.uk,-6.03003000000000,BT17 0PB,2013-10-24,fhrs_3_en-GB,3,,FHRS,10
410432,19 Antrim Street,Tonagh,Lisburn,Antrim,DEL TORO RESTAURANT,Restaurant/Cafe/Canteen,1,,,458597,,,54.51245100000000,5796,819,robert.lamont@lisburn.gov.uk,Lisburn,http://www.lisburn.gov.uk,-6.04845400000000,BT28 1AU,2014-04-30,fhrs_4_en-GB,4,,FHRS,
410433,40 Queensway,Derryaghy,Dunmurry,Antrim,DERRIAGHY CRICKET CLUB,Retailers - other,4613,0,,458410,0,,54.53647200000000,416,819,robert.lamont@lisburn.gov.uk,Lisburn,http://www.lisburn.gov.uk,-6.02604700000000,BT17 9HG,2012-05-24,fhrs_5_en-GB,5,,FHRS,0
410434,Unit 7 The Cutts,,Dunmurry,,DERRIAGHY DAY CARE CENTRE,Hospitals/Childcare/Caring Premises,5,0,,458492,0,,54.54564100000000,526,819,robert.lamont@lisburn.gov.uk,Lisburn,http://www.lisburn.gov.uk,-6.02079700000000,BT17 9HU,2014-09-26,fhrs_5_en-GB,5,,FHRS,5
410435,Strawberry Hill,,Lisburn,Antrim,DOBBIES GARDEN WORLD,Restaurant/Cafe/Canteen,1,0,,458626,5,,54.48847700000000,5935,819,robert.lamont@lisburn.gov.uk,Lisburn,http://www.lisburn.gov.uk,-5.99133600000000,BT27 5PG,2014-06-11,fhrs_5_en-GB,5,,FHRS,5
410436,48-52 Longstone Street,Lisburn,Lisburn,Antrim,DOMINO'S PIZZA,Takeaway/sandwich shop,7844,0,,458372,5,,54.51026000000000,3942,819,robert.lamont@lisburn.gov.uk,Lisburn,http://www.lisburn.gov.uk,-6.05354600000000,BT28 1TP,2014-01-13,fhrs_5_en-GB,5,,FHRS,5
410437,6 Halftown Road,Maze,Lisburn,Down,DOODLES AFTER SCHOOL CARE,Other catering premises,7841,10,,493218,0,,54.49707700000000,3204,819,robert.lamont@lisburn.gov.uk,Lisburn,http://www.lisburn.gov.uk,-6.09744100000000,BT27 5RD,2013-10-08,fhrs_4_en-GB,4,,FHRS,0
410438,80 Antrim Street,Lisnagarvy,Lisburn,Antrim,Dough Bros,Takeaway/sandwich shop,7844,5,,576868,5,,54.51245100000000,6588,819,robert.lamont@lisburn.gov.uk,Lisburn,http://www.lisburn.gov.uk,-6.04845400000000,BT28 1AU,2013-07-22,fhrs_5_en-GB,5,,FHRS,5
410439,6 Dunygarton Road,Maze,Lisburn,Antrim,DOWN ROYAL GOLF CLUB,Retailers - other,4613,,,493237,,,54.48853000000000,5039,819,robert.lamont@lisburn.gov.uk,Lisburn,http://www.lisburn.gov.uk,-6.13419800000000,BT27 5RT,2014-05-01,fhrs_exempt_en-GB,Exempt,,FHRS,
410440,18 Cockhill Road,Maze,Lisburn,Down,DOWN ROYAL HOUSE,Hotel/bed & breakfast/guest house,7842,0,,493245,0,,54.48115700000000,5488,819,robert.lamont@lisburn.gov.uk,Lisburn,http://www.lisburn.gov.uk,-6.13208000000000,BT27 5RS,2014-08-07,fhrs_5_en-GB,5,,FHRS,0
410441,6 Dunygarton Road,Maze,Lisburn,Antrim,DOWN ROYAL PARK GOLF CLUB RESTAURANT,Restaurant/Cafe/Canteen,1,5,,458486,5,,54.48853000000000,5194,819,robert.lamont@lisburn.gov.uk,Lisburn,http://www.lisburn.gov.uk,-6.13419800000000,BT27 5RT,2014-03-19,fhrs_4_en-GB,4,,FHRS,10
410442,Dunygarton Road,Maze,Lisburn,,DOWN ROYAL RACECOURSE COMPLEX,Restaurant/Cafe/Canteen,1,5,,458246,0,,54.50363600000000,1603,819,robert.lamont@lisburn.gov.uk,Lisburn,http://www.lisburn.gov.uk,-6.02298300000000,BT27 5BW,2014-05-22,fhrs_4_en-GB,4,,FHRS,10
410443,7 Ballynahinch Road,Hillsborough,Hillsborough,Down,DOWNSHIRE PRIMARY SCHOOL,School/college/university,7845,5,,458833,0,,54.46409200000000,936,819,robert.lamont@lisburn.gov.uk,Lisburn,http://www.lisburn.gov.uk,-6.07919900000000,BT26 6AR,2014-03-26,fhrs_5_en-GB,5,,FHRS,0
410444,Unit 1 Knockmore Road,Lisburn,Lisburn,Antrim,DRAGON KING CHINESE TAKEAWAY,Takeaway/sandwich shop,7844,10,,458373,5,,54.51380500000000,3944,819,robert.lamont@lisburn.gov.uk,Lisburn,http://www.lisburn.gov.uk,-6.08200800000000,BT28 2EA,2014-06-10,fhrs_4_en-GB,4,,FHRS,5
410445,36 Hillsborough Road,Begny,Dromara,Down,Dromara Pre-school & Playgroup,Other catering premises,7841,,,631649,,,54.38212100000000,6840,819,robert.lamont@lisburn.gov.uk,Lisburn,http://www.lisburn.gov.uk,-6.01800900000000,BT25 2BL,2013-12-05,fhrs_exempt_en-GB,Exempt,,FHRS,
410446,36 Hillsborough Road,Begny,Dromara,Down,DROMARA PRIMARY SCHOOL,School/college/university,7845,0,,493236,0,,54.38212100000000,460,819,robert.lamont@lisburn.gov.uk,Lisburn,http://www.lisburn.gov.uk,-6.01800900000000,BT25 2BL,2013-06-14,fhrs_5_en-GB,5,,FHRS,5
410447,100 Ballyskeagh Road,Drumbeg,Lisburn,Antrim,DRUMBEG ORANGE HALL PLAYGROUP,Other catering premises,7841,,,458582,,,54.53351100000000,5756,819,robert.lamont@lisburn.gov.uk,Lisburn,http://www.lisburn.gov.uk,-5.99192100000000,BT17 9LL,2012-09-05,fhrs_exempt_en-GB,Exempt,,FHRS,
410448,70 Pinehill Road,Ballycarn,Lisburn,Antrim,DRUMBO PRESBYTERIAN CHURCH,Other catering premises,7841,,,458337,,,54.52461600000000,3424,819,robert.lamont@lisburn.gov.uk,Lisburn,http://www.lisburn.gov.uk,-5.96132500000000,BT27 5TU,2012-01-31,fhrs_exempt_en-GB,Exempt,,FHRS,
410449,34 Drumaknockan Road,Drumaknockan,Hillsborough,Down,Drumhill Farm Fresh,Manufacturers/packers,7839,,,710391,,,54.42070700000000,7067,819,robert.lamont@lisburn.gov.uk,Lisburn,http://www.lisburn.gov.uk,-6.05865700000000,BT26 6QP,2014-10-14,fhrs_exempt_en-GB,Exempt,,FHRS,
410450,3-19 Moira Road,Old Warren,Lisburn,Antrim,DRUMLOUGH HOUSE,Hospitals/Childcare/Caring Premises,5,5,,458292,5,,54.50863800000000,2078,819,robert.lamont@lisburn.gov.uk,Lisburn,http://www.lisburn.gov.uk,-6.06220800000000,BT28 1RB,2014-04-29,fhrs_5_en-GB,5,,FHRS,5
410451,1 Raffertys Hill,Drumlough,Hillsborough,Down,DRUMLOUGH PRESBYTERIAN CHURCH,Other catering premises,7841,,,458438,,,54.42142200000000,4441,819,robert.lamont@lisburn.gov.uk,Lisburn,http://www.lisburn.gov.uk,-6.04614200000000,BT26 6QB,2013-05-09,fhrs_exempt_en-GB,Exempt,,FHRS,
410452,47b Carnreagh,Carnreagh,Hillsborough,Down,DUNHILL COTTAGE BED & BREAKFAST,Hotel/bed & breakfast/guest house,7842,5,,493242,5,,54.47011800000000,5278,819,robert.lamont@lisburn.gov.uk,Lisburn,http://www.lisburn.gov.uk,-6.06941400000000,BT26 6LJ,2013-07-03,fhrs_5_en-GB,5,,FHRS,0
410453,47 Carnreagh,Hillsborough,Hillsborough,Down,DUNHILL FARM BED & BREAKFAST,Hotel/bed & breakfast/guest house,7842,5,,576867,5,,54.45533100000000,6282,819,robert.lamont@lisburn.gov.uk,Lisburn,http://www.lisburn.gov.uk,-6.04280000000000,BT26 6LS,2013-07-03,fhrs_5_en-GB,5,,FHRS,0
410454,195 Kingsway,Dunmurry,Dunmurry,,DUNMURRY INN,Pub/bar/nightclub,7843,0,,458354,0,,54.55043000000000,370,819,robert.lamont@lisburn.gov.uk,Lisburn,http://www.lisburn.gov.uk,-6.00656200000000,BT17 9SB,2015-01-13,fhrs_5_en-GB,5,,FHRS,0
410455,2a Hazel Avenue,,Dunmurry,,Dunmurry Manor,Hospitals/Childcare/Caring Premises,5,10,,701451,10,,54.54201100000000,7059,819,robert.lamont@lisburn.gov.uk,Lisburn,http://www.lisburn.gov.uk,-6.01261300000000,BT17 9QU,2014-08-15,fhrs_3_en-GB,3,,FHRS,10
410456,Glenburn Road,Dunmurry,Dunmurry,Antrim,DUNMURRY PRIMARY SCHOOL,School/college/university,7845,0,,458516,5,,54.54740100000000,542,819,robert.lamont@lisburn.gov.uk,Lisburn,http://www.lisburn.gov.uk,-6.00436000000000,BT17 9AN,2013-09-25,fhrs_5_en-GB,5,,FHRS,5
410457,23 Ashley Park,Dunmurry,Dunmurry,Belfast,DUNMURRY RECREATION & FOOTBALL CLUB,Retailers - other,4613,0,,478335,0,,54.55048200000000,4304,819,robert.lamont@lisburn.gov.uk,Lisburn,http://www.lisburn.gov.uk,-6.00918700000000,BT17 9EH,2012-10-08,fhrs_5_en-GB,5,,FHRS,0
410458,Kingsway,Kingsway,Dunmurry,,EATS,Takeaway/sandwich shop,7844,0,,458378,0,,54.54994700000000,3957,819,robert.lamont@lisburn.gov.uk,Lisburn,http://www.lisburn.gov.uk,-6.00674000000000,BT17 9AE,2013-05-02,fhrs_5_en-GB,5,,FHRS,0
410459,12 Lagan Valley Leisureplex,Governors Road,Lisburn,Antrim,Eds Bar & Grill,Restaurant/Cafe/Canteen,1,5,,458464,5,,54.50727700000000,4841,819,robert.lamont@lisburn.gov.uk,Lisburn,http://www.lisburn.gov.uk,-6.07544300000000,BT28 1RP,2014-11-13,fhrs_5_en-GB,5,,FHRS,0
410460,81 Sloan Street,Largymore,Lisburn,Antrim,Efe's Pizza,Takeaway/sandwich shop,7844,10,,552209,10,,54.50922800000000,6569,819,robert.lamont@lisburn.gov.uk,Lisburn,http://www.lisburn.gov.uk,-6.03532800000000,BT27 5AG,2014-11-03,fhrs_3_en-GB,3,,FHRS,10
410461,71 Main Street,Glenavy,Glenavy,Antrim,EITHNES DELI,Takeaway/sandwich shop,7844,5,,458755,10,,54.58994000000000,6366,819,robert.lamont@lisburn.gov.uk,Lisburn,http://www.lisburn.gov.uk,-6.21327800000000,BT29 4LP,2014-06-18,fhrs_4_en-GB,4,,FHRS,5
410462,2 North Circular Road,Lisnagarvy,Lisburn,Antrim,EL SHAMMAH RESIDENTIAL HOME,Hospitals/Childcare/Caring Premises,5,0,,458598,0,,54.51467500000000,5798,819,robert.lamont@lisburn.gov.uk,Lisburn,http://www.lisburn.gov.uk,-6.04824000000000,BT28 3AH,2015-01-07,fhrs_5_en-GB,5,,FHRS,5
410463,24 Glenwood Green,Aghnahough,Lisburn,Antrim,ELIZABETH HARPER,Hospitals/Childcare/Caring Premises,5,,,539856,,,54.52917900000000,6327,819,robert.lamont@lisburn.gov.uk,Lisburn,http://www.lisburn.gov.uk,-6.08258500000000,BT28 3US,2012-02-17,fhrs_exempt_en-GB,Exempt,,FHRS,
410464,139 Longstone Street,Old Warren,Lisburn,Antrim,EMPEROR,Takeaway/sandwich shop,7844,10,,458411,10,,54.50916900000000,4190,819,robert.lamont@lisburn.gov.uk,Lisburn,http://www.lisburn.gov.uk,-6.05725700000000,BT28 1ET,2013-03-26,fhrs_3_en-GB,3,,FHRS,10
410465,1 Main Street,Hillsborough,Hillsborough,Down,ERNEST R WILSON,Retailers - other,4613,,,458839,,,54.46206100000000,980,819,robert.lamont@lisburn.gov.uk,Lisburn,http://www.lisburn.gov.uk,-6.08367400000000,BT26 6AE,2012-07-27,fhrs_exempt_en-GB,Exempt,,FHRS,
410466,90 Warren Gardens,Old Warren,Lisburn,Antrim,EURO OIL FUELS / COSTCUTTER,Retailers - supermarkets/hypermarkets,7840,10,,458265,5,,54.50351200000000,1795,819,robert.lamont@lisburn.gov.uk,Lisburn,http://www.lisburn.gov.uk,-6.05746400000000,BT28 1HW,2014-12-09,fhrs_3_en-GB,3,,FHRS,10
410467,36 Rathfriland Road,Dromara,Dromara,Down,EUROSPAR DROMARA,Retailers - supermarkets/hypermarkets,7840,5,,458704,5,,54.37816500000000,6215,819,robert.lamont@lisburn.gov.uk,Lisburn,http://www.lisburn.gov.uk,-6.01678400000000,BT25 2JG,2014-10-20,fhrs_5_en-GB,5,,FHRS,5
410468,29 Railway Street,Lisnagarvy,Lisburn,Antrim,Exodus,Restaurant/Cafe/Canteen,1,,,458532,,,54.51323500000000,5481,819,robert.lamont@lisburn.gov.uk,Lisburn,http://www.lisburn.gov.uk,-6.04417000000000,BT28 1XP,2011-10-03,fhrs_exempt_en-GB,Exempt,,FHRS,
410469,25 Bridge Street,Lisburn,Lisburn,Antrim,FAVOURITE BAR,Pub/bar/nightclub,7843,0,,493271,0,,54.52142400000000,735,819,robert.lamont@lisburn.gov.uk,Lisburn,http://www.lisburn.gov.uk,-6.02340600000000,BT27 4RZ,2013-02-25,fhrs_5_en-GB,5,,FHRS,0
410470,11 Railway Street,Lisnagarvy,Lisburn,Antrim,FIRST HEALTH,Retailers - other,4613,,,458493,,,54.51209700000000,5280,819,robert.lamont@lisburn.gov.uk,Lisburn,http://www.lisburn.gov.uk,-6.04326700000000,BT28 1XG,2013-10-01,fhrs_exempt_en-GB,Exempt,,FHRS,
410471,7 Sackville Street,Lisburn,Lisburn,Antrim,FIRST LISBURN BLUE SUPPORTERS CLUB,Retailers - other,4613,0,,493209,0,,,2095,819,robert.lamont@lisburn.gov.uk,Lisburn,http://www.lisburn.gov.uk,,BT28 4AB,2012-11-01,fhrs_5_en-GB,5,,FHRS,0
410472,Hillsborough Road,,Lisburn,Antrim,FIRST STEPS DAY NURSERY,Other catering premises,7841,0,,458199,0,,54.50490200000000,1267,819,robert.lamont@lisburn.gov.uk,Lisburn,http://www.lisburn.gov.uk,-6.04725500000000,BT28 1JP,2013-12-11,fhrs_5_en-GB,5,,FHRS,0
410473,39 Hillsborough Road,Lisburn,Lisburn,Antrim,FLAXFIELDS CHILDRENS HOME,Hospitals/Childcare/Caring Premises,5,0,,458409,5,,54.50490200000000,4158,819,robert.lamont@lisburn.gov.uk,Lisburn,http://www.lisburn.gov.uk,-6.04725500000000,BT28 1JP,2014-07-28,fhrs_5_en-GB,5,,FHRS,5
410474,189 Belsize Road,,Lisburn,Antrim,FOLD HOUSING BELSIZE COURT,Hospitals/Childcare/Caring Premises,5,0,,458738,0,,54.53030300000000,6303,819,robert.lamont@lisburn.gov.uk,Lisburn,http://www.lisburn.gov.uk,-6.03453200000000,BT27 4PA,2013-10-15,fhrs_5_en-GB,5,,FHRS,0
410475,84a Colinmill,Poleglass,Dunmurry,Antrim,Footprints Womens Centre,Restaurant/Cafe/Canteen,1,0,,458328,0,,54.56488700000000,3221,819,robert.lamont@lisburn.gov.uk,Lisburn,http://www.lisburn.gov.uk,-6.02521500000000,BT17 0AR,2015-01-07,fhrs_5_en-GB,5,,FHRS,0
410476,Belfast Road,Lisburn,Lisburn,Antrim,FORTHILL INTEGRATED COLLEGE,School/college/university,7845,0,,458820,0,,54.51541000000000,862,819,robert.lamont@lisburn.gov.uk,Lisburn,http://www.lisburn.gov.uk,-6.03148000000000,BT27 4TL,2015-01-21,fhrs_5_en-GB,5,,FHRS,0
410477,210 Ballynahinch Road,Ballylintagh,Hillsborough,Down,Fortwilliam Country House,Hotel/bed & breakfast/guest house,7842,5,,493234,0,,54.43944100000000,434,819,robert.lamont@lisburn.gov.uk,Lisburn,http://www.lisburn.gov.uk,-6.00790400000000,BT26 6BH,2013-06-17,fhrs_5_en-GB,5,,FHRS,0
410478,4 Lisburn Street,Hillsborough,Hillsborough,Down,FOSTERS FAMILY BUTCHERS,Manufacturers/packers,7839,5,,458668,0,,54.46376400000000,6083,819,robert.lamont@lisburn.gov.uk,Lisburn,http://www.lisburn.gov.uk,-6.08342500000000,BT26 6AB,2014-08-05,fhrs_5_en-GB,5,,FHRS,0
410479,151 Hillsborough Road,Lisburn,Lisburn,Antirm,FRANKIE & BENNY'S,Restaurant/Cafe/Canteen,1,0,,458706,5,,54.49105500000000,6225,819,robert.lamont@lisburn.gov.uk,Lisburn,http://www.lisburn.gov.uk,-6.05888900000000,BT27 5UJ,2013-12-02,fhrs_5_en-GB,5,,FHRS,5
410480,124a Saintfield Road,Ballymacbrennan,Lisburn,Down,FREDS DINER,Restaurant/Cafe/Canteen,1,20,,458720,10,,54.48503200000000,6259,819,robert.lamont@lisburn.gov.uk,Lisburn,http://www.lisburn.gov.uk,-5.96533200000000,BT27 6YW,2014-07-31,fhrs_1_en-GB,1,,FHRS,15
410481,187 Moira Road,Lisburn,Lisburn,Antrim,FRESH FIELDS,Retailers - other,4613,,,458729,,,54.50719100000000,6277,819,robert.lamont@lisburn.gov.uk,Lisburn,http://www.lisburn.gov.uk,-6.08075900000000,BT28 1JA,2012-04-18,fhrs_exempt_en-GB,Exempt,,FHRS,
410482,6 Magheralave Road,Lisnagarvy,Lisburn,Antrim,FRIENDS' SCHOOL,School/college/university,7845,0,,458301,5,,54.51717200000000,2127,819,robert.lamont@lisburn.gov.uk,Lisburn,http://www.lisburn.gov.uk,-6.04594300000000,BT28 3BH,2014-06-23,fhrs_5_en-GB,5,,FHRS,5
410483,7 Harmony Hill Shopping Centre,Lambeg,Lisburn,Antrim,FROTH CAFE,Restaurant/Cafe/Canteen,1,10,,458670,0,,54.52606000000000,6088,819,robert.lamont@lisburn.gov.uk,Lisburn,http://www.lisburn.gov.uk,-6.03608000000000,BT27 4HP,2014-10-02,fhrs_4_en-GB,4,,FHRS,0
410484,15 Main Street,Aughnafosker,Moira,Armagh,FRUIT & VEGETABLE STALL IN CAR PARK,Retailers - other,4613,,,493250,,,54.47944900000000,5577,819,robert.lamont@lisburn.gov.uk,Lisburn,http://www.lisburn.gov.uk,-6.22991900000000,BT67 0LE,2012-04-23,fhrs_exempt_en-GB,Exempt,,FHRS,
410485,21 Maghaberry Road,Maghaberry,Maghaberry,Antrim,FRY DAYS,Takeaway/sandwich shop,7844,0,,458327,5,,54.50606900000000,3213,819,robert.lamont@lisburn.gov.uk,Lisburn,http://www.lisburn.gov.uk,-6.18556800000000,BT67 0JF,2013-06-06,fhrs_4_en-GB,4,,FHRS,10
410486,4 Jasmine End,Killeaton,Dunmurry,Belfast,FUSCO'S,Takeaway/sandwich shop,7844,10,,458299,0,,54.55414600000000,2120,819,robert.lamont@lisburn.gov.uk,Lisburn,http://www.lisburn.gov.uk,-6.02442000000000,BT17 0BX,2014-01-09,fhrs_2_en-GB,2,,FHRS,15
410487,Hulls Lane,Hulls Lane,Lisburn,Antrim,G S CATERING,Restaurant/Cafe/Canteen,1,0,,458488,5,,54.50650600000000,5201,819,robert.lamont@lisburn.gov.uk,Lisburn,http://www.lisburn.gov.uk,-6.09430100000000,BT28 2SR,2014-02-06,fhrs_4_en-GB,4,,FHRS,10
410488,69 Main Street,Moira,Moira,Armagh,GEDDIS & MCKEE,Retailers - other,4613,,,493200,,,,1699,819,robert.lamont@lisburn.gov.uk,Lisburn,http://www.lisburn.gov.uk,,BT67 OLQ,2013-10-22,fhrs_exempt_en-GB,Exempt,,FHRS,
410489,18 Rowan Drive,Kilmakee,Dunmurry,Antrim,GEORGE HALL & SON (MACE),Retailers - other,4613,10,,458272,5,,54.54405200000000,1827,819,robert.lamont@lisburn.gov.uk,Lisburn,http://www.lisburn.gov.uk,-6.01155500000000,BT17 9PX,2015-01-16,fhrs_3_en-GB,3,,FHRS,10
410490,41 Haddington Hill,Magheralave (Upper Massereene),Lisburn,Antrim,GILLIAN HEATHER MCCANDLESS,Hospitals/Childcare/Caring Premises,5,,,539866,,,54.53023300000000,6405,819,robert.lamont@lisburn.gov.uk,Lisburn,http://www.lisburn.gov.uk,-6.06135500000000,BT28 3AU,2012-06-08,fhrs_exempt_en-GB,Exempt,,FHRS,
410491,83 Edgewater,Largymore,Lisburn,Antrim,GILLIAN KEENAN,Hospitals/Childcare/Caring Premises,5,,,539836,,,54.50525000000000,6135,819,robert.lamont@lisburn.gov.uk,Lisburn,http://www.lisburn.gov.uk,-6.04042900000000,BT27 5PZ,2011-08-16,fhrs_exempt_en-GB,Exempt,,FHRS,
410492,4 Old Golf Course Park,Dunmurry,Dunmurry,Antrim,GINA BUZZY BEE BAKERY,Retailers - other,4613,0,,493260,0,,54.55669400000000,6394,819,robert.lamont@lisburn.gov.uk,Lisburn,http://www.lisburn.gov.uk,-6.00178800000000,BT17 0FH,2012-05-09,fhrs_5_en-GB,5,,FHRS,0
410493,2 St Johns Park,Moira,Moira,Armagh,GLEBE HOUSE,Hotel/bed & breakfast/guest house,7842,0,,458260,0,,,1776,819,robert.lamont@lisburn.gov.uk,Lisburn,http://www.lisburn.gov.uk,,BT67 ONL,2012-10-02,fhrs_5_en-GB,5,,FHRS,0
410494,35 Main Street,Glenavy,Glenavy,Antrim,GLENAVY PHARMACY,Retailers - other,4613,,,458474,,,54.59168600000000,5053,819,robert.lamont@lisburn.gov.uk,Lisburn,http://www.lisburn.gov.uk,-6.21411400000000,BT29 4LN,2014-05-01,fhrs_exempt_en-GB,Exempt,,FHRS,
410495,1 Glenavy Road,Magheramesk,Moira,Antrim,GLENAVY ROAD OFFSALES,Retailers - other,4613,,,458225,,,54.49849600000000,1490,819,robert.lamont@lisburn.gov.uk,Lisburn,http://www.lisburn.gov.uk,-6.21035600000000,BT67 0LT,2013-10-22,fhrs_exempt_en-GB,Exempt,,FHRS,
410496,43 Glenmore Park,Lambeg South,Lisburn,Antrim,GLENMORE ACTIVITY CENTRE,Other catering premises,7841,,,458797,,,54.52268500000000,704,819,robert.lamont@lisburn.gov.uk,Lisburn,http://www.lisburn.gov.uk,-6.02689700000000,BT27 4RT,2012-12-13,fhrs_exempt_en-GB,Exempt,,FHRS,
410497,1a Glenmore Park,Lambeg South,Lisburn,Antrim,GLENMORE CHILDRENS HOME,Hospitals/Childcare/Caring Premises,5,10,,458796,0,,54.52268500000000,703,819,robert.lamont@lisburn.gov.uk,Lisburn,http://www.lisburn.gov.uk,-6.02689700000000,BT27 4RT,2011-10-26,fhrs_4_en-GB,4,,FHRS,0
410498,Unit 8 Harmony Hill Shopping Centre,Lambeg,Lisubrn,Antrim,GOLDEN BAY,Takeaway/sandwich shop,7844,5,,458798,0,,54.52606000000000,712,819,robert.lamont@lisburn.gov.uk,Lisburn,http://www.lisburn.gov.uk,-6.03608000000000,BT27 4HP,2013-11-20,fhrs_5_en-GB,5,,FHRS,0
410499,Unit 2 Laurel Glen,Stewartstown Road,Dunmurry,,GOLDEN BELL,Takeaway/sandwich shop,7844,10,,458308,15,,,243,819,robert.lamont@lisburn.gov.uk,Lisburn,http://www.lisburn.gov.uk,,BT17 6DT,2014-11-27,fhrs_2_en-GB,2,,FHRS,5
410500,234 Kingsway,Dunmurry,Dunmurry,Antrim,GOLDEN BOWL,Takeaway/sandwich shop,7844,20,,458735,10,,54.54994700000000,6298,819,robert.lamont@lisburn.gov.uk,Lisburn,http://www.lisburn.gov.uk,-6.00674000000000,BT17 9AE,2014-09-17,fhrs_1_en-GB,1,,FHRS,15
410501,1b Glenavy Road,Ballyscolly,Lisburn,Antrim,GOLDEN COD,Takeaway/sandwich shop,7844,,,458495,,,54.54284100000000,5296,819,robert.lamont@lisburn.gov.uk,Lisburn,http://www.lisburn.gov.uk,-6.19806100000000,BT28 2EU,2013-07-01,fhrs_5_en-GB,5,,FHRS,
410502,140 Longstone Street,Tonagh,Lisburn,Antrim,GOLDEN GARDEN,Restaurant/Cafe/Canteen,1,5,,458289,5,,54.50968500000000,2057,819,robert.lamont@lisburn.gov.uk,Lisburn,http://www.lisburn.gov.uk,-6.05636800000000,BT28 1TR,2013-04-04,fhrs_5_en-GB,5,,FHRS,5
410503,2 Tonagh Drive,Tonagh,Lisburn,Antrim,GOLDEN PALACE,Takeaway/sandwich shop,7844,5,,458294,10,,54.51008600000000,2101,819,robert.lamont@lisburn.gov.uk,Lisburn,http://www.lisburn.gov.uk,-6.05837200000000,BT28 1DY,2013-10-31,fhrs_3_en-GB,3,,FHRS,10
410504,79 Sloan Street,Largymore,Lisburn,Antrim,Golden Phoenix,Takeaway/sandwich shop,7844,10,,458392,5,,54.50922800000000,4077,819,robert.lamont@lisburn.gov.uk,Lisburn,http://www.lisburn.gov.uk,-6.03532800000000,BT27 5AG,2013-11-08,fhrs_3_en-GB,3,,FHRS,10
410505,2c Birch Green,Kilmakee,Dunmurry,Belfast,GOLOKA CATERING,Mobile caterer,7846,0,,731888,0,,54.54103100000000,5680,819,robert.lamont@lisburn.gov.uk,Lisburn,http://www.lisburn.gov.uk,-6.00817900000000,BT17 9QR,2012-10-03,fhrs_5_en-GB,5,,FHRS,0
410506,173 Kingsway,Dunmurry,Dunmurry,Antrim,Good Luck Chinese Take Away,Takeaway/sandwich shop,7844,5,,458368,10,,54.55125600000000,3906,819,robert.lamont@lisburn.gov.uk,Lisburn,http://www.lisburn.gov.uk,-6.00380100000000,BT17 9RY,2014-01-29,fhrs_4_en-GB,4,,FHRS,5
410507,11 Good Shepherd Road,Poleglass,Dunmurry,Antrim,GOOD SHEPHERD NURSERY SCHOOL,School/college/university,7845,0,,458315,0,,54.56720900000000,255,819,robert.lamont@lisburn.gov.uk,Lisburn,http://www.lisburn.gov.uk,-6.02599900000000,BT17 0PL,2013-05-08,fhrs_5_en-GB,5,,FHRS,0
410508,9 Good Shepherd Road,Poleglass,Dunmurry,,GOOD SHEPHERD PRIMARY SCHOOL,School/college/university,7845,0,,458314,0,,54.56705500000000,254,819,robert.lamont@lisburn.gov.uk,Lisburn,http://www.lisburn.gov.uk,-6.02650100000000,BT17 0PJ,2014-06-13,fhrs_5_en-GB,5,,FHRS,0
410509,164 Longstone Street,Lisburn,Lisburn,Antrim,GORDONS CHEMIST,Retailers - other,4613,,,458387,,,54.50949100000000,4047,819,robert.lamont@lisburn.gov.uk,Lisburn,http://www.lisburn.gov.uk,-6.05937300000000,BT28 1TT,2014-04-24,fhrs_exempt_en-GB,Exempt,,FHRS,
410510,,,,,Gourmet Caramel Apples,Other catering premises,7841,5,,710389,0,,,506641,819,robert.lamont@lisburn.gov.uk,Lisburn,http://www.lisburn.gov.uk,,,2014-10-06,fhrs_5_en-GB,5,,FHRS,5
410511,60 Gravelhill Road,Maze,Lisburn,Antrim,Gowdys Of Down Royal,Restaurant/Cafe/Canteen,1,5,,631646,0,,54.49012400000000,6674,819,robert.lamont@lisburn.gov.uk,Lisburn,http://www.lisburn.gov.uk,-6.12052800000000,BT27 5RW,2014-01-13,fhrs_5_en-GB,5,,FHRS,5
410512,67 Main Street,Moira,Moira,Armagh,GRAHAMS FISH AND CHIPS,Takeaway/sandwich shop,7844,0,,458255,0,,,1696,819,robert.lamont@lisburn.gov.uk,Lisburn,http://www.lisburn.gov.uk,,BT67 OLQ,2015-01-21,fhrs_5_en-GB,5,,FHRS,0
410513,11 Enterprise Crescent,Knockmore,Lisburn,Antrim,GREEN & BROWNS CAFE,Restaurant/Cafe/Canteen,1,5,,465815,0,,54.51292600000000,6483,819,robert.lamont@lisburn.gov.uk,Lisburn,http://www.lisburn.gov.uk,-6.07587200000000,BT28 2BP,2014-07-23,fhrs_5_en-GB,5,,FHRS,5
410514,119 Carryduff Road,Temple,Lisburn,Antrim,GREENACRES BED & BREAKFAST,Hotel/bed & breakfast/guest house,7842,,,493253,,,54.47956800000000,56,819,robert.lamont@lisburn.gov.uk,Lisburn,http://www.lisburn.gov.uk,-5.90737000000000,BT27 6YL,2014-04-16,fhrs_exempt_en-GB,Exempt,,FHRS,
410515,23-25 Bow Street,Old Warren,Lisburn,Antrim,GREENS FOOD FARE,Retailers - supermarkets/hypermarkets,7840,0,,458194,0,,54.51116100000000,1165,819,robert.lamont@lisburn.gov.uk,Lisburn,http://www.lisburn.gov.uk,-6.04704900000000,BT28 1BJ,2014-09-29,fhrs_5_en-GB,5,,FHRS,5
410516,68 Eglantine Road,Magherageery,Lisburn,Down,GREENVIEW RESTAURANT,Restaurant/Cafe/Canteen,1,0,,458477,0,,54.48737000000000,5091,819,robert.lamont@lisburn.gov.uk,Lisburn,http://www.lisburn.gov.uk,-6.07795300000000,BT27 5RQ,2014-02-06,fhrs_4_en-GB,4,,FHRS,10
410517,Hillsborough Road,Magherageery,Lisburn,Down,Ground Espresso Bars,Restaurant/Cafe/Canteen,1,5,,620644,0,,54.49105500000000,6721,819,robert.lamont@lisburn.gov.uk,Lisburn,http://www.lisburn.gov.uk,-6.05888900000000,BT27 5UJ,2013-11-19,fhrs_5_en-GB,5,,FHRS,5
410518,15 Ballinderry Park,Knockmore,Lisburn,Antrim,Grove Community Playgroup,Other catering premises,7841,5,,522271,0,,54.51004200000000,6592,819,robert.lamont@lisburn.gov.uk,Lisburn,http://www.lisburn.gov.uk,-6.06966200000000,BT28 1ST,2014-12-05,fhrs_5_en-GB,5,,FHRS,5
410519,5 Milltown Avenue,Derryaghy,Lisburn,Antrim,GWENS NEWSAGENTS,Retailers - other,4613,5,,458384,0,,54.54204200000000,401,819,robert.lamont@lisburn.gov.uk,Lisburn,http://www.lisburn.gov.uk,-6.04033500000000,BT28 3TP,2012-09-07,fhrs_5_en-GB,5,,FHRS,0
410520,36 Chapel Hill,Tonagh,Lisburn,Antrim,HAGUES BAR,Pub/bar/nightclub,7843,0,,458355,0,,54.51067900000000,3741,819,robert.lamont@lisburn.gov.uk,Lisburn,http://www.lisburn.gov.uk,-6.05114800000000,BT28 1BW,2012-08-15,fhrs_5_en-GB,5,,FHRS,5
410521,44 Hillsborough Old Road,Largymore,Lisburn,Antrim,Hamptons Cafe,Restaurant/Cafe/Canteen,1,10,,539868,10,,54.50605400000000,6547,819,robert.lamont@lisburn.gov.uk,Lisburn,http://www.lisburn.gov.uk,-6.03847600000000,BT27 5EW,2014-11-10,fhrs_1_en-GB,1,,FHRS,20
410522,Lisburn Street,Hillsborough,Hillsborough,Down,HAPPY CHEF,Mobile caterer,7846,5,,458244,5,,54.46376400000000,1591,819,robert.lamont@lisburn.gov.uk,Lisburn,http://www.lisburn.gov.uk,-6.08342500000000,BT26 6AB,2014-07-08,fhrs_4_en-GB,4,,FHRS,10
410523,16 Ashvale Heights,Island Kelly,Lisburn,Antrim,Happy Days Mobile Diner,Mobile caterer,7846,0,,552215,0,,54.56795400000000,6629,819,robert.lamont@lisburn.gov.uk,Lisburn,http://www.lisburn.gov.uk,-6.12365900000000,BT28 3JA,2013-05-08,fhrs_5_en-GB,5,,FHRS,0
410524,Belsize Road,,Lisburn,Antrim,HAPPY TOTS PLAYGROUP,Hospitals/Childcare/Caring Premises,5,,,590769,,,54.51908200000000,6161,819,robert.lamont@lisburn.gov.uk,Lisburn,http://www.lisburn.gov.uk,-6.03791300000000,BT27 4AL,2013-09-25,fhrs_exempt_en-GB,Exempt,,FHRS,
410525,41 Skyline Drive,,Lisburn,Antrim,HARMONY FOLD HOUSING ASSOCIATION,Hospitals/Childcare/Caring Premises,5,0,,458803,0,,54.52543400000000,724,819,robert.lamont@lisburn.gov.uk,Lisburn,http://www.lisburn.gov.uk,-6.03572400000000,BT27 4HT,2012-08-10,fhrs_5_en-GB,5,,FHRS,0
410526,50 Harmony Hill,Magheralave (Upper Belfast),Lisburn,Antrim,HARMONY HILL PRIMARY SCHOOL,School/college/university,7845,5,,458799,0,,54.52415500000000,714,819,robert.lamont@lisburn.gov.uk,Lisburn,http://www.lisburn.gov.uk,-6.03441100000000,BT27 4ES,2014-05-29,fhrs_5_en-GB,5,,FHRS,0
410527,94 Lagmore Dale,Lagmore,Dunmurry,Antrim,HARMONY ICE,Retailers - other,4613,0,,458548,0,,54.54906400000000,5558,819,robert.lamont@lisburn.gov.uk,Lisburn,http://www.lisburn.gov.uk,-6.03070900000000,BT17 0TQ,2015-01-19,fhrs_5_en-GB,5,,FHRS,0
410528,Unit 1-2 Harmony Hill Shopping Centre,,Lisburn,Antrim,Harmony Stores,Retailers - other,4613,0,,493249,5,,54.52606000000000,5536,819,robert.lamont@lisburn.gov.uk,Lisburn,http://www.lisburn.gov.uk,-6.03608000000000,BT27 4HP,2014-09-18,fhrs_5_en-GB,5,,FHRS,0
410529,Lissue Industrial Estate West,Lisburn,Lisburn,Antrim,HB ICE CREAM MOBILE UNIT C/O PRM GROUP,Mobile caterer,7846,0,,458787,0,,54.50430200000000,6486,819,robert.lamont@lisburn.gov.uk,Lisburn,http://www.lisburn.gov.uk,-6.09295200000000,BT28 2RE,2012-09-24,fhrs_5_en-GB,5,,FHRS,0
410530,43 Bow Street,Old Warren,Lisburn,Antrim,HEDLEYS RESTAURANT,Restaurant/Cafe/Canteen,1,0,,458195,5,,54.51116100000000,1173,819,robert.lamont@lisburn.gov.uk,Lisburn,http://www.lisburn.gov.uk,-6.04704900000000,BT28 1BJ,2013-10-14,fhrs_5_en-GB,5,,FHRS,5
410531,1 Glasvey Court,Twinbrook,Dunmurry,,HELM HOUSING,Other catering premises,7841,0,,458690,0,,54.55705200000000,6164,819,robert.lamont@lisburn.gov.uk,Lisburn,http://www.lisburn.gov.uk,-6.02299600000000,BT17 0DY,2012-05-02,fhrs_5_en-GB,5,,FHRS,0
410532,6 Tullynacross Road,Tullynacross,Lisburn,Down,Helping Hands Daycare,Other catering premises,7841,0,,624706,0,,54.52877400000000,6661,819,robert.lamont@lisburn.gov.uk,Lisburn,http://www.lisburn.gov.uk,-6.02121200000000,BT27 5SP,2014-01-08,fhrs_5_en-GB,5,,FHRS,0
410533,32 Longstone Street,Tonagh,Lisburn,Antrim,HERRONS COUNTRY FRIED CHICKEN,Takeaway/sandwich shop,7844,5,,458407,0,,54.51026000000000,4149,819,robert.lamont@lisburn.gov.uk,Lisburn,http://www.lisburn.gov.uk,-6.05354600000000,BT28 1TP,2014-09-10,fhrs_5_en-GB,5,,FHRS,5
410534,137 Gregg Street,Largymore,Lisburn,Antrim,HIGHER GROUND COFFEE SHOP,Restaurant/Cafe/Canteen,1,0,,458730,0,,54.51020800000000,6279,819,robert.lamont@lisburn.gov.uk,Lisburn,http://www.lisburn.gov.uk,-6.03369100000000,BT27 5AW,2014-01-22,fhrs_5_en-GB,5,,FHRS,0
410535,11-19 Hillhall Gardens,Largymore,Lisburn,Antrim,HILLHALL RESIDENTIAL RESOURCE CENTRE,Hospitals/Childcare/Caring Premises,5,0,,458822,0,,54.51037100000000,875,819,robert.lamont@lisburn.gov.uk,Lisburn,http://www.lisburn.gov.uk,-6.02604000000000,BT27 5DD,2013-01-09,fhrs_5_en-GB,5,,FHRS,0
410536,2 Lisburn Road,Hillsborough,Hillsborough,Down,HILLSBOROUGH PRESBYTERIAN CHURCH,Other catering premises,7841,,,458330,,,54.46638000000000,3258,819,robert.lamont@lisburn.gov.uk,Lisburn,http://www.lisburn.gov.uk,-6.08350300000000,BT26 6AA,2014-08-15,fhrs_exempt_en-GB,Exempt,,FHRS,
410537,1 Ballynahinch Street,Hillsborough,Hillsborough,Down,HILLSBOROUGH SOCIAL CLUB,Retailers - other,4613,,,493275,,,54.46323100000000,919,819,robert.lamont@lisburn.gov.uk,Lisburn,http://www.lisburn.gov.uk,-6.08212300000000,BT26 6AW,2010-08-24,fhrs_exempt_en-GB,Exempt,,FHRS,
410538,21 Main Street,Hillsborough,Hillsborough,Down,HILLSIDE BAR & BISTRO,Restaurant/Cafe/Canteen,1,,,458697,,,54.46206100000000,6181,819,robert.lamont@lisburn.gov.uk,Lisburn,http://www.lisburn.gov.uk,-6.08367400000000,BT26 6AE,2014-03-11,fhrs_5_en-GB,5,,FHRS,
410539,60 Tullyard Road,Tullyard,Lisburn,Antrim,HILLTOP BED & BREAKFAST,Hotel/bed & breakfast/guest house,7842,0,,493239,0,,54.50330100000000,511,819,robert.lamont@lisburn.gov.uk,Lisburn,http://www.lisburn.gov.uk,-5.97134100000000,BT27 5JN,2012-12-18,fhrs_5_en-GB,5,,FHRS,0
410540,35 Stoneyford Road,Drumankelly,Lisburn,Antrim,HILLVIEW FARM BED & BREAKFAST,Hotel/bed & breakfast/guest house,7842,0,,493268,0,,54.55258200000000,686,819,robert.lamont@lisburn.gov.uk,Lisburn,http://www.lisburn.gov.uk,-6.08695900000000,BT28 3RG,2013-02-13,fhrs_5_en-GB,5,,FHRS,0
410541,,,,,Hollah Preserving Ltd,Other catering premises,7841,5,,720325,0,,,506637,819,robert.lamont@lisburn.gov.uk,Lisburn,http://www.lisburn.gov.uk,,,2014-10-22,fhrs_5_en-GB,5,,FHRS,5
410542,,,,,Hollah Preserving Ltd,Other catering premises,7841,5,,720326,5,,,506638,819,robert.lamont@lisburn.gov.uk,Lisburn,http://www.lisburn.gov.uk,,,2014-10-22,fhrs_5_en-GB,5,,FHRS,0
410543,24 Bow Street,Lisnagarvy,Lisburn,Antrim,HOLLAND & BARRETT RETAIL LTD,Retailers - other,4613,,,458335,,,54.51155600000000,3360,819,robert.lamont@lisburn.gov.uk,Lisburn,http://www.lisburn.gov.uk,-6.04758600000000,BT28 1BN,2014-09-11,fhrs_exempt_en-GB,Exempt,,FHRS,
410544,1 Fontaine Place,Lisburn,Lisburn,Antrim,Home Catering,Other catering premises,7841,,,458640,,,54.53125100000000,5979,819,robert.lamont@lisburn.gov.uk,Lisburn,http://www.lisburn.gov.uk,-6.04199500000000,BT27 4DR,2013-07-09,fhrs_exempt_en-GB,Exempt,,FHRS,
410545,Unit 4 21 Maghaberry Road,Moira,Moira,Armagh,Hong Kong Kitchen,Takeaway/sandwich shop,7844,10,,499279,0,,,6525,819,robert.lamont@lisburn.gov.uk,Lisburn,http://www.lisburn.gov.uk,,BT67 OJH,2014-09-11,fhrs_4_en-GB,4,,FHRS,5
410546,20 Main Street,Hillsborough,Hillsborough,Down,HUMBLE PIE,Restaurant/Cafe/Canteen,1,0,,458437,0,,54.46206100000000,4435,819,robert.lamont@lisburn.gov.uk,Lisburn,http://www.lisburn.gov.uk,-6.08367400000000,BT26 6AE,2013-11-18,fhrs_5_en-GB,5,,FHRS,5
410547,8 Woodland Park,Magheralave (Upper Belfast),Lisburn,Antrim,HUNTS CHIP SHOP,Takeaway/sandwich shop,7844,0,,458606,0,,54.53126300000000,5817,819,robert.lamont@lisburn.gov.uk,Lisburn,http://www.lisburn.gov.uk,-6.03612400000000,BT27 4PD,2014-02-13,fhrs_5_en-GB,5,,FHRS,0
410548,103-107 Moss Road,Lambeg,Lisburn,Antrim,IAN HALL - MACE,Retailers - other,4613,20,,458682,15,,54.58685000000000,6142,819,robert.lamont@lisburn.gov.uk,Lisburn,http://www.lisburn.gov.uk,-6.20122300000000,BT29 4NX,2014-10-02,fhrs_1_en-GB,1,,FHRS,15
410549,71-73 Bow Street,,Lisburn,Antrim,ICELAND FROZEN FOODS PLC,Retailers - supermarkets/hypermarkets,7840,0,,493180,0,,54.51116100000000,1148,819,robert.lamont@lisburn.gov.uk,Lisburn,http://www.lisburn.gov.uk,-6.04704900000000,BT28 1BJ,2014-11-24,fhrs_5_en-GB,5,,FHRS,0
410550,16 Lisburn Street,Hillsborough,Hillsborough,Down,Imperial City,Restaurant/Cafe/Canteen,1,10,,458681,15,,54.46376400000000,6132,819,robert.lamont@lisburn.gov.uk,Lisburn,http://www.lisburn.gov.uk,-6.08342500000000,BT26 6AB,2014-10-22,fhrs_2_en-GB,2,,FHRS,15
410551,10 Rowan Drive,Kilmakee,Dunmurry,Antrim,IRWINS MEDICAL HALL,Retailers - other,4613,,,466677,,,54.54405200000000,1826,819,robert.lamont@lisburn.gov.uk,Lisburn,http://www.lisburn.gov.uk,-6.01155500000000,BT17 9PX,2013-04-17,fhrs_exempt_en-GB,Exempt,,FHRS,
410552,167 Kingsway,Dunmurry,Dunmurry,Antrim,IRWINS MEDICAL HALL LTD,Retailers - other,4613,,,731887,,,54.55131800000000,559,819,robert.lamont@lisburn.gov.uk,Lisburn,http://www.lisburn.gov.uk,-6.00378200000000,BT17 9RY,2012-10-08,fhrs_exempt_en-GB,Exempt,,FHRS,
410553,Mckees Dam,Hillsborough,Hillsborough,Down,J & R CATERING - GOLD GRIDDLE,Mobile caterer,7846,0,,458435,0,,,4427,819,robert.lamont@lisburn.gov.uk,Lisburn,http://www.lisburn.gov.uk,,BT26 6AH,2014-01-14,fhrs_4_en-GB,4,,FHRS,10
410554,,,,,J B - JOHN BEATTIE,Retailers - other,4613,0,,493223,0,,,3598,819,robert.lamont@lisburn.gov.uk,Lisburn,http://www.lisburn.gov.uk,,,2014-08-27,fhrs_5_en-GB,5,,FHRS,0
410555,112 Longstone Street,Tonagh,Lisburn,Antrim,J PELAN & SON,Manufacturers/packers,7839,0,,458374,0,,54.50968500000000,3947,819,robert.lamont@lisburn.gov.uk,Lisburn,http://www.lisburn.gov.uk,-6.05636800000000,BT28 1TR,2013-02-13,fhrs_5_en-GB,5,,FHRS,0
410556,221 Kingsway,Dunmurry,Dunmurry,,Jacks Honest Food,Takeaway/sandwich shop,7844,10,,720332,10,,54.55043000000000,7136,819,robert.lamont@lisburn.gov.uk,Lisburn,http://www.lisburn.gov.uk,-6.00656200000000,BT17 9SB,2014-11-06,fhrs_3_en-GB,3,,FHRS,10
410557,71 Sloan Street,Largymore,Lisburn,Antrim,JADE PALACE,Takeaway/sandwich shop,7844,5,,458828,10,,54.50922800000000,912,819,robert.lamont@lisburn.gov.uk,Lisburn,http://www.lisburn.gov.uk,-6.03532800000000,BT27 5AG,2013-10-31,fhrs_3_en-GB,3,,FHRS,10
410558,6 Ballysessy Close,Glenavy,,Antrim,JANELLE WHITE,Hospitals/Childcare/Caring Premises,5,,,539855,,,54.59273600000000,6311,819,robert.lamont@lisburn.gov.uk,Lisburn,http://www.lisburn.gov.uk,-6.21465600000000,BT29 4ZP,2012-02-03,fhrs_exempt_en-GB,Exempt,,FHRS,
410559,Moira Road,Moira Road,Lisburn,Antrim,JANETS DINER,Mobile caterer,7846,10,,458380,5,,54.49729900000000,3961,819,robert.lamont@lisburn.gov.uk,Lisburn,http://www.lisburn.gov.uk,-6.13537300000000,BT28 2TS,2014-03-26,fhrs_4_en-GB,4,,FHRS,5
410560,155 Kingsway,Dunmurry,Dunmurry,,Jav's,Takeaway/sandwich shop,7844,20,,590770,10,,54.55125600000000,6604,819,robert.lamont@lisburn.gov.uk,Lisburn,http://www.lisburn.gov.uk,-6.00380100000000,BT17 9RY,2015-01-16,fhrs_1_en-GB,1,,FHRS,20
410561,20 Market Square North,Lisnagarvy,Lisburn,Antrim,JEFFERS HOME BAKERY,Manufacturers/packers,7839,5,,458291,0,,54.51121400000000,2074,819,robert.lamont@lisburn.gov.uk,Lisburn,http://www.lisburn.gov.uk,-6.04368000000000,BT28 1AG,2014-06-18,fhrs_4_en-GB,4,,FHRS,10
410562,74 Causeway Meadows,Knockmore,Lisburn,Antrim,JENNIFER GRAY,Hospitals/Childcare/Caring Premises,5,,,539863,,,54.51392100000000,6362,819,robert.lamont@lisburn.gov.uk,Lisburn,http://www.lisburn.gov.uk,-6.06951000000000,BT28 2GE,2012-04-02,fhrs_exempt_en-GB,Exempt,,FHRS,
410563,75-81 Hillsborough Road,Old Warren,Lisburn,Antrim,JOHN DORY'S,Takeaway/sandwich shop,7844,0,,458660,5,,54.50414600000000,6064,819,robert.lamont@lisburn.gov.uk,Lisburn,http://www.lisburn.gov.uk,-6.04715200000000,BT28 1JN,2013-11-04,fhrs_5_en-GB,5,,FHRS,5
410564,47 Antrim Road,Tonagh,Lisburn,Antrim,JOLLY RODGERS DAY NURSERY LTD,Other catering premises,7841,0,,458212,0,,54.51845100000000,14,819,robert.lamont@lisburn.gov.uk,Lisburn,http://www.lisburn.gov.uk,-6.05616800000000,BT28 3EB,2013-04-05,fhrs_5_en-GB,5,,FHRS,0
410565,Bow Street Mall,Lisburn,Lisburn,Antrim,JOSEPHS RESTAURANT @ MENARYS,Restaurant/Cafe/Canteen,1,5,,458408,10,,54.51116100000000,4150,819,robert.lamont@lisburn.gov.uk,Lisburn,http://www.lisburn.gov.uk,-6.04704900000000,BT28 1BJ,2013-11-13,fhrs_4_en-GB,4,,FHRS,5
410566,Unit 2 Riverside Centre,,Lisburn,Antrim,JUMPING JACKS,Restaurant/Cafe/Canteen,1,0,,458595,0,,54.50894100000000,5793,819,robert.lamont@lisburn.gov.uk,Lisburn,http://www.lisburn.gov.uk,-6.03755000000000,BT27 5EA,2014-07-22,fhrs_5_en-GB,5,,FHRS,0
410567,38 Longstone Street,Tonagh,Lisburn,Antrim,KEBAB HOUSE,Takeaway/sandwich shop,7844,10,,458499,10,,54.51026000000000,5311,819,robert.lamont@lisburn.gov.uk,Lisburn,http://www.lisburn.gov.uk,-6.05354600000000,BT28 1TP,2013-05-09,fhrs_4_en-GB,4,,FHRS,0
410568,116-118 Longstone Street,Tonagh,Lisburn,Antrim,KELLYS FRUIT,Retailers - other,4613,,,458286,,,54.50968500000000,2050,819,robert.lamont@lisburn.gov.uk,Lisburn,http://www.lisburn.gov.uk,-6.05636800000000,BT28 1TR,2013-07-22,fhrs_exempt_en-GB,Exempt,,FHRS,
410569,Bow Street Mall Foodcourt,Bow Street,Lisburn,Antrim,KENTUCKY FRIED CHICKEN,Takeaway/sandwich shop,7844,0,,458376,0,,54.51170600000000,3952,819,robert.lamont@lisburn.gov.uk,Lisburn,http://www.lisburn.gov.uk,-6.05020400000000,BT28 1AW,2013-10-28,fhrs_5_en-GB,5,,FHRS,0
410570,Governors Road,Lisburn,Lisburn,Antrim,KENTUCKY FRIED CHICKEN (K F C),Restaurant/Cafe/Canteen,1,0,,458249,10,,,1626,819,robert.lamont@lisburn.gov.uk,Lisburn,http://www.lisburn.gov.uk,,BT28 1PR,2013-06-21,fhrs_4_en-GB,4,,FHRS,10
410571,,,,,KEVINS MOBILE SHOP,Retailers - other,4613,,,493229,,,,4189,819,robert.lamont@lisburn.gov.uk,Lisburn,http://www.lisburn.gov.uk,,,2015-01-16,fhrs_exempt_en-GB,Exempt,,FHRS,
410572,5a Crewe Road,Kilcreeny,Lisburn,Antrim,KILCREENY LODGE BED & BREAKFAST,Hotel/bed & breakfast/guest house,7842,0,,466683,0,,54.56386000000000,4764,819,robert.lamont@lisburn.gov.uk,Lisburn,http://www.lisburn.gov.uk,-6.17253500000000,BT28 2PL,2012-11-14,fhrs_5_en-GB,5,,FHRS,0
410573,20 Laurelhill Road,Clogher,Lisburn,Antrim,KILLOWEN PRIMARY SCHOOL,School/college/university,7845,10,,458304,5,,54.52000600000000,23,819,robert.lamont@lisburn.gov.uk,Lisburn,http://www.lisburn.gov.uk,-6.06628800000000,BT28 2UH,2014-05-16,fhrs_4_en-GB,4,,FHRS,5
410574,6 Filterbeds Road,Derrykillultagh,Lisburn,Antrim,KILLULTAGH CHILDMINDING,Hospitals/Childcare/Caring Premises,5,,,539864,,,54.55639000000000,6372,819,robert.lamont@lisburn.gov.uk,Lisburn,http://www.lisburn.gov.uk,-6.14983600000000,BT28 2NY,2012-04-01,fhrs_exempt_en-GB,Exempt,,FHRS,
410575,42f Cloona Park,Dunmurry,Dunmurry,,KILWEE CARE HOME,Hospitals/Childcare/Caring Premises,5,5,,458702,10,,54.56405800000000,6200,819,robert.lamont@lisburn.gov.uk,Lisburn,http://www.lisburn.gov.uk,-6.01738500000000,BT17 0HH,2014-09-29,fhrs_4_en-GB,4,,FHRS,5
410576,Unit 1 Bellsteel Road,Dunmurry,Dunmurry,,King Cod,Takeaway/sandwich shop,7844,,,691811,,,54.56185700000000,7129,819,robert.lamont@lisburn.gov.uk,Lisburn,http://www.lisburn.gov.uk,-6.03003000000000,BT17 0PB,2015-01-22,fhrs_5_en-GB,5,,FHRS,
410577,Kingsway,Dunmurry,Dunmurry,Belfast,KINGSWAY BUTCHERS,Retailers - other,4613,10,,458750,5,,54.55302200000000,6341,819,robert.lamont@lisburn.gov.uk,Lisburn,http://www.lisburn.gov.uk,-5.99920100000000,BT17 9NP,2013-09-26,fhrs_4_en-GB,4,,FHRS,0
410578,175 Kingsway,Dunmurry,Dunmurry,Antrim,KINGSWAY PHARMACY,Retailers - other,4613,,,493221,,,54.55125600000000,356,819,robert.lamont@lisburn.gov.uk,Lisburn,http://www.lisburn.gov.uk,-6.00380100000000,BT17 9RY,2013-10-01,fhrs_exempt_en-GB,Exempt,,FHRS,
410579,299 Kingsway,Kilmakee,Dunmurry,,KINGSWAY PRIVATE NURSING HOME,Hospitals/Childcare/Caring Premises,5,5,,458370,5,,54.54382800000000,393,819,robert.lamont@lisburn.gov.uk,Lisburn,http://www.lisburn.gov.uk,-6.01544500000000,BT17 9EP,2014-07-09,fhrs_5_en-GB,5,,FHRS,5
410580,4 Limehill Road,Largymore,Lisburn,Down,KNOCKEEN LODGE,Hotel/bed & breakfast/guest house,7842,5,,493204,0,,54.48898700000000,183,819,robert.lamont@lisburn.gov.uk,Lisburn,http://www.lisburn.gov.uk,-6.02224000000000,BT27 5LR,2013-06-18,fhrs_5_en-GB,5,,FHRS,0
410581,4 Knockmore Square,Knockmore,Lisburn,Antrim,KNOCKMORE PHARMACY,Retailers - other,4613,,,493259,,,54.50833900000000,6289,819,robert.lamont@lisburn.gov.uk,Lisburn,http://www.lisburn.gov.uk,-6.06940200000000,BT28 1SZ,2012-02-03,fhrs_exempt_en-GB,Exempt,,FHRS,
410582,Hertford Crescent,Knockmore,Lisburn,Antrim,KNOCKMORE PRIMARY SCHOOL,School/college/university,7845,5,,458187,0,,54.50895800000000,1091,819,robert.lamont@lisburn.gov.uk,Lisburn,http://www.lisburn.gov.uk,-6.07604300000000,BT28 1SA,2013-10-25,fhrs_5_en-GB,5,,FHRS,5
410583,34 Sandymount,Ballyskeagh,Lisburn,Down,LA PICANTE,Distributors/Transporters,7,,,458678,,,54.53319400000000,6120,819,robert.lamont@lisburn.gov.uk,Lisburn,http://www.lisburn.gov.uk,-6.00531600000000,BT27 5TJ,2015-01-12,fhrs_exempt_en-GB,Exempt,,FHRS,
410584,Warren Park,,Lisburn,Antrim,LAGAN VALLEY BOWLING CLUB,Retailers - other,4613,,,458712,,,54.55272900000000,6242,819,robert.lamont@lisburn.gov.uk,Lisburn,http://www.lisburn.gov.uk,-6.23059400000000,BT28 2LP,2014-08-27,fhrs_exempt_en-GB,Exempt,,FHRS,
410585,39a Hillsborough Road,Old Warren,Lisburn,Antrim,LAGAN VALLEY HOSPITAL,Hospitals/Childcare/Caring Premises,5,10,,458200,0,,54.50490200000000,1268,819,robert.lamont@lisburn.gov.uk,Lisburn,http://www.lisburn.gov.uk,-6.04725500000000,BT28 1JP,2013-05-16,fhrs_4_en-GB,4,,FHRS,0
410586,128-130 Longstone Street,Tonagh,Lisburn,Antrim,LAGAN VALLEY RACING PIGEON CLUB,Retailers - other,4613,0,,493184,0,,54.50968500000000,1281,819,robert.lamont@lisburn.gov.uk,Lisburn,http://www.lisburn.gov.uk,-6.05636800000000,BT28 1TR,2013-03-26,fhrs_5_en-GB,5,,FHRS,0
410587,37 Laganvale Mews,Moira,Moira,Armagh,LAGANVALE NURSING HOME,Hospitals/Childcare/Caring Premises,5,5,,458253,10,,,1678,819,robert.lamont@lisburn.gov.uk,Lisburn,http://www.lisburn.gov.uk,,BT67 ORE,2015-01-08,fhrs_3_en-GB,3,,FHRS,10
410588,18-20 Dromore Street,Begny,Dromara,Down,LAGANVIEW ARMS,Pub/bar/nightclub,7843,0,,465811,0,,54.37980600000000,6418,819,robert.lamont@lisburn.gov.uk,Lisburn,http://www.lisburn.gov.uk,-6.01876700000000,BT25 2BJ,2012-10-23,fhrs_5_en-GB,5,,FHRS,0
410589,Unit 2 Laganview Enterprise Centre,,Lisburn,Antrim,Laganview Convenience Store,Retailers - other,4613,0,,706548,0,,54.50718300000000,6752,819,robert.lamont@lisburn.gov.uk,Lisburn,http://www.lisburn.gov.uk,-6.06953400000000,BT28 1NY,2014-10-01,fhrs_4_en-GB,4,,FHRS,10
410590,220 Stewartstown Road,Dunmurry,Dunmurry,,LAGMORE FILLING STATION,Retailers - supermarkets/hypermarkets,7840,10,,458447,5,,54.56663900000000,4506,819,robert.lamont@lisburn.gov.uk,Lisburn,http://www.lisburn.gov.uk,-6.01480100000000,BT17 0HW,2014-10-10,fhrs_3_en-GB,3,,FHRS,10
410591,16 Lagmore Grove,Killeaton,Dunmurry,Antrim,LAGMORE PRE-SCHOOL PLAYGROUP,Other catering premises,7841,,,493225,,,54.55225300000000,3698,819,robert.lamont@lisburn.gov.uk,Lisburn,http://www.lisburn.gov.uk,-6.02901000000000,BT17 0TD,2012-03-15,fhrs_exempt_en-GB,Exempt,,FHRS,
410592,Church Hill,Lambeg,Lisburn,Antrim,Lambeg Orange Hall,Pub/bar/nightclub,7843,0,,458562,0,,54.53268000000000,5664,819,robert.lamont@lisburn.gov.uk,Lisburn,http://www.lisburn.gov.uk,-6.01831900000000,BT27 4SB,2012-07-20,fhrs_2_en-GB,2,,FHRS,15
410593,7 Market Square,Lisburn,Lisburn,Antrim,LAMONTS,Retailers - other,4613,,,458812,,,54.51121400000000,803,819,robert.lamont@lisburn.gov.uk,Lisburn,http://www.lisburn.gov.uk,-6.04368000000000,BT28 1AG,2012-07-27,fhrs_exempt_en-GB,Exempt,,FHRS,
410594,375 Upper Ballynahinch Road,Aghnaleck,Lisburn,Down,LARCHFIELD ESTATE,Other catering premises,7841,,,493231,,,54.46454700000000,4232,819,robert.lamont@lisburn.gov.uk,Lisburn,http://www.lisburn.gov.uk,-5.99280200000000,BT27 6XL,2012-11-05,fhrs_exempt_en-GB,Exempt,,FHRS,
410595,Hillhall Road,Largymore,Lisburn,Antrim,LARGYMORE PRIMARY SCHOOL,School/college/university,7845,5,,458823,0,,54.50913600000000,881,819,robert.lamont@lisburn.gov.uk,Lisburn,http://www.lisburn.gov.uk,-6.02637700000000,BT27 5BT,2014-01-17,fhrs_5_en-GB,5,,FHRS,0
410596,208 Stewartstown Road,Poleglass,Dunmurry,Antrim,LAUREL GLEN,Pub/bar/nightclub,7843,0,,458443,0,,54.56093200000000,4491,819,robert.lamont@lisburn.gov.uk,Lisburn,http://www.lisburn.gov.uk,-6.02129300000000,BT17 0LE,2012-08-02,fhrs_4_en-GB,4,,FHRS,10
410597,212a Stewartstown Road,Poleglass,Dunmurry,Antrim,LAUREL GLEN PHARMACY,Retailers - other,4613,,,493213,,,54.55879400000000,242,819,robert.lamont@lisburn.gov.uk,Lisburn,http://www.lisburn.gov.uk,-6.02240200000000,BT17 0FB,2013-06-27,fhrs_exempt_en-GB,Exempt,,FHRS,
410598,22 Laurelhill Road,,Lisburn,Antrim,LAURELHILL COMMUNITY COLLEGE,School/college/university,7845,5,,458307,0,,54.52000600000000,24,819,robert.lamont@lisburn.gov.uk,Lisburn,http://www.lisburn.gov.uk,-6.06628800000000,BT28 2UH,2013-10-24,fhrs_5_en-GB,5,,FHRS,5
410599,1a Ballymacash Park,Clogher,Lisburn,Antrim,LAURELHILL HOUSE,Hospitals/Childcare/Caring Premises,5,0,,458245,0,,54.52422300000000,16,819,robert.lamont@lisburn.gov.uk,Lisburn,http://www.lisburn.gov.uk,-6.06817400000000,BT28 3EX,2014-11-24,fhrs_5_en-GB,5,,FHRS,5
410600,65 Bridge Street,Lisnagarvy,Lisburn,Antrim,Layer Cake,Retailers - other,4613,0,,687416,0,,54.51070400000000,7027,819,robert.lamont@lisburn.gov.uk,Lisburn,http://www.lisburn.gov.uk,-6.04100200000000,BT28 1XZ,2014-07-21,fhrs_5_en-GB,5,,FHRS,0
410601,149 Ballynahinch Road,Lisburn,Lisburn,Antrim,LEGACURRY PLAYGROUP,Other catering premises,7841,,,458352,,,54.48503900000000,3686,819,robert.lamont@lisburn.gov.uk,Lisburn,http://www.lisburn.gov.uk,-6.02256900000000,BT27 5LS,2012-10-30,fhrs_exempt_en-GB,Exempt,,FHRS,
410602,Bentrim Road,Lisburn,Lisburn,Antrim,Lidl Northern Ireland Gmbh,Retailers - supermarkets/hypermarkets,7840,0,,728023,0,,,506661,819,robert.lamont@lisburn.gov.uk,Lisburn,http://www.lisburn.gov.uk,,BT28 9XX,2014-12-02,fhrs_5_en-GB,5,,FHRS,5
410603,47c Moira Road,Lisburn,Lisburn,Antrim,LIDL SUPERMARKET,Retailers - supermarkets/hypermarkets,7840,5,,458367,0,,54.50798200000000,3905,819,robert.lamont@lisburn.gov.uk,Lisburn,http://www.lisburn.gov.uk,-6.06724200000000,BT28 1RH,2014-01-20,fhrs_4_en-GB,4,,FHRS,10
410604,18-22 Main Street,Glenavy,Glenavy,Antrim,LILY JOHNSTONS,Restaurant/Cafe/Canteen,1,5,,458741,5,,54.59100200000000,6314,819,robert.lamont@lisburn.gov.uk,Lisburn,http://www.lisburn.gov.uk,-6.21340200000000,BT29 4LW,2013-10-08,fhrs_4_en-GB,4,,FHRS,10
410605,Laurel Way,Seymour Hill,Dunmurry,,LINDSAY HOUSE CHILDREN'S HOME,Hospitals/Childcare/Caring Premises,5,5,,458271,0,,54.54448700000000,1819,819,robert.lamont@lisburn.gov.uk,Lisburn,http://www.lisburn.gov.uk,-6.01235300000000,BT17 9PR,2014-08-05,fhrs_5_en-GB,5,,FHRS,5
410606,56 Market Square,Lisburn,Lisburn,Antrim,LINEN CENTRE & MUSEUM,Retailers - other,4613,,,458612,,,54.51121400000000,5829,819,robert.lamont@lisburn.gov.uk,Lisburn,http://www.lisburn.gov.uk,-6.04368000000000,BT28 1AG,2015-01-05,fhrs_exempt_en-GB,Exempt,,FHRS,
410607,87 Moira Road,Lisadian,Hillsborough,Down,LISADIAN HOUSE PRIVATE NURSING HOME,Hospitals/Childcare/Caring Premises,5,5,,458171,0,,54.46889900000000,1003,819,robert.lamont@lisburn.gov.uk,Lisburn,http://www.lisburn.gov.uk,-6.11459100000000,BT26 6DY,2014-07-02,fhrs_5_en-GB,5,,FHRS,5
410608,58 Wallace Avenue,Lisnagarvy,Lisburn,Antrim,LISBURN ADULT RESOURCE CENTRE,Hospitals/Childcare/Caring Premises,5,0,,458296,0,,54.51451000000000,2112,819,robert.lamont@lisburn.gov.uk,Lisburn,http://www.lisburn.gov.uk,-6.03970800000000,BT27 4AE,2014-12-12,fhrs_5_en-GB,5,,FHRS,5
410609,119a Hillsborough Road,Old Warren,Lisburn,Antrim,LISBURN CARE HOME,Hospitals/Childcare/Caring Premises,5,0,,458449,0,,54.50212300000000,4529,819,robert.lamont@lisburn.gov.uk,Lisburn,http://www.lisburn.gov.uk,-6.04877700000000,BT28 1JX,2014-07-07,fhrs_5_en-GB,5,,FHRS,5
410610,24a Castle Street,Lisburn,Lisburn,Antrim,LISBURN CATHEDRAL,Other catering premises,7841,,,458806,,,54.51158300000000,753,819,robert.lamont@lisburn.gov.uk,Lisburn,http://www.lisburn.gov.uk,-6.04199400000000,BT27 4XD,2013-08-16,fhrs_exempt_en-GB,Exempt,,FHRS,
410611,52-56 Hillsborough Road,Old Warren,Lisburn,Antrim,LISBURN CENTRAL PRIMARY SCHOOL,School/college/university,7845,0,,458201,0,,54.50685200000000,1269,819,robert.lamont@lisburn.gov.uk,Lisburn,http://www.lisburn.gov.uk,-6.04781000000000,BT28 1JJ,2014-06-10,fhrs_5_en-GB,5,,FHRS,0
410612,2 Queens Road,,Lisburn,Antrim,LISBURN CHRISTIAN FELLOWSHIP,Other catering premises,7841,,,458331,,,54.50286200000000,3266,819,robert.lamont@lisburn.gov.uk,Lisburn,http://www.lisburn.gov.uk,-6.02513600000000,BT27 5TZ,2014-08-05,fhrs_exempt_en-GB,Exempt,,FHRS,
410613,49 Market Square South,Old Warren,Lisburn,Antrim,LISBURN DOWNTOWN CENTRE,Other catering premises,7841,0,,458524,0,,54.51091400000000,5448,819,robert.lamont@lisburn.gov.uk,Lisburn,http://www.lisburn.gov.uk,-6.04398700000000,BT28 1AD,2013-01-11,fhrs_5_en-GB,5,,FHRS,0
410614,1 Prince William Road,Tonagh,Lisburn,Antrim,LISBURN FIRE STATION,Restaurant/Cafe/Canteen,1,0,,458280,5,,54.51561700000000,2,819,robert.lamont@lisburn.gov.uk,Lisburn,http://www.lisburn.gov.uk,-6.05815600000000,BT28 3AN,2011-08-18,fhrs_5_en-GB,5,,FHRS,0
410615,1 - 3 Graham Gardens,,Lisburn,Antrim,Lisburn Foodbank,Other catering premises,7841,,,657312,,,54.51229100000000,6787,819,robert.lamont@lisburn.gov.uk,Lisburn,http://www.lisburn.gov.uk,-6.04523400000000,BT28 1XE,2014-04-24,fhrs_exempt_en-GB,Exempt,,FHRS,
410616,68 Eglantine Road,Magherageery,Lisburn,Down,LISBURN GOLF CLUB,Retailers - other,4613,0,,458480,0,,54.48737000000000,5103,819,robert.lamont@lisburn.gov.uk,Lisburn,http://www.lisburn.gov.uk,-6.07795300000000,BT27 5RQ,2012-08-14,fhrs_5_en-GB,5,,FHRS,5
410617,119b Hillsborough Road,,Lisburn,Antrim,LISBURN INTERMEDIATE CARE CENTRE,Hospitals/Childcare/Caring Premises,5,5,,458507,0,,54.50212300000000,5363,819,robert.lamont@lisburn.gov.uk,Lisburn,http://www.lisburn.gov.uk,-6.04877700000000,BT28 1JX,2014-01-14,fhrs_5_en-GB,5,,FHRS,5
410618,11 Belsize Road,Lisnagarvy,Lisburn,Antrim,LISBURN MASONIC CLUB,Retailers - other,4613,,,493194,,,54.51908200000000,1546,819,robert.lamont@lisburn.gov.uk,Lisburn,http://www.lisburn.gov.uk,-6.03791300000000,BT27 4AL,2014-07-03,fhrs_exempt_en-GB,Exempt,,FHRS,
410619,14 Antrim Street,Lisnagarvy,Lisburn,Antrim,LISBURN MAUDS,Restaurant/Cafe/Canteen,1,5,,458693,5,,54.51245100000000,6177,819,robert.lamont@lisburn.gov.uk,Lisburn,http://www.lisburn.gov.uk,-6.04845400000000,BT28 1AU,2013-03-26,fhrs_5_en-GB,5,,FHRS,0
410620,36 Belfast Road,,Lisburn,Antrim,LISBURN RACQUETS CLUB,Retailers - other,4613,0,,458794,0,,54.51788600000000,697,819,robert.lamont@lisburn.gov.uk,Lisburn,http://www.lisburn.gov.uk,-6.03458800000000,BT27 4AS,2012-01-24,fhrs_5_en-GB,5,,FHRS,0
410621,71 Eglantine Road,Magherageery,Lisburn,Down,LISBURN RUGBY FOOTBALL CLUB,Retailers - other,4613,5,,466676,0,,54.48737000000000,1611,819,robert.lamont@lisburn.gov.uk,Lisburn,http://www.lisburn.gov.uk,-6.07795300000000,BT27 5RQ,2012-11-03,fhrs_5_en-GB,5,,FHRS,5
410622,6 Listullycurran Road,Listullycurran,Dromore,Down,LISNACURRAN COUNTRY HOUSE,Hotel/bed & breakfast/guest house,7842,5,,458530,5,,54.43869900000000,5472,819,robert.lamont@lisburn.gov.uk,Lisburn,http://www.lisburn.gov.uk,-6.12889600000000,BT25 1RB,2013-05-24,fhrs_5_en-GB,5,,FHRS,0
410623,60-62 Warren Gardens,Lisburn,Lisburn,Antrim,LISNAGARVEY HIGH SCHOOL,School/college/university,7845,0,,458264,0,,54.50798900000000,1792,819,robert.lamont@lisburn.gov.uk,Lisburn,http://www.lisburn.gov.uk,-6.05648000000000,BT28 1HA,2014-12-01,fhrs_5_en-GB,5,,FHRS,0
410624,7 Lisnoe Road,Lisnoe,Lisburn,Down,LISNOE OLD FARMHOUSE BED & BREAKFAST,Hotel/bed & breakfast/guest house,7842,0,,493272,0,,54.48456900000000,79,819,robert.lamont@lisburn.gov.uk,Lisburn,http://www.lisburn.gov.uk,-6.03009200000000,BT27 5LT,2011-10-03,fhrs_5_en-GB,5,,FHRS,0
410625,2 Furze Road,Ballymacricket,Glenavy,Antrim,LITTLE CRICKETTS DAYCARE,Other catering premises,7841,5,,458632,0,,54.57920100000000,5943,819,robert.lamont@lisburn.gov.uk,Lisburn,http://www.lisburn.gov.uk,-6.22165200000000,BT29 4NF,2014-11-20,fhrs_5_en-GB,5,,FHRS,0
410626,23 Mount Eagles Square,Lagmore,Dunmurry,Antrim,LITTLE EAGLES DAYCARE,Hospitals/Childcare/Caring Premises,5,,,539832,,,54.55323100000000,5976,819,robert.lamont@lisburn.gov.uk,Lisburn,http://www.lisburn.gov.uk,-6.04720200000000,BT17 0GY,2010-08-01,fhrs_exempt_en-GB,Exempt,,FHRS,
410627,6 Railway Street,Lisnagarvy,Lisburn,Antrim,Little French Barn,Other catering premises,7841,,,728025,,,54.51209700000000,506701,819,robert.lamont@lisburn.gov.uk,Lisburn,http://www.lisburn.gov.uk,-6.04326700000000,BT28 1XG,2014-12-17,fhrs_exempt_en-GB,Exempt,,FHRS,
410628,109 Queensway,Lambeg North,Dunmurry,Antrim,LITTLE OAKS PRE SCHOOL,School/college/university,7845,,,458745,,,54.52970600000000,6322,819,robert.lamont@lisburn.gov.uk,Lisburn,http://www.lisburn.gov.uk,-6.03042100000000,BT27 4QS,2012-01-12,fhrs_exempt_en-GB,Exempt,,FHRS,
410629,102 Queensway,Lambeg North,Dunmurry,Antrim,LITTLE RAYS,Other catering premises,7841,0,,458800,0,,54.53156400000000,719,819,robert.lamont@lisburn.gov.uk,Lisburn,http://www.lisburn.gov.uk,-6.02918800000000,BT27 4QP,2014-07-31,fhrs_5_en-GB,5,,FHRS,0
410630,3 Main Street,Aughnafosker,Moira,Armagh,LITTLE RAYS DAY NURSERIES,Other catering premises,7841,,,458456,,,54.47944900000000,4759,819,robert.lamont@lisburn.gov.uk,Lisburn,http://www.lisburn.gov.uk,-6.22991900000000,BT67 0LE,2015-01-13,fhrs_5_en-GB,5,,FHRS,
410631,Rushmore Drive,,Lisburn,Antrim,LITTLE SCALLY WAGS,Other catering premises,7841,,,458718,,,54.51675200000000,6256,819,robert.lamont@lisburn.gov.uk,Lisburn,http://www.lisburn.gov.uk,-6.07635600000000,BT28 2HN,2012-07-09,fhrs_exempt_en-GB,Exempt,,FHRS,
410632,201 City Business Park,Dunmurry,Dunmurry,,LITTLE STARS DAYCARE,Other catering premises,7841,0,,458710,5,,54.54595200000000,6235,819,robert.lamont@lisburn.gov.uk,Lisburn,http://www.lisburn.gov.uk,-6.02282200000000,BT17 9HY,2013-08-09,fhrs_5_en-GB,5,,FHRS,5
410633,34 Main Street,,Moira,Armagh,Logic,Restaurant/Cafe/Canteen,1,0,,522269,5,,54.47944900000000,6589,819,robert.lamont@lisburn.gov.uk,Lisburn,http://www.lisburn.gov.uk,-6.22991900000000,BT67 0LE,2013-03-06,fhrs_5_en-GB,5,,FHRS,0
410634,19 Milltown Avenue,Derryaghy,Lisburn,Antrim,LOTUS CHINESE TAKE AWAY,Takeaway/sandwich shop,7844,10,,458426,5,,54.54204200000000,4386,819,robert.lamont@lisburn.gov.uk,Lisburn,http://www.lisburn.gov.uk,-6.04033500000000,BT28 3TP,2013-05-30,fhrs_3_en-GB,3,,FHRS,10
410635,1a Crumlin Road,Ballinderry,Lisburn,Co Antrim,LOWER BALLINDERRY PRIMARY SCHOOL,School/college/university,7845,0,,458224,0,,54.54801200000000,1485,819,robert.lamont@lisburn.gov.uk,Lisburn,http://www.lisburn.gov.uk,-6.25534100000000,BT28 2BF,2013-04-22,fhrs_5_en-GB,5,,FHRS,0
410636,33 Bog Road,Maze,Lisburn,Antrim,LOWER MAZE SOCIAL AND REC CLUB,Retailers - other,4613,0,,458242,0,,54.49329800000000,1583,819,robert.lamont@lisburn.gov.uk,Lisburn,http://www.lisburn.gov.uk,-6.10686200000000,BT27 5RN,2012-10-23,fhrs_5_en-GB,5,,FHRS,5
410637,22 Rathfriland Road,Begny,Dromara,Down,LUCKY DRAGON,Takeaway/sandwich shop,7844,5,,458623,10,,54.37816500000000,5922,819,robert.lamont@lisburn.gov.uk,Lisburn,http://www.lisburn.gov.uk,-6.01678400000000,BT25 2JG,2014-02-05,fhrs_3_en-GB,3,,FHRS,10
410638,63 Ballymacash Road,Clogher,Lisburn,Antrim,LYNN THOMPSON,Hospitals/Childcare/Caring Premises,5,,,539867,,,54.52421000000000,6477,819,robert.lamont@lisburn.gov.uk,Lisburn,http://www.lisburn.gov.uk,-6.07185100000000,BT28 3ES,2012-09-04,fhrs_exempt_en-GB,Exempt,,FHRS,
410639,Bells Lane,Lambeg,Lisburn,Antrim,M & M SPORTS - ABERDELGHY GOLF COURSE,Retailers - other,4613,,,458795,,,54.53227500000000,701,819,robert.lamont@lisburn.gov.uk,Lisburn,http://www.lisburn.gov.uk,-6.02927700000000,BT27 4QH,2014-08-27,fhrs_exempt_en-GB,Exempt,,FHRS,
410640,24 Grand Street,Lisnagarvy,Lisburn,Antrim,M M Bakery,Retailers - other,4613,10,,720335,0,,54.51625200000000,7151,819,robert.lamont@lisburn.gov.uk,Lisburn,http://www.lisburn.gov.uk,-6.02798000000000,BT27 4UD,2014-11-25,fhrs_4_en-GB,4,,FHRS,5
410641,Unit 5 Pembrook Loop Road,Dunmurry,Dunmurry,,Ma Ma Chef,Takeaway/sandwich shop,7844,20,,701449,15,,54.56846300000000,6778,819,robert.lamont@lisburn.gov.uk,Lisburn,http://www.lisburn.gov.uk,-6.02357300000000,BT17 0PH,2014-09-10,fhrs_1_en-GB,1,,FHRS,15
410642,10 Lurgan Road,Killough,Aghalee,Antrim,MACE,Retailers - other,4613,5,,458506,0,,54.52055300000000,5354,819,robert.lamont@lisburn.gov.uk,Lisburn,http://www.lisburn.gov.uk,-6.26893000000000,BT67 0DD,2013-12-12,fhrs_5_en-GB,5,,FHRS,5
410643,150-154 Longstone Street,Lisburn,Lisburn,Antrim,MACE,Retailers - other,4613,10,,458512,5,,54.50949100000000,5407,819,robert.lamont@lisburn.gov.uk,Lisburn,http://www.lisburn.gov.uk,-6.05937300000000,BT28 1TT,2014-04-24,fhrs_3_en-GB,3,,FHRS,10
410644,19a Maghaberry Road,Maghaberry,Moira,Armagh,MACE,Retailers - other,4613,10,,458391,10,,54.50412000000000,4063,819,robert.lamont@lisburn.gov.uk,Lisburn,http://www.lisburn.gov.uk,-6.19224700000000,BT67 0JE,2014-02-26,fhrs_3_en-GB,3,,FHRS,5
410645,228 - 232 Stewartstown Road,,Belfast,,MACE,Retailers - other,4613,5,,458756,0,,,6369,819,robert.lamont@lisburn.gov.uk,Lisburn,http://www.lisburn.gov.uk,,BT17,2014-12-12,fhrs_5_en-GB,5,,FHRS,5
410646,18a Rathfriland Road,Begny,Dromara,Down,MACE & BAKERY,Retailers - other,4613,0,,458460,0,,54.37816500000000,483,819,robert.lamont@lisburn.gov.uk,Lisburn,http://www.lisburn.gov.uk,-6.01678400000000,BT25 2JG,2014-09-19,fhrs_4_en-GB,4,,FHRS,10
410647,261 Ballynahinch Road,Ballycrune,Hillsborough,Down,MACE ANNAHILT,Retailers - other,4613,5,,458531,0,,54.43592700000000,5473,819,robert.lamont@lisburn.gov.uk,Lisburn,http://www.lisburn.gov.uk,-5.99534300000000,BT26 6BP,2013-07-22,fhrs_5_en-GB,5,,FHRS,0
410648,26 Lisburn Square,Old Warren,Lisburn,Antrim,MACE EXPRESS,Retailers - other,4613,0,,458664,0,,54.51014200000000,6074,819,robert.lamont@lisburn.gov.uk,Lisburn,http://www.lisburn.gov.uk,-6.04734400000000,BT28 1TS,2014-08-14,fhrs_5_en-GB,5,,FHRS,0
410649,1 Hillhall Gardens,Largymore,Lisburn,Antrim,Mace Hillhall,Retailers - other,4613,0,,720333,0,,54.51037100000000,7139,819,robert.lamont@lisburn.gov.uk,Lisburn,http://www.lisburn.gov.uk,-6.02604000000000,BT27 5DD,2014-12-02,fhrs_5_en-GB,5,,FHRS,0
410650,7 Antrim Street,Tonagh,Lisburn,Antrim,MACKEYS BAKERY,Manufacturers/packers,7839,10,,458425,10,,54.51245100000000,4384,819,robert.lamont@lisburn.gov.uk,Lisburn,http://www.lisburn.gov.uk,-6.04845400000000,BT28 1AU,2013-07-05,fhrs_3_en-GB,3,,FHRS,10
410651,23 Maghaberry Road,Maghaberry,Moira,Armagh,MAGHABERRY ARMS,Restaurant/Cafe/Canteen,1,5,,458232,5,,54.50606900000000,1521,819,robert.lamont@lisburn.gov.uk,Lisburn,http://www.lisburn.gov.uk,-6.18556800000000,BT67 0JF,2014-05-08,fhrs_5_en-GB,5,,FHRS,5
410652,Unit 3 21 Maghaberry Road,Craigavon,Moira,Armagh,MAGHABERRY PHARMACY,Retailers - other,4613,,,466675,,,54.50606900000000,1520,819,robert.lamont@lisburn.gov.uk,Lisburn,http://www.lisburn.gov.uk,-6.18556800000000,BT67 0JF,2012-10-08,fhrs_exempt_en-GB,Exempt,,FHRS,
410653,17a Maghaberry Road,Moira,Moira,Armagh,MAGHABERRY PRIMARY SCHOOL,School/college/university,7845,5,,458229,0,,,1514,819,robert.lamont@lisburn.gov.uk,Lisburn,http://www.lisburn.gov.uk,,BT67 OJE,2012-10-23,fhrs_4_en-GB,4,,FHRS,10
410654,70 Ballinderry Road,Moneybroom,Lisburn,Antrim,MAGHERAGALL CHURCH OF IRELAND,Other catering premises,7841,0,,493215,0,,54.51994000000000,2555,819,robert.lamont@lisburn.gov.uk,Lisburn,http://www.lisburn.gov.uk,-6.11960700000000,BT28 2QS,2010-11-23,fhrs_5_en-GB,5,,FHRS,0
410655,,,,,MAMA J'S,Other catering premises,7841,0,,728027,0,,,506730,819,robert.lamont@lisburn.gov.uk,Lisburn,http://www.lisburn.gov.uk,,,2014-11-28,fhrs_5_en-GB,5,,FHRS,0
410656,95 Main Street,Carnalbanagh East,Moira,Armagh,MAMA'S PIZZERIA,Takeaway/sandwich shop,7844,5,,458514,0,,54.48171000000000,5412,819,robert.lamont@lisburn.gov.uk,Lisburn,http://www.lisburn.gov.uk,-6.22477500000000,BT67 0LH,2014-06-12,fhrs_5_en-GB,5,,FHRS,5
410657,122 Ballymacash Road,Ballymacoss,Lisburn,Antrim,MAN LEE,Takeaway/sandwich shop,7844,5,,458829,5,,54.52567100000000,92,819,robert.lamont@lisburn.gov.uk,Lisburn,http://www.lisburn.gov.uk,-6.07728100000000,BT28 3EZ,2013-10-17,fhrs_5_en-GB,5,,FHRS,5
410658,5 The Manor,Blacks Road,Dunmurry,,MANOR LODGE CARE HOME,Hospitals/Childcare/Caring Premises,5,5,,458398,0,,54.55975900000000,4102,819,robert.lamont@lisburn.gov.uk,Lisburn,http://www.lisburn.gov.uk,-5.99806700000000,BT10 0NB,2014-07-11,fhrs_4_en-GB,4,,FHRS,10
410659,Unit 7 Bow Street Mall,Lisburn,Lisburn,Antrim,MARKS & SPENCER,Retailers - supermarkets/hypermarkets,7840,0,,458520,0,,54.51170600000000,5429,819,robert.lamont@lisburn.gov.uk,Lisburn,http://www.lisburn.gov.uk,-6.05020400000000,BT28 1AW,2014-09-24,fhrs_5_en-GB,5,,FHRS,0
410660,157 Hillsborough Road,Magherageery,Lisburn,Down,MARKS & SPENCER/CAFE REVIVE/REFRESH CAN,Retailers - supermarkets/hypermarkets,7840,0,,458251,0,,54.49105500000000,1649,819,robert.lamont@lisburn.gov.uk,Lisburn,http://www.lisburn.gov.uk,-6.05888900000000,BT27 5UJ,2013-11-06,fhrs_5_en-GB,5,,FHRS,5
410661,5 Mckeown Street,,Lisburn,Antrim,MARMALADE SANDWICH BAR,Restaurant/Cafe/Canteen,1,5,,458764,0,,54.51248600000000,6386,819,robert.lamont@lisburn.gov.uk,Lisburn,http://www.lisburn.gov.uk,-6.04788100000000,BT28 1BD,2014-09-10,fhrs_5_en-GB,5,,FHRS,5
410662,36 Main Street,Carnalbanagh West,Moira,Armagh,MASALA HUT,Takeaway/sandwich shop,7844,10,,458763,10,,54.47944900000000,6384,819,robert.lamont@lisburn.gov.uk,Lisburn,http://www.lisburn.gov.uk,-6.22991900000000,BT67 0LE,2014-05-20,fhrs_3_en-GB,3,,FHRS,10
410663,Kingsway,Dunmurry,Dunmurry,,Master Chef,Restaurant/Cafe/Canteen,1,0,,720336,0,,54.55092600000000,7173,819,robert.lamont@lisburn.gov.uk,Lisburn,http://www.lisburn.gov.uk,-6.00344600000000,BT17 9AD,2014-11-13,fhrs_5_en-GB,5,,FHRS,0
410664,78 Antrim Street,Lisnagarvy,Lisburn,Antrim,MAXIMS,Takeaway/sandwich shop,7844,20,,458714,20,,54.51245100000000,6247,819,robert.lamont@lisburn.gov.uk,Lisburn,http://www.lisburn.gov.uk,-6.04845400000000,BT28 1AU,2014-08-27,fhrs_1_en-GB,1,,FHRS,5
410665,124-126 Kingsway,Dunmurry,Dunmurry,Belfast,MAXOL/SPAR SERVICE STATION,Retailers - other,4613,10,,458576,0,,54.55302200000000,5725,819,robert.lamont@lisburn.gov.uk,Lisburn,http://www.lisburn.gov.uk,-5.99920100000000,BT17 9NP,2014-06-13,fhrs_4_en-GB,4,,FHRS,0
410666,21 Maghaberry Road,Maghaberry,Maghaberry,Antrim,Maze Meat @ Maghaberry,Manufacturers/packers,7839,20,,505211,20,,54.51110800000000,6534,819,robert.lamont@lisburn.gov.uk,Lisburn,http://www.lisburn.gov.uk,-6.17297700000000,BT67 0JG,2014-08-21,fhrs_1_en-GB,1,,FHRS,10
410667,228 Moira Road,Teraghafeeva Or Lissue,Lisburn,Antrim,MAZE STATION HOTEL (DRAKES),Restaurant/Cafe/Canteen,1,5,,458191,10,,54.50111200000000,1137,819,robert.lamont@lisburn.gov.uk,Lisburn,http://www.lisburn.gov.uk,-6.11184200000000,BT28 2TP,2014-05-21,fhrs_3_en-GB,3,,FHRS,10
410668,208 Stewartstown Road,,Dunmurry,,MCAULEY'S FAMILY BUTCHERS,Manufacturers/packers,7839,0,,458320,0,,54.56010400000000,302,819,robert.lamont@lisburn.gov.uk,Lisburn,http://www.lisburn.gov.uk,-6.02229200000000,BT17 0AH,2015-01-15,fhrs_5_en-GB,5,,FHRS,0
410669,56-62 Main Street,Moira,Moira,Armagh,MCCARTNEY'S OF MOIRA,Retailers - supermarkets/hypermarkets,7840,0,,458254,0,,,1692,819,robert.lamont@lisburn.gov.uk,Lisburn,http://www.lisburn.gov.uk,,BT67 OLQ,2013-02-18,fhrs_5_en-GB,5,,FHRS,0
410670,21 Mount Eagles Park,Lagmore,Dunmurry,Antrim,MCCONWAY - MOBILE VAN,Retailers - other,4613,,,493257,,,54.55305800000000,6150,819,robert.lamont@lisburn.gov.uk,Lisburn,http://www.lisburn.gov.uk,-6.04931300000000,BT17 0GU,2014-08-20,fhrs_exempt_en-GB,Exempt,,FHRS,
410671,1 Hillsborough Road,Lisburn,Lisburn,Antrim,MCDONALDS DRIVE THRU & RESTAURANT,Restaurant/Cafe/Canteen,1,0,,458250,0,,54.49949700000000,1630,819,robert.lamont@lisburn.gov.uk,Lisburn,http://www.lisburn.gov.uk,-6.04641600000000,BT27 5QE,2013-11-11,fhrs_5_en-GB,5,,FHRS,0
410672,131-133 Kingsway,Dunmurry,Dunmurry,Belfast,MCGLONES,Pub/bar/nightclub,7843,0,,458536,0,,54.55294700000000,550,819,robert.lamont@lisburn.gov.uk,Lisburn,http://www.lisburn.gov.uk,-6.00011700000000,BT17 9NS,2015-01-16,fhrs_4_en-GB,4,,FHRS,10
410673,108-112 Queensway,Lambeg,Lisburn,Antrim,MCKIBBINS SERVICE STATION,Retailers - other,4613,5,,458802,0,,54.53156400000000,721,819,robert.lamont@lisburn.gov.uk,Lisburn,http://www.lisburn.gov.uk,-6.02918800000000,BT27 4QP,2012-10-22,fhrs_5_en-GB,5,,FHRS,0
410674,3 Leathemstown Road,Dundrod,Dundrod,Co Antrim,MCKINNEY PRIMARY SCHOOL & NURSERY SCHOOL,School/college/university,7845,0,,458725,0,,54.60777600000000,627,819,robert.lamont@lisburn.gov.uk,Lisburn,http://www.lisburn.gov.uk,-6.12315800000000,BT29 4HX,2012-10-18,fhrs_5_en-GB,5,,FHRS,0
410675,3 Lany Road,Ballykeel Artifinny,Hillsborough,Down,MEADOW BRIDGE PRIMARY SCHOOL,School/college/university,7845,0,,458402,0,,54.47161700000000,4114,819,robert.lamont@lisburn.gov.uk,Lisburn,http://www.lisburn.gov.uk,-6.14859000000000,BT26 6JR,2014-06-02,fhrs_5_en-GB,5,,FHRS,0
410676,67b Main Street,Carnalbanagh East,Moira,Armagh,MEAT CENTRE,Manufacturers/packers,7839,5,,458256,5,,54.48055200000000,1697,819,robert.lamont@lisburn.gov.uk,Lisburn,http://www.lisburn.gov.uk,-6.22670800000000,BT67 0LQ,2014-09-23,fhrs_5_en-GB,5,,FHRS,5
410677,156 Longstone Street,Tonagh,Lisburn,Antrim,MEAT HERE,Retailers - other,4613,5,,458207,0,,54.50949100000000,1325,819,robert.lamont@lisburn.gov.uk,Lisburn,http://www.lisburn.gov.uk,-6.05937300000000,BT28 1TT,2012-08-07,fhrs_5_en-GB,5,,FHRS,5
410678,137 Longstone Street,Old Warren,Lisburn,Antrim,MEAT MASTERS,Manufacturers/packers,7839,10,,458288,5,,54.50916900000000,2054,819,robert.lamont@lisburn.gov.uk,Lisburn,http://www.lisburn.gov.uk,-6.05725700000000,BT28 1ET,2014-01-27,fhrs_4_en-GB,4,,FHRS,5
410679,8 Market Lane,Lisburn,Lisburn,Antrim,MEDICARE,Retailers - other,4613,,,499275,,,54.50197000000000,6063,819,robert.lamont@lisburn.gov.uk,Lisburn,http://www.lisburn.gov.uk,-6.05769200000000,BT28 1LJ,2013-01-08,fhrs_exempt_en-GB,Exempt,,FHRS,
410680,92c Warren Gardens,Lisburn,Lisburn,Antrim,MICHAEL'S CHIP SHOP,Takeaway/sandwich shop,7844,0,,458266,0,,54.50351200000000,1796,819,robert.lamont@lisburn.gov.uk,Lisburn,http://www.lisburn.gov.uk,-6.05746400000000,BT28 1HW,2014-07-01,fhrs_5_en-GB,5,,FHRS,5
410681,43 Bridge Street,Lisnagarvy,Lisburn,Antrim,MICHELANGELO PIZZERIA,Takeaway/sandwich shop,7844,0,,458508,0,,54.51070400000000,5367,819,robert.lamont@lisburn.gov.uk,Lisburn,http://www.lisburn.gov.uk,-6.04100200000000,BT28 1XZ,2014-09-29,fhrs_5_en-GB,5,,FHRS,5
410682,8 Eagle Terrace,Lisnagarvy,Lisburn,Antrim,MICHELLE MURDOCK,Hospitals/Childcare/Caring Premises,5,,,539846,,,54.51499800000000,6226,819,robert.lamont@lisburn.gov.uk,Lisburn,http://www.lisburn.gov.uk,-6.03542200000000,BT27 4TH,2011-09-20,fhrs_exempt_en-GB,Exempt,,FHRS,
410683,90 Main Street,Carnalbanagh West,Moira,Down,MIDNIGHT HAUNT,Restaurant/Cafe/Canteen,1,10,,458439,10,,54.48171000000000,4447,819,robert.lamont@lisburn.gov.uk,Lisburn,http://www.lisburn.gov.uk,-6.22477500000000,BT67 0LH,2013-06-10,fhrs_3_en-GB,3,,FHRS,10
410684,222 Stewartstown Road,Dunmurry,Dunmurry,,MILANO'S,Takeaway/sandwich shop,7844,0,,458322,5,,54.55680800000000,305,819,robert.lamont@lisburn.gov.uk,Lisburn,http://www.lisburn.gov.uk,-6.02623900000000,BT17 0LB,2014-10-23,fhrs_5_en-GB,5,,FHRS,0
410685,17 Castle Street,Lisnagarvy,Lisburn,Antrim,MIX MARKET EUROPEAN FOODS,Retailers - supermarkets/hypermarkets,7840,10,,458686,0,,54.51189900000000,6151,819,robert.lamont@lisburn.gov.uk,Lisburn,http://www.lisburn.gov.uk,-6.04210300000000,BT27 4SP,2013-07-18,fhrs_4_en-GB,4,,FHRS,10
410686,Hulls Lane,Lisburn,Lisburn,Antrim,MOBILE VAN - OWNER WILLIAM MOORE,Mobile caterer,7846,20,,458394,10,,54.50650600000000,4080,819,robert.lamont@lisburn.gov.uk,Lisburn,http://www.lisburn.gov.uk,-6.09430100000000,BT28 2SR,2014-03-03,fhrs_1_en-GB,1,,FHRS,10
410687,92 Main Street,Moira,Moira,Armagh,MOIRA BAKERY,Manufacturers/packers,7839,5,,458257,0,,,1717,819,robert.lamont@lisburn.gov.uk,Lisburn,http://www.lisburn.gov.uk,,BT67 OLH,2013-11-27,fhrs_4_en-GB,4,,FHRS,10
410688,15 Main Street,Aughnafosker,Moira,Armagh,MOIRA DRIVE THRU,Restaurant/Cafe/Canteen,1,5,,458361,0,,54.47944900000000,3797,819,robert.lamont@lisburn.gov.uk,Lisburn,http://www.lisburn.gov.uk,-6.22991900000000,BT67 0LE,2014-01-06,fhrs_5_en-GB,5,,FHRS,5
410689,65 Main Street,Carnalbanagh East,Moira,Armagh,Moira Guest House,Hotel/bed & breakfast/guest house,7842,5,,620645,0,,54.48055200000000,6730,819,robert.lamont@lisburn.gov.uk,Lisburn,http://www.lisburn.gov.uk,-6.22670800000000,BT67 0LQ,2013-11-13,fhrs_5_en-GB,5,,FHRS,0
410690,21 Backwood Road,Moira,Moira,Armagh,MOIRA PRIMARY SCHOOL,School/college/university,7845,5,,458252,5,,,1657,819,robert.lamont@lisburn.gov.uk,Lisburn,http://www.lisburn.gov.uk,,BT67 OLJ,2014-12-09,fhrs_5_en-GB,5,,FHRS,5
410691,163 Stewartstown Road,Ballycullo Tom Of The Tae-End,Dunmurry,Antrim,MONA'S CAFE,Restaurant/Cafe/Canteen,1,0,,458557,5,,54.56663900000000,5641,819,robert.lamont@lisburn.gov.uk,Lisburn,http://www.lisburn.gov.uk,-6.01480100000000,BT17 0HW,2014-08-14,fhrs_5_en-GB,5,,FHRS,5
410692,25 Sloan Street,Largymore,Lisburn,Antrim,MONTGOMERY FISH & CHIP SHOP,Takeaway/sandwich shop,7844,0,,458475,5,,54.50922800000000,5083,819,robert.lamont@lisburn.gov.uk,Lisburn,http://www.lisburn.gov.uk,-6.03532800000000,BT27 5AG,2014-05-21,fhrs_5_en-GB,5,,FHRS,5
410693,36 Rathfriland Road,Dromara,Dromara,Down,Moores Meats,Manufacturers/packers,7839,10,,731889,10,,54.37816500000000,7152,819,robert.lamont@lisburn.gov.uk,Lisburn,http://www.lisburn.gov.uk,-6.01678400000000,BT25 2JG,2015-01-13,fhrs_4_en-GB,4,,FHRS,0
410694,61 Culcavey Road,,Hillsborough,Down,MORROWS CENTRA,Retailers - supermarkets/hypermarkets,7840,0,,458455,5,,54.47675200000000,4591,819,robert.lamont@lisburn.gov.uk,Lisburn,http://www.lisburn.gov.uk,-6.09965000000000,BT26 6JJ,2013-11-01,fhrs_5_en-GB,5,,FHRS,0
410695,1 Seymour Street,Lisburn,Lisburn,Antrim,MOUNT CHARLES CATERING,Restaurant/Cafe/Canteen,1,0,,458818,0,,54.51428100000000,848,819,robert.lamont@lisburn.gov.uk,Lisburn,http://www.lisburn.gov.uk,-6.03721700000000,BT27 4SY,2013-12-16,fhrs_5_en-GB,5,,FHRS,0
410696,Ballygowan Road,Hillsborough,Hillsborough,Down,MOUNT CHARLES CATERING (GRAHAM GROUP HQ),Restaurant/Cafe/Canteen,1,0,,458607,0,,54.45834800000000,5819,819,robert.lamont@lisburn.gov.uk,Lisburn,http://www.lisburn.gov.uk,-6.10293900000000,BT26 6HX,2014-01-28,fhrs_5_en-GB,5,,FHRS,0
410697,46 Antrim Street,Lisnagarvy,Lisburn,Antrim,MR BJ'S FAST FOODS,Takeaway/sandwich shop,7844,10,,458574,10,,54.51245100000000,5716,819,robert.lamont@lisburn.gov.uk,Lisburn,http://www.lisburn.gov.uk,-6.04845400000000,BT28 1AU,2014-02-18,fhrs_3_en-GB,3,,FHRS,10
410698,178 Kingsway,Dunmurry,Dunmurry,Antrim,MR INDIAN,Takeaway/sandwich shop,7844,10,,458462,10,,54.55092600000000,4833,819,robert.lamont@lisburn.gov.uk,Lisburn,http://www.lisburn.gov.uk,-6.00344600000000,BT17 9AD,2013-11-14,fhrs_2_en-GB,2,,FHRS,15
410699,2a Tonagh Drive,Tonagh,Lisburn,Antrim,MR THOMS,Takeaway/sandwich shop,7844,10,,458476,15,,54.51008600000000,5087,819,robert.lamont@lisburn.gov.uk,Lisburn,http://www.lisburn.gov.uk,-6.05837200000000,BT28 1DY,2013-07-09,fhrs_2_en-GB,2,,FHRS,10
410700,,,,,MR WHIPPY,Retailers - other,4613,0,,458325,0,,,315,819,robert.lamont@lisburn.gov.uk,Lisburn,http://www.lisburn.gov.uk,,,2013-06-13,fhrs_5_en-GB,5,,FHRS,0
410701,,,,,MRS FLORENCE YOUNG,Hospitals/Childcare/Caring Premises,5,,,539825,,,,5452,819,robert.lamont@lisburn.gov.uk,Lisburn,http://www.lisburn.gov.uk,,,2014-07-03,fhrs_exempt_en-GB,Exempt,,FHRS,
410702,,,,,MRS JESSICA BLACK,Hospitals/Childcare/Caring Premises,5,,,539824,,,,5445,819,robert.lamont@lisburn.gov.uk,Lisburn,http://www.lisburn.gov.uk,,,2014-07-03,fhrs_exempt_en-GB,Exempt,,FHRS,
410703,2c Ballyclough Road,,Lisburn,Antrim,MRS JOANNE LEAK,Hospitals/Childcare/Caring Premises,5,,,539853,,,54.54118300000000,6278,819,robert.lamont@lisburn.gov.uk,Lisburn,http://www.lisburn.gov.uk,-6.11291200000000,BT28 3UY,2012-01-10,fhrs_exempt_en-GB,Exempt,,FHRS,
410704,88 Causeway End Road,Knockmore,Lisburn,Antrim,MRS LESLEY-ANN ROWLEY,Hospitals/Childcare/Caring Premises,5,,,539839,,,54.51469300000000,6157,819,robert.lamont@lisburn.gov.uk,Lisburn,http://www.lisburn.gov.uk,-6.07284000000000,BT28 2ED,2012-05-09,fhrs_exempt_en-GB,Exempt,,FHRS,
410705,11 Castle Avenue,Risk,Moira,Armagh,MRS LYNSAY GREEN,Hospitals/Childcare/Caring Premises,5,,,539850,,,54.48355900000000,6239,819,robert.lamont@lisburn.gov.uk,Lisburn,http://www.lisburn.gov.uk,-6.23265800000000,BT67 0NH,2012-10-01,fhrs_exempt_en-GB,Exempt,,FHRS,
410706,73 Banbridge Road,Dromara,,Down,MRS MARILYN MOFFETT,Hospitals/Childcare/Caring Premises,5,,,539841,,,54.37996900000000,6162,819,robert.lamont@lisburn.gov.uk,Lisburn,http://www.lisburn.gov.uk,-6.03753800000000,BT25 2NE,2011-08-31,fhrs_exempt_en-GB,Exempt,,FHRS,
410707,,,,,MRS NICOLA WHITE,Hospitals/Childcare/Caring Premises,5,,,539817,,,,4893,819,robert.lamont@lisburn.gov.uk,Lisburn,http://www.lisburn.gov.uk,,,2014-07-03,fhrs_exempt_en-GB,Exempt,,FHRS,
410708,10 Ashbourne Park,Lambeg North,Lisburn,Antrim,MS BERYL DOWERY,Hospitals/Childcare/Caring Premises,5,,,701448,,,54.53043400000000,6100,819,robert.lamont@lisburn.gov.uk,Lisburn,http://www.lisburn.gov.uk,-6.03264100000000,BT27 4NS,2011-03-21,fhrs_exempt_en-GB,Exempt,,FHRS,
410709,,,,,MS CATHERINE LAFFERTY,Hospitals/Childcare/Caring Premises,5,,,539818,,,,4900,819,robert.lamont@lisburn.gov.uk,Lisburn,http://www.lisburn.gov.uk,,,2010-07-01,fhrs_exempt_en-GB,Exempt,,FHRS,
410710,,,,,MS CATHRYN STEVENS,Hospitals/Childcare/Caring Premises,5,,,539828,,,,5461,819,robert.lamont@lisburn.gov.uk,Lisburn,http://www.lisburn.gov.uk,,,2014-07-03,fhrs_exempt_en-GB,Exempt,,FHRS,
410711,102 Upper Dunmurry Lane,Dunmurry,Dunmurry,Antrim,MS DEIRDRE SMYLIE,Hospitals/Childcare/Caring Premises,5,,,539844,,,54.55491800000000,6203,819,robert.lamont@lisburn.gov.uk,Lisburn,http://www.lisburn.gov.uk,-6.00906300000000,BT17 0EN,2011-09-27,fhrs_exempt_en-GB,Exempt,,FHRS,
410712,37 Knockburn Drive,Ballymacoss,Lisburn,Antrim,MS DONNA SPARKS,Hospitals/Childcare/Caring Premises,5,,,539842,,,54.51556300000000,6175,819,robert.lamont@lisburn.gov.uk,Lisburn,http://www.lisburn.gov.uk,-6.08120000000000,BT28 2QJ,2011-05-26,fhrs_exempt_en-GB,Exempt,,FHRS,
410713,9 Danesfort,Gortnamony,,Down,MS EMMA LORRAINE MCKNIGHT,Hospitals/Childcare/Caring Premises,5,,,539833,,,54.47931000000000,6098,819,robert.lamont@lisburn.gov.uk,Lisburn,http://www.lisburn.gov.uk,-6.24074100000000,BT67 0SG,2011-03-21,fhrs_exempt_en-GB,Exempt,,FHRS,
410714,,,,,MS IRIS MAIRS,Hospitals/Childcare/Caring Premises,5,,,539820,,,,4971,819,robert.lamont@lisburn.gov.uk,Lisburn,http://www.lisburn.gov.uk,,,2012-08-30,fhrs_exempt_en-GB,Exempt,,FHRS,
410715,,,,,MS IRIS MULVEY,Hospitals/Childcare/Caring Premises,5,,,539822,,,,5187,819,robert.lamont@lisburn.gov.uk,Lisburn,http://www.lisburn.gov.uk,,,2014-07-03,fhrs_exempt_en-GB,Exempt,,FHRS,
410716,11 Laurelhill Park,Clogher,Lisburn,Antrim,MS KAREN FULTON,Hospitals/Childcare/Caring Premises,5,,,539830,,,54.52136700000000,5538,819,robert.lamont@lisburn.gov.uk,Lisburn,http://www.lisburn.gov.uk,-6.06545100000000,BT28 3DU,2011-04-01,fhrs_exempt_en-GB,Exempt,,FHRS,
410717,,,,,MS MONICA BRADFORD,Hospitals/Childcare/Caring Premises,5,,,539821,,,,4979,819,robert.lamont@lisburn.gov.uk,Lisburn,http://www.lisburn.gov.uk,,,2011-07-06,fhrs_exempt_en-GB,Exempt,,FHRS,
410718,59 Earlsfort,Gortnamony,,Down,MS NATALYA IRVINE,Hospitals/Childcare/Caring Premises,5,,,539840,,,54.47793100000000,6159,819,robert.lamont@lisburn.gov.uk,Lisburn,http://www.lisburn.gov.uk,-6.23916400000000,BT67 0LY,2012-06-13,fhrs_exempt_en-GB,Exempt,,FHRS,
410719,,,,,MS PATRICIA WELLER - CHILDMINDER,Hospitals/Childcare/Caring Premises,5,,,539862,,,,6348,819,robert.lamont@lisburn.gov.uk,Lisburn,http://www.lisburn.gov.uk,,,2012-03-20,fhrs_exempt_en-GB,Exempt,,FHRS,
410720,,,,,MS PAULA MCMASTER,Hospitals/Childcare/Caring Premises,5,,,539819,,,,4954,819,robert.lamont@lisburn.gov.uk,Lisburn,http://www.lisburn.gov.uk,,,2014-07-03,fhrs_exempt_en-GB,Exempt,,FHRS,
410721,29 Lombard Park,Clogher,Lisburn,Antrim,MS SHERRYN MULLIGAN,Hospitals/Childcare/Caring Premises,5,,,539816,,,54.52219900000000,4870,819,robert.lamont@lisburn.gov.uk,Lisburn,http://www.lisburn.gov.uk,-6.06854700000000,BT28 2UJ,2014-07-03,fhrs_exempt_en-GB,Exempt,,FHRS,
410722,Old Church Lane,Aghalee,Aghalee,Armagh,MURLOC ANGLING & RURAL PURSUITS,Restaurant/Cafe/Canteen,1,10,,458550,10,,54.51364700000000,5561,819,robert.lamont@lisburn.gov.uk,Lisburn,http://www.lisburn.gov.uk,-6.24054600000000,BT67 0EY,2013-10-22,fhrs_3_en-GB,3,,FHRS,5
410723,Unit 5.2 Bow Street Mall,Lisburn,Lisburn,Antrim,NEW LOOK RETAILERS,Retailers - other,4613,,,636150,,,,4169,819,robert.lamont@lisburn.gov.uk,Lisburn,http://www.lisburn.gov.uk,,BT28 5AN,2014-02-04,fhrs_exempt_en-GB,Exempt,,FHRS,
410724,42a Main Street,Glenavy,Glenavy,Antrim,NEW OLIVE CO LTD,Manufacturers/packers,7839,10,,642734,5,,54.59100200000000,6214,819,robert.lamont@lisburn.gov.uk,Lisburn,http://www.lisburn.gov.uk,-6.21340200000000,BT29 4LW,2014-01-14,fhrs_2_en-GB,2,,FHRS,15
410725,136 Longstone Street,Tonagh,Lisburn,Antrim,NEW YORK PIZZA DEPARTMENT,Takeaway/sandwich shop,7844,5,,458563,5,,54.50968500000000,5665,819,robert.lamont@lisburn.gov.uk,Lisburn,http://www.lisburn.gov.uk,-6.05636800000000,BT28 1TR,2013-05-15,fhrs_5_en-GB,5,,FHRS,0
410726,6 Dairy Farm Centre,,Dunmurry,,NEWSFLASH,Retailers - other,4613,5,,458178,5,,54.56053800000000,1038,819,robert.lamont@lisburn.gov.uk,Lisburn,http://www.lisburn.gov.uk,-6.02023000000000,BT17 0AW,2014-05-14,fhrs_5_en-GB,5,,FHRS,0
410727,75-81 Hillsborough Road,Old Warren,Lisburn,Antrim,Ni Hao Wok,Takeaway/sandwich shop,7844,,,605996,,,54.50414600000000,6676,819,robert.lamont@lisburn.gov.uk,Lisburn,http://www.lisburn.gov.uk,-6.04715200000000,BT28 1JN,2014-02-04,fhrs_5_en-GB,5,,FHRS,
410728,8 Antrim Road,Lisnagarvey,Lisburn,Antrim,NICHOLSON HOUSE PRIVATE NURSING HOME,Hospitals/Childcare/Caring Premises,5,5,,458170,0,,54.51612300000000,10,819,robert.lamont@lisburn.gov.uk,Lisburn,http://www.lisburn.gov.uk,-6.05328300000000,BT28 3DH,2014-11-04,fhrs_5_en-GB,5,,FHRS,0
410729,,,,,NICOLA LOUISE VANCE - CHILDMINDER,Hospitals/Childcare/Caring Premises,5,,,539861,,,,6347,819,robert.lamont@lisburn.gov.uk,Lisburn,http://www.lisburn.gov.uk,,,2012-03-13,fhrs_exempt_en-GB,Exempt,,FHRS,
410730,3 - 4 Colin Centre,,Dunmurry,,Nisa Store Poleglass,Retailers - supermarkets/hypermarkets,7840,5,,636156,0,,54.56846300000000,6851,819,robert.lamont@lisburn.gov.uk,Lisburn,http://www.lisburn.gov.uk,-6.02357300000000,BT17 0PH,2014-02-20,fhrs_4_en-GB,4,,FHRS,10
410731,3 Plantation Road,Largymore,Lisburn,Down,NO 3 BED & BREAKFAST,Hotel/bed & breakfast/guest house,7842,,,493205,,,54.50433900000000,184,819,robert.lamont@lisburn.gov.uk,Lisburn,http://www.lisburn.gov.uk,-6.02531100000000,BT27 5BP,2014-09-23,fhrs_exempt_en-GB,Exempt,,FHRS,
410732,9 Crumlin Road,Portmore,Lisburn,Antrim,OAKFIELD GUEST HOUSE BED & BREAKFAST,Hotel/bed & breakfast/guest house,7842,0,,466686,0,,54.55550500000000,622,819,robert.lamont@lisburn.gov.uk,Lisburn,http://www.lisburn.gov.uk,-6.25162100000000,BT28 2JU,2012-11-13,fhrs_5_en-GB,5,,FHRS,0
410733,48 The Cutts,Derryaghy,Dunmurry,,OAKWOOD INTEGRATED CHILDRENS CENTRE,School/college/university,7845,0,,458345,0,,54.54330000000000,3601,819,robert.lamont@lisburn.gov.uk,Lisburn,http://www.lisburn.gov.uk,-6.02108100000000,BT17 9HN,2013-02-15,fhrs_5_en-GB,5,,FHRS,0
410734,48 The Cutts,Derryaghy,Dunmurry,,OAKWOOD INTEGRATED PRIMARY SCHOOL,School/college/university,7845,0,,458344,0,,54.54330000000000,3600,819,robert.lamont@lisburn.gov.uk,Lisburn,http://www.lisburn.gov.uk,-6.02108100000000,BT17 9HN,2012-06-08,fhrs_5_en-GB,5,,FHRS,0
410735,11 Lisburn Leisure Complex,Governors Road,Lisburn,Antrim,Oasis/ Gamezone,Other catering premises,7841,0,,493185,5,,54.50691600000000,1289,819,robert.lamont@lisburn.gov.uk,Lisburn,http://www.lisburn.gov.uk,-6.05121900000000,BT28 1LP,2013-11-05,fhrs_5_en-GB,5,,FHRS,0
410736,94a Killeaton Crescent,Derriaghy,Dunmurry,,OCEAN,Takeaway/sandwich shop,7844,10,,458593,10,,54.54150800000000,5790,819,robert.lamont@lisburn.gov.uk,Lisburn,http://www.lisburn.gov.uk,-6.02353200000000,BT17 9HD,2014-04-04,fhrs_3_en-GB,3,,FHRS,5
410737,,,,,Oh So Sweet Tree,Other catering premises,7841,0,,465816,0,,,6492,819,robert.lamont@lisburn.gov.uk,Lisburn,http://www.lisburn.gov.uk,,,2012-09-26,fhrs_5_en-GB,5,,FHRS,0
410738,147 Drumbeg Drive,Old Warren,Lisburn,Co Antrim,OLD WARREN PRIMARY SCHOOL,School/college/university,7845,0,,458262,0,,54.50259500000000,1782,819,robert.lamont@lisburn.gov.uk,Lisburn,http://www.lisburn.gov.uk,-6.05912900000000,BT28 1QP,2013-06-11,fhrs_5_en-GB,5,,FHRS,5
410739,Governors Road,Lisburn Lesiure Park,Lisburn,Antrim,OMNIPLEX CINEMA,Restaurant/Cafe/Canteen,1,0,,458204,0,,,1285,819,robert.lamont@lisburn.gov.uk,Lisburn,http://www.lisburn.gov.uk,,BT28 1PR,2014-09-24,fhrs_5_en-GB,5,,FHRS,0
410740,225 Kingsway,Dunmurry,Dunmurry,,ORIENTAL INN,Takeaway/sandwich shop,7844,10,,465808,5,,54.55043000000000,6365,819,robert.lamont@lisburn.gov.uk,Lisburn,http://www.lisburn.gov.uk,-6.00656200000000,BT17 9SB,2014-09-24,fhrs_4_en-GB,4,,FHRS,0
410741,1 Cherry Road,Dunmurry,Dunmurry,Antrim,OUR LADY QUEEN OF PEACE NURSERY UNIT,School/college/university,7845,0,,493228,0,,54.55601800000000,4088,819,robert.lamont@lisburn.gov.uk,Lisburn,http://www.lisburn.gov.uk,-6.01253400000000,BT17 0RW,2014-09-11,fhrs_5_en-GB,5,,FHRS,0
410742,1 Cherry Road,Dunmurry,Dunmurry,Antrim,OUR LADY QUEEN OF PEACE PRIMARY SCHOOL,School/college/university,7845,0,,493227,0,,54.55601800000000,4058,819,robert.lamont@lisburn.gov.uk,Lisburn,http://www.lisburn.gov.uk,-6.01253400000000,BT17 0RW,2014-09-04,fhrs_5_en-GB,5,,FHRS,5
410743,Trading At Rowan Drive,Seymour Hill,Dunmurry,,OUR PLAICE,Mobile caterer,7846,5,,458479,10,,54.54151100000000,5101,819,robert.lamont@lisburn.gov.uk,Lisburn,http://www.lisburn.gov.uk,-6.01002500000000,BT17 9QD,2013-08-16,fhrs_3_en-GB,3,,FHRS,10
410744,21 Lisburn Street,Hillsborough,Hillsborough,Down,Out Of Habit,Restaurant/Cafe/Canteen,1,10,,706550,0,,54.46376400000000,7068,819,robert.lamont@lisburn.gov.uk,Lisburn,http://www.lisburn.gov.uk,-6.08342500000000,BT26 6AB,2014-09-30,fhrs_4_en-GB,4,,FHRS,10
410745,150 Belsize Road,Magheralave (Upper Belfast),Lisburn,Antrim,OVERDALE HOUSE BED & BREAKFAST,Hotel/bed & breakfast/guest house,7842,,,493189,,,54.53125100000000,1425,819,robert.lamont@lisburn.gov.uk,Lisburn,http://www.lisburn.gov.uk,-6.04199500000000,BT27 4DR,2014-08-27,fhrs_exempt_en-GB,Exempt,,FHRS,
410746,20 Lisburn Street,Hillsborough,Hillsborough,Down,P G Chips,Takeaway/sandwich shop,7844,0,,558544,0,,54.46376400000000,6602,819,robert.lamont@lisburn.gov.uk,Lisburn,http://www.lisburn.gov.uk,-6.08342500000000,BT26 6AB,2013-06-20,fhrs_5_en-GB,5,,FHRS,0
410747,24 Kensington Park,Largymore,Lisburn,Antrim,PAMELA MCKINSTRY,Hospitals/Childcare/Caring Premises,5,,,539847,,,54.50557900000000,6227,819,robert.lamont@lisburn.gov.uk,Lisburn,http://www.lisburn.gov.uk,-6.03196800000000,BT27 5HQ,2012-05-10,fhrs_exempt_en-GB,Exempt,,FHRS,
410748,44d Longstone Street,Lisburn,Lisburn,Antrim,PARAMOUNT PIZZAS,Takeaway/sandwich shop,7844,10,,458602,5,,54.50968500000000,5812,819,robert.lamont@lisburn.gov.uk,Lisburn,http://www.lisburn.gov.uk,-6.05636800000000,BT28 1TR,2013-08-12,fhrs_3_en-GB,3,,FHRS,10
410749,6 Thornhill Road,Dunmurry,Dunmurry,,PARK MANOR NURSING HOME,Hospitals/Childcare/Caring Premises,5,5,,458642,5,,54.54900600000000,5988,819,robert.lamont@lisburn.gov.uk,Lisburn,http://www.lisburn.gov.uk,-6.01289100000000,BT17 9EJ,2014-10-08,fhrs_4_en-GB,4,,FHRS,10
410750,1 Belsize Road,Lisnagarvy,Lisburn,Antrim,PARKLANDS SUPPORTED LIVING,Hospitals/Childcare/Caring Premises,5,10,,458238,5,,54.51908200000000,1545,819,robert.lamont@lisburn.gov.uk,Lisburn,http://www.lisburn.gov.uk,-6.03791300000000,BT27 4AL,2014-10-27,fhrs_4_en-GB,4,,FHRS,5
410751,4 North Circular Road,Lisnagarvy,Lisburn,Antrim,PARKSIDE PRIVATE NURSING HOME,Hospitals/Childcare/Caring Premises,5,0,,458418,0,,54.51467500000000,4310,819,robert.lamont@lisburn.gov.uk,Lisburn,http://www.lisburn.gov.uk,-6.04824000000000,BT28 3AH,2014-04-29,fhrs_5_en-GB,5,,FHRS,0
410752,2 Brokerstown Road,Ballymacoss,Lisburn,Antrim,PARKVIEW SPECIAL SCHOOL KITCHEN,School/college/university,7845,5,,458832,0,,54.52131300000000,93,819,robert.lamont@lisburn.gov.uk,Lisburn,http://www.lisburn.gov.uk,-6.08401900000000,BT28 2EE,2012-12-11,fhrs_5_en-GB,5,,FHRS,0
410753,26 Castle Street,Lisnagarvy,Lisburn,Antrim,PASHA KEBAB,Takeaway/sandwich shop,7844,,,458638,,,54.51158300000000,5972,819,robert.lamont@lisburn.gov.uk,Lisburn,http://www.lisburn.gov.uk,-6.04199400000000,BT27 4XD,2014-07-30,fhrs_4_en-GB,4,,FHRS,
410754,,,,,Passion Preserved,Other catering premises,7841,,,522268,,,,6584,819,robert.lamont@lisburn.gov.uk,Lisburn,http://www.lisburn.gov.uk,,,2013-03-20,fhrs_exempt_en-GB,Exempt,,FHRS,
410755,11 Ballynahinch Road,Hillsborough,Hillsborough,Down,PATTERSON CHEMIST,Retailers - other,4613,,,493276,,,54.46409200000000,966,819,robert.lamont@lisburn.gov.uk,Lisburn,http://www.lisburn.gov.uk,-6.07919900000000,BT26 6AR,2012-05-02,fhrs_exempt_en-GB,Exempt,,FHRS,
410756,50 Ballymullan Road,Ballymullan,Lisburn,Antrim,Peartree Barn Nursery,Other catering premises,7841,0,,642735,0,,54.50096800000000,6779,819,robert.lamont@lisburn.gov.uk,Lisburn,http://www.lisburn.gov.uk,-6.00336700000000,BT27 5PJ,2014-02-28,fhrs_5_en-GB,5,,FHRS,0
410757,9a Orange Hall Lane,Ballymacash,Lisburn,Antrim,PEBBLE PLAYGROUP,Hospitals/Childcare/Caring Premises,5,,,539827,,,54.52306200000000,5459,819,robert.lamont@lisburn.gov.uk,Lisburn,http://www.lisburn.gov.uk,-6.07142600000000,BT28 2UL,2012-04-23,fhrs_exempt_en-GB,Exempt,,FHRS,
410758,74 Main Street,Moira,Moira,Armagh,PEKING CHINESE TAKEAWAY,Takeaway/sandwich shop,7844,10,,458621,15,,54.48171000000000,5919,819,robert.lamont@lisburn.gov.uk,Lisburn,http://www.lisburn.gov.uk,-6.22477500000000,BT67 0LH,2014-11-20,fhrs_2_en-GB,2,,FHRS,5
410759,Governors Road,Old Warren,Lisburn,Antrim,Pepes Piri Piri,Restaurant/Cafe/Canteen,1,,,676658,,,54.50691600000000,7011,819,robert.lamont@lisburn.gov.uk,Lisburn,http://www.lisburn.gov.uk,-6.05121900000000,BT28 1LP,2014-09-23,fhrs_5_en-GB,5,,FHRS,
410760,181 Kingsway,Dunmurry,Dunmurry,Antrim,PESCADO,Takeaway/sandwich shop,7844,0,,458424,0,,54.55125600000000,4383,819,robert.lamont@lisburn.gov.uk,Lisburn,http://www.lisburn.gov.uk,-6.00380100000000,BT17 9RY,2014-02-06,fhrs_5_en-GB,5,,FHRS,0
410761,22a Kesh Road,Maze,Lisburn,Down,PETER DOWDS,Mobile caterer,7846,0,,458605,0,,54.48429200000000,5816,819,robert.lamont@lisburn.gov.uk,Lisburn,http://www.lisburn.gov.uk,-6.11988500000000,BT27 5RP,2012-07-27,fhrs_5_en-GB,5,,FHRS,0
410762,31 Carnreagh,Carnreagh,Hillsborough,Down,PETER'S PATCH DAY NURSERY,Other catering premises,7841,0,,458646,0,,54.47011800000000,5998,819,robert.lamont@lisburn.gov.uk,Lisburn,http://www.lisburn.gov.uk,-6.06941400000000,BT26 6LJ,2014-02-18,fhrs_5_en-GB,5,,FHRS,0
410763,163 Dromore Road,Ballykeel Artifinny,Hillsborough,Down,PETROGAS HILLSBOROUGH,Retailers - other,4613,0,,458540,0,,54.44397700000000,5510,819,robert.lamont@lisburn.gov.uk,Lisburn,http://www.lisburn.gov.uk,-6.10835200000000,BT26 6JA,2014-10-17,fhrs_5_en-GB,5,,FHRS,5
410764,4 Thornleigh Place,Tonagh,Lisburn,Antrim,Philip Murray,Mobile caterer,7846,,,687418,,,54.51720800000000,7114,819,robert.lamont@lisburn.gov.uk,Lisburn,http://www.lisburn.gov.uk,-6.06047400000000,BT28 2FD,2014-07-01,fhrs_exempt_en-GB,Exempt,,FHRS,
410765,Ballynahatty Road,Belfast,Belfast,,Piccolo Mondo,Mobile caterer,7846,5,,576869,0,,54.54385600000000,6633,819,robert.lamont@lisburn.gov.uk,Lisburn,http://www.lisburn.gov.uk,-5.94821800000000,BT8 8LE,2013-08-01,fhrs_5_en-GB,5,,FHRS,0
410766,101 Main Street,Moira,Moira,Armagh,PIMENTO COFFEE SHOP,Restaurant/Cafe/Canteen,1,,,458381,,,,3969,819,robert.lamont@lisburn.gov.uk,Lisburn,http://www.lisburn.gov.uk,,BT67 OHL,2014-06-26,fhrs_4_en-GB,4,,FHRS,
410767,Omniplex Centre,Governors Road,Lisburn,,PIZZA HUT,Restaurant/Cafe/Canteen,1,0,,458762,0,,54.50691600000000,6381,819,robert.lamont@lisburn.gov.uk,Lisburn,http://www.lisburn.gov.uk,-6.05121900000000,BT28 1LP,2014-02-25,fhrs_4_en-GB,4,,FHRS,10
410768,10 Bachelors Walk,Lisnagarvy,Lisburn,Antrim,PIZZARELLYS RESTAURANT,Restaurant/Cafe/Canteen,1,5,,458277,5,,54.51326400000000,1884,819,robert.lamont@lisburn.gov.uk,Lisburn,http://www.lisburn.gov.uk,-6.04596000000000,BT28 1XJ,2014-11-11,fhrs_5_en-GB,5,,FHRS,5
410769,35a Main Street,,Moira,Armagh,Place Of Grace,Other catering premises,7841,,,657315,,,54.48055200000000,7023,819,robert.lamont@lisburn.gov.uk,Lisburn,http://www.lisburn.gov.uk,-6.22670800000000,BT67 0LQ,2014-03-28,fhrs_exempt_en-GB,Exempt,,FHRS,
410770,3 The Square,Hillsborough,Hillsborough,Down,PLOUGH INN (RETRO),Restaurant/Cafe/Canteen,1,,,458175,,,54.46089100000000,1018,819,robert.lamont@lisburn.gov.uk,Lisburn,http://www.lisburn.gov.uk,-6.08413000000000,BT26 6AG,2014-10-23,fhrs_5_en-GB,5,,FHRS,
410771,10 Bell Steel Road,Dunmurry,Dunmurry,,POLEGLASS PHARMACY,Retailers - other,4613,,,493212,,,,234,819,robert.lamont@lisburn.gov.uk,Lisburn,http://www.lisburn.gov.uk,,BT17 OPB,2014-07-02,fhrs_exempt_en-GB,Exempt,,FHRS,
410772,2 Derriaghy Road,Aghalislone (Upper Massereene),Lisburn,Antrim,POND PARK CARE HOME,Hospitals/Childcare/Caring Premises,5,5,,458719,0,,54.53377000000000,6258,819,robert.lamont@lisburn.gov.uk,Lisburn,http://www.lisburn.gov.uk,-6.05951900000000,BT28 3SF,2014-07-18,fhrs_5_en-GB,5,,FHRS,5
410773,63 Pond Park Road,Lisburn,Lisburn,Antrim,POND PARK PRIMARY SCHOOL,School/college/university,7845,5,,458319,0,,54.52554700000000,29,819,robert.lamont@lisburn.gov.uk,Lisburn,http://www.lisburn.gov.uk,-6.06553200000000,BT28 3PW,2013-10-21,fhrs_5_en-GB,5,,FHRS,5
410774,21-23 Main Street,Aughnafosker,Moira,Armagh,POOLE'S SUPERVALU MOIRA,Retailers - supermarkets/hypermarkets,7840,0,,458371,0,,54.47944900000000,3934,819,robert.lamont@lisburn.gov.uk,Lisburn,http://www.lisburn.gov.uk,-6.22991900000000,BT67 0LE,2014-06-27,fhrs_5_en-GB,5,,FHRS,5
410775,17 Chestnut Hill Road,Moira,Moira,Armagh,POPPINS DAY NURSERY,Other catering premises,7841,10,,458223,0,,,1484,819,robert.lamont@lisburn.gov.uk,Lisburn,http://www.lisburn.gov.uk,,BT67 OLW,2014-08-22,fhrs_4_en-GB,4,,FHRS,0
410776,Unit 4e Blaris Industrial Estate,,Lisburn,Antrim,Porterhouse Meats Ltd,Retailers - other,4613,10,,458580,0,,54.50097600000000,5753,819,robert.lamont@lisburn.gov.uk,Lisburn,http://www.lisburn.gov.uk,-6.03949100000000,BT27 5QB,2014-05-22,fhrs_4_en-GB,4,,FHRS,10
410777,8d Graham Gardens,Lisnagarvy,Lisburn,Antrim,Porterhouse Prime Meats,Retailers - other,4613,0,,552211,0,,54.51229100000000,6586,819,robert.lamont@lisburn.gov.uk,Lisburn,http://www.lisburn.gov.uk,-6.04523400000000,BT28 1XE,2013-05-16,fhrs_5_en-GB,5,,FHRS,0
410778,76 - 80 Main Street,,Moira,Armagh,Pottery Yarn,Restaurant/Cafe/Canteen,1,,,636154,,,54.48055200000000,6768,819,robert.lamont@lisburn.gov.uk,Lisburn,http://www.lisburn.gov.uk,-6.22670800000000,BT67 0LQ,2014-01-29,fhrs_exempt_en-GB,Exempt,,FHRS,
410779,Unit 19 Bow Street Mall,Lisburn,Lisburn,Antrim,POUNDLAND,Retailers - other,4613,,,458604,,,54.51170600000000,5815,819,robert.lamont@lisburn.gov.uk,Lisburn,http://www.lisburn.gov.uk,-6.05020400000000,BT28 1AW,2013-01-22,fhrs_exempt_en-GB,Exempt,,FHRS,
410780,222b Stewartstown Road,Killeaton,Dunmurry,,POUNDS 'R' US,Retailers - other,4613,,,493217,,,54.55680800000000,306,819,robert.lamont@lisburn.gov.uk,Lisburn,http://www.lisburn.gov.uk,-6.02623900000000,BT17 0LB,2013-06-20,fhrs_exempt_en-GB,Exempt,,FHRS,
410781,27-29 Antrim Street,Lisburn,Lisburn,Antrim,POUNDSTRETCHER LTD,Retailers - other,4613,,,458310,,,54.51245100000000,2500,819,robert.lamont@lisburn.gov.uk,Lisburn,http://www.lisburn.gov.uk,-6.04845400000000,BT28 1AU,2014-04-24,fhrs_exempt_en-GB,Exempt,,FHRS,
410782,St Pauls Court,Ballinderry Road,Lisburn,,PRAXIS CARE,Hospitals/Childcare/Caring Premises,5,0,,493261,0,,54.50921500000000,6482,819,robert.lamont@lisburn.gov.uk,Lisburn,http://www.lisburn.gov.uk,-6.06459000000000,BT28 1TX,2012-12-13,fhrs_5_en-GB,5,,FHRS,0
410783,136-144 Hillsborough Road,Lisburn,Lisburn,Antrim,PREMIER INN & LINEN HOUSE TABLE TABLE,Hotel/bed & breakfast/guest house,7842,0,,458578,5,,54.49588100000000,5729,819,robert.lamont@lisburn.gov.uk,Lisburn,http://www.lisburn.gov.uk,-6.05452300000000,BT27 5QY,2013-11-26,fhrs_5_en-GB,5,,FHRS,5
410784,86 Main Street,Moira,Moira,Armagh,Pretty Marys,Restaurant/Cafe/Canteen,1,10,,620643,10,,54.47944900000000,6707,819,robert.lamont@lisburn.gov.uk,Lisburn,http://www.lisburn.gov.uk,-6.22991900000000,BT67 0LE,2013-11-21,fhrs_3_en-GB,3,,FHRS,10
410785,5 Harrys Road,Hillsborough,Hillsborough,Down,PRIMA GUSTO,Restaurant/Cafe/Canteen,1,5,,458694,0,,54.47581100000000,6178,819,robert.lamont@lisburn.gov.uk,Lisburn,http://www.lisburn.gov.uk,-6.07542500000000,BT26 6HN,2014-01-29,fhrs_5_en-GB,5,,FHRS,5
410786,Bentrim Road,Lisburn,Lisburn,Antrim,PRIMACY MEATS AT TESCO,Manufacturers/packers,7839,0,,458783,0,,54.52053400000000,6468,819,robert.lamont@lisburn.gov.uk,Lisburn,http://www.lisburn.gov.uk,-6.07743000000000,BT28 2XX,2014-12-02,fhrs_5_en-GB,5,,FHRS,5
410787,Lissue Industrial Estate,Rathdown Road,Lisburn,Antrim,Prm Distribution Ltd Canteen,Restaurant/Cafe/Canteen,1,5,,458518,10,,54.50430200000000,5427,819,robert.lamont@lisburn.gov.uk,Lisburn,http://www.lisburn.gov.uk,-6.09295200000000,BT28 2RE,2014-08-20,fhrs_4_en-GB,4,,FHRS,5
410788,17 Old Road,Old Road,Lisburn,Antrim,QUAKER VISITORS CENTRE,Restaurant/Cafe/Canteen,1,10,,458234,10,,54.51346000000000,1526,819,robert.lamont@lisburn.gov.uk,Lisburn,http://www.lisburn.gov.uk,-6.19015100000000,BT28 2PT,2013-11-07,fhrs_4_en-GB,4,,FHRS,0
410789,9a Lower Ballinderry Road,Brackenhill,Lisburn,Antrim,RACHEL MCKEOWN,Hospitals/Childcare/Caring Premises,5,,,539849,,,54.54125100000000,6237,819,robert.lamont@lisburn.gov.uk,Lisburn,http://www.lisburn.gov.uk,-6.22050600000000,BT28 2JB,2011-10-17,fhrs_exempt_en-GB,Exempt,,FHRS,
410790,171 Avonmore Park,,Lisburn,Antrim,Raggety Bap Pre-school,Other catering premises,7841,,,539872,,,54.50026100000000,6601,819,robert.lamont@lisburn.gov.uk,Lisburn,http://www.lisburn.gov.uk,-6.05981100000000,BT28 1NE,2013-03-25,fhrs_exempt_en-GB,Exempt,,FHRS,
410791,78 Benson Street,Tonagh,Lisburn,Antrim,Rainbow Ices,Retailers - other,4613,10,,458220,10,,54.51317400000000,1454,819,robert.lamont@lisburn.gov.uk,Lisburn,http://www.lisburn.gov.uk,-6.06046500000000,BT28 2AJ,2013-10-23,fhrs_4_en-GB,4,,FHRS,0
410792,12 Lisburn Street,Hillsborough,Hillsborough,Down,REANEY'S CHEMIST,Retailers - other,4613,,,458838,,,54.46376400000000,969,819,robert.lamont@lisburn.gov.uk,Lisburn,http://www.lisburn.gov.uk,-6.08342500000000,BT26 6AB,2013-02-01,fhrs_exempt_en-GB,Exempt,,FHRS,
410793,226 Stewartstown Road,Dunmurry,Dunmurry,,Red China,Takeaway/sandwich shop,7844,10,,720328,10,,54.55680800000000,506664,819,robert.lamont@lisburn.gov.uk,Lisburn,http://www.lisburn.gov.uk,-6.02623900000000,BT17 0LB,2014-10-23,fhrs_1_en-GB,1,,FHRS,20
410794,Redhill Road,Dromore,Dromore,Down,RED HILL BAR,Pub/bar/nightclub,7843,,,493202,,,54.44873900000000,1775,819,robert.lamont@lisburn.gov.uk,Lisburn,http://www.lisburn.gov.uk,-6.19951500000000,BT25 1RL,2012-10-31,fhrs_exempt_en-GB,Exempt,,FHRS,
410795,9 Lisburn Leisure Park,Old Warren,Lisburn,Antrim,Redwok Asia Buffet,Restaurant/Cafe/Canteen,1,5,,458555,0,,54.50691600000000,5639,819,robert.lamont@lisburn.gov.uk,Lisburn,http://www.lisburn.gov.uk,-6.05121900000000,BT28 1LP,2014-09-25,fhrs_5_en-GB,5,,FHRS,0
410796,41 Old Coach Road,Hillsborough,Hillsborough,Down,REVIVALS,Restaurant/Cafe/Canteen,1,0,,458173,10,,54.45145000000000,1010,819,robert.lamont@lisburn.gov.uk,Lisburn,http://www.lisburn.gov.uk,-6.09507100000000,BT26 6PB,2014-02-21,fhrs_4_en-GB,4,,FHRS,10
410797,,,,,RHONA GAVIN,Hospitals/Childcare/Caring Premises,5,,,539826,,,,5458,819,robert.lamont@lisburn.gov.uk,Lisburn,http://www.lisburn.gov.uk,,,2014-07-03,fhrs_exempt_en-GB,Exempt,,FHRS,
410798,288 Ballynahinch Road,Legacurry,Lisburn,Antrim,RIVERDALE PRIMARY SCHOOL,School/college/university,7845,0,,458316,0,,54.47705200000000,2572,819,robert.lamont@lisburn.gov.uk,Lisburn,http://www.lisburn.gov.uk,-6.01166100000000,BT27 5LX,2014-06-04,fhrs_5_en-GB,5,,FHRS,0
410799,Glenavy Road,,Moira,,Roadside Grill,Restaurant/Cafe/Canteen,1,0,,509926,0,,,6549,819,robert.lamont@lisburn.gov.uk,Lisburn,http://www.lisburn.gov.uk,,,2014-01-30,fhrs_5_en-GB,5,,FHRS,5
410800,101 Queensway,Lambeg North,Dunmurry,Antrim,ROBBIE CAHOONS,Restaurant/Cafe/Canteen,1,5,,458801,0,,54.52970600000000,720,819,robert.lamont@lisburn.gov.uk,Lisburn,http://www.lisburn.gov.uk,-6.03042100000000,BT27 4QS,2013-05-02,fhrs_5_en-GB,5,,FHRS,0
410801,149 Ballyskeagh Road,Drumbeg,,Down,ROBERT STEWART SPIRIT GROCER,Restaurant/Cafe/Canteen,1,5,,458466,5,,54.53351100000000,492,819,robert.lamont@lisburn.gov.uk,Lisburn,http://www.lisburn.gov.uk,-5.99192100000000,BT17 9LL,2013-11-27,fhrs_4_en-GB,4,,FHRS,10
410802,St Lukes Primary School,Glasvey Drive,Dunmurry,,ROISIN BAN PLAYGROUP,Other catering premises,7841,,,458759,,,54.55281000000000,6376,819,robert.lamont@lisburn.gov.uk,Lisburn,http://www.lisburn.gov.uk,-6.02295400000000,BT17 0RL,2014-06-13,fhrs_exempt_en-GB,Exempt,,FHRS,
410803,185 Belsize Road,Magheralave (Upper Belfast),Lisburn,Antrim,ROSE LODGE CARE HOMES,Hospitals/Childcare/Caring Premises,5,5,,458215,5,,54.52888000000000,1426,819,robert.lamont@lisburn.gov.uk,Lisburn,http://www.lisburn.gov.uk,-6.04150600000000,BT27 4LA,2014-08-06,fhrs_5_en-GB,5,,FHRS,5
410804,37 Drumard Drive,Ballymacoss,Lisburn,Antrim,ROSEMARIE MCLOUGHLIN,Hospitals/Childcare/Caring Premises,5,,,539865,,,54.51704000000000,6375,819,robert.lamont@lisburn.gov.uk,Lisburn,http://www.lisburn.gov.uk,-6.07018100000000,BT28 2HY,2012-04-11,fhrs_exempt_en-GB,Exempt,,FHRS,
410805,173 Moira Road,"173, Moira Road",Lisburn,Antrim,ROSEVALE LODGE CARE HOME,Hospitals/Childcare/Caring Premises,5,0,,458263,0,,54.50616600000000,1787,819,robert.lamont@lisburn.gov.uk,Lisburn,http://www.lisburn.gov.uk,-6.07623600000000,BT28 1RW,2014-12-17,fhrs_5_en-GB,5,,FHRS,5
410806,56 Wallace Avenue,Lisnagarvy,Lisburn,Antrim,ROWAN CENTRE,Hospitals/Childcare/Caring Premises,5,5,,458274,0,,54.51451000000000,1866,819,robert.lamont@lisburn.gov.uk,Lisburn,http://www.lisburn.gov.uk,-6.03970800000000,BT27 4AE,2013-09-11,fhrs_5_en-GB,5,,FHRS,0
410807,18 Clarehill Road,Moira,Moira,Armagh,ROWANDALE INTEGRATED PRIMARY SCHOOL,School/college/university,7845,10,,458635,5,,54.47595800000000,5954,819,robert.lamont@lisburn.gov.uk,Lisburn,http://www.lisburn.gov.uk,-6.21009000000000,BT67 0PB,2014-01-15,fhrs_4_en-GB,4,,FHRS,0
410808,4 Ballynahinch Street,Hillsborough,Hillsborough,Down,ROYAL CHINA RESTAURANT,Takeaway/sandwich shop,7844,20,,458589,10,,54.46323100000000,5773,819,robert.lamont@lisburn.gov.uk,Lisburn,http://www.lisburn.gov.uk,-6.08212300000000,BT26 6AW,2014-02-19,fhrs_1_en-GB,1,,FHRS,10
410809,40-44 Longstone Street,Tonagh,Lisburn,Antrim,RUMBLES,Takeaway/sandwich shop,7844,10,,458283,5,,54.51026000000000,2038,819,robert.lamont@lisburn.gov.uk,Lisburn,http://www.lisburn.gov.uk,-6.05354600000000,BT28 1TP,2013-11-27,fhrs_3_en-GB,3,,FHRS,10
410810,75-81 Hillsborough Road,Old Warren,Lisburn,Antrim,S BERRY FAMILY BUTCHER,Retailers - other,4613,5,,458752,0,,54.50414600000000,6359,819,robert.lamont@lisburn.gov.uk,Lisburn,http://www.lisburn.gov.uk,-6.04715200000000,BT28 1JN,2012-07-24,fhrs_4_en-GB,4,,FHRS,10
410811,5 Sprucefield Park,Magherageery,Lisburn,Antrim,SAINSBURYS SPRUCEFIELD - PETROL STATION,Retailers - other,4613,5,,493230,0,,54.49073500000000,4230,819,robert.lamont@lisburn.gov.uk,Lisburn,http://www.lisburn.gov.uk,-6.06810200000000,BT27 5UQ,2013-07-22,fhrs_5_en-GB,5,,FHRS,0
410812,1 Hillsborough Road,,Lisburn,Antrim,SAINSBURYS STAFF CANTEEN,Restaurant/Cafe/Canteen,1,0,,458569,0,,54.49105500000000,5709,819,robert.lamont@lisburn.gov.uk,Lisburn,http://www.lisburn.gov.uk,-6.05888900000000,BT27 5UJ,2013-10-29,fhrs_5_en-GB,5,,FHRS,5
410813,5 Sprucefield Park,Magherageery,Lisburn,Antrim,SAINSBURYS SUPERMARKETS LTD,Retailers - supermarkets/hypermarkets,7840,0,,458404,0,,54.49073500000000,4119,819,robert.lamont@lisburn.gov.uk,Lisburn,http://www.lisburn.gov.uk,-6.06810200000000,BT27 5UQ,2013-02-26,fhrs_5_en-GB,5,,FHRS,0
410814,1 Saintfield Road,Largymore,Lisburn,Antrim,SAINTFIELD ROAD SERVICE STATION,Retailers - other,4613,5,,493273,0,,54.50846300000000,887,819,robert.lamont@lisburn.gov.uk,Lisburn,http://www.lisburn.gov.uk,-6.03192200000000,BT27 5BA,2013-06-21,fhrs_5_en-GB,5,,FHRS,0
410815,Unit 4 Knockmore Road,Ballymacoss,Lisburn,Antrim,SALT CELLAR,Takeaway/sandwich shop,7844,5,,458190,10,,54.51380500000000,113,819,robert.lamont@lisburn.gov.uk,Lisburn,http://www.lisburn.gov.uk,-6.08200800000000,BT28 2EA,2014-08-14,fhrs_4_en-GB,4,,FHRS,5
410816,11 Glendun Park,Old Forge,Dunmurry,Antrim,SANDRA THOMPSON,Hospitals/Childcare/Caring Premises,5,,,539837,,,54.54657800000000,6136,819,robert.lamont@lisburn.gov.uk,Lisburn,http://www.lisburn.gov.uk,-6.00073700000000,BT17 9AY,2011-08-16,fhrs_exempt_en-GB,Exempt,,FHRS,
410817,5 Dunbeg Park,Hillsborough,Hillsborough,Down,SARAH HANNA,Hospitals/Childcare/Caring Premises,5,,,539838,,,54.46467100000000,6138,819,robert.lamont@lisburn.gov.uk,Lisburn,http://www.lisburn.gov.uk,-6.07664200000000,BT26 6AS,2011-11-22,fhrs_exempt_en-GB,Exempt,,FHRS,
410818,7 Glenwood Green,Aghnahough,Lisburn,Antrim,SARA-JANE KIRKHAM,Hospitals/Childcare/Caring Premises,5,,,539858,,,54.52917900000000,6333,819,robert.lamont@lisburn.gov.uk,Lisburn,http://www.lisburn.gov.uk,-6.08258500000000,BT28 3US,2012-02-01,fhrs_exempt_en-GB,Exempt,,FHRS,
410819,Unit 4 Bow Street Mall,Lisburn,Lisburn,Antrim,SAVERS HEALTH & BEAUTY LTD,Retailers - other,4613,,,499277,,,54.51170600000000,6481,819,robert.lamont@lisburn.gov.uk,Lisburn,http://www.lisburn.gov.uk,-6.05020400000000,BT28 1AW,2013-01-02,fhrs_exempt_en-GB,Exempt,,FHRS,
410820,40 Gardenmore Road,,Dunmurry,Belfast,Scoil Na Fuiseoige Primary School,School/college/university,7845,0,,493178,0,,54.55014800000000,1079,819,robert.lamont@lisburn.gov.uk,Lisburn,http://www.lisburn.gov.uk,-6.02606600000000,BT17 0DF,2013-09-11,fhrs_5_en-GB,5,,FHRS,0
410821,Begney Hill Road,Dromara,Dromore,Down,SECOND DROMARA PRESBYTERIAN CHURCH,Other catering premises,7841,,,605994,,,54.37988300000000,3372,819,robert.lamont@lisburn.gov.uk,Lisburn,http://www.lisburn.gov.uk,-6.01690100000000,BT25 2BN,2013-10-23,fhrs_exempt_en-GB,Exempt,,FHRS,
410822,22 Moira Road,Small Park,Hillsborough,Down,SECRET GARDEN,Restaurant/Cafe/Canteen,1,5,,458434,5,,54.46282700000000,4424,819,robert.lamont@lisburn.gov.uk,Lisburn,http://www.lisburn.gov.uk,-6.09349400000000,BT26 6DU,2013-08-14,fhrs_5_en-GB,5,,FHRS,5
410823,Unit 6 Bow Street Mall,Lisburn,Lisburn,Antrim,SEMI CHEM,Retailers - other,4613,,,458340,,,54.51170600000000,3549,819,robert.lamont@lisburn.gov.uk,Lisburn,http://www.lisburn.gov.uk,-6.05020400000000,BT28 1AW,2013-11-06,fhrs_exempt_en-GB,Exempt,,FHRS,
410824,Yew Tree Walk,Seymour Hill,Dunmurry,,SEYMOUR HILL HORTICULTUAL UNIT,School/college/university,7845,5,,458273,0,,54.54360100000000,1835,819,robert.lamont@lisburn.gov.uk,Lisburn,http://www.lisburn.gov.uk,-6.00330900000000,BT17 9PH,2013-10-03,fhrs_5_en-GB,5,,FHRS,0
410825,Hazel Avenue,Dunmurry,Belfast,,SEYMOUR HILL PRE-SCHOOL NURSERY,School/college/university,7845,0,,458592,0,,54.54271500000000,5789,819,robert.lamont@lisburn.gov.uk,Lisburn,http://www.lisburn.gov.uk,-6.01114100000000,BT17 9QX,2012-10-29,fhrs_5_en-GB,5,,FHRS,0
410826,Hazel Avenue,Hazel Avenue,Dunmurry,,SEYMOUR HILL PRE-SCHOOL PLAYGROUP,School/college/university,7845,0,,458427,0,,54.54315300000000,4392,819,robert.lamont@lisburn.gov.uk,Lisburn,http://www.lisburn.gov.uk,-6.00884800000000,BT17 9QA,2013-02-08,fhrs_5_en-GB,5,,FHRS,0
410827,Hazel Avenue,Kilmakee,Dunmurry,,SEYMOUR HILL PRIMARY SCHOOL,School/college/university,7845,0,,458269,0,,54.54271500000000,1802,819,robert.lamont@lisburn.gov.uk,Lisburn,http://www.lisburn.gov.uk,-6.01114100000000,BT17 9QX,2013-11-20,fhrs_5_en-GB,5,,FHRS,5
410828,Seymour Street,Lisnagarvy,Lisburn,Antrim,SEYMOUR STREET METHODIST CHURCH,Other catering premises,7841,0,,458364,0,,54.51465800000000,3830,819,robert.lamont@lisburn.gov.uk,Lisburn,http://www.lisburn.gov.uk,-6.03605600000000,BT27 4XG,2014-11-05,fhrs_5_en-GB,5,,FHRS,0
410829,2-4 Market Square,Lisnagarvy,Lisburn,Antrim,SHANNONS COFFEE DOCK,Restaurant/Cafe/Canteen,1,5,,458312,0,,54.51121400000000,2523,819,robert.lamont@lisburn.gov.uk,Lisburn,http://www.lisburn.gov.uk,-6.04368000000000,BT28 1AG,2013-08-14,fhrs_5_en-GB,5,,FHRS,5
410830,2 Glenwood Green,Aghnahough,Lisburn,Antrim,SHARONS CHILDMINDING,Hospitals/Childcare/Caring Premises,5,,,539851,,,54.52917900000000,6240,819,robert.lamont@lisburn.gov.uk,Lisburn,http://www.lisburn.gov.uk,-6.08258500000000,BT28 3US,2011-10-24,fhrs_exempt_en-GB,Exempt,,FHRS,
410831,1a Pond Park Road,Clogher,Lisburn,Antrim,SHOP 4 YOU,Retailers - supermarkets/hypermarkets,7840,10,,493190,10,,54.52233300000000,1444,819,robert.lamont@lisburn.gov.uk,Lisburn,http://www.lisburn.gov.uk,-6.06064800000000,BT28 3LE,2014-09-24,fhrs_3_en-GB,3,,FHRS,10
410832,30 Longstone Street,Tonagh,Lisburn,Antrim,SILVER CITY CHINESE HOT FOOD TAKE AWAY,Takeaway/sandwich shop,7844,5,,458282,0,,54.51026000000000,2035,819,robert.lamont@lisburn.gov.uk,Lisburn,http://www.lisburn.gov.uk,-6.05354600000000,BT28 1TP,2013-10-17,fhrs_5_en-GB,5,,FHRS,5
410833,222 Stewartstown Road,Dunmurry,Dunmurry,,SILVER INN,Takeaway/sandwich shop,7844,0,,458321,0,,54.55680800000000,303,819,robert.lamont@lisburn.gov.uk,Lisburn,http://www.lisburn.gov.uk,-6.02623900000000,BT17 0LB,2015-01-15,fhrs_5_en-GB,5,,FHRS,0
410834,6a Lisburn Street,Hillsborough,Hillsborough,Down,SIMPLY PIZZA,Takeaway/sandwich shop,7844,5,,458703,0,,54.46376400000000,6212,819,robert.lamont@lisburn.gov.uk,Lisburn,http://www.lisburn.gov.uk,-6.08342500000000,BT26 6AB,2014-01-22,fhrs_5_en-GB,5,,FHRS,0
410835,10a Knockmore Business Park,,Lisburn,Antrim,SNAC - A - JAC,Restaurant/Cafe/Canteen,1,5,,458400,5,,54.50833900000000,4107,819,robert.lamont@lisburn.gov.uk,Lisburn,http://www.lisburn.gov.uk,-6.06940200000000,BT28 1SZ,2014-02-04,fhrs_4_en-GB,4,,FHRS,10
410836,193 Moira Road,Lisburn,Lisburn,Antrim,SOMETHING SIMPLE COFFEE SHOP,Restaurant/Cafe/Canteen,1,5,,458421,5,,54.51156500000000,4370,819,robert.lamont@lisburn.gov.uk,Lisburn,http://www.lisburn.gov.uk,-6.08523200000000,BT28 2SW,2014-07-24,fhrs_5_en-GB,5,,FHRS,5
410837,7 Ballynahinch Street,Hillsborough,Hillsborough,Down,SPAR,Retailers - supermarkets/hypermarkets,7840,0,,458831,0,,54.46323100000000,928,819,robert.lamont@lisburn.gov.uk,Lisburn,http://www.lisburn.gov.uk,-6.08212300000000,BT26 6AW,2013-05-22,fhrs_5_en-GB,5,,FHRS,0
410838,71 Main Street,Glenavy,Glenavy,Antrim,Spar,Retailers - other,4613,5,,458679,0,,54.58994000000000,6128,819,robert.lamont@lisburn.gov.uk,Lisburn,http://www.lisburn.gov.uk,-6.21327800000000,BT29 4LP,2013-04-29,fhrs_5_en-GB,5,,FHRS,0
410839,92 Grand Street,Lambeg South,Lisburn,Antrim,SPAR,Retailers - supermarkets/hypermarkets,7840,5,,493233,0,,54.51727900000000,4309,819,robert.lamont@lisburn.gov.uk,Lisburn,http://www.lisburn.gov.uk,-6.02654000000000,BT27 4UE,2012-08-09,fhrs_5_en-GB,5,,FHRS,0
410840,1a Glenavy Road,Magheramesk,Moira,Armagh,SPAR BP FILLING STATION,Retailers - supermarkets/hypermarkets,7840,0,,458417,5,,54.49849600000000,4306,819,robert.lamont@lisburn.gov.uk,Lisburn,http://www.lisburn.gov.uk,-6.21035600000000,BT67 0LT,2014-06-26,fhrs_4_en-GB,4,,FHRS,10
410841,127 Longstone Street,Lisburn,Lisburn,Antrim,Spar Garvey,Retailers - other,4613,10,,728029,0,,54.50952900000000,7122,819,robert.lamont@lisburn.gov.uk,Lisburn,http://www.lisburn.gov.uk,-6.05506300000000,BT28 1ES,2014-11-18,fhrs_4_en-GB,4,,FHRS,10
410842,75-81 Hillsborough Road,Old Warren,Lisburn,Antrim,SPAR LAGAN VALLEY,Retailers - other,4613,0,,458657,0,,54.50414600000000,6044,819,robert.lamont@lisburn.gov.uk,Lisburn,http://www.lisburn.gov.uk,-6.04715200000000,BT28 1JN,2013-10-22,fhrs_5_en-GB,5,,FHRS,0
410843,163 Queensway,Lambeg North,Dunmurry,Antrim,SPAR LAMBEG,Retailers - other,4613,0,,458573,0,,54.52970600000000,5715,819,robert.lamont@lisburn.gov.uk,Lisburn,http://www.lisburn.gov.uk,-6.03042100000000,BT27 4QS,2013-03-20,fhrs_5_en-GB,5,,FHRS,5
410844,113 Moss Road,Magheralave (Upper Belfast),Lisburn,Antrim,SPENCES HOME BAKERY,Retailers - other,4613,5,,458217,0,,54.53119700000000,1438,819,robert.lamont@lisburn.gov.uk,Lisburn,http://www.lisburn.gov.uk,-6.03648200000000,BT27 4NY,2013-10-17,fhrs_5_en-GB,5,,FHRS,5
410845,76-78 Longstone Street,Lisburn,Lisburn,Antrim,SPENCES HOME BAKERY,Manufacturers/packers,7839,10,,458284,10,,54.50968500000000,2045,819,robert.lamont@lisburn.gov.uk,Lisburn,http://www.lisburn.gov.uk,-6.05636800000000,BT28 1TR,2014-11-27,fhrs_3_en-GB,3,,FHRS,5
410846,2 Bridge Street,Old Warren,Lisburn,Antrim,SPICE,Restaurant/Cafe/Canteen,1,10,,458431,0,,54.51087800000000,4403,819,robert.lamont@lisburn.gov.uk,Lisburn,http://www.lisburn.gov.uk,-6.04176600000000,BT28 1XY,2013-08-07,fhrs_4_en-GB,4,,FHRS,10
410847,112 Ravernet Road,Ravernet,Lisburn,Down,SPRUCE MEADOWS,Restaurant/Cafe/Canteen,1,5,,458575,0,,54.47897500000000,5719,819,robert.lamont@lisburn.gov.uk,Lisburn,http://www.lisburn.gov.uk,-6.04302800000000,BT27 5NF,2014-06-13,fhrs_5_en-GB,5,,FHRS,0
410848,18 Lisburn Square,Old Warren,Lisburn,Antrim,SQUARE BISTRO,Restaurant/Cafe/Canteen,1,5,,458471,0,,54.51014200000000,5046,819,robert.lamont@lisburn.gov.uk,Lisburn,http://www.lisburn.gov.uk,-6.04734400000000,BT28 1TS,2014-01-27,fhrs_5_en-GB,5,,FHRS,5
410849,8-10 Rathfriland Road,Begny,Dromara,Down,SQUARE ONE,Pub/bar/nightclub,7843,10,,458671,10,,54.37944400000000,6089,819,robert.lamont@lisburn.gov.uk,Lisburn,http://www.lisburn.gov.uk,-6.01806100000000,BT25 2BH,2014-06-13,fhrs_2_en-GB,2,,FHRS,15
410850,Ballinderry Road,Knockmore,Lisburn,Antrim,ST ALOYSIUS PRIMARY SCHOOL,School/college/university,7845,5,,458184,0,,54.50991500000000,1085,819,robert.lamont@lisburn.gov.uk,Lisburn,http://www.lisburn.gov.uk,-6.06736700000000,BT28 1TB,2013-11-04,fhrs_5_en-GB,5,,FHRS,5
410851,70 Summerhill Drive,Dunmurry,Dunmurry,,ST COLMS HIGH SCHOOL,School/college/university,7845,0,,458182,5,,,1074,819,robert.lamont@lisburn.gov.uk,Lisburn,http://www.lisburn.gov.uk,,BT17 ORE,2014-05-08,fhrs_5_en-GB,5,,FHRS,0
410852,10 New Street,Lisburn,Lisburn,Antrim,ST JOSEPHS PRIMARY SCHOOL,School/college/university,7845,0,,458816,0,,54.51179000000000,842,819,robert.lamont@lisburn.gov.uk,Lisburn,http://www.lisburn.gov.uk,-6.04091900000000,BT27 4XE,2014-01-10,fhrs_5_en-GB,5,,FHRS,5
410853,7 Bell Steel Road,Dunmurry,Dunmurry,,ST KIERANS NURSERY SCHOOL,School/college/university,7845,0,,458305,0,,,231,819,robert.lamont@lisburn.gov.uk,Lisburn,http://www.lisburn.gov.uk,,BT17 OPB,2015-01-09,fhrs_5_en-GB,5,,FHRS,5
410854,9 Bell Steel Road,Dunmurry,Dunmurry,,ST KIERANS PRIMARY SCHOOL,School/college/university,7845,5,,458306,0,,,233,819,robert.lamont@lisburn.gov.uk,Lisburn,http://www.lisburn.gov.uk,,BT17 OPB,2013-10-25,fhrs_5_en-GB,5,,FHRS,0
410855,Glasvey Drive,Twinbrook,Dunmurry,,ST LUKES NURSERY SCHOOL,School/college/university,7845,0,,458179,0,,,1051,819,robert.lamont@lisburn.gov.uk,Lisburn,http://www.lisburn.gov.uk,,BT17 ODB,2014-01-29,fhrs_5_en-GB,5,,FHRS,0
410856,16a Glasvey Drive,Twinbrook,Dunmurry,,ST LUKES PRIMARY SCHOOL,School/college/university,7845,0,,458180,0,,,1052,819,robert.lamont@lisburn.gov.uk,Lisburn,http://www.lisburn.gov.uk,,BT17 ODB,2014-09-04,fhrs_5_en-GB,5,,FHRS,0
410857,Gardenmore Road,Twinbrook,Dunmurry,,ST MARKS NURSERY SCHOOL,School/college/university,7845,0,,458297,0,,54.55014800000000,2115,819,robert.lamont@lisburn.gov.uk,Lisburn,http://www.lisburn.gov.uk,-6.02606600000000,BT17 0DF,2015-01-06,fhrs_5_en-GB,5,,FHRS,0
410858,76 Gardenmore Road,Twinbrook,Dunmurry,,ST MARKS PRIMARY SCHOOL,School/college/university,7845,5,,458298,0,,,2117,819,robert.lamont@lisburn.gov.uk,Lisburn,http://www.lisburn.gov.uk,,BT17 ODF,2014-06-12,fhrs_5_en-GB,5,,FHRS,0
410859,9 Ballinderry Road,Knockmore,Lisburn,Antrim,ST PATRICKS ACADEMY,School/college/university,7845,0,,458185,5,,54.50918700000000,1086,819,robert.lamont@lisburn.gov.uk,Lisburn,http://www.lisburn.gov.uk,-6.04444100000000,BT28 1TJ,2014-05-12,fhrs_5_en-GB,5,,FHRS,5
410860,29-33 Chapel Hill,Lisburn,Lisburn,Antrim,St Patrick's Church,Other catering premises,7841,,,458334,,,54.51065500000000,3319,819,robert.lamont@lisburn.gov.uk,Lisburn,http://www.lisburn.gov.uk,-6.04962100000000,BT28 1EP,2013-10-17,fhrs_exempt_en-GB,Exempt,,FHRS,
410861,1 Bell Steele Road,Poleglass,Dunmurry,Antrim,ST PATRICK'S PLAYGROUP - NATIVITY PARISH,Other catering premises,7841,,,493226,,,54.56185700000000,3700,819,robert.lamont@lisburn.gov.uk,Lisburn,http://www.lisburn.gov.uk,-6.03003000000000,BT17 0PB,2015-01-20,fhrs_exempt_en-GB,Exempt,,FHRS,
410862,Ardcaoin Avenue,Brianswell Road,Poleglass,,ST THERESE'S NURSERY SCHOOL,School/college/university,7845,0,,458311,0,,54.55939700000000,252,819,robert.lamont@lisburn.gov.uk,Lisburn,http://www.lisburn.gov.uk,-6.03954900000000,BT17 0UN,2014-01-22,fhrs_5_en-GB,5,,FHRS,0
410863,137 Hillsborough Old Road,,Lisburn,Antrim,STAFF CANTEEN AT JOHNSON BROS LTD,Restaurant/Cafe/Canteen,1,0,,458362,0,,54.49949700000000,3825,819,robert.lamont@lisburn.gov.uk,Lisburn,http://www.lisburn.gov.uk,-6.04641600000000,BT27 5QE,2014-05-09,fhrs_5_en-GB,5,,FHRS,0
410864,200-202 Kingsway,Dunmurry,Dunmurry,,STEPHEN TAYLOR BUTCHERS,Manufacturers/packers,7839,0,,458363,0,,54.55092600000000,383,819,robert.lamont@lisburn.gov.uk,Lisburn,http://www.lisburn.gov.uk,-6.00344600000000,BT17 9AD,2015-01-12,fhrs_5_en-GB,5,,FHRS,5
410865,39 Seymour Street,Lisnagarvy,Lisburn,Antrim,STEPPING STONES,Restaurant/Cafe/Canteen,1,0,,458817,0,,54.51428100000000,847,819,robert.lamont@lisburn.gov.uk,Lisburn,http://www.lisburn.gov.uk,-6.03721700000000,BT27 4SY,2014-05-23,fhrs_5_en-GB,5,,FHRS,0
410866,74a Creevy Road,,Lisburn,Antrim,STEVENS LODGE BED & BREAKFAST,Hotel/bed & breakfast/guest house,7842,5,,458631,0,,54.47394400000000,5942,819,robert.lamont@lisburn.gov.uk,Lisburn,http://www.lisburn.gov.uk,-5.94619700000000,BT27 6UL,2013-06-13,fhrs_5_en-GB,5,,FHRS,0
410867,40 Begney Road,,Dromara,Down,Stoneybrooke Farm,Retailers - other,4613,,,687414,,,54.38644700000000,7009,819,robert.lamont@lisburn.gov.uk,Lisburn,http://www.lisburn.gov.uk,-5.99380000000000,BT25 2AW,2014-07-24,fhrs_exempt_en-GB,Exempt,,FHRS,
410868,169 Kingsway,Dunmurry,Dunmurry,Antrim,SUBWAY,Restaurant/Cafe/Canteen,1,0,,458583,5,,54.55125600000000,5758,819,robert.lamont@lisburn.gov.uk,Lisburn,http://www.lisburn.gov.uk,-6.00380100000000,BT17 9RY,2013-10-17,fhrs_5_en-GB,5,,FHRS,0
410869,220 Stewartstown Road,Killeaton,Dunmurry,,SUBWAY,Restaurant/Cafe/Canteen,1,5,,458547,0,,54.55680800000000,5555,819,robert.lamont@lisburn.gov.uk,Lisburn,http://www.lisburn.gov.uk,-6.02623900000000,BT17 0LB,2015-01-06,fhrs_5_en-GB,5,,FHRS,5
410870,6 Haslems Lane,Old Warren,Lisburn,Antrim,SUBWAY,Restaurant/Cafe/Canteen,1,0,,458353,0,,54.51061400000000,3691,819,robert.lamont@lisburn.gov.uk,Lisburn,http://www.lisburn.gov.uk,-6.04658000000000,BT28 1TW,2013-10-21,fhrs_5_en-GB,5,,FHRS,5
410871,Unit 10b Lisburn Leisure Park,,Lisburn,Antrim,SUBWAY,Restaurant/Cafe/Canteen,1,,,458478,,,54.50691600000000,5098,819,robert.lamont@lisburn.gov.uk,Lisburn,http://www.lisburn.gov.uk,-6.05121900000000,BT28 1LP,2014-07-23,fhrs_5_en-GB,5,,FHRS,
410872,Unit 4 Bow Street Mall Foodcourt,,Lisburn,Antrim,SUBWAY,Restaurant/Cafe/Canteen,1,0,,458375,0,,54.51170600000000,3951,819,robert.lamont@lisburn.gov.uk,Lisburn,http://www.lisburn.gov.uk,-6.05020400000000,BT28 1AW,2013-10-18,fhrs_5_en-GB,5,,FHRS,0
410873,163 Queensway,Lambeg North,Dunmurry,Antrim,SUBWAY LAMBEG,Restaurant/Cafe/Canteen,1,0,,458522,0,,54.52970600000000,5436,819,robert.lamont@lisburn.gov.uk,Lisburn,http://www.lisburn.gov.uk,-6.03042100000000,BT27 4QS,2013-09-20,fhrs_5_en-GB,5,,FHRS,0
410874,12 Mercer Street,Largymore,Lisburn,Antrim,"SUBWAY, SAINTFIELD ROAD SERVICE STATION",Takeaway/sandwich shop,7844,0,,458560,0,,54.50953700000000,5657,819,robert.lamont@lisburn.gov.uk,Lisburn,http://www.lisburn.gov.uk,-6.03278100000000,BT27 5AJ,2014-11-13,fhrs_5_en-GB,5,,FHRS,0
410875,,,,,Sugar Flower Cake Company,Other catering premises,7841,5,,655798,0,,,6984,819,robert.lamont@lisburn.gov.uk,Lisburn,http://www.lisburn.gov.uk,,,2014-02-26,fhrs_5_en-GB,5,,FHRS,0
410876,Unit 1 Bentrim Shopping Centre,Bentrim Road,Lisburn,Antrim,SUNFLOWER FISH & CHIPS,Takeaway/sandwich shop,7844,10,,458742,5,,54.51440400000000,6315,819,robert.lamont@lisburn.gov.uk,Lisburn,http://www.lisburn.gov.uk,-6.05534100000000,BT28 2GB,2013-05-02,fhrs_2_en-GB,2,,FHRS,15
410877,50 Grand Street,Lisnagarvy,Lisburn,Antrim,SUNSHINE,Takeaway/sandwich shop,7844,5,,458513,10,,54.51625200000000,5411,819,robert.lamont@lisburn.gov.uk,Lisburn,http://www.lisburn.gov.uk,-6.02798000000000,BT27 4UD,2013-10-14,fhrs_3_en-GB,3,,FHRS,10
410878,2 Riverside Terrace,Derryaghy,Lisburn,Antrim,SUPERB CATERING,Other catering premises,7841,,,493248,,,54.54152100000000,5508,819,robert.lamont@lisburn.gov.uk,Lisburn,http://www.lisburn.gov.uk,-6.03870600000000,BT27 4DZ,2014-08-20,fhrs_exempt_en-GB,Exempt,,FHRS,
410879,45-47 Bow Street,Lisburn,Lisburn,Antrim,SUPERDRUG STORES PLC,Retailers - other,4613,,,493182,,,54.51155600000000,1174,819,robert.lamont@lisburn.gov.uk,Lisburn,http://www.lisburn.gov.uk,-6.04758600000000,BT28 1BN,2014-06-24,fhrs_exempt_en-GB,Exempt,,FHRS,
410880,97 Knockmore Road,Ballymacoss,Lisburn,,SUPERVALU,Retailers - supermarkets/hypermarkets,7840,0,,458357,0,,54.51516100000000,3747,819,robert.lamont@lisburn.gov.uk,Lisburn,http://www.lisburn.gov.uk,-6.11508500000000,BT28 2TA,2013-02-04,fhrs_5_en-GB,5,,FHRS,0
410881,Stewartstown Road,,Dunmurry,,SUPERVALU,Retailers - supermarkets/hypermarkets,7840,10,,458567,0,,54.55680800000000,5701,819,robert.lamont@lisburn.gov.uk,Lisburn,http://www.lisburn.gov.uk,-6.02623900000000,BT17 0LB,2015-01-08,fhrs_4_en-GB,4,,FHRS,10
410882,208 Stewartstown Road,Twinbrook,Dunmurry,,SURMA INDIAN TAKEAWAY,Takeaway/sandwich shop,7844,10,,458633,5,,54.55680800000000,5950,819,robert.lamont@lisburn.gov.uk,Lisburn,http://www.lisburn.gov.uk,-6.02623900000000,BT17 0LB,2013-11-27,fhrs_3_en-GB,3,,FHRS,10
410883,254 Kingsway,Dunmurry,Dunmurry,,Survitec,Restaurant/Cafe/Canteen,1,0,,458451,10,,54.54926800000000,4543,819,robert.lamont@lisburn.gov.uk,Lisburn,http://www.lisburn.gov.uk,-6.00804000000000,BT17 9AF,2013-10-18,fhrs_4_en-GB,4,,FHRS,5
410884,143 Dromore Road,Cluntagh,Ballynahinch,Down,SUSAN ROBINSON,Other catering premises,7841,,,458765,,,54.40700100000000,6387,819,robert.lamont@lisburn.gov.uk,Lisburn,http://www.lisburn.gov.uk,-5.98224500000000,BT24 8HZ,2014-10-13,fhrs_exempt_en-GB,Exempt,,FHRS,
410885,19-21 Smithfield Square,,Lisburn,Antrim,SWEENEY'S NEWSAGENT,Retailers - other,4613,5,,458210,0,,,1389,819,robert.lamont@lisburn.gov.uk,Lisburn,http://www.lisburn.gov.uk,,BT27 1TH,2012-01-19,fhrs_4_en-GB,4,,FHRS,10
410886,Unit 34 Bow Street Mall,Lisburn,Lisburn,Antrim,SWEETIE MILLER,Retailers - other,4613,,,499274,,,54.51170600000000,4109,819,robert.lamont@lisburn.gov.uk,Lisburn,http://www.lisburn.gov.uk,-6.05020400000000,BT28 1AW,2012-12-13,fhrs_exempt_en-GB,Exempt,,FHRS,
410887,1 Young Street,Largymore,Lisburn,Antrim,T ALEXANDER & CO LTD,Pub/bar/nightclub,7843,0,,458303,5,,54.50894100000000,216,819,robert.lamont@lisburn.gov.uk,Lisburn,http://www.lisburn.gov.uk,-6.03755000000000,BT27 5EA,2013-10-15,fhrs_5_en-GB,5,,FHRS,5
410888,8 Market Square North,Lisnagarvy,Lisburn,Antrim,T F WOODSIDE & CO LTD,Retailers - other,4613,,,493207,,,54.51142200000000,2071,819,robert.lamont@lisburn.gov.uk,Lisburn,http://www.lisburn.gov.uk,-6.04427200000000,BT28 1AF,2013-06-25,fhrs_exempt_en-GB,Exempt,,FHRS,
410889,161 Dromore Road,Ballykeel Artifinny,Hillsborough,Down,T K DINER,Restaurant/Cafe/Canteen,1,10,,458577,10,,54.44397700000000,5726,819,robert.lamont@lisburn.gov.uk,Lisburn,http://www.lisburn.gov.uk,-6.10835200000000,BT26 6JA,2013-11-25,fhrs_3_en-GB,3,,FHRS,10
410890,Bow Street Mall,,Lisburn,Antrim,T K MAXX,Retailers - other,4613,,,458339,,,54.51170600000000,3492,819,robert.lamont@lisburn.gov.uk,Lisburn,http://www.lisburn.gov.uk,-6.05020400000000,BT28 1AW,2013-11-06,fhrs_exempt_en-GB,Exempt,,FHRS,
410891,Unit 24 Bow Street Mall,,Lisburn,Antrim,T2 Coffee Shop & Bistro,Restaurant/Cafe/Canteen,1,5,,710392,0,,54.51245100000000,7138,819,robert.lamont@lisburn.gov.uk,Lisburn,http://www.lisburn.gov.uk,-6.04845400000000,BT28 1AU,2014-10-22,fhrs_5_en-GB,5,,FHRS,0
410892,68 Longstone Street,Tonagh,Lisburn,Antrim,TANDOORI NIGHT,Takeaway/sandwich shop,7844,0,,458205,0,,54.50968500000000,1302,819,robert.lamont@lisburn.gov.uk,Lisburn,http://www.lisburn.gov.uk,-6.05636800000000,BT28 1TR,2013-04-11,fhrs_5_en-GB,5,,FHRS,5
410893,27 Sloan Street,Largymore,Lisburn,Antrim,TAYLORS,Manufacturers/packers,7839,0,,458469,0,,54.50922800000000,5042,819,robert.lamont@lisburn.gov.uk,Lisburn,http://www.lisburn.gov.uk,-6.03532800000000,BT27 5AG,2013-04-10,fhrs_5_en-GB,5,,FHRS,5
410894,Bow Street Mall,,Lisburn,Antrim,Taylors Ice Cream,Retailers - other,4613,0,,558545,0,,54.51170600000000,6626,819,robert.lamont@lisburn.gov.uk,Lisburn,http://www.lisburn.gov.uk,-6.05020400000000,BT28 1AW,2013-06-18,fhrs_5_en-GB,5,,FHRS,0
410895,27 Sloan Street,Largymore,Lisburn,Antrim,Taylors Ice Cream Vintage Van,Mobile caterer,7846,5,,657314,0,,54.50922800000000,7017,819,robert.lamont@lisburn.gov.uk,Lisburn,http://www.lisburn.gov.uk,-6.03532800000000,BT27 5AG,2014-04-01,fhrs_5_en-GB,5,,FHRS,0
410896,Tullynewbank Road,Glenavy,Crumlin,Antrim,Team Build Ireland,Other catering premises,7841,,,687411,,,54.58856200000000,6723,819,robert.lamont@lisburn.gov.uk,Lisburn,http://www.lisburn.gov.uk,-6.18348000000000,BT29 4PH,2014-06-06,fhrs_exempt_en-GB,Exempt,,FHRS,
410897,82 Carryduff Road,Carricknaveagh,Lisburn,Antrim,TEMPLE FILLING STATION,Retailers - other,4613,10,,458637,0,,54.47204000000000,5970,819,robert.lamont@lisburn.gov.uk,Lisburn,http://www.lisburn.gov.uk,-5.90695200000000,BT27 6UA,2014-10-16,fhrs_4_en-GB,4,,FHRS,0
410898,60 Church Road,Carrickmaddyroe,Lisburn,Antrim,TEMPLE GOLF & COUNTRY CLUB,Restaurant/Cafe/Canteen,1,10,,458470,0,,54.46681500000000,5043,819,robert.lamont@lisburn.gov.uk,Lisburn,http://www.lisburn.gov.uk,-5.91815600000000,BT27 6UP,2014-09-11,fhrs_4_en-GB,4,,FHRS,10
410899,100 Tullynewbank Road,Ballynacoy,Glenavy,Antrim,TERRYS ICES,Retailers - other,4613,0,,458776,0,,54.57441000000000,6424,819,robert.lamont@lisburn.gov.uk,Lisburn,http://www.lisburn.gov.uk,-6.15022600000000,BT29 4PL,2012-07-05,fhrs_5_en-GB,5,,FHRS,5
410900,Bentrim Road,Lisburn,Lisburn,Antrim,Tesco Lisburn Customer Cafe,Restaurant/Cafe/Canteen,1,0,,576866,0,,,4813,819,robert.lamont@lisburn.gov.uk,Lisburn,http://www.lisburn.gov.uk,,BT28 9XX,2014-07-17,fhrs_5_en-GB,5,,FHRS,0
410901,Bentrim Road,Lisburn,Lisburn,Antrim,TESCO STORES LIMITED,Retailers - supermarkets/hypermarkets,7840,5,,458219,0,,54.51440400000000,1453,819,robert.lamont@lisburn.gov.uk,Lisburn,http://www.lisburn.gov.uk,-6.05534100000000,BT28 2GB,2013-05-07,fhrs_5_en-GB,5,,FHRS,0
410902,Kingsway Shopping Centre,Dunmurry,Dunmurry,Belfast,TESCO STORES LIMITED,Retailers - supermarkets/hypermarkets,7840,5,,458270,0,,54.55302200000000,1805,819,robert.lamont@lisburn.gov.uk,Lisburn,http://www.lisburn.gov.uk,-5.99920100000000,BT17 9NP,2013-04-23,fhrs_5_en-GB,5,,FHRS,0
410903,Bentrim Road,Lisburn,Lisburn,Antrim,TESCOS - FILLING STATION,Retailers - other,4613,0,,493274,5,,54.52053400000000,9,819,robert.lamont@lisburn.gov.uk,Lisburn,http://www.lisburn.gov.uk,-6.07743000000000,BT28 2XX,2014-07-11,fhrs_5_en-GB,5,,FHRS,0
410904,3 Wallace Avenue,Lisnagarvy,Lisburn,Antrim,THE AVENUE COFFEE SHOP,Restaurant/Cafe/Canteen,1,,,458446,,,54.51332900000000,4504,819,robert.lamont@lisburn.gov.uk,Lisburn,http://www.lisburn.gov.uk,-6.04223500000000,BT27 4AA,2014-03-13,fhrs_5_en-GB,5,,FHRS,
410905,7a Rock Road,Ballymacward Lower,Lisburn,Antrim,THE BALLYMAC HOTEL,Hotel/bed & breakfast/guest house,7842,0,,458791,0,,54.57799500000000,677,819,robert.lamont@lisburn.gov.uk,Lisburn,http://www.lisburn.gov.uk,-6.10548800000000,BT28 3SU,2014-10-09,fhrs_5_en-GB,5,,FHRS,0
410906,54 Main Street,Moira,Moira,Armagh,THE BARROW & FOREVER FLOWERS,Retailers - other,4613,,,493199,,,,1691,819,robert.lamont@lisburn.gov.uk,Lisburn,http://www.lisburn.gov.uk,,BT67 OLQ,2014-05-07,fhrs_exempt_en-GB,Exempt,,FHRS,
410907,11b Lurgan Road,Aghalee,Aghalee,Armagh,THE BEECHES DAY NURSERY,Other catering premises,7841,5,,458359,0,,54.52055300000000,3778,819,robert.lamont@lisburn.gov.uk,Lisburn,http://www.lisburn.gov.uk,-6.26893000000000,BT67 0DD,2014-12-11,fhrs_5_en-GB,5,,FHRS,0
410908,9-11 Lurgan Road,Aghalee,Aghalee,Armagh,THE BEECHES NURSING HOME,Hospitals/Childcare/Caring Premises,5,5,,458228,5,,54.52055300000000,1510,819,robert.lamont@lisburn.gov.uk,Lisburn,http://www.lisburn.gov.uk,-6.26893000000000,BT67 0DD,2014-10-16,fhrs_5_en-GB,5,,FHRS,5
410909,9-11 Lurgan Road,Aghalee,Aghalee,Armagh,THE BEECHES RESOURCE CENTRE,Other catering premises,7841,0,,458534,5,,54.52055300000000,5496,819,robert.lamont@lisburn.gov.uk,Lisburn,http://www.lisburn.gov.uk,-6.26893000000000,BT67 0DD,2014-02-07,fhrs_5_en-GB,5,,FHRS,0
410910,50d Lisburn Enterprise Crescent,Ballinderry Road,Lisburn,,THE BIG BITE SANDWICH CO.,Mobile caterer,7846,10,,458497,10,,54.51292600000000,5303,819,robert.lamont@lisburn.gov.uk,Lisburn,http://www.lisburn.gov.uk,-6.07587200000000,BT28 2BP,2014-05-22,fhrs_4_en-GB,4,,FHRS,0
410911,94 Killeaton Crescent,Derryaghy,Dunmurry,,THE BIG SHOP,Retailers - other,4613,5,,458570,5,,54.54150800000000,5710,819,robert.lamont@lisburn.gov.uk,Lisburn,http://www.lisburn.gov.uk,-6.02353200000000,BT17 9HD,2013-06-26,fhrs_5_en-GB,5,,FHRS,5
410912,12 Market Street,Old Warren,Lisburn,Antrim,THE BROWN BEAN,Restaurant/Cafe/Canteen,1,5,,458403,0,,54.51058200000000,4117,819,robert.lamont@lisburn.gov.uk,Lisburn,http://www.lisburn.gov.uk,-6.04510000000000,BT28 1AB,2013-10-16,fhrs_5_en-GB,5,,FHRS,5
410913,42 Main Street,Glenavy,,Antrim,THE CABBAGE PATCH / MACE,Retailers - supermarkets/hypermarkets,7840,10,,458747,10,,54.59100100000000,6330,819,robert.lamont@lisburn.gov.uk,Lisburn,http://www.lisburn.gov.uk,-6.21340100000000,BT29 4LW,2014-12-03,fhrs_3_en-GB,3,,FHRS,10
410914,41 Railway Street,Lisnagarvy,Lisburn,Antrim,THE CARDAN BAR & GRILL,Restaurant/Cafe/Canteen,1,10,,458422,5,,54.51323500000000,4373,819,robert.lamont@lisburn.gov.uk,Lisburn,http://www.lisburn.gov.uk,-6.04417000000000,BT28 1XP,2014-08-13,fhrs_4_en-GB,4,,FHRS,5
410915,228a Stewartstown Road,Dunmurry,Dunmurry,,THE CHIP COMPANY,Takeaway/sandwich shop,7844,0,,458600,0,,54.55680800000000,5807,819,robert.lamont@lisburn.gov.uk,Lisburn,http://www.lisburn.gov.uk,-6.02623900000000,BT17 0LB,2013-11-21,fhrs_5_en-GB,5,,FHRS,0
410916,25a Main Street,,Glenavy,Antrim,The Chip Factory,Takeaway/sandwich shop,7844,5,,728028,5,,54.59168600000000,7119,819,robert.lamont@lisburn.gov.uk,Lisburn,http://www.lisburn.gov.uk,-6.21411400000000,BT29 4LN,2014-11-20,fhrs_4_en-GB,4,,FHRS,10
410917,41 Old Coach Road,Hillsborough,Hillsborough,Down,THE COACH CLUB,Retailers - other,4613,,,493177,,,54.45145000000000,1009,819,robert.lamont@lisburn.gov.uk,Lisburn,http://www.lisburn.gov.uk,-6.09507100000000,BT26 6PB,2013-10-16,fhrs_exempt_en-GB,Exempt,,FHRS,
410918,124 Ballymacash Road,Ballymacoss,Lisburn,Antrim,THE COD FATHER,Takeaway/sandwich shop,7844,10,,458348,5,,54.52567100000000,3618,819,robert.lamont@lisburn.gov.uk,Lisburn,http://www.lisburn.gov.uk,-6.07728100000000,BT28 3EZ,2014-05-07,fhrs_3_en-GB,3,,FHRS,10
410919,57-59 Sloan Street,Largymore,Lisburn,Antrim,THE COUNTRY KITCHEN,Manufacturers/packers,7839,5,,458826,0,,54.50922800000000,906,819,robert.lamont@lisburn.gov.uk,Lisburn,http://www.lisburn.gov.uk,-6.03532800000000,BT27 5AG,2013-01-15,fhrs_4_en-GB,4,,FHRS,10
410920,19-21 Bow Street,Old Warren,Lisburn,Antrim,THE EDINBURGH WOOLLEN MILL,Retailers - other,4613,,,458358,,,54.51116100000000,3777,819,robert.lamont@lisburn.gov.uk,Lisburn,http://www.lisburn.gov.uk,-6.04704900000000,BT28 1BJ,2013-04-29,fhrs_exempt_en-GB,Exempt,,FHRS,
410921,3 Dromara Road,Aghandunvarran,Hillsborough,Down,THE FABULOUS FOOD FACTORY,Mobile caterer,7846,5,,458734,0,,54.45053800000000,6294,819,robert.lamont@lisburn.gov.uk,Lisburn,http://www.lisburn.gov.uk,-6.10333200000000,BT26 6HY,2014-04-23,fhrs_5_en-GB,5,,FHRS,0
410922,57 Main Street,Moira,Moira,Armagh,THE FAT GHERKIN,Restaurant/Cafe/Canteen,1,10,,458663,0,,54.48171000000000,6072,819,robert.lamont@lisburn.gov.uk,Lisburn,http://www.lisburn.gov.uk,-6.22477500000000,BT67 0LH,2014-08-11,fhrs_4_en-GB,4,,FHRS,10
410923,1a Skyline Drive,Lambeg,Lisburn,Antrim,The Four Season,Takeaway/sandwich shop,7844,5,,642737,0,,54.52606000000000,6782,819,robert.lamont@lisburn.gov.uk,Lisburn,http://www.lisburn.gov.uk,-6.03608000000000,BT27 4HP,2014-02-21,fhrs_5_en-GB,5,,FHRS,5
410924,148 Longstone Street,Tonagh,Lisburn,Antrim,THE FRUIT & VEG SHOPPE,Retailers - other,4613,,,466681,,,54.50949100000000,4090,819,robert.lamont@lisburn.gov.uk,Lisburn,http://www.lisburn.gov.uk,-6.05937300000000,BT28 1TT,2012-10-09,fhrs_exempt_en-GB,Exempt,,FHRS,
410925,43-45 Sloan Street,Largymore,Lisburn,Antrim,The Galley,Restaurant/Cafe/Canteen,1,5,,657313,5,,54.50922800000000,6837,819,robert.lamont@lisburn.gov.uk,Lisburn,http://www.lisburn.gov.uk,-6.03532800000000,BT27 5AG,2014-04-16,fhrs_5_en-GB,5,,FHRS,5
410926,13 Ardcaoin Park,Poleglass,Dunmurry,Antrim,THE GARAGE,Retailers - other,4613,,,458609,,,54.56077600000000,5823,819,robert.lamont@lisburn.gov.uk,Lisburn,http://www.lisburn.gov.uk,-6.03759600000000,BT17 0UT,2013-09-19,fhrs_exempt_en-GB,Exempt,,FHRS,
410927,57 Ballyskeagh Road,Ballyskeagh,Lisburn,Antrim,THE GRANDSTAND RESTAURANT,Restaurant/Cafe/Canteen,1,0,,465814,0,,54.53401300000000,6463,819,robert.lamont@lisburn.gov.uk,Lisburn,http://www.lisburn.gov.uk,-6.00485900000000,BT27 5TE,2014-06-27,fhrs_5_en-GB,5,,FHRS,5
410928,56-58 Grand Street,Lisburn,Lisburn,Antrim,THE HILDEN PHARMACY,Retailers - other,4613,,,458766,,,54.51625200000000,6395,819,robert.lamont@lisburn.gov.uk,Lisburn,http://www.lisburn.gov.uk,-6.02798000000000,BT27 4UD,2012-05-21,fhrs_exempt_en-GB,Exempt,,FHRS,
410929,13 Bachelors Walk,Lisnagarvy,Lisburn,Antrim,THE HIMALAYA,Restaurant/Cafe/Canteen,1,10,,458278,15,,54.51326400000000,1890,819,robert.lamont@lisburn.gov.uk,Lisburn,http://www.lisburn.gov.uk,-6.04596000000000,BT28 1XJ,2014-01-07,fhrs_2_en-GB,2,,FHRS,10
410930,82 Antrim Street,Lisnagarvy,Lisburn,Antrim,THE INK WORKS,Retailers - other,4613,,,493255,,,54.51245100000000,5900,819,robert.lamont@lisburn.gov.uk,Lisburn,http://www.lisburn.gov.uk,-6.04845400000000,BT28 1AU,2012-03-13,fhrs_exempt_en-GB,Exempt,,FHRS,
410931,25 Castle Street,Lisburn,Lisburn,Antrim,THE LINEN ROOM -SERC,School/college/university,7845,5,,458805,0,,54.51221000000000,742,819,robert.lamont@lisburn.gov.uk,Lisburn,http://www.lisburn.gov.uk,-6.04191800000000,BT27 4SU,2014-10-13,fhrs_5_en-GB,5,,FHRS,0
410932,9 Old Kilmore Road,Risk,Moira,Down,THE MEAT MERCHANT,Retailers - other,4613,5,,458622,0,,54.47848000000000,5921,819,robert.lamont@lisburn.gov.uk,Lisburn,http://www.lisburn.gov.uk,-6.24231900000000,BT67 0LZ,2013-04-24,fhrs_5_en-GB,5,,FHRS,0
410933,51 Sloan Street,Largymore,Lisburn,Antrim,THE MONEY TREE,Takeaway/sandwich shop,7844,0,,458726,10,,54.50922800000000,6271,819,robert.lamont@lisburn.gov.uk,Lisburn,http://www.lisburn.gov.uk,-6.03532800000000,BT27 5AG,2014-07-03,fhrs_4_en-GB,4,,FHRS,0
410934,154 Upper Dunmurry Lane,Dunmurry,Dunmurry,Antrim,THE NOOK,Retailers - other,4613,5,,458482,5,,54.56280700000000,5105,819,robert.lamont@lisburn.gov.uk,Lisburn,http://www.lisburn.gov.uk,-6.01832700000000,BT17 0HE,2013-09-19,fhrs_5_en-GB,5,,FHRS,5
410935,114 Halftown Road,Culcavy,Lisburn,Down,THE OLD SCHOOL HOUSE - DAY NURSERY,Other catering premises,7841,5,,458248,0,,54.48866800000000,1619,819,robert.lamont@lisburn.gov.uk,Lisburn,http://www.lisburn.gov.uk,-6.09182800000000,BT27 5RF,2013-03-27,fhrs_5_en-GB,5,,FHRS,5
410936,7 Ballynahinch Road,Hillsborough,Hillsborough,Down,THE OLD SCHOOLHOUSE @ THE VILLAGE CENTRE,Retailers - other,4613,,,458457,,,54.46409200000000,4779,819,robert.lamont@lisburn.gov.uk,Lisburn,http://www.lisburn.gov.uk,-6.07919900000000,BT26 6AR,2014-06-27,fhrs_exempt_en-GB,Exempt,,FHRS,
410937,48 Lisburn Street,Hillsborough,Hillsborough,Down,THE PARSONS NOSE,Restaurant/Cafe/Canteen,1,5,,458610,0,,54.46376400000000,5825,819,robert.lamont@lisburn.gov.uk,Lisburn,http://www.lisburn.gov.uk,-6.08342500000000,BT26 6AB,2014-06-03,fhrs_5_en-GB,5,,FHRS,5
410938,410 Upper Ballynahinch Road,Lisburn,Lisburn,Antrim,THE PHEASANT,Restaurant/Cafe/Canteen,1,5,,458819,5,,,85,819,robert.lamont@lisburn.gov.uk,Lisburn,http://www.lisburn.gov.uk,,BT27 6NR,2013-06-24,fhrs_5_en-GB,5,,FHRS,5
410939,220 Stewartstown Road,Killeaton,Dunmurry,,THE PIZZA COMPANY,Takeaway/sandwich shop,7844,5,,458654,0,,54.55680800000000,6018,819,robert.lamont@lisburn.gov.uk,Lisburn,http://www.lisburn.gov.uk,-6.02623900000000,BT17 0LB,2013-04-19,fhrs_5_en-GB,5,,FHRS,0
410940,Meeting Street,,Moira,Armagh,The Quirky Bird,Restaurant/Cafe/Canteen,1,10,,706552,0,,54.48050500000000,7113,819,robert.lamont@lisburn.gov.uk,Lisburn,http://www.lisburn.gov.uk,-6.22354700000000,BT67 0NR,2014-08-26,fhrs_4_en-GB,4,,FHRS,10
410941,2 Sackville Street,Lisburn,Lisburn,Antrim,THE ROYAL BRITISH LEGION,Retailers - other,4613,5,,493208,5,,,2093,819,robert.lamont@lisburn.gov.uk,Lisburn,http://www.lisburn.gov.uk,,BT28 4AB,2013-11-15,fhrs_5_en-GB,5,,FHRS,5
410942,47 Derriaghy Road,Derryaghy,Lisburn,Antrim,The Speckled Hen,Restaurant/Cafe/Canteen,1,0,,691809,5,,54.54313000000000,7031,819,robert.lamont@lisburn.gov.uk,Lisburn,http://www.lisburn.gov.uk,-6.03431700000000,BT28 3SH,2014-08-07,fhrs_5_en-GB,5,,FHRS,5
410943,6 Chestnut Hill Road,Moira,Moira,Armagh,THE TANNERY,Restaurant/Cafe/Canteen,1,10,,458564,0,,,5667,819,robert.lamont@lisburn.gov.uk,Lisburn,http://www.lisburn.gov.uk,,BT67 OLW,2013-11-20,fhrs_4_en-GB,4,,FHRS,10
410944,Grand Street,Lisburn,Lisburn,Antrim,THE TAP ROOM,Restaurant/Cafe/Canteen,1,5,,458808,0,,54.52042000000000,773,819,robert.lamont@lisburn.gov.uk,Lisburn,http://www.lisburn.gov.uk,-6.02574000000000,BT27 4TY,2013-08-07,fhrs_4_en-GB,4,,FHRS,10
410945,88h Carryduff Road,Carricknaveagh,Lisburn,Antrim,THE TEMPLE GARDEN & FARM SHOP,Retailers - other,4613,,,458465,,,54.47956800000000,49,819,robert.lamont@lisburn.gov.uk,Lisburn,http://www.lisburn.gov.uk,-5.90737000000000,BT27 6YL,2013-05-14,fhrs_exempt_en-GB,Exempt,,FHRS,
410946,St Colman'S Primary School,Parish Hall,Dunmurry,,THE TIME OUT PROJECT,Other catering premises,7841,,,458401,,,,4113,819,robert.lamont@lisburn.gov.uk,Lisburn,http://www.lisburn.gov.uk,,BT27 4QM,2012-10-04,fhrs_exempt_en-GB,Exempt,,FHRS,
410947,15 Ardcaoin Drive,Lagmore,Dunmurry,Antrim,THE VAN SHOP,Mobile caterer,7846,,,458676,,,54.55915200000000,6118,819,robert.lamont@lisburn.gov.uk,Lisburn,http://www.lisburn.gov.uk,-6.03776700000000,BT17 0UW,2014-07-02,fhrs_exempt_en-GB,Exempt,,FHRS,
410948,2c Lime Kiln Lane,Aghalee,Aghalee,Antrim,THE VANDEES,Hotel/bed & breakfast/guest house,7842,5,,458662,0,,54.52075600000000,6071,819,robert.lamont@lisburn.gov.uk,Lisburn,http://www.lisburn.gov.uk,-6.25991700000000,BT67 0EZ,2013-10-18,fhrs_5_en-GB,5,,FHRS,0
410949,5-7 Dromore Street,,Dromara,Down,THE VILLAGE GRILL,Restaurant/Cafe/Canteen,1,0,,458430,0,,54.37959900000000,440,819,robert.lamont@lisburn.gov.uk,Lisburn,http://www.lisburn.gov.uk,-6.02094700000000,BT25 2BT,2014-04-15,fhrs_5_en-GB,5,,FHRS,0
410950,88 Bridge Street,Lisburn,Lisburn,Antrim,The Wallace,Restaurant/Cafe/Canteen,1,10,,620642,15,,,6673,819,robert.lamont@lisburn.gov.uk,Lisburn,http://www.lisburn.gov.uk,,BT28 1XX,2014-06-02,fhrs_2_en-GB,2,,FHRS,15
410951,,,,,The Wee Cake Factory,Other catering premises,7841,0,,493264,0,,,6510,819,robert.lamont@lisburn.gov.uk,Lisburn,http://www.lisburn.gov.uk,,,2012-11-22,fhrs_5_en-GB,5,,FHRS,0
410952,46-48 Market Square North,Lisnagarvy,Lisburn,Antrim,THE YELLOW DOOR LISBURN LTD,Restaurant/Cafe/Canteen,1,5,,458627,0,,54.51121400000000,5936,819,robert.lamont@lisburn.gov.uk,Lisburn,http://www.lisburn.gov.uk,-6.04368000000000,BT28 1AG,2013-11-21,fhrs_5_en-GB,5,,FHRS,0
410953,19 Magheralave Road,Lisnagarvy,Lisburn,Antrim,THOMPSON HOUSE HOSPITAL,Hospitals/Childcare/Caring Premises,5,0,,458302,0,,54.51895700000000,2128,819,robert.lamont@lisburn.gov.uk,Lisburn,http://www.lisburn.gov.uk,-6.04967300000000,BT28 3BP,2013-08-15,fhrs_5_en-GB,5,,FHRS,5
410954,3 Chapel Hill,Old Warren,Lisburn,Antrim,THORNBURYS RESTAURANT,Restaurant/Cafe/Canteen,1,0,,458414,0,,54.51065500000000,4276,819,robert.lamont@lisburn.gov.uk,Lisburn,http://www.lisburn.gov.uk,-6.04962100000000,BT28 1EP,2014-11-26,fhrs_5_en-GB,5,,FHRS,0
410955,41 Bow Street,Old Warren,Lisburn,Antrim,THORNTONS,Retailers - other,4613,0,,493181,0,,54.51116100000000,1172,819,robert.lamont@lisburn.gov.uk,Lisburn,http://www.lisburn.gov.uk,-6.04704900000000,BT28 1BJ,2014-06-15,fhrs_5_en-GB,5,,FHRS,0
410956,104 Moss Road,Magheralave (Upper Belfast),Lisburn,Antrim,TIMONEY CHEMIST,Retailers - other,4613,,,458216,,,54.53008700000000,1435,819,robert.lamont@lisburn.gov.uk,Lisburn,http://www.lisburn.gov.uk,-6.03559300000000,BT27 4NU,2013-04-09,fhrs_exempt_en-GB,Exempt,,FHRS,
410957,2 Tonagh Avenue,Lisburn,Lisburn,Antrim,TONAGH PRIMARY SCHOOL,School/college/university,7845,0,,493210,0,,54.51027800000000,2098,819,robert.lamont@lisburn.gov.uk,Lisburn,http://www.lisburn.gov.uk,-6.05522800000000,BT28 1DQ,2013-04-29,fhrs_5_en-GB,5,,FHRS,0
410958,154 Upper Dunmurry Lane,Dunmurry,Dunmurry,Antrim,TOP CRUST,Restaurant/Cafe/Canteen,1,0,,458491,5,,54.56280700000000,5242,819,robert.lamont@lisburn.gov.uk,Lisburn,http://www.lisburn.gov.uk,-6.01832700000000,BT17 0HE,2014-08-14,fhrs_5_en-GB,5,,FHRS,5
410959,62 Antrim Street,Lisnagarvy,Lisburn,Antrim,TOP HAT BINGO LTD,Restaurant/Cafe/Canteen,1,,,458276,,,54.51245100000000,1871,819,robert.lamont@lisburn.gov.uk,Lisburn,http://www.lisburn.gov.uk,-6.04845400000000,BT28 1AU,2014-11-04,fhrs_exempt_en-GB,Exempt,,FHRS,
410960,Unit 1 Sprucefield Business Park,Sprucefield,Lisburn,Antrim,TOYS R US LTD,Retailers - other,4613,,,458502,,,54.49073500000000,5332,819,robert.lamont@lisburn.gov.uk,Lisburn,http://www.lisburn.gov.uk,-6.06810200000000,BT27 5UQ,2012-05-02,fhrs_exempt_en-GB,Exempt,,FHRS,
410961,,,,,TRACEY'S TREATS,Other catering premises,7841,0,,458658,0,,,6048,819,robert.lamont@lisburn.gov.uk,Lisburn,http://www.lisburn.gov.uk,,,2013-01-15,fhrs_5_en-GB,5,,FHRS,0
410962,99 Knockmore Road,Ballymacoss,Lisburn,Antrim,TRINITY METHODIST CHURCH,Other catering premises,7841,10,,458333,0,,54.51380500000000,3311,819,robert.lamont@lisburn.gov.uk,Lisburn,http://www.lisburn.gov.uk,-6.08200800000000,BT28 2EA,2014-09-24,fhrs_4_en-GB,4,,FHRS,10
410963,,,,,Truly Marvellous Creations,Other catering premises,7841,0,,655799,0,,,6985,819,robert.lamont@lisburn.gov.uk,Lisburn,http://www.lisburn.gov.uk,,,2014-02-12,fhrs_5_en-GB,5,,FHRS,0
410964,4 Lisburn Square,Old Warren,Lisburn,Antrim,TUESDAY BELL - WETHERSPOONS,Restaurant/Cafe/Canteen,1,0,,458342,5,,54.51014200000000,3597,819,robert.lamont@lisburn.gov.uk,Lisburn,http://www.lisburn.gov.uk,-6.04734400000000,BT28 1TS,2013-10-21,fhrs_5_en-GB,5,,FHRS,0
410965,56 Tullyard Road,Tullyard,Lisburn,Down,TULLYARD PRODUCTS,Manufacturers/packers,7839,,,458815,,,54.50330100000000,84,819,robert.lamont@lisburn.gov.uk,Lisburn,http://www.lisburn.gov.uk,-5.97134100000000,BT27 5JN,2013-06-25,fhrs_exempt_en-GB,Exempt,,FHRS,
410966,22 Dromore Street,Begny,Dromara,Down,TURKISH KEBAB & PIZZA HOUSE,Takeaway/sandwich shop,7844,10,,458781,0,,54.37980600000000,6459,819,robert.lamont@lisburn.gov.uk,Lisburn,http://www.lisburn.gov.uk,-6.01876700000000,BT25 2BJ,2013-11-01,fhrs_4_en-GB,4,,FHRS,5
410967,6/7 Jasmine End,Twinbrook,Dunmurry,Belfast,TWINBROOK NEWS,Retailers - other,4613,5,,458429,0,,54.55414600000000,4395,819,robert.lamont@lisburn.gov.uk,Lisburn,http://www.lisburn.gov.uk,-6.02442000000000,BT17 0BX,2015-01-08,fhrs_4_en-GB,4,,FHRS,10
410968,54 Grand Street,Lambeg South,Lisburn,Antrim,V DORAN & SON,Manufacturers/packers,7839,5,,458811,0,,54.51625200000000,787,819,robert.lamont@lisburn.gov.uk,Lisburn,http://www.lisburn.gov.uk,-6.02798000000000,BT27 4UD,2014-09-25,fhrs_5_en-GB,5,,FHRS,5
410969,15 Main Street,Glenavy,Glenavy,Antrim,VG/VIVO,Retailers - other,4613,5,,458790,10,,54.59168600000000,655,819,robert.lamont@lisburn.gov.uk,Lisburn,http://www.lisburn.gov.uk,-6.21411400000000,BT29 4LN,2013-07-25,fhrs_3_en-GB,3,,FHRS,10
410970,,,,,W & E CATERING,Mobile caterer,7846,10,,458324,5,,,313,819,robert.lamont@lisburn.gov.uk,Lisburn,http://www.lisburn.gov.uk,,,2013-07-22,fhrs_4_en-GB,4,,FHRS,5
410971,3 Castle Street,Lisnagarvy,Lisburn,Antrim,W J CONNOLLY,Retailers - other,4613,5,,493206,0,,54.51189900000000,2009,819,robert.lamont@lisburn.gov.uk,Lisburn,http://www.lisburn.gov.uk,-6.04210300000000,BT27 4SP,2014-01-08,fhrs_5_en-GB,5,,FHRS,0
410972,25 Main Street,Hillsborough,Hillsborough,Down,WALKERS FAMILY BUTCHERS,Retailers - other,4613,0,,458840,0,,54.46206100000000,994,819,robert.lamont@lisburn.gov.uk,Lisburn,http://www.lisburn.gov.uk,-6.08367400000000,BT26 6AE,2013-10-29,fhrs_5_en-GB,5,,FHRS,0
410973,12a Clonevin Park,Lisnagarvy,Lisburn,Antrim,WALLACE HIGH SCHOOL,School/college/university,7845,0,,458300,0,,54.51831700000000,2123,819,robert.lamont@lisburn.gov.uk,Lisburn,http://www.lisburn.gov.uk,-6.05117000000000,BT28 3AD,2013-05-31,fhrs_5_en-GB,5,,FHRS,5
410974,30 Warren Park,Old Warren,Lisburn,Antrim,WARREN PARK STORES,Retailers - other,4613,5,,458214,0,,54.50441500000000,1413,819,robert.lamont@lisburn.gov.uk,Lisburn,http://www.lisburn.gov.uk,-6.05660300000000,BT28 1LL,2013-06-18,fhrs_5_en-GB,5,,FHRS,0
410975,,,,,WATSYS MOBILE SHOP,Mobile caterer,7846,0,,458267,0,,,1800,819,robert.lamont@lisburn.gov.uk,Lisburn,http://www.lisburn.gov.uk,,,2011-12-02,fhrs_5_en-GB,5,,FHRS,0
410976,17 Grove Street,Lisnagarvy,Lisburn,Antrim,Wee Buns Big Cakes,Other catering premises,7841,5,,552212,0,,54.51526100000000,6624,819,robert.lamont@lisburn.gov.uk,Lisburn,http://www.lisburn.gov.uk,-6.02731700000000,BT27 4YQ,2013-04-29,fhrs_5_en-GB,5,,FHRS,0
410977,Unit 3 Bentrim Road,Lisburn,Lisburn,Antrim,WELCOME CHINESE HOT FOOD BAR,Takeaway/sandwich shop,7844,10,,458221,5,,54.51440400000000,1456,819,robert.lamont@lisburn.gov.uk,Lisburn,http://www.lisburn.gov.uk,-6.05534100000000,BT28 2GB,2013-05-29,fhrs_3_en-GB,3,,FHRS,10
410978,62 Deramore Avenue,Risk,,Down,WENDY SCOTT,Hospitals/Childcare/Caring Premises,5,,,539834,,,54.48204900000000,6133,819,robert.lamont@lisburn.gov.uk,Lisburn,http://www.lisburn.gov.uk,-6.23633300000000,BT67 0PY,2011-08-16,fhrs_exempt_en-GB,Exempt,,FHRS,
410979,19 Mullaghglass Road,White Mountain,Lisburn,Antrim,WHITEMOUNTAIN SERVICE STATION,Retailers - other,4613,,,458383,,,54.54844500000000,3997,819,robert.lamont@lisburn.gov.uk,Lisburn,http://www.lisburn.gov.uk,-6.07651900000000,BT28 3SN,2014-04-23,fhrs_5_en-GB,5,,FHRS,
410980,25 Smithfield Square,Old Warren,Lisburn,Antrim,WILLIAMSONS BUTCHERS,Manufacturers/packers,7839,0,,458211,0,,54.51007600000000,1390,819,robert.lamont@lisburn.gov.uk,Lisburn,http://www.lisburn.gov.uk,-6.04608100000000,BT28 1TH,2013-01-31,fhrs_5_en-GB,5,,FHRS,0
410981,2 Comber Road,Edenticullo,Hillsborough,Down,WILLOW BITES AT LISNAGARVEY HOCKEY CLUB,Restaurant/Cafe/Canteen,1,0,,465806,0,,54.46206700000000,6243,819,robert.lamont@lisburn.gov.uk,Lisburn,http://www.lisburn.gov.uk,-6.05989100000000,BT26 6LN,2012-11-03,fhrs_5_en-GB,5,,FHRS,5
410982,8 Woodvale Road,Boardmills,Lisburn,Antrim,WILLOWBROOK LODGE,Hotel/bed & breakfast/guest house,7842,10,,458666,5,,54.47520800000000,6081,819,robert.lamont@lisburn.gov.uk,Lisburn,http://www.lisburn.gov.uk,-5.92601400000000,BT27 6UN,2013-10-02,fhrs_4_en-GB,4,,FHRS,0
410983,25 Glasvey Drive,Killeaton,Dunmurry,Antrim,WILLOWTREE HOUSE BEACON CENTRE,Other catering premises,7841,,,493246,,,54.55584400000000,5502,819,robert.lamont@lisburn.gov.uk,Lisburn,http://www.lisburn.gov.uk,-6.02387400000000,BT17 0DB,2012-07-20,fhrs_exempt_en-GB,Exempt,,FHRS,
410984,61 Mount Eagles Square,Lagmore,Dunmurry,Antrim,WILSONS FOOD STORES - SPAR MOUNT EAGLES,Retailers - supermarkets/hypermarkets,7840,5,,458619,0,,54.55323100000000,5915,819,robert.lamont@lisburn.gov.uk,Lisburn,http://www.lisburn.gov.uk,-6.04720200000000,BT17 0GY,2014-01-24,fhrs_5_en-GB,5,,FHRS,0
410985,126 Ballymacash Road,Ballymacoss,Lisburn,Antrim,WINDMILL STORES,Retailers - other,4613,0,,458459,0,,54.52567100000000,4809,819,robert.lamont@lisburn.gov.uk,Lisburn,http://www.lisburn.gov.uk,-6.07728100000000,BT28 3EZ,2013-04-15,fhrs_5_en-GB,5,,FHRS,5
410986,Unit 5 Smithfield Square,,Lisburn,Antrim,WINDSOR BAKERY,Manufacturers/packers,7839,,,458388,,,54.51007600000000,4053,819,robert.lamont@lisburn.gov.uk,Lisburn,http://www.lisburn.gov.uk,-6.04608100000000,BT28 1TH,2014-02-24,fhrs_5_en-GB,5,,FHRS,
410987,15-17 Haslems Lane,Old Warren,Lisburn,Antrim,WINEFLAIR,Retailers - other,4613,,,458396,,,54.51061400000000,4095,819,robert.lamont@lisburn.gov.uk,Lisburn,http://www.lisburn.gov.uk,-6.04658000000000,BT28 1TW,2012-07-27,fhrs_exempt_en-GB,Exempt,,FHRS,
410988,11-13 Milltown Avenue,Derryaghy,Lisburn,Antrim,WINEFLAIR / VIVO,Retailers - other,4613,0,,458341,0,,54.54204200000000,3588,819,robert.lamont@lisburn.gov.uk,Lisburn,http://www.lisburn.gov.uk,-6.04033500000000,BT28 3TP,2013-03-28,fhrs_5_en-GB,5,,FHRS,0
410989,39 Railway Street,Lisburn,Lisburn,Antrim,Wineflair Ltd,Retailers - other,4613,,,720330,,,54.51209700000000,506675,819,robert.lamont@lisburn.gov.uk,Lisburn,http://www.lisburn.gov.uk,-6.04326700000000,BT28 1XG,2014-10-24,fhrs_exempt_en-GB,Exempt,,FHRS,
410990,195 Kingsway,Dunmurry,Dunmurry,,WINEFLAIR SPAR,Retailers - supermarkets/hypermarkets,7840,10,,458436,0,,54.55043000000000,4431,819,robert.lamont@lisburn.gov.uk,Lisburn,http://www.lisburn.gov.uk,-6.00656200000000,BT17 9SB,2012-08-10,fhrs_4_en-GB,4,,FHRS,0
410991,1 Skyline Drive,Magheralave (Upper Belfast),Lisburn,Antrim,WINEMARK,Retailers - other,4613,,,493222,,,54.52510200000000,3592,819,robert.lamont@lisburn.gov.uk,Lisburn,http://www.lisburn.gov.uk,-6.03852000000000,BT27 4HH,2012-07-20,fhrs_exempt_en-GB,Exempt,,FHRS,
410992,120b Ballymacash Road,Lisburn,Lisburn,Antrim,WINEMARK,Retailers - other,4613,,,458218,,,54.52567100000000,1447,819,robert.lamont@lisburn.gov.uk,Lisburn,http://www.lisburn.gov.uk,-6.07728100000000,BT28 3EZ,2013-01-31,fhrs_exempt_en-GB,Exempt,,FHRS,
410993,1a Pond Park Road,Clogher,Lisburn,Antrim,WINEMARK,Retailers - other,4613,,,458198,,,54.52233300000000,123,819,robert.lamont@lisburn.gov.uk,Lisburn,http://www.lisburn.gov.uk,-6.06064800000000,BT28 3LE,2014-08-07,fhrs_exempt_en-GB,Exempt,,FHRS,
410994,67-69 Sloan Street,Lisburn,Lisburn,Antrim,WINEMARK,Retailers - other,4613,,,458827,,,54.50922800000000,911,819,robert.lamont@lisburn.gov.uk,Lisburn,http://www.lisburn.gov.uk,-6.03532800000000,BT27 5AG,2012-07-27,fhrs_exempt_en-GB,Exempt,,FHRS,
410995,92f Warren Gardens,Lisburn,Lisburn,Antrim,WINEMARK,Retailers - other,4613,,,493203,,,54.50351200000000,1797,819,robert.lamont@lisburn.gov.uk,Lisburn,http://www.lisburn.gov.uk,-6.05746400000000,BT28 1HW,2014-04-24,fhrs_exempt_en-GB,Exempt,,FHRS,
410996,98-100 Longstone Street,Lisburn,Lisburn,Antrim,WINEMARK,Retailers - other,4613,,,466680,,,54.50968500000000,2047,819,robert.lamont@lisburn.gov.uk,Lisburn,http://www.lisburn.gov.uk,-6.05636800000000,BT28 1TR,2012-10-16,fhrs_exempt_en-GB,Exempt,,FHRS,
410997,Kingsway Shopping Centre,,Dunmurry,Belfast,WINEMARK,Retailers - other,4613,,,458521,,,54.55302200000000,543,819,robert.lamont@lisburn.gov.uk,Lisburn,http://www.lisburn.gov.uk,-5.99920100000000,BT17 9NP,2012-05-31,fhrs_exempt_en-GB,Exempt,,FHRS,
410998,5 The Square,Hillsborough,Hillsborough,Down,WINEMARK - RUSSELL CELLARS,Retailers - other,4613,,,458717,,,54.46089100000000,6251,819,robert.lamont@lisburn.gov.uk,Lisburn,http://www.lisburn.gov.uk,-6.08413000000000,BT26 6AG,2014-10-23,fhrs_exempt_en-GB,Exempt,,FHRS,
410999,Units 4&5 Village Centre,Main Street,Moira,Armagh,WINEMARK 128,Retailers - other,4613,,,458490,,,54.48171000000000,5241,819,robert.lamont@lisburn.gov.uk,Lisburn,http://www.lisburn.gov.uk,-6.22477500000000,BT67 0LH,2013-10-16,fhrs_exempt_en-GB,Exempt,,FHRS,
411000,68-72 Chapel Hill,Lisburn,Lisburn,Antrim,WINNERS GAMING CENTRE,Restaurant/Cafe/Canteen,1,,,458281,,,54.51065500000000,2016,819,robert.lamont@lisburn.gov.uk,Lisburn,http://www.lisburn.gov.uk,-6.04962100000000,BT28 1EP,2014-07-28,fhrs_exempt_en-GB,Exempt,,FHRS,
411001,30 Pine Hill,Clogher,Lisburn,Antrim,Woodburn Meats,Distributors/Transporters,7,,,720331,,,54.49365200000000,7008,819,robert.lamont@lisburn.gov.uk,Lisburn,http://www.lisburn.gov.uk,-5.99455500000000,BT27 5PL,2014-11-05,fhrs_exempt_en-GB,Exempt,,FHRS,
411002,67 Hillsborough Road,Old Warren,Lisburn,Antrim,WOODGROVE CARE HOME,Hospitals/Childcare/Caring Premises,5,5,,458202,5,,54.50414600000000,1270,819,robert.lamont@lisburn.gov.uk,Lisburn,http://www.lisburn.gov.uk,-6.04715200000000,BT28 1JN,2015-01-19,fhrs_5_en-GB,5,,FHRS,5
411003,,,,,Woos Cakey Bakey,Other catering premises,7841,0,,720327,0,,,506654,819,robert.lamont@lisburn.gov.uk,Lisburn,http://www.lisburn.gov.uk,,,2014-09-25,fhrs_5_en-GB,5,,FHRS,0
411004,204 Kingsway,Dunmurry,Dunmurry,Antrim,YANKEE DINER,Restaurant/Cafe/Canteen,1,5,,458545,10,,54.55092600000000,5541,819,robert.lamont@lisburn.gov.uk,Lisburn,http://www.lisburn.gov.uk,-6.00344600000000,BT17 9AD,2013-10-24,fhrs_3_en-GB,3,,FHRS,10
411005,34 Carr Road,Carr,Lisburn,Down,YER COD'N,Mobile caterer,7846,0,,458754,0,,54.49051900000000,6363,819,robert.lamont@lisburn.gov.uk,Lisburn,http://www.lisburn.gov.uk,-5.91508300000000,BT27 6YG,2012-10-04,fhrs_5_en-GB,5,,FHRS,0
411006,3 Drumcill Road,Drumsill,Lisburn,Antrim,YEWTREE FARM MEAT,Manufacturers/packers,7839,5,,458468,0,,54.51040400000000,5035,819,robert.lamont@lisburn.gov.uk,Lisburn,http://www.lisburn.gov.uk,-6.13511500000000,BT28 2TG,2013-01-17,fhrs_5_en-GB,5,,FHRS,0
411007,Haslems Lane,,Lisburn,Antrim,Youngs Family Butchers,Retailers - other,4613,10,,605997,0,,54.51061400000000,6680,819,robert.lamont@lisburn.gov.uk,Lisburn,http://www.lisburn.gov.uk,-6.04658000000000,BT28 1TW,2013-10-28,fhrs_4_en-GB,4,,FHRS,0
411008,5-13 Hillsborough Road,Dromara,Dromara,Down,YOUR LOCAL BOOTS PHARMACY,Retailers - other,4613,,,458541,,,54.38212100000000,5521,819,robert.lamont@lisburn.gov.uk,Lisburn,http://www.lisburn.gov.uk,-6.01800900000000,BT25 2BL,2012-06-07,fhrs_exempt_en-GB,Exempt,,FHRS,
411009,171 Kingsway,Dunmurry,Dunmurry,Antrim,YUM YUM,Takeaway/sandwich shop,7844,5,,458395,0,,54.55125600000000,4091,819,robert.lamont@lisburn.gov.uk,Lisburn,http://www.lisburn.gov.uk,-6.00380100000000,BT17 9RY,2014-02-05,fhrs_5_en-GB,5,,FHRS,5
411010,25 Castle Street,Lisburn,Lisburn,Antrim,ZEST CAFE - LISBURN INSTITUTE,School/college/university,7845,5,,458419,0,,54.51221000000000,4311,819,robert.lamont@lisburn.gov.uk,Lisburn,http://www.lisburn.gov.uk,-6.04191800000000,BT27 4SU,2013-12-17,fhrs_5_en-GB,5,,FHRS,0
411011,6 Altan Park,Killeaton,Dunmurry,Antrim,ZUKOS,Mobile caterer,7846,0,,458751,0,,54.55402400000000,6343,819,robert.lamont@lisburn.gov.uk,Lisburn,http://www.lisburn.gov.uk,-6.03127400000000,BT17 0UG,2012-04-26,fhrs_5_en-GB,5,,FHRS,0
