,addressline1,addressline2,addressline3,addressline4,businessname,businesstype,businesstypeid,confidenceinmanagement,extractdate,fhrsid,hygiene,itemcount,latitude,localauthoritybusinessid,localauthoritycode,localauthorityemailaddress,localauthorityname,localauthoritywebsite,longitude,postcode,ratingdate,ratingkey,ratingvalue,returncode,schemetype,structural
412362,,,,,113A Manse Road,Hotel/bed & breakfast/guest house,7842,5,,396318,5,,,3733,823,envhealth@newtownabbey.gov.uk,Newtownabbey,http://www.newtownabbey.gov.uk,,,2014-08-15,fhrs_5_en-GB,5,,FHRS,0
412363,6 Abercorn Drive,Ballyclare,Ballyclare,Antrim,1st Ballyclare Linfield Supporters Club,Pub/bar/nightclub,7843,5,,396283,0,,54.75116700000000,332,823,envhealth@newtownabbey.gov.uk,Newtownabbey,http://www.newtownabbey.gov.uk,-5.99605700000000,BT39 9AE,2014-03-03,fhrs_4_en-GB,4,,FHRS,10
412364,1 Lower Ballyboley Road,Ballyeaston,Ballyclare,Antrim,1st Ballyeaston Presbyterian Church Hall,Other catering premises,7841,0,,396117,0,,54.77306400000000,1577,823,envhealth@newtownabbey.gov.uk,Newtownabbey,http://www.newtownabbey.gov.uk,-5.99564300000000,BT39 9SL,2015-01-15,fhrs_5_en-GB,5,,FHRS,5
412365,Innis Park,Dunanney,Newtownabbey,Antrim,1st Newtownabbey Linfield Supporters Club,Pub/bar/nightclub,7843,5,,396163,0,,54.66802800000000,1720,823,envhealth@newtownabbey.gov.uk,Newtownabbey,http://www.newtownabbey.gov.uk,-5.92180900000000,BT37 9HB,2014-03-03,fhrs_5_en-GB,5,,FHRS,0
412366,20a Main Street,Ballyclare,Ballyclare,Antrim,4-11s After School Club,Hospitals/Childcare/Caring Premises,5,5,,396435,0,,54.75067300000000,6748,823,envhealth@newtownabbey.gov.uk,Newtownabbey,http://www.newtownabbey.gov.uk,-5.99715300000000,BT39 9AB,2014-11-06,fhrs_5_en-GB,5,,FHRS,5
412367,740 Shore Road,,Newtownabbey,Antrim,6th Form Centre @ Belfast High School,School/college/university,7845,10,,396319,0,,54.68682800000000,3750,823,envhealth@newtownabbey.gov.uk,Newtownabbey,http://www.newtownabbey.gov.uk,-5.87643100000000,BT37 0PX,2013-12-16,fhrs_4_en-GB,4,,FHRS,0
412368,119 Doagh Road,Croghfern,Newtownabbey,Antrim,A C Meats,Manufacturers/packers,7839,5,,691339,5,,54.67462000000000,18250,823,envhealth@newtownabbey.gov.uk,Newtownabbey,http://www.newtownabbey.gov.uk,-5.91381300000000,BT36 6AA,2014-08-05,fhrs_5_en-GB,5,,FHRS,0
412369,17 Old Church Road,Drumnadrough,Newtownabbey,Antrim,Abbey Social Club,Pub/bar/nightclub,7843,5,,396303,0,,54.65660500000000,367,823,envhealth@newtownabbey.gov.uk,Newtownabbey,http://www.newtownabbey.gov.uk,-5.92423700000000,BT36 7LU,2014-03-03,fhrs_5_en-GB,5,,FHRS,0
412370,1 Monkstown Village Centre,Monkstown,Newtownabbey,Antrim,ABBEY Surestart,Hospitals/Childcare/Caring Premises,5,5,,396559,5,,54.68915600000000,8352,823,envhealth@newtownabbey.gov.uk,Newtownabbey,http://www.newtownabbey.gov.uk,-5.91733300000000,BT37 0HS,2009-03-12,fhrs_5_en-GB,5,,FHRS,0
412371,2a Rathcoole Drive,White House,Newtownabbey,Antrim,ABBEY SureStart,Hospitals/Childcare/Caring Premises,5,0,,396411,0,,54.65998300000000,6569,823,envhealth@newtownabbey.gov.uk,Newtownabbey,http://www.newtownabbey.gov.uk,-5.91426900000000,BT37 9AD,2014-12-12,fhrs_5_en-GB,5,,FHRS,0
412372,17 Kings Walk,Croghfern,Newtownabbey,Antrim,Abbey Surestart - St James Primary,Hospitals/Childcare/Caring Premises,5,0,,396664,0,,54.67655400000000,9227,823,envhealth@newtownabbey.gov.uk,Newtownabbey,http://www.newtownabbey.gov.uk,-5.90560500000000,BT37 0AS,2014-10-23,fhrs_5_en-GB,5,,FHRS,0
412373,,,,,Abbeydene House Bed & Breakfast,Hotel/bed & breakfast/guest house,7842,0,,396548,5,,,8266,823,envhealth@newtownabbey.gov.uk,Newtownabbey,http://www.newtownabbey.gov.uk,,,2014-11-17,fhrs_5_en-GB,5,,FHRS,0
412374,74 Doagh Road,Ballyclare,Ballyclare,Antrim,Abbeyfield,Other catering premises,7841,0,,396346,0,,54.75097500000000,427,823,envhealth@newtownabbey.gov.uk,Newtownabbey,http://www.newtownabbey.gov.uk,-6.00787100000000,BT39 9EF,2014-08-26,fhrs_5_en-GB,5,,FHRS,0
412375,Merville Garden Village,Drumnadrough,Newtownabbey,Antrim,Abbeyfield Merville,Other catering premises,7841,5,,396280,5,,54.65602700000000,328,823,envhealth@newtownabbey.gov.uk,Newtownabbey,http://www.newtownabbey.gov.uk,-5.91098500000000,BT37 9TF,2014-03-26,fhrs_4_en-GB,4,,FHRS,10
412376,441 Shore Road,White Abbey,Newtownabbey,Antrim,Abbeylands Care Home,Hospitals/Childcare/Caring Premises,5,0,,396062,5,,54.67021300000000,1,823,envhealth@newtownabbey.gov.uk,Newtownabbey,http://www.newtownabbey.gov.uk,-5.89948300000000,BT37 9SE,2014-08-14,fhrs_5_en-GB,5,,FHRS,5
412377,91 Doagh Road,White Abbey,Newtownabbey,Antrim,Abbots Cross Presbyterian Church,Other catering premises,7841,5,,396154,0,,54.67067300000000,17020,823,envhealth@newtownabbey.gov.uk,Newtownabbey,http://www.newtownabbey.gov.uk,-5.91260500000000,BT37 9QN,2014-07-10,fhrs_5_en-GB,5,,FHRS,0
412378,86 Doagh Road,White House,Newtownabbey,Antrim,Abbots Cross Primary School Meals Kitchen,School/college/university,7845,0,,396181,0,,54.66907500000000,2,823,envhealth@newtownabbey.gov.uk,Newtownabbey,http://www.newtownabbey.gov.uk,-5.91319900000000,BT37 9QW,2014-02-03,fhrs_5_en-GB,5,,FHRS,5
412379,82 Mallusk Road,Grange Of Mallusk,Newtownabbey,Antrim,Academy Sports Club,Pub/bar/nightclub,7843,5,,396383,0,,54.67892400000000,596,823,envhealth@newtownabbey.gov.uk,Newtownabbey,http://www.newtownabbey.gov.uk,-6.00335400000000,BT36 4QE,2013-01-24,fhrs_5_en-GB,5,,FHRS,0
412380,,,,,Ace Cakes,Manufacturers/packers,7839,0,,410489,0,,,17130,823,envhealth@newtownabbey.gov.uk,Newtownabbey,http://www.newtownabbey.gov.uk,,,2012-06-28,fhrs_5_en-GB,5,,FHRS,0
412381,126 Doagh Road,White Abbey,Newtownabbey,Antrim,Acorns After School Club,Hospitals/Childcare/Caring Premises,5,10,,396475,5,,54.67157100000000,6936,823,envhealth@newtownabbey.gov.uk,Newtownabbey,http://www.newtownabbey.gov.uk,-5.91361300000000,BT37 9QR,2006-06-06,fhrs_4_en-GB,4,,FHRS,0
412382,64 Doagh Road,White House,Newtownabbey,Antrim,Acorns Day Nursery & After Schools Club,Hospitals/Childcare/Caring Premises,5,0,,396417,0,,54.66384100000000,6609,823,envhealth@newtownabbey.gov.uk,Newtownabbey,http://www.newtownabbey.gov.uk,-5.91135900000000,BT37 9NY,2014-10-16,fhrs_5_en-GB,5,,FHRS,5
412383,4 Main Street,Doagh,,Antrim,Alexander McConnell Ltd,Pub/bar/nightclub,7843,5,,396167,10,,54.73807800000000,179,823,envhealth@newtownabbey.gov.uk,Newtownabbey,http://www.newtownabbey.gov.uk,-6.04238600000000,BT39 0QL,2014-02-19,fhrs_4_en-GB,4,,FHRS,5
412384,,,,,Alice Andrew Catering,Other catering premises,7841,5,,396334,5,,,4,823,envhealth@newtownabbey.gov.uk,Newtownabbey,http://www.newtownabbey.gov.uk,,,2014-06-04,fhrs_5_en-GB,5,,FHRS,0
412385,,,,,Aly T Cakes,Manufacturers/packers,7839,0,,410494,0,,,17153,823,envhealth@newtownabbey.gov.uk,Newtownabbey,http://www.newtownabbey.gov.uk,,,2014-09-18,fhrs_5_en-GB,5,,FHRS,0
412386,,,,,AM Cake Design,Manufacturers/packers,7839,10,,396631,0,,,9091,823,envhealth@newtownabbey.gov.uk,Newtownabbey,http://www.newtownabbey.gov.uk,,,2011-11-03,fhrs_4_en-GB,4,,FHRS,0
412387,557 Doagh Road,Carntall,Newtownabbey,Antrim,Apprentice Boys Memorial Hall,Other catering premises,7841,,,396218,,,54.69704100000000,2554,823,envhealth@newtownabbey.gov.uk,Newtownabbey,http://www.newtownabbey.gov.uk,-5.94289700000000,BT36 5BT,2014-06-17,fhrs_exempt_en-GB,Exempt,,FHRS,
412388,370 Doagh Road,Croghfern,Newtownabbey,Antrim,Aramark @ FG Wilsons,Restaurant/Cafe/Canteen,1,5,,396106,10,,54.68421500000000,1530,823,envhealth@newtownabbey.gov.uk,Newtownabbey,http://www.newtownabbey.gov.uk,-5.92160200000000,BT36 6XL,2013-10-14,fhrs_4_en-GB,4,,FHRS,5
412389,Northcott Shopping Centre Ballyclare Road,,Newtownabbey,Antrim,Aramark @ Tesco Restaurant,Restaurant/Cafe/Canteen,1,5,,396683,0,,54.67679900000000,9339,823,envhealth@newtownabbey.gov.uk,Newtownabbey,http://www.newtownabbey.gov.uk,-5.96260400000000,BT36 5HD,2013-07-23,fhrs_5_en-GB,5,,FHRS,0
412390,Sally Gardens,,Newtownabbey,,Ardrigh Fold,Other catering premises,7841,0,,655818,0,,54.67593500000000,10254,823,envhealth@newtownabbey.gov.uk,Newtownabbey,http://www.newtownabbey.gov.uk,-5.95934500000000,BT36 5RX,2014-03-27,fhrs_5_en-GB,5,,FHRS,0
412391,11 Park Street,Ballyclare,Ballyclare,Antrim,Asda,Retailers - supermarkets/hypermarkets,7840,10,,396546,10,,54.75294800000000,8218,823,envhealth@newtownabbey.gov.uk,Newtownabbey,http://www.newtownabbey.gov.uk,-5.99999200000000,BT39 9DQ,2014-06-11,fhrs_4_en-GB,4,,FHRS,0
412392,20 Abbots Cross,White Abbey,Newtownabbey,Antrim,Ashers,Retailers - other,4613,10,,396112,5,,54.66871900000000,1550,823,envhealth@newtownabbey.gov.uk,Newtownabbey,http://www.newtownabbey.gov.uk,-5.91180600000000,BT37 9QU,2013-09-26,fhrs_3_en-GB,3,,FHRS,10
412393,11 Kings Crescent,Croghfern,Newtownabbey,Antrim,Ashers Baking Company,Retailers - other,4613,5,,396063,0,,54.67829600000000,10,823,envhealth@newtownabbey.gov.uk,Newtownabbey,http://www.newtownabbey.gov.uk,-5.91071000000000,BT37 0DH,2013-09-26,fhrs_5_en-GB,5,,FHRS,5
412394,24 Ballyeaston Road,Ballyclare,Ballyclare,Antrim,Ashers Baking Company,Retailers - other,4613,5,,396377,0,,54.75452900000000,572,823,envhealth@newtownabbey.gov.uk,Newtownabbey,http://www.newtownabbey.gov.uk,-6.00165400000000,BT39 9BW,2014-01-24,fhrs_5_en-GB,5,,FHRS,5
412395,28 Mallusk Road,Grange Of Mallusk,Newtownabbey,Antrim,Ashers Baking Company,Retailers - other,4613,5,,485880,5,,54.67452000000000,17671,823,envhealth@newtownabbey.gov.uk,Newtownabbey,http://www.newtownabbey.gov.uk,-5.98643900000000,BT36 4PP,2014-07-29,fhrs_5_en-GB,5,,FHRS,0
412396,9 Monkstown Village Centre,Monkstown,Newtownabbey,Antrim,Ashers Baking Company,Retailers - other,4613,5,,396545,10,,54.68915600000000,8206,823,envhealth@newtownabbey.gov.uk,Newtownabbey,http://www.newtownabbey.gov.uk,-5.91733300000000,BT37 0HS,2014-01-07,fhrs_3_en-GB,3,,FHRS,10
412397,581 Doagh Road,Ballyearl,Newtownabbey,Antrim,Ashers Baking Company Cafe,Retailers - other,4613,10,,700464,10,,54.70151300000000,18299,823,envhealth@newtownabbey.gov.uk,Newtownabbey,http://www.newtownabbey.gov.uk,-5.96029500000000,BT36 5RZ,2014-08-18,fhrs_4_en-GB,4,,FHRS,0
412398,279 Carnmoney Road,Carnmoney,Newtownabbey,Antrim,Ashers Carnmoney,Retailers - other,4613,5,,396384,0,,54.68297200000000,60,823,envhealth@newtownabbey.gov.uk,Newtownabbey,http://www.newtownabbey.gov.uk,-5.95091200000000,BT36 6JS,2013-08-06,fhrs_5_en-GB,5,,FHRS,0
412399,57 Ashgrove Road,Carnmoney,Newtownabbey,Antrim,Ashgrove Nursery School Dining,School/college/university,7845,5,,396495,0,,54.67554300000000,7,823,envhealth@newtownabbey.gov.uk,Newtownabbey,http://www.newtownabbey.gov.uk,-5.95100800000000,BT36 6LJ,2014-03-27,fhrs_5_en-GB,5,,FHRS,0
412400,Ashgrove Road,Carnmoney,Newtownabbey,Antrim,Ashgrove Primary School Meals,School/college/university,7845,0,,396390,0,,54.67554300000000,629,823,envhealth@newtownabbey.gov.uk,Newtownabbey,http://www.newtownabbey.gov.uk,-5.95100800000000,BT36 6LJ,2015-02-10,fhrs_5_en-GB,5,,FHRS,5
412401,2-10 Ashgrove Road,Carnmoney,Newtownabbey,Antrim,Ashwood Nursing Home,Hospitals/Childcare/Caring Premises,5,5,,396075,5,,54.67554300000000,12,823,envhealth@newtownabbey.gov.uk,Newtownabbey,http://www.newtownabbey.gov.uk,-5.95100800000000,BT36 6LJ,2013-09-17,fhrs_5_en-GB,5,,FHRS,0
412402,288 Antrim Road,Collinward,Newtownabbey,Antrim,Asian Kitchen,Takeaway/sandwich shop,7844,10,,396660,10,,54.66958000000000,9208,823,envhealth@newtownabbey.gov.uk,Newtownabbey,http://www.newtownabbey.gov.uk,-5.95707500000000,BT36 7QT,2013-10-15,fhrs_3_en-GB,3,,FHRS,10
412403,Unit 4 Church Road,Drumnadrough,Newtownabbey,Antrim,Autograph the Food People @ B&Q,Restaurant/Cafe/Canteen,1,0,,396310,0,,54.65847700000000,3707,823,envhealth@newtownabbey.gov.uk,Newtownabbey,http://www.newtownabbey.gov.uk,-5.92493200000000,BT36 7GU,2013-07-03,fhrs_5_en-GB,5,,FHRS,5
412404,16 Doagh Road,Ballyclare,Ballyclare,Antrim,Ballyclare Free Presbyterian Church,Other catering premises,7841,0,,396584,5,,54.75132800000000,8683,823,envhealth@newtownabbey.gov.uk,Newtownabbey,http://www.newtownabbey.gov.uk,-6.00477800000000,BT39 9BG,2013-01-31,fhrs_5_en-GB,5,,FHRS,5
412405,25 Springvale Road,Rashee,,Antrim,Ballyclare Golf Club Bar,Pub/bar/nightclub,7843,5,,396401,5,,54.77122400000000,6494,823,envhealth@newtownabbey.gov.uk,Newtownabbey,http://www.newtownabbey.gov.uk,-6.03029600000000,BT39 9JW,2009-02-26,fhrs_5_en-GB,5,,FHRS,0
412406,31 Rashee Road,Ballyclare,Ballyclare,Antrim,Ballyclare High School,School/college/university,7845,5,,396175,5,,54.75444400000000,19,823,envhealth@newtownabbey.gov.uk,Newtownabbey,http://www.newtownabbey.gov.uk,-6.00248100000000,BT39 9HJ,2014-04-09,fhrs_5_en-GB,5,,FHRS,5
412407,Main Street,Ballyclare,Ballyclare,Antrim,Ballyclare Methodist Church,Other catering premises,7841,,,396228,,,54.75067300000000,2587,823,envhealth@newtownabbey.gov.uk,Newtownabbey,http://www.newtownabbey.gov.uk,-5.99715300000000,BT39 9AB,2014-01-21,fhrs_exempt_en-GB,Exempt,,FHRS,
412408,Grange Drive,Ballyclare,Ballyclare,Antrim,Ballyclare Nursery School,Hospitals/Childcare/Caring Premises,5,5,,396281,0,,54.75228400000000,330,823,envhealth@newtownabbey.gov.uk,Newtownabbey,http://www.newtownabbey.gov.uk,-6.01097600000000,BT39 9EY,2014-03-27,fhrs_5_en-GB,5,,FHRS,0
412409,6 Foundry Lane,Ballyclare,Ballyclare,Antrim,Ballyclare Presbyterian Church Hall,Other catering premises,7841,,,396219,,,54.75227100000000,2559,823,envhealth@newtownabbey.gov.uk,Newtownabbey,http://www.newtownabbey.gov.uk,-6.00526000000000,BT39 9BQ,2014-06-06,fhrs_5_en-GB,5,,FHRS,
412410,Doagh Road,Ballyclare,Ballyclare,Antrim,Ballyclare Primary/Secondary School,School/college/university,7845,0,,396329,0,,54.75132800000000,392,823,envhealth@newtownabbey.gov.uk,Newtownabbey,http://www.newtownabbey.gov.uk,-6.00477800000000,BT39 9BG,2013-06-13,fhrs_5_en-GB,5,,FHRS,5
412411,107a Doagh Road,Ballyclare,Ballyclare,Antrim,Ballyclare Private Nursing Home,Hospitals/Childcare/Caring Premises,5,0,,632394,0,,54.74999800000000,18151,823,envhealth@newtownabbey.gov.uk,Newtownabbey,http://www.newtownabbey.gov.uk,-6.01239300000000,BT39 9ES,2015-01-26,fhrs_5_en-GB,5,,FHRS,0
412412,18 Ballycorr Road,Ballyclare,Ballyclare,Antrim,Ballyclare Reformed Presbyterian Church,Other catering premises,7841,0,,396513,0,,54.75477400000000,7444,823,envhealth@newtownabbey.gov.uk,Newtownabbey,http://www.newtownabbey.gov.uk,-6.00016600000000,BT39 9DD,2014-02-26,fhrs_5_en-GB,5,,FHRS,0
412413,2 Avondale Drive,Ballyclare,Ballyclare,Antrim,Ballyclare Royal British Legion,Pub/bar/nightclub,7843,5,,396357,10,,54.74833600000000,478,823,envhealth@newtownabbey.gov.uk,Newtownabbey,http://www.newtownabbey.gov.uk,-6.00313900000000,BT39 9EA,2014-01-29,fhrs_4_en-GB,4,,FHRS,5
412414,Claughlin Lane,,Ballyclare,,Ballyclare Rugby Football Club,Pub/bar/nightclub,7843,10,,396358,0,,54.75850100000000,481,823,envhealth@newtownabbey.gov.uk,Newtownabbey,http://www.newtownabbey.gov.uk,-6.01648100000000,BT39 9JD,2014-06-17,fhrs_4_en-GB,4,,FHRS,0
412415,23 The Square,Ballyclare,Ballyclare,Antrim,Ballyclare Sports and Social Club,Pub/bar/nightclub,7843,10,,396537,0,,54.75272000000000,802,823,envhealth@newtownabbey.gov.uk,Newtownabbey,http://www.newtownabbey.gov.uk,-6.00143200000000,BT39 9BB,2012-05-17,fhrs_4_en-GB,4,,FHRS,10
412416,Ballycraigy Rd,,Newtownabbey,Antrim,Ballycraigy Congregational Church,Other catering premises,7841,5,,396413,0,,54.68792600000000,6573,823,envhealth@newtownabbey.gov.uk,Newtownabbey,http://www.newtownabbey.gov.uk,-5.97194100000000,BT36 5ZZ,2013-12-06,fhrs_5_en-GB,5,,FHRS,0
412417,585 Doagh Road,Ballyearl,Newtownabbey,Antrim,Ballyearl Squash & Social Club,Pub/bar/nightclub,7843,10,,396209,0,,54.70151300000000,25,823,envhealth@newtownabbey.gov.uk,Newtownabbey,http://www.newtownabbey.gov.uk,-5.96029500000000,BT36 5RZ,2013-12-17,fhrs_4_en-GB,4,,FHRS,10
412418,44 Ballyhenry Avenue,Ballyhenry,Newtownabbey,Antrim,Ballyhenry Nursery Dining Centre,Hospitals/Childcare/Caring Premises,5,5,,396284,0,,54.68052600000000,333,823,envhealth@newtownabbey.gov.uk,Newtownabbey,http://www.newtownabbey.gov.uk,-5.97052700000000,BT36 5AZ,2013-06-04,fhrs_5_en-GB,5,,FHRS,5
412419,11 Ballyhenry Road,Ballyvesey,Newtownabbey,Antrim,Ballyhenry Presbyterian Church,Other catering premises,7841,,,396240,,,54.68048000000000,2694,823,envhealth@newtownabbey.gov.uk,Newtownabbey,http://www.newtownabbey.gov.uk,-5.97586300000000,BT36 5AX,2014-07-03,fhrs_exempt_en-GB,Exempt,,FHRS,
412420,44 Ballyhenry Avenue,Ballyhenry,Newtownabbey,Antrim,Ballyhenry Primary School Meals,School/college/university,7845,5,,396285,0,,54.68052600000000,334,823,envhealth@newtownabbey.gov.uk,Newtownabbey,http://www.newtownabbey.gov.uk,-5.97052700000000,BT36 5AZ,2014-03-27,fhrs_5_en-GB,5,,FHRS,0
412421,12 Ballylagan Road,Straid,Ballyclare,Antrim,Ballylagan Organic Farm,Retailers - other,4613,0,,396100,5,,54.75732100000000,1500,823,envhealth@newtownabbey.gov.uk,Newtownabbey,http://www.newtownabbey.gov.uk,-5.92237900000000,BT39 9NF,2013-08-13,fhrs_5_en-GB,5,,FHRS,5
412422,10 Ballylagan Road,Straid,Ballyclare,Antrim,Ballylagan Organic Farm Tea Room,Restaurant/Cafe/Canteen,1,10,,396678,10,,54.75732100000000,9308,823,envhealth@newtownabbey.gov.uk,Newtownabbey,http://www.newtownabbey.gov.uk,-5.92237900000000,BT39 9NF,2013-08-13,fhrs_3_en-GB,3,,FHRS,5
412423,Ballylinney Road,Ballylinny,Ballyclare,Antrim,Ballylinney Presbyterian Church,Other catering premises,7841,,,396226,,,54.73371300000000,2583,823,envhealth@newtownabbey.gov.uk,Newtownabbey,http://www.newtownabbey.gov.uk,-5.99246300000000,BT39 9PB,2013-09-24,fhrs_exempt_en-GB,Exempt,,FHRS,
412424,Larne Road,Toberdowney,,Antrim,Ballynure Methodist Church Hall,Other catering premises,7841,,,396269,,,54.77677100000000,2979,823,envhealth@newtownabbey.gov.uk,Newtownabbey,http://www.newtownabbey.gov.uk,-5.94918800000000,BT39 9UA,2013-02-04,fhrs_exempt_en-GB,Exempt,,FHRS,
412425,Main Street,Dunturky,,Antrim,Ballynure Play Group @ Ballynure Methodist Church,Hospitals/Childcare/Caring Premises,5,0,,396603,0,,54.77157400000000,8837,823,envhealth@newtownabbey.gov.uk,Newtownabbey,http://www.newtownabbey.gov.uk,-5.95268400000000,BT39 9TU,2014-03-14,fhrs_5_en-GB,5,,FHRS,0
412426,37 Main Street,Dunturky,,Antrim,Ballynure Presbyterian Church,Other catering premises,7841,10,,396221,0,,54.77190800000000,2561,823,envhealth@newtownabbey.gov.uk,Newtownabbey,http://www.newtownabbey.gov.uk,-5.95170300000000,BT39 9QA,2014-03-13,fhrs_4_en-GB,4,,FHRS,10
412427,2 Lismenary Road,Toberdowney,,Antrim,Ballynure Primary Meals Kitchen,School/college/university,7845,5,,396232,0,,54.77956700000000,26,823,envhealth@newtownabbey.gov.uk,Newtownabbey,http://www.newtownabbey.gov.uk,-5.95566800000000,BT39 9UE,2014-06-13,fhrs_5_en-GB,5,,FHRS,0
412428,154 Ballyrobert Road,Lisnalinchy,Ballyclare,Antrim,Ballyrobert Cottage Garden Nursery,Restaurant/Cafe/Canteen,1,0,,396643,0,,54.72030100000000,9160,823,envhealth@newtownabbey.gov.uk,Newtownabbey,http://www.newtownabbey.gov.uk,-6.00512300000000,BT39 9RT,2014-03-03,fhrs_5_en-GB,5,,FHRS,0
412429,47 Mossley Road,,Ballyclare,,Ballyrobert Vivo,Retailers - other,4613,10,,687319,10,,54.71644300000000,18291,823,envhealth@newtownabbey.gov.uk,Newtownabbey,http://www.newtownabbey.gov.uk,-6.00057900000000,BT39 9RX,2014-07-23,fhrs_3_en-GB,3,,FHRS,5
412430,91 Templepatrick Road,Ballygallagh,,Antrim,Bambou,Restaurant/Cafe/Canteen,1,,,396457,,,54.74285400000000,6857,823,envhealth@newtownabbey.gov.uk,Newtownabbey,http://www.newtownabbey.gov.uk,-6.00628200000000,BT39 9RQ,2015-01-20,fhrs_4_en-GB,4,,FHRS,
412431,Unit 3 Longwood Retail Park,,Newtownabbey,Antrim,Bargain Buys,Retailers - other,4613,0,,396663,5,,54.65282300000000,9225,823,envhealth@newtownabbey.gov.uk,Newtownabbey,http://www.newtownabbey.gov.uk,-5.91852600000000,BT37 9UF,2014-06-05,fhrs_5_en-GB,5,,FHRS,0
412432,Shore Road,Jordanstown,Newtownabbey,Antrim,Barista,Restaurant/Cafe/Canteen,1,5,,396647,5,,54.68412900000000,9170,823,envhealth@newtownabbey.gov.uk,Newtownabbey,http://www.newtownabbey.gov.uk,-5.87772000000000,BT37 0PY,2014-03-28,fhrs_5_en-GB,5,,FHRS,0
412433,153 Ballyrobert Road,Grange Of Ballyrobert,Ballyclare,Antrim,Barnaby's,Restaurant/Cafe/Canteen,1,5,,396098,5,,54.72030100000000,1495,823,envhealth@newtownabbey.gov.uk,Newtownabbey,http://www.newtownabbey.gov.uk,-6.00512300000000,BT39 9RT,2013-10-23,fhrs_5_en-GB,5,,FHRS,5
412434,The Square,Ballyclare,Ballyclare,Antrim,Beatties Fish & Chips,Takeaway/sandwich shop,7844,5,,480899,0,,54.75272000000000,17657,823,envhealth@newtownabbey.gov.uk,Newtownabbey,http://www.newtownabbey.gov.uk,-6.00143200000000,BT39 9BB,2014-08-28,fhrs_5_en-GB,5,,FHRS,5
412435,Innis Walk,White House,Newtownabbey,Antrim,Belfast City Mission,Other catering premises,7841,5,,610413,0,,54.66698600000000,18109,823,envhealth@newtownabbey.gov.uk,Newtownabbey,http://www.newtownabbey.gov.uk,-5.91975400000000,BT37 9EZ,2013-09-24,fhrs_5_en-GB,5,,FHRS,0
412436,740 Shore Road,,Newtownabbey,Antrim,Belfast High School,School/college/university,7845,,,396323,,,54.68682800000000,38,823,envhealth@newtownabbey.gov.uk,Newtownabbey,http://www.newtownabbey.gov.uk,-5.87643100000000,BT37 0PX,2014-05-08,fhrs_5_en-GB,5,,FHRS,
412437,129 Antrim Road,Collinward,Newtownabbey,Antrim,Bellevue Arms,Restaurant/Cafe/Canteen,1,10,,396327,10,,54.66451600000000,39,823,envhealth@newtownabbey.gov.uk,Newtownabbey,http://www.newtownabbey.gov.uk,-5.94824600000000,BT36 7QS,2014-01-23,fhrs_3_en-GB,3,,FHRS,10
412438,36 Mill Road,Ballygolan,Newtownabbey,Antrim,Ben Madigan Care Home,Hospitals/Childcare/Caring Premises,5,5,,396572,5,,54.65121600000000,8583,823,envhealth@newtownabbey.gov.uk,Newtownabbey,http://www.newtownabbey.gov.uk,-5.92173800000000,BT36 7BH,2015-01-12,fhrs_5_en-GB,5,,FHRS,5
412439,Church Road,Dunanney,Newtownabbey,Antrim,Bernie's Burgers,Mobile caterer,7846,0,,396210,5,,54.66782000000000,2504,823,envhealth@newtownabbey.gov.uk,Newtownabbey,http://www.newtownabbey.gov.uk,-5.93329100000000,BT36 7LS,2013-06-05,fhrs_5_en-GB,5,,FHRS,5
412440,Longwood Road,,Newtownabbey,Antrim,BHS,Restaurant/Cafe/Canteen,1,5,,396395,0,,,6448,823,envhealth@newtownabbey.gov.uk,Newtownabbey,http://www.newtownabbey.gov.uk,,BT37 9UJ,2013-12-09,fhrs_5_en-GB,5,,FHRS,5
412441,Unit 1 Central Park,,Newtownabbey,Antrim,Bite Snack Foods Limited,Mobile caterer,7846,0,,691341,0,,54.67283900000000,18280,823,envhealth@newtownabbey.gov.uk,Newtownabbey,http://www.newtownabbey.gov.uk,-5.98801000000000,BT36 4FS,2014-07-30,fhrs_5_en-GB,5,,FHRS,5
412442,,,,,Blue Riband Catering 1,Mobile caterer,7846,0,,396315,0,,,3729,823,envhealth@newtownabbey.gov.uk,Newtownabbey,http://www.newtownabbey.gov.uk,,,2014-07-17,fhrs_5_en-GB,5,,FHRS,5
412443,,,,,Bobs Popcorn,Retailers - other,4613,5,,396527,5,,,7957,823,envhealth@newtownabbey.gov.uk,Newtownabbey,http://www.newtownabbey.gov.uk,,,2014-03-03,fhrs_5_en-GB,5,,FHRS,0
412444,75a Doagh Road,White House,Newtownabbey,Antrim,Bombay Dreams,Takeaway/sandwich shop,7844,,,396093,,,54.66618400000000,1441,823,envhealth@newtownabbey.gov.uk,Newtownabbey,http://www.newtownabbey.gov.uk,-5.91176600000000,BT37 9QJ,2014-08-27,fhrs_4_en-GB,4,,FHRS,
412445,14 North End,Ballyclare,Ballyclare,Antrim,Boots Chemist,Retailers - other,4613,,,668541,,,54.75348000000000,18260,823,envhealth@newtownabbey.gov.uk,Newtownabbey,http://www.newtownabbey.gov.uk,-6.00175200000000,BT39 9BN,2014-04-04,fhrs_exempt_en-GB,Exempt,,FHRS,
412446,6 The Square,Ballyclare,Ballyclare,Antrim,Boots the Chemist,Retailers - other,4613,,,396146,,,54.75272000000000,1686,823,envhealth@newtownabbey.gov.uk,Newtownabbey,http://www.newtownabbey.gov.uk,-6.00143200000000,BT39 9BB,2014-03-03,fhrs_exempt_en-GB,Exempt,,FHRS,
412447,Longwood Road,Drumnadrough,Newtownabbey,Antrim,Boots The Chemist,Retailers - other,4613,,,396375,,,54.65550000000000,560,823,envhealth@newtownabbey.gov.uk,Newtownabbey,http://www.newtownabbey.gov.uk,-5.91798600000000,BT37 9UH,2012-03-29,fhrs_exempt_en-GB,Exempt,,FHRS,
412448,6 Hillview Avenue,Croghfern,Newtownabbey,Antrim,Boots Uk Ltd,Retailers - other,4613,,,396342,,,54.67442400000000,418,823,envhealth@newtownabbey.gov.uk,Newtownabbey,http://www.newtownabbey.gov.uk,-5.91235100000000,BT36 6AE,2012-03-29,fhrs_exempt_en-GB,Exempt,,FHRS,
412449,,,,,Breckenhill,Other catering premises,7841,5,,396474,0,,,6935,823,envhealth@newtownabbey.gov.uk,Newtownabbey,http://www.newtownabbey.gov.uk,,,2013-07-31,fhrs_5_en-GB,5,,FHRS,5
412450,,,,,Bronnie Bakes,Manufacturers/packers,7839,5,,396145,0,,,16858,823,envhealth@newtownabbey.gov.uk,Newtownabbey,http://www.newtownabbey.gov.uk,,,2012-06-14,fhrs_5_en-GB,5,,FHRS,0
412451,50 Main Street,Ballyclare,Ballyclare,Antrim,Brown's Coffee Co,Restaurant/Cafe/Canteen,1,0,,467740,0,,54.75152800000000,17627,823,envhealth@newtownabbey.gov.uk,Newtownabbey,http://www.newtownabbey.gov.uk,-5.99944100000000,BT39 9AA,2013-02-27,fhrs_5_en-GB,5,,FHRS,0
412452,637 Shore Road,Jordanstown,Newtownabbey,Antrim,Bureau By The Lough,Restaurant/Cafe/Canteen,1,,,396307,,,54.67759100000000,3699,823,envhealth@newtownabbey.gov.uk,Newtownabbey,http://www.newtownabbey.gov.uk,-5.89080600000000,BT37 0ST,2014-06-10,fhrs_5_en-GB,5,,FHRS,
412453,Longwood Road,Drumnadrough,Newtownabbey,Antrim,Burger King,Restaurant/Cafe/Canteen,1,5,,396428,0,,54.65550000000000,6691,823,envhealth@newtownabbey.gov.uk,Newtownabbey,http://www.newtownabbey.gov.uk,-5.91798600000000,BT37 9UH,2014-07-01,fhrs_5_en-GB,5,,FHRS,0
412454,Unit 11 Northcott Shopping Centre,,Newtownabbey,,Burger King,Restaurant/Cafe/Canteen,1,5,,480898,5,,54.67679900000000,17648,823,envhealth@newtownabbey.gov.uk,Newtownabbey,http://www.newtownabbey.gov.uk,-5.96260400000000,BT36 5EA,2014-06-17,fhrs_5_en-GB,5,,FHRS,0
412455,16 Burnside Road,Douglasland,,Antrim,Burnside Tavern,Pub/bar/nightclub,7843,,,396363,,,54.75948700000000,497,823,envhealth@newtownabbey.gov.uk,Newtownabbey,http://www.newtownabbey.gov.uk,-6.04899700000000,BT39 0SH,2012-10-03,fhrs_4_en-GB,4,,FHRS,
412456,20a Main Street,Ballyclare,Ballyclare,Antrim,Busy Bees Pre-School,Hospitals/Childcare/Caring Premises,5,0,,396667,0,,54.75067300000000,9239,823,envhealth@newtownabbey.gov.uk,Newtownabbey,http://www.newtownabbey.gov.uk,-5.99715300000000,BT39 9AB,2014-10-21,fhrs_5_en-GB,5,,FHRS,5
412457,67 Church Road,Dunanney,Newtownabbey,Antrim,Cafe Cosh,Restaurant/Cafe/Canteen,1,5,,396592,0,,54.66782000000000,8750,823,envhealth@newtownabbey.gov.uk,Newtownabbey,http://www.newtownabbey.gov.uk,-5.93329100000000,BT36 7LS,2014-08-12,fhrs_5_en-GB,5,,FHRS,5
412458,"Unit 4, 21 Carnmoney Road",,Newtownabbey,Antrim,Cafe Cuisine,Restaurant/Cafe/Canteen,1,10,,396446,5,,54.67157800000000,6822,823,envhealth@newtownabbey.gov.uk,Newtownabbey,http://www.newtownabbey.gov.uk,-5.95726900000000,BT36 6HL,2013-03-12,fhrs_4_en-GB,4,,FHRS,5
412459,62 Shore Road,Ballygolan,Newtownabbey,Antrim,Cafe Pausa @ Dunelm Mill,Restaurant/Cafe/Canteen,1,0,,396560,5,,54.65153200000000,8356,823,envhealth@newtownabbey.gov.uk,Newtownabbey,http://www.newtownabbey.gov.uk,-5.91919600000000,BT36 7BS,2013-08-07,fhrs_5_en-GB,5,,FHRS,0
412460,1 Exchange Avenue,,Doagh,Antrim,Cafe Thornton,Takeaway/sandwich shop,7844,10,,396656,10,,54.73714300000000,9202,823,envhealth@newtownabbey.gov.uk,Newtownabbey,http://www.newtownabbey.gov.uk,-6.03954300000000,BT39 0QU,2014-02-07,fhrs_3_en-GB,3,,FHRS,10
412461,,,,,Cake Heaven Ni,Manufacturers/packers,7839,0,,610414,0,,,18110,823,envhealth@newtownabbey.gov.uk,Newtownabbey,http://www.newtownabbey.gov.uk,,,2013-10-30,fhrs_5_en-GB,5,,FHRS,0
412462,,,,,Cakes A Go-Go,Manufacturers/packers,7839,0,,396147,5,,,16919,823,envhealth@newtownabbey.gov.uk,Newtownabbey,http://www.newtownabbey.gov.uk,,,2012-08-10,fhrs_5_en-GB,5,,FHRS,0
412463,102 Doagh Road,White Abbey,Newtownabbey,Antrim,Calvary Pentecostal Church,Other catering premises,7841,,,396588,,,54.66907500000000,8726,823,envhealth@newtownabbey.gov.uk,Newtownabbey,http://www.newtownabbey.gov.uk,-5.91319900000000,BT37 9QW,2014-08-08,fhrs_exempt_en-GB,Exempt,,FHRS,
412464,78-88 Ballyclare Road,Carnmoney Bog,Newtownabbey,Antrim,Card Factory,Retailers - other,4613,,,458973,,,54.67679900000000,17567,823,envhealth@newtownabbey.gov.uk,Newtownabbey,http://www.newtownabbey.gov.uk,-5.96260400000000,BT36 5EA,2012-11-22,fhrs_exempt_en-GB,Exempt,,FHRS,
412465,14 Ballyeaston Village,Ballyeaston,Ballyclare,Antrim,Carmichaels,Pub/bar/nightclub,7843,10,,396379,0,,54.77169900000000,58,823,envhealth@newtownabbey.gov.uk,Newtownabbey,http://www.newtownabbey.gov.uk,-5.99780800000000,BT39 9SH,2014-03-03,fhrs_4_en-GB,4,,FHRS,10
412466,5 Carnvue Road,Ballyduff,Newtownabbey,Antrim,Carnmoney Day Nursery,Hospitals/Childcare/Caring Premises,5,0,,396331,0,,54.68429600000000,395,823,envhealth@newtownabbey.gov.uk,Newtownabbey,http://www.newtownabbey.gov.uk,-5.95538900000000,BT36 6RD,2014-05-19,fhrs_5_en-GB,5,,FHRS,5
412467,75 Church Road,Carnmoney,Newtownabbey,Antrim,Carnmoney Parish Church,Other catering premises,7841,,,396225,,,54.67104400000000,2581,823,envhealth@newtownabbey.gov.uk,Newtownabbey,http://www.newtownabbey.gov.uk,-5.94216500000000,BT36 6DJ,2013-08-01,fhrs_exempt_en-GB,Exempt,,FHRS,
412468,275 Carnmoney Road,Carnmoney,Newtownabbey,Antrim,Carnmoney Primary School Meals,School/college/university,7845,10,,396288,5,,54.68297200000000,339,823,envhealth@newtownabbey.gov.uk,Newtownabbey,http://www.newtownabbey.gov.uk,-5.95091200000000,BT36 6JS,2014-11-06,fhrs_4_en-GB,4,,FHRS,5
412469,,,,,Carrie's Cupcakes,Manufacturers/packers,7839,5,,735972,5,,,18228,823,envhealth@newtownabbey.gov.uk,Newtownabbey,http://www.newtownabbey.gov.uk,,,2014-02-25,fhrs_5_en-GB,5,,FHRS,5
412470,42 The Square,Ballyclare,Ballyclare,Antrim,Cathay Square,Restaurant/Cafe/Canteen,1,10,,396391,0,,54.75272000000000,6425,823,envhealth@newtownabbey.gov.uk,Newtownabbey,http://www.newtownabbey.gov.uk,-6.00143200000000,BT39 9BB,2013-08-20,fhrs_4_en-GB,4,,FHRS,10
412471,Kilbride Road,Kilbride,,Antrim,Chain Reaction Cycles Ltd,Restaurant/Cafe/Canteen,1,0,,396481,0,,54.74548200000000,6963,823,envhealth@newtownabbey.gov.uk,Newtownabbey,http://www.newtownabbey.gov.uk,-6.04967000000000,BT39 0QA,2015-01-26,fhrs_5_en-GB,5,,FHRS,0
412472,160a Antrim Road,,Newtownabbey,Antrim,Chef King,Takeaway/sandwich shop,7844,10,,727653,15,,54.66596200000000,18359,823,envhealth@newtownabbey.gov.uk,Newtownabbey,http://www.newtownabbey.gov.uk,-5.95028100000000,BT36 7QZ,2014-11-12,fhrs_2_en-GB,2,,FHRS,5
412473,630 Antrim Road,Ballyvesey,Newtownabbey,Antrim,Chimney Corner,Restaurant/Cafe/Canteen,1,5,,396126,5,,54.68557100000000,1630,823,envhealth@newtownabbey.gov.uk,Newtownabbey,http://www.newtownabbey.gov.uk,-5.99620500000000,BT36 4RH,2014-12-10,fhrs_2_en-GB,2,,FHRS,15
412474,17a Ballyclare Road,Glengormly,Newtownabbey,Antrim,China Court,Takeaway/sandwich shop,7844,5,,700466,5,,54.67381100000000,18316,823,envhealth@newtownabbey.gov.uk,Newtownabbey,http://www.newtownabbey.gov.uk,-5.96021100000000,BT36 5EX,2014-08-27,fhrs_4_en-GB,4,,FHRS,10
412475,11 Church Road,Toberdowney,,Antrim,Christ Church Hall,Other catering premises,7841,,,396503,,,54.77453600000000,7031,823,envhealth@newtownabbey.gov.uk,Newtownabbey,http://www.newtownabbey.gov.uk,-5.96747000000000,BT39 9UF,2014-05-06,fhrs_exempt_en-GB,Exempt,,FHRS,
412476,Church Road,Dunanney,Newtownabbey,Antrim,Chuck Wagon,Mobile caterer,7846,10,,396314,10,,54.66782000000000,3723,823,envhealth@newtownabbey.gov.uk,Newtownabbey,http://www.newtownabbey.gov.uk,-5.93329100000000,BT36 7LS,2014-06-03,fhrs_3_en-GB,3,,FHRS,10
412477,Cashel Drive,,Newtownabbey,Antrim,Church of The Good Shepherd,Other catering premises,7841,5,,396586,0,,54.68761600000000,8715,823,envhealth@newtownabbey.gov.uk,Newtownabbey,http://www.newtownabbey.gov.uk,-5.91454300000000,BT37 0EY,2014-01-21,fhrs_5_en-GB,5,,FHRS,0
412478,612 Antrim Road,Ballyvesey,Newtownabbey,Antrim,City of Belfast Golf Club,Restaurant/Cafe/Canteen,1,0,,396461,0,,54.68359200000000,6887,823,envhealth@newtownabbey.gov.uk,Newtownabbey,http://www.newtownabbey.gov.uk,-5.99006800000000,BT36 4RF,2014-10-24,fhrs_5_en-GB,5,,FHRS,5
412479,1 Cedar Court,White Abbey,Newtownabbey,Antrim,Clanmill Housing - Cedar Court,Other catering premises,7841,5,,396258,0,,54.67675500000000,2903,823,envhealth@newtownabbey.gov.uk,Newtownabbey,http://www.newtownabbey.gov.uk,-5.89590400000000,BT37 0GA,2014-04-08,fhrs_5_en-GB,5,,FHRS,0
412480,105 Doagh Road,Ballyclare,Ballyclare,Antrim,Clareview Private Nursing Home,Hospitals/Childcare/Caring Premises,5,5,,632395,0,,54.74999800000000,18152,823,envhealth@newtownabbey.gov.uk,Newtownabbey,http://www.newtownabbey.gov.uk,-6.01239300000000,BT39 9ES,2015-01-26,fhrs_5_en-GB,5,,FHRS,5
412481,32 Rashee Road,Ballyclare,Ballyclare,Antrim,Clear Pharmacy,Retailers - other,4613,,,396400,,,54.75444400000000,648,823,envhealth@newtownabbey.gov.uk,Newtownabbey,http://www.newtownabbey.gov.uk,-6.00248100000000,BT39 9HJ,2014-03-03,fhrs_exempt_en-GB,Exempt,,FHRS,
412482,Longwood Road,Drumnadrough,Newtownabbey,Antrim,Clear Pharmacy,Retailers - other,4613,,,396479,,,54.65550000000000,6955,823,envhealth@newtownabbey.gov.uk,Newtownabbey,http://www.newtownabbey.gov.uk,-5.91798600000000,BT37 9UH,2012-03-29,fhrs_exempt_en-GB,Exempt,,FHRS,
412483,22-28 Crossreagh Drive,Dunanney,Newtownabbey,Antrim,Clonmore House,Hospitals/Childcare/Caring Premises,5,,,396289,,,54.66270100000000,340,823,envhealth@newtownabbey.gov.uk,Newtownabbey,http://www.newtownabbey.gov.uk,-5.92451500000000,BT37 9DY,2014-06-23,fhrs_4_en-GB,4,,FHRS,
412484,214 Doagh Road,Croghfern,Newtownabbey,Antrim,Cloughfern Arms,Pub/bar/nightclub,7843,10,,396348,10,,54.67708000000000,432,823,envhealth@newtownabbey.gov.uk,Newtownabbey,http://www.newtownabbey.gov.uk,-5.91627700000000,BT36 6BB,2013-02-19,fhrs_3_en-GB,3,,FHRS,10
412485,187a Doagh Road,Croghfern,Newtownabbey,Antrim,Cloughfern Gospel Hall,Other catering premises,7841,,,396500,,,54.67703700000000,7025,823,envhealth@newtownabbey.gov.uk,Newtownabbey,http://www.newtownabbey.gov.uk,-5.91534900000000,BT36 6AB,2014-03-03,fhrs_exempt_en-GB,Exempt,,FHRS,
412486,8 Monkstown Village Centre,Monkstown,Newtownabbey,Antrim,Coasters,Restaurant/Cafe/Canteen,1,5,,396694,5,,54.68915600000000,9365,823,envhealth@newtownabbey.gov.uk,Newtownabbey,http://www.newtownabbey.gov.uk,-5.91733300000000,BT37 0HS,2013-08-01,fhrs_5_en-GB,5,,FHRS,5
412487,337 Antrim Road,,Newtownabbey,Antrim,Cod House,Takeaway/sandwich shop,7844,5,,396570,10,,54.69185300000000,8576,823,envhealth@newtownabbey.gov.uk,Newtownabbey,http://www.newtownabbey.gov.uk,-6.01650800000000,BT36 4RG,2013-04-15,fhrs_4_en-GB,4,,FHRS,5
412488,607 Shore Road,Jordanstown,Newtownabbey,Antrim,Cod House,Takeaway/sandwich shop,7844,,,396691,,,54.67759100000000,9360,823,envhealth@newtownabbey.gov.uk,Newtownabbey,http://www.newtownabbey.gov.uk,-5.89080600000000,BT37 0ST,2014-12-08,fhrs_5_en-GB,5,,FHRS,
412489,4 Merville Garden Village,Drumnadrough,Newtownabbey,Antrim,Coffee Bean,Restaurant/Cafe/Canteen,1,10,,396577,0,,54.65602700000000,8603,823,envhealth@newtownabbey.gov.uk,Newtownabbey,http://www.newtownabbey.gov.uk,-5.91098500000000,BT37 9TF,2014-02-25,fhrs_4_en-GB,4,,FHRS,5
412490,66 Templepatrick Road,Ballyclare,,Antrim,Coffee Cottage,Other catering premises,7841,10,,687315,0,,54.75441000000000,18276,823,envhealth@newtownabbey.gov.uk,Newtownabbey,http://www.newtownabbey.gov.uk,-5.97925900000000,BT39 9AL,2014-07-07,fhrs_4_en-GB,4,,FHRS,0
412491,312 Doagh Road,Croghfern,Newtownabbey,Antrim,Coffee Shop @ Hillside Nursery Centre,Restaurant/Cafe/Canteen,1,5,,396593,5,,54.68141100000000,879,823,envhealth@newtownabbey.gov.uk,Newtownabbey,http://www.newtownabbey.gov.uk,-5.91997800000000,BT36 6XJ,2014-03-14,fhrs_5_en-GB,5,,FHRS,5
412492,,,,,Cogry House Preserves,Manufacturers/packers,7839,0,,396464,0,,,6897,823,envhealth@newtownabbey.gov.uk,Newtownabbey,http://www.newtownabbey.gov.uk,,,2013-09-20,fhrs_5_en-GB,5,,FHRS,0
412493,201 Rashee Road,Coggrey,Ballyclare,Antrim,Cogry Masonic Hall,Pub/bar/nightclub,7843,,,396520,,,54.74925100000000,7881,823,envhealth@newtownabbey.gov.uk,Newtownabbey,http://www.newtownabbey.gov.uk,-6.01065900000000,BT39 9HQ,2014-09-02,fhrs_exempt_en-GB,Exempt,,FHRS,
412494,25 Springvale Road,Rashee,,Antrim,Collinview Restaurant @ Ballyclare Golf Club,Restaurant/Cafe/Canteen,1,5,,396697,5,,54.77122400000000,9374,823,envhealth@newtownabbey.gov.uk,Newtownabbey,http://www.newtownabbey.gov.uk,-6.03029600000000,BT39 9JW,2014-10-23,fhrs_4_en-GB,4,,FHRS,10
412495,2 Glengormley Park,Collinward,Newtownabbey,Antrim,Collinward Stores,Retailers - other,4613,0,,396328,5,,54.66706900000000,390,823,envhealth@newtownabbey.gov.uk,Newtownabbey,http://www.newtownabbey.gov.uk,-5.95413200000000,BT36 7RE,2013-06-12,fhrs_5_en-GB,5,,FHRS,5
412496,400 Shore Road,White Abbey,Newtownabbey,Antrim,Compass Catering @ Northern Regional College,School/college/university,7845,0,,396199,5,,54.66782800000000,229,823,envhealth@newtownabbey.gov.uk,Newtownabbey,http://www.newtownabbey.gov.uk,-5.90393100000000,BT37 9RS,2014-03-21,fhrs_5_en-GB,5,,FHRS,5
412497,Cloughfern Avenue,Croghfern,Newtownabbey,Antrim,Compass Group @ Schlumberger,Restaurant/Cafe/Canteen,1,,,396287,,,54.68349000000000,338,823,envhealth@newtownabbey.gov.uk,Newtownabbey,http://www.newtownabbey.gov.uk,-5.91182300000000,BT37 0UH,2014-06-23,fhrs_5_en-GB,5,,FHRS,
412498,16 Main Street,Doagh,,Antrim,Cornerstone Cafe,Takeaway/sandwich shop,7844,5,,396123,5,,54.73807800000000,1619,823,envhealth@newtownabbey.gov.uk,Newtownabbey,http://www.newtownabbey.gov.uk,-6.04238600000000,BT39 0QL,2014-03-03,fhrs_4_en-GB,4,,FHRS,10
412499,315 Ballyclare Road,Ballyhenry,Newtownabbey,Antrim,Corr's Corner,Hotel/bed & breakfast/guest house,7842,0,,396336,0,,54.69458600000000,404,823,envhealth@newtownabbey.gov.uk,Newtownabbey,http://www.newtownabbey.gov.uk,-5.97478900000000,BT36 4TQ,2013-12-02,fhrs_5_en-GB,5,,FHRS,5
412500,Longwood Road,Drumnadrough,Newtownabbey,Antrim,Costa Coffee,Restaurant/Cafe/Canteen,1,10,,396460,5,,54.65550000000000,6872,823,envhealth@newtownabbey.gov.uk,Newtownabbey,http://www.newtownabbey.gov.uk,-5.91798600000000,BT37 9UH,2014-02-25,fhrs_4_en-GB,4,,FHRS,5
412501,9 Ballyeaston Village,,Ballyclare,Antrim,Cottage Cookery,Other catering premises,7841,10,,632392,5,,54.77169900000000,18115,823,envhealth@newtownabbey.gov.uk,Newtownabbey,http://www.newtownabbey.gov.uk,-5.99780800000000,BT39 9SH,2014-01-31,fhrs_4_en-GB,4,,FHRS,0
412502,130 Mallusk Road,Craigarogan,Newtownabbey,Antrim,Cottonmount Arms,Pub/bar/nightclub,7843,10,,396519,10,,54.68249500000000,77,823,envhealth@newtownabbey.gov.uk,Newtownabbey,http://www.newtownabbey.gov.uk,-6.01342900000000,BT36 4QN,2013-03-01,fhrs_3_en-GB,3,,FHRS,10
412503,24 The Diamond,White House,Newtownabbey,Antrim,Country Cakes,Retailers - other,4613,10,,396313,5,,54.66370600000000,3720,823,envhealth@newtownabbey.gov.uk,Newtownabbey,http://www.newtownabbey.gov.uk,-5.91863500000000,BT37 9BJ,2014-12-02,fhrs_4_en-GB,4,,FHRS,5
412504,76 Fairview Road,Ballyduff,Newtownabbey,Antrim,Country Cakes,Manufacturers/packers,7839,10,,396204,15,,54.69006100000000,239,823,envhealth@newtownabbey.gov.uk,Newtownabbey,http://www.newtownabbey.gov.uk,-5.93718600000000,BT36 6QN,2013-06-22,fhrs_2_en-GB,2,,FHRS,10
412505,1 Jennings Park,Monkstown,Newtownabbey,Antrim,Country Cakes Home Bakery,Retailers - other,4613,10,,396356,10,,54.69089500000000,474,823,envhealth@newtownabbey.gov.uk,Newtownabbey,http://www.newtownabbey.gov.uk,-5.91083800000000,BT37 0NB,2014-10-23,fhrs_3_en-GB,3,,FHRS,10
412506,20a Main Street,Ballyclare,Ballyclare,Antrim,Country Diner Catering,Mobile caterer,7846,5,,396425,10,,54.75067300000000,6653,823,envhealth@newtownabbey.gov.uk,Newtownabbey,http://www.newtownabbey.gov.uk,-5.99715300000000,BT39 9AB,2014-03-12,fhrs_3_en-GB,3,,FHRS,10
412507,,,,,Country Style Catering Trailer 1,Mobile caterer,7846,5,,396654,5,,,9198,823,envhealth@newtownabbey.gov.uk,Newtownabbey,http://www.newtownabbey.gov.uk,,,2011-05-16,fhrs_4_en-GB,4,,FHRS,10
412508,,,,,Country Style Catering Trailer 2,Mobile caterer,7846,5,,396372,10,,,517,823,envhealth@newtownabbey.gov.uk,Newtownabbey,http://www.newtownabbey.gov.uk,,,2013-05-21,fhrs_4_en-GB,4,,FHRS,5
412509,,,,,Country Style Catering Trailer 3,Mobile caterer,7846,10,,396421,5,,,6631,823,envhealth@newtownabbey.gov.uk,Newtownabbey,http://www.newtownabbey.gov.uk,,,2012-05-08,fhrs_4_en-GB,4,,FHRS,0
412510,Shore Road,,Newtownabbey,Antrim,Covenant Christian Playgroup,Hospitals/Childcare/Caring Premises,5,5,,396624,5,,54.64462700000000,8954,823,envhealth@newtownabbey.gov.uk,Newtownabbey,http://www.newtownabbey.gov.uk,-5.92054000000000,BT36 7DE,2014-01-13,fhrs_5_en-GB,5,,FHRS,0
412511,Shore Rd,,Newtownabbey,Antrim,Create,Restaurant/Cafe/Canteen,1,,,610419,,,54.68721500000000,18120,823,envhealth@newtownabbey.gov.uk,Newtownabbey,http://www.newtownabbey.gov.uk,-5.88259900000000,BT37 0QA,2014-03-13,fhrs_5_en-GB,5,,FHRS,
412512,,,,,Crepes 2 Go Trailer 1,Mobile caterer,7846,5,,396614,5,,,8884,823,envhealth@newtownabbey.gov.uk,Newtownabbey,http://www.newtownabbey.gov.uk,,,2013-07-12,fhrs_5_en-GB,5,,FHRS,0
412513,84 Glen Road,Bruslee,Ballyclare,Antrim,Crepes 2 Go Trailer 2,Mobile caterer,7846,0,,727658,0,,54.73868400000000,18372,823,envhealth@newtownabbey.gov.uk,Newtownabbey,http://www.newtownabbey.gov.uk,-5.96945200000000,BT39 9LT,2014-11-17,fhrs_5_en-GB,5,,FHRS,0
412514,1 Kings Crescent,Croghfern,Newtownabbey,Antrim,Crescent,Takeaway/sandwich shop,7844,0,,396533,0,,54.67829600000000,80,823,envhealth@newtownabbey.gov.uk,Newtownabbey,http://www.newtownabbey.gov.uk,-5.91071000000000,BT37 0DH,2014-06-09,fhrs_5_en-GB,5,,FHRS,0
412515,584 Antrim Road,Ballyvesey,Newtownabbey,Antrim,Crown & Shamrock Inn,Pub/bar/nightclub,7843,5,,396553,0,,54.68359200000000,83,823,envhealth@newtownabbey.gov.uk,Newtownabbey,http://www.newtownabbey.gov.uk,-5.99006800000000,BT36 4RF,2013-07-02,fhrs_5_en-GB,5,,FHRS,5
412516,,,,,Cupcakes By Christine,Other catering premises,7841,5,,632393,0,,,18138,823,envhealth@newtownabbey.gov.uk,Newtownabbey,http://www.newtownabbey.gov.uk,,,2014-01-24,fhrs_5_en-GB,5,,FHRS,0
412517,Longwood Road,Drumnadrough,Newtownabbey,Antrim,Daisy Doodle Cakes,Manufacturers/packers,7839,,,534904,,,54.65550000000000,17939,823,envhealth@newtownabbey.gov.uk,Newtownabbey,http://www.newtownabbey.gov.uk,-5.91798600000000,BT37 9UH,2013-04-05,fhrs_exempt_en-GB,Exempt,,FHRS,
412518,,,,,Dannys Cakes,Manufacturers/packers,7839,5,,439892,5,,,17298,823,envhealth@newtownabbey.gov.uk,Newtownabbey,http://www.newtownabbey.gov.uk,,,2012-10-30,fhrs_5_en-GB,5,,FHRS,5
412519,19 Abbots Cross,White Abbey,Newtownabbey,Antrim,David Boyles,Retailers - other,4613,10,,396354,5,,54.66871900000000,47,823,envhealth@newtownabbey.gov.uk,Newtownabbey,http://www.newtownabbey.gov.uk,-5.91180600000000,BT37 9QU,2013-01-25,fhrs_3_en-GB,3,,FHRS,10
412520,36 The Diamond,White House,Newtownabbey,Antrim,David Boyles,Retailers - other,4613,5,,396649,5,,54.66370600000000,9172,823,envhealth@newtownabbey.gov.uk,Newtownabbey,http://www.newtownabbey.gov.uk,-5.91863500000000,BT37 9BJ,2014-12-03,fhrs_4_en-GB,4,,FHRS,10
412521,107 Derrycoole Way,Dunanney,Newtownabbey,Antrim,Day to Day,Retailers - other,4613,10,,396067,5,,54.66491700000000,108,823,envhealth@newtownabbey.gov.uk,Newtownabbey,http://www.newtownabbey.gov.uk,-5.92900500000000,BT37 9EJ,2014-01-09,fhrs_4_en-GB,4,,FHRS,5
412522,686 Shore Road,Jordanstown,Newtownabbey,Antrim,Day To Day,Retailers - other,4613,10,,396212,5,,54.68317000000000,2507,823,envhealth@newtownabbey.gov.uk,Newtownabbey,http://www.newtownabbey.gov.uk,-5.88200300000000,BT37 0PS,2013-12-10,fhrs_4_en-GB,4,,FHRS,0
412523,,,,,Dinky Donuts,Mobile caterer,7846,10,,396609,5,,,8849,823,envhealth@newtownabbey.gov.uk,Newtownabbey,http://www.newtownabbey.gov.uk,,,2013-04-25,fhrs_4_en-GB,4,,FHRS,5
412524,,,,,Dinky Donuts,Mobile caterer,7846,5,,396216,5,,,2534,823,envhealth@newtownabbey.gov.uk,Newtownabbey,http://www.newtownabbey.gov.uk,,,2014-12-31,fhrs_5_en-GB,5,,FHRS,0
412525,,,,,Dinky Donuts 1,Mobile caterer,7846,5,,396646,0,,,9169,823,envhealth@newtownabbey.gov.uk,Newtownabbey,http://www.newtownabbey.gov.uk,,,2014-05-19,fhrs_5_en-GB,5,,FHRS,5
412526,,,,,Dinky Donuts 2,Mobile caterer,7846,5,,396567,0,,,8529,823,envhealth@newtownabbey.gov.uk,Newtownabbey,http://www.newtownabbey.gov.uk,,,2014-05-19,fhrs_5_en-GB,5,,FHRS,0
412527,Riverside,Doagh,,Antrim,Doagh Methodist Church,Other catering premises,7841,,,396498,,,54.73759300000000,7016,823,envhealth@newtownabbey.gov.uk,Newtownabbey,http://www.newtownabbey.gov.uk,-6.04459900000000,BT39 0QW,2014-01-17,fhrs_exempt_en-GB,Exempt,,FHRS,
412528,Main Street,,Doagh,Antrim,Doagh Playgroup,Hospitals/Childcare/Caring Premises,5,5,,396601,0,,54.73807800000000,8835,823,envhealth@newtownabbey.gov.uk,Newtownabbey,http://www.newtownabbey.gov.uk,-6.04238600000000,BT39 0QL,2014-11-11,fhrs_5_en-GB,5,,FHRS,0
412529,20 Main Street,Doagh,,Antrim,Doagh Primary Dining Centre,School/college/university,7845,,,396585,,,54.73807800000000,87,823,envhealth@newtownabbey.gov.uk,Newtownabbey,http://www.newtownabbey.gov.uk,-6.04238600000000,BT39 0QL,2013-10-09,fhrs_5_en-GB,5,,FHRS,
412530,162 Antrim Road,Collinward,Newtownabbey,Antrim,Domino's Pizza,Takeaway/sandwich shop,7844,0,,396419,0,,54.66596200000000,6628,823,envhealth@newtownabbey.gov.uk,Newtownabbey,http://www.newtownabbey.gov.uk,-5.95028100000000,BT36 7QZ,2014-03-28,fhrs_5_en-GB,5,,FHRS,5
412531,50 The Square,Ballyclare,Ballyclare,Antrim,Domino's Pizza,Takeaway/sandwich shop,7844,0,,700465,10,,54.75272000000000,18301,823,envhealth@newtownabbey.gov.uk,Newtownabbey,http://www.newtownabbey.gov.uk,-6.00143200000000,BT39 9BB,2014-08-26,fhrs_4_en-GB,4,,FHRS,5
412532,72 Ballymartin Road,,Ballyclare,Antrim,Donkey Sanctuary Belfast,Restaurant/Cafe/Canteen,1,0,,396644,0,,54.71009900000000,9162,823,envhealth@newtownabbey.gov.uk,Newtownabbey,http://www.newtownabbey.gov.uk,-6.03343100000000,BT39 0BS,2013-09-30,fhrs_5_en-GB,5,,FHRS,0
412533,Drumcor Court,Dunanney,Newtownabbey,Antrim,Drumcor Court (Helm Housing),Other catering premises,7841,,,396658,,,54.66791700000000,9204,823,envhealth@newtownabbey.gov.uk,Newtownabbey,http://www.newtownabbey.gov.uk,-5.92741100000000,BT37 9BE,2014-01-09,fhrs_exempt_en-GB,Exempt,,FHRS,
412534,81 O'Neill Road,Drumnadrough,Newtownabbey,Antrim,Drumross Adult Centre,Other catering premises,7841,0,,396162,0,,54.66904600000000,1718,823,envhealth@newtownabbey.gov.uk,Newtownabbey,http://www.newtownabbey.gov.uk,-5.93406600000000,BT36 6UN,2014-01-29,fhrs_5_en-GB,5,,FHRS,5
412535,1 Glebe Road,,Newtownabbey,Antrim,Dunanney Care Home,Hospitals/Childcare/Caring Premises,5,5,,632400,5,,54.67482300000000,18163,823,envhealth@newtownabbey.gov.uk,Newtownabbey,http://www.newtownabbey.gov.uk,-5.94354000000000,BT36 6UW,2014-02-05,fhrs_5_en-GB,5,,FHRS,0
412536,Longwood Road,Drumnadrough,Newtownabbey,Antrim,DW Sports Fitness Limited (Gym),Restaurant/Cafe/Canteen,1,0,,396524,0,,54.65470200000000,7934,823,envhealth@newtownabbey.gov.uk,Newtownabbey,http://www.newtownabbey.gov.uk,-5.92013400000000,BT37 9UL,2014-06-03,fhrs_5_en-GB,5,,FHRS,0
412537,1 Crescent Corner,Ballyhenry,Newtownabbey,Antrim,Earley's Day Today,Retailers - other,4613,,,396682,,,54.69414500000000,9326,823,envhealth@newtownabbey.gov.uk,Newtownabbey,http://www.newtownabbey.gov.uk,-5.95280000000000,BT36 5NN,2014-11-28,fhrs_5_en-GB,5,,FHRS,
412538,2 Manse Drive,Ballyhenry,Newtownabbey,Antrim,Earlview Nursery School Dining,Hospitals/Childcare/Caring Premises,5,0,,396418,0,,54.68861800000000,6623,823,envhealth@newtownabbey.gov.uk,Newtownabbey,http://www.newtownabbey.gov.uk,-5.95753000000000,BT36 5US,2013-06-10,fhrs_5_en-GB,5,,FHRS,5
412539,2 Manse Drive,Ballyhenry,Newtownabbey,Antrim,Earlview Primary Meals Kitchen,School/college/university,7845,0,,396632,0,,54.68861800000000,91,823,envhealth@newtownabbey.gov.uk,Newtownabbey,http://www.newtownabbey.gov.uk,-5.95753000000000,BT36 5US,2014-02-05,fhrs_5_en-GB,5,,FHRS,5
412540,Longwood Road,Drumnadrough,Newtownabbey,Antrim,Eason & Son NI Ltd,Retailers - other,4613,,,396351,,,54.65550000000000,443,823,envhealth@newtownabbey.gov.uk,Newtownabbey,http://www.newtownabbey.gov.uk,-5.91798600000000,BT37 9UH,2012-03-29,fhrs_exempt_en-GB,Exempt,,FHRS,
412541,69 Rathcoole Drive,White House,Newtownabbey,Antrim,Eastway Social Club,Pub/bar/nightclub,7843,0,,396386,5,,54.66185200000000,608,823,envhealth@newtownabbey.gov.uk,Newtownabbey,http://www.newtownabbey.gov.uk,-5.91637400000000,BT37 9AH,2015-02-03,fhrs_5_en-GB,5,,FHRS,5
412542,27 Ballyclare Road,Glengormly,Newtownabbey,Antrim,Eden Coffee House,Restaurant/Cafe/Canteen,1,5,,396136,5,,54.67241500000000,1672,823,envhealth@newtownabbey.gov.uk,Newtownabbey,http://www.newtownabbey.gov.uk,-5.95893200000000,BT36 5EU,2014-02-12,fhrs_5_en-GB,5,,FHRS,5
412543,96-100 Hightown Road,Ballybought,Newtownabbey,Antrim,Edmund Rice College Meals Kitchen,School/college/university,7845,5,,396440,5,,54.66571700000000,68,823,envhealth@newtownabbey.gov.uk,Newtownabbey,http://www.newtownabbey.gov.uk,-5.97258300000000,BT36 7AU,2014-03-28,fhrs_5_en-GB,5,,FHRS,5
412544,14 Abbots Cross,White Abbey,Newtownabbey,Antrim,Eva's Cafe,Restaurant/Cafe/Canteen,1,5,,396393,0,,54.66871900000000,6430,823,envhealth@newtownabbey.gov.uk,Newtownabbey,http://www.newtownabbey.gov.uk,-5.91180600000000,BT37 9QU,2013-05-08,fhrs_5_en-GB,5,,FHRS,5
412545,2 Trench Road,Grange Of Mallusk,Newtownabbey,Antrim,Extern Recycle,Restaurant/Cafe/Canteen,1,0,,396542,10,,54.67944400000000,8166,823,envhealth@newtownabbey.gov.uk,Newtownabbey,http://www.newtownabbey.gov.uk,-5.99677000000000,BT36 4TY,2014-08-20,fhrs_4_en-GB,4,,FHRS,5
412546,1 Hillmount Avenue,Ballyclare,Ballyclare,Antrim,Fairview Primary School,School/college/university,7845,0,,396701,5,,54.75510800000000,96,823,envhealth@newtownabbey.gov.uk,Newtownabbey,http://www.newtownabbey.gov.uk,-6.00623900000000,BT39 9HS,2014-09-23,fhrs_5_en-GB,5,,FHRS,5
412547,66 Main Street,Ballyclare,Ballyclare,Antrim,Falstaffs,Restaurant/Cafe/Canteen,1,10,,396096,10,,54.75152800000000,1492,823,envhealth@newtownabbey.gov.uk,Newtownabbey,http://www.newtownabbey.gov.uk,-5.99944100000000,BT39 9AA,2014-02-12,fhrs_3_en-GB,3,,FHRS,10
412548,15 Trench Road,Grange Of Mallusk,Newtownabbey,Antrim,Faredos@ Mc Laughlin & Harvey,Restaurant/Cafe/Canteen,1,5,,396149,0,,54.68029500000000,1694,823,envhealth@newtownabbey.gov.uk,Newtownabbey,http://www.newtownabbey.gov.uk,-5.99663500000000,BT36 4FA,2015-01-13,fhrs_5_en-GB,5,,FHRS,0
412549,3 Kings Crescent,Croghfern,Newtownabbey,Antrim,Fernagh Pharmacy,Retailers - other,4613,,,396359,,,54.67829600000000,485,823,envhealth@newtownabbey.gov.uk,Newtownabbey,http://www.newtownabbey.gov.uk,-5.91071000000000,BT37 0DH,2014-03-03,fhrs_exempt_en-GB,Exempt,,FHRS,
412550,350 Antrim Road,Glengormly,Newtownabbey,Antrim,Fluid & Tom's Bar,Pub/bar/nightclub,7843,0,,632388,0,,54.67225300000000,18093,823,envhealth@newtownabbey.gov.uk,Newtownabbey,http://www.newtownabbey.gov.uk,-5.96050600000000,BT36 5EQ,2014-01-08,fhrs_4_en-GB,4,,FHRS,10
412551,686 Shore Road,Jordanstown,Newtownabbey,Antrim,Food for Thought,Restaurant/Cafe/Canteen,1,5,,396251,5,,54.68317000000000,2880,823,envhealth@newtownabbey.gov.uk,Newtownabbey,http://www.newtownabbey.gov.uk,-5.88200300000000,BT37 0PS,2013-09-26,fhrs_5_en-GB,5,,FHRS,5
412552,484a Antrim Road,Carnmoney Bog,Newtownabbey,Antrim,Fountain House,Takeaway/sandwich shop,7844,5,,396398,0,,54.67595100000000,6461,823,envhealth@newtownabbey.gov.uk,Newtownabbey,http://www.newtownabbey.gov.uk,-5.96991800000000,BT36 5DA,2014-01-21,fhrs_5_en-GB,5,,FHRS,5
412553,131 Doagh Road,Croghfern,Newtownabbey,Antrim,Four Star Pizza,Takeaway/sandwich shop,7844,5,,396472,10,,54.67462000000000,6932,823,envhealth@newtownabbey.gov.uk,Newtownabbey,http://www.newtownabbey.gov.uk,-5.91381300000000,BT36 6AA,2014-09-05,fhrs_4_en-GB,4,,FHRS,5
412554,Longwood Road,Drumnadrough,Newtownabbey,Antrim,French Village,Retailers - other,4613,5,,467742,10,,54.65550000000000,17640,823,envhealth@newtownabbey.gov.uk,Newtownabbey,http://www.newtownabbey.gov.uk,-5.91798600000000,BT37 9UH,2014-06-17,fhrs_3_en-GB,3,,FHRS,10
412555,6 Longwood Road,Drumnadrough,Newtownabbey,Antrim,Funky Monkeys,Restaurant/Cafe/Canteen,1,5,,396628,5,,54.65470200000000,9075,823,envhealth@newtownabbey.gov.uk,Newtownabbey,http://www.newtownabbey.gov.uk,-5.92013400000000,BT37 9UL,2013-07-31,fhrs_5_en-GB,5,,FHRS,0
412556,Unit 3 Glenwell Road,Collinward,Newtownabbey,Antrim,Funworks,Restaurant/Cafe/Canteen,1,,,396485,,,54.66835300000000,6969,823,envhealth@newtownabbey.gov.uk,Newtownabbey,http://www.newtownabbey.gov.uk,-5.95620600000000,BT36 7RF,2014-11-11,fhrs_5_en-GB,5,,FHRS,
412557,96-100 Hightown Road,Ballybought,Newtownabbey,Antrim,Gaelscoil Eanna,School/college/university,7845,0,,396529,0,,54.66571700000000,7960,823,envhealth@newtownabbey.gov.uk,Newtownabbey,http://www.newtownabbey.gov.uk,-5.97258300000000,BT36 7AU,2014-10-14,fhrs_5_en-GB,5,,FHRS,5
412558,15 Woodford Road,Ballyduff,Newtownabbey,Antrim,Garden Scene,Retailers - other,4613,5,,396355,0,,54.69178300000000,472,823,envhealth@newtownabbey.gov.uk,Newtownabbey,http://www.newtownabbey.gov.uk,-5.93644700000000,BT36 6TS,2013-03-04,fhrs_5_en-GB,5,,FHRS,5
412559,Longwood Road,Drumnadrough,Newtownabbey,Antrim,Gelati Ice Cream Kiosk,Retailers - other,4613,10,,396344,5,,54.65550000000000,424,823,envhealth@newtownabbey.gov.uk,Newtownabbey,http://www.newtownabbey.gov.uk,-5.91798600000000,BT37 9UH,2013-07-02,fhrs_2_en-GB,2,,FHRS,15
412560,2a Glebe Road,Carnmoney Glebe,Newtownabbey,Antrim,Glebe Care Home,Hospitals/Childcare/Caring Premises,5,5,,396326,5,,54.67482300000000,384,823,envhealth@newtownabbey.gov.uk,Newtownabbey,http://www.newtownabbey.gov.uk,-5.94354000000000,BT36 6UW,2013-09-10,fhrs_5_en-GB,5,,FHRS,0
412561,61 Glebe Road West,Carnmoney Glebe,Newtownabbey,Antrim,Glebe Stores,Retailers - other,4613,5,,396091,10,,54.67376300000000,1436,823,envhealth@newtownabbey.gov.uk,Newtownabbey,http://www.newtownabbey.gov.uk,-5.95255500000000,BT36 6EH,2014-08-01,fhrs_4_en-GB,4,,FHRS,5
412562,51 Monkstown Avenue,Croghfern,Newtownabbey,Antrim,Glen Catering @ Whiteabbey Masonic Club,Pub/bar/nightclub,7843,20,,396622,15,,54.68041300000000,8930,823,envhealth@newtownabbey.gov.uk,Newtownabbey,http://www.newtownabbey.gov.uk,-5.91103500000000,BT37 0EB,2014-12-16,fhrs_1_en-GB,1,,FHRS,15
412563,305-307 Antrim Road,Glengormly,Newtownabbey,Antrim,Glen Inn,Pub/bar/nightclub,7843,10,,396188,5,,54.67107800000000,21,823,envhealth@newtownabbey.gov.uk,Newtownabbey,http://www.newtownabbey.gov.uk,-5.95799200000000,BT36 5DY,2014-02-18,fhrs_4_en-GB,4,,FHRS,5
412564,496 Antrim Road,Ballybought,Newtownabbey,Antrim,Glenabbey Filling Station,Retailers - other,4613,,,396076,,,54.67671400000000,121,823,envhealth@newtownabbey.gov.uk,Newtownabbey,http://www.newtownabbey.gov.uk,-5.97257800000000,BT36 5DB,2014-11-21,fhrs_5_en-GB,5,,FHRS,
412565,13-15 Carnmoney Road,Glengormly,Newtownabbey,Antrim,Glengormley Baptist Church,Other catering premises,7841,,,396510,,,54.67157800000000,7209,823,envhealth@newtownabbey.gov.uk,Newtownabbey,http://www.newtownabbey.gov.uk,-5.95726900000000,BT36 6HL,2014-06-02,fhrs_exempt_en-GB,Exempt,,FHRS,
412566,134 Ballyclare Road,Carnmoney,Newtownabbey,Antrim,Glengormley High School Meals,School/college/university,7845,5,,396071,5,,54.67954000000000,114,823,envhealth@newtownabbey.gov.uk,Newtownabbey,http://www.newtownabbey.gov.uk,-5.96426500000000,BT36 5HP,2013-11-07,fhrs_5_en-GB,5,,FHRS,5
412567,166 Church Road,Glengormly,Newtownabbey,Antrim,Glengormley Integrated Primary Dining Centre,School/college/university,7845,0,,396072,0,,54.67097200000000,115,823,envhealth@newtownabbey.gov.uk,Newtownabbey,http://www.newtownabbey.gov.uk,-5.95436900000000,BT36 6HJ,2012-01-17,fhrs_5_en-GB,5,,FHRS,5
412568,166 Church Road,Glengormly,Newtownabbey,Antrim,Glengormley Integrated Primary School - Breakfast Club,School/college/university,7845,5,,396532,0,,54.67097200000000,7970,823,envhealth@newtownabbey.gov.uk,Newtownabbey,http://www.newtownabbey.gov.uk,-5.95436900000000,BT36 6HJ,2012-05-30,fhrs_5_en-GB,5,,FHRS,0
412569,166 Church Road,Glengormly,Newtownabbey,Antrim,Glengormley Integrated Primary School Playgroup,Hospitals/Childcare/Caring Premises,5,10,,396606,0,,54.67097200000000,8841,823,envhealth@newtownabbey.gov.uk,Newtownabbey,http://www.newtownabbey.gov.uk,-5.95436900000000,BT36 6HJ,2014-01-16,fhrs_4_en-GB,4,,FHRS,0
412570,267 Antrim Road,Glengormly,Newtownabbey,Antrim,Glengormley Prebyterian Church,Other catering premises,7841,10,,510356,0,,54.67017800000000,17830,823,envhealth@newtownabbey.gov.uk,Newtownabbey,http://www.newtownabbey.gov.uk,-5.95684300000000,BT36 7QN,2013-03-20,fhrs_4_en-GB,4,,FHRS,5
412571,109 Derrycoole Way,Dunanney,Newtownabbey,Antrim,Golden Chef,Takeaway/sandwich shop,7844,20,,396274,10,,54.66491700000000,310,823,envhealth@newtownabbey.gov.uk,Newtownabbey,http://www.newtownabbey.gov.uk,-5.92900500000000,BT37 9EJ,2012-10-30,fhrs_1_en-GB,1,,FHRS,5
412572,374 Antrim Road,Glengormly,Newtownabbey,Antrim,Golden House,Takeaway/sandwich shop,7844,10,,396341,10,,54.67327600000000,414,823,envhealth@newtownabbey.gov.uk,Newtownabbey,http://www.newtownabbey.gov.uk,-5.96152500000000,BT36 5EB,2014-11-19,fhrs_3_en-GB,3,,FHRS,10
412573,75c Doagh Road,,Newtownabbey,Antrim,Good Fortune,Takeaway/sandwich shop,7844,,,396079,,,54.66618400000000,127,823,envhealth@newtownabbey.gov.uk,Newtownabbey,http://www.newtownabbey.gov.uk,-5.91176600000000,BT37 9QJ,2014-07-01,fhrs_4_en-GB,4,,FHRS,
412574,32 The Diamond,White House,Newtownabbey,Antrim,Gordon's Chemist,Retailers - other,4613,,,396247,,,54.66370600000000,281,823,envhealth@newtownabbey.gov.uk,Newtownabbey,http://www.newtownabbey.gov.uk,-5.91863500000000,BT37 9BJ,2012-05-02,fhrs_exempt_en-GB,Exempt,,FHRS,
412575,153 Ballyrobert Road,Grange Of Ballyrobert,Ballyclare,Antrim,Greenacres Golf Centre,Other catering premises,7841,10,,396525,5,,54.72030100000000,794,823,envhealth@newtownabbey.gov.uk,Newtownabbey,http://www.newtownabbey.gov.uk,-6.00512300000000,BT39 9RT,2014-07-31,fhrs_4_en-GB,4,,FHRS,0
412576,633 Antrim Road,Ballyvesey,Newtownabbey,Antrim,Greendale,Hospitals/Childcare/Caring Premises,5,5,,396081,10,,54.68359200000000,129,823,envhealth@newtownabbey.gov.uk,Newtownabbey,http://www.newtownabbey.gov.uk,-5.99006800000000,BT36 4RF,2014-11-24,fhrs_4_en-GB,4,,FHRS,5
412577,,,,,Gussi's Goodies - The Tasty Option,Manufacturers/packers,7839,5,,642754,0,,,18223,823,envhealth@newtownabbey.gov.uk,Newtownabbey,http://www.newtownabbey.gov.uk,,,2014-02-07,fhrs_5_en-GB,5,,FHRS,0
412578,39 Main Street,Ballyclare,Ballyclare,Antrim,Haggans Fruit & Veg,Retailers - other,4613,0,,396189,10,,54.75152800000000,211,823,envhealth@newtownabbey.gov.uk,Newtownabbey,http://www.newtownabbey.gov.uk,-5.99944100000000,BT39 9AA,2014-02-04,fhrs_4_en-GB,4,,FHRS,5
412579,8 Portland Avenue,Glengormly,Newtownabbey,Antrim,Hamad's Kebabish,Takeaway/sandwich shop,7844,10,,687310,10,,54.67214200000000,18265,823,envhealth@newtownabbey.gov.uk,Newtownabbey,http://www.newtownabbey.gov.uk,-5.95818600000000,BT36 5EY,2014-06-16,fhrs_3_en-GB,3,,FHRS,10
412580,168 Ballycorr Road,Ballycor,Ballyclare,Antrim,Hamilton Nursing Home,Hospitals/Childcare/Caring Premises,5,0,,396083,5,,54.76199500000000,133,823,envhealth@newtownabbey.gov.uk,Newtownabbey,http://www.newtownabbey.gov.uk,-5.98804800000000,BT39 9DF,2014-08-12,fhrs_5_en-GB,5,,FHRS,5
412581,81 Main Street,Ballyclare,Ballyclare,Antrim,Harveys,Restaurant/Cafe/Canteen,1,5,,396451,5,,54.75152800000000,6837,823,envhealth@newtownabbey.gov.uk,Newtownabbey,http://www.newtownabbey.gov.uk,-5.99944100000000,BT39 9AA,2014-10-21,fhrs_5_en-GB,5,,FHRS,5
412582,8 Richmond Gardens,Carnmoney,Newtownabbey,Antrim,Hayes Newsagents & Convenience Store,Retailers - other,4613,5,,396367,5,,54.68289200000000,501,823,envhealth@newtownabbey.gov.uk,Newtownabbey,http://www.newtownabbey.gov.uk,-5.95950700000000,BT36 5LA,2013-07-02,fhrs_4_en-GB,4,,FHRS,10
412583,347 Carnmoney Road,Ballyduff,Newtownabbey,Antrim,Helens Fruit And Veg,Retailers - other,4613,0,,578357,5,,54.68414100000000,18059,823,envhealth@newtownabbey.gov.uk,Newtownabbey,http://www.newtownabbey.gov.uk,-5.95097800000000,BT36 6JT,2013-05-30,fhrs_5_en-GB,5,,FHRS,0
412584,279 Carnmoney Road,Carnmoney,Newtownabbey,Antrim,Hill Tavern,Pub/bar/nightclub,7843,5,,396089,5,,54.68297200000000,143,823,envhealth@newtownabbey.gov.uk,Newtownabbey,http://www.newtownabbey.gov.uk,-5.95091200000000,BT36 6JS,2014-03-27,fhrs_4_en-GB,4,,FHRS,10
412585,3 Manse Way,Ballyduff,Newtownabbey,Antrim,Hillcroft Special School Meals Kitchen,School/college/university,7845,0,,396468,0,,54.68842000000000,6906,823,envhealth@newtownabbey.gov.uk,Newtownabbey,http://www.newtownabbey.gov.uk,-5.95857900000000,BT36 5UW,2014-03-18,fhrs_5_en-GB,5,,FHRS,5
412586,1 Knockenagh Avenue,Croghfern,Newtownabbey,Antrim,Hillside Pre-school Playgroup,Hospitals/Childcare/Caring Premises,5,5,,396583,0,,54.67624600000000,8671,823,envhealth@newtownabbey.gov.uk,Newtownabbey,http://www.newtownabbey.gov.uk,-5.91638100000000,BT36 6BE,2013-12-11,fhrs_5_en-GB,5,,FHRS,5
412587,Longwood Road,Drumnadrough,Newtownabbey,Antrim,Holland & Barrett,Retailers - other,4613,,,396396,,,,6453,823,envhealth@newtownabbey.gov.uk,Newtownabbey,http://www.newtownabbey.gov.uk,,BT37 9UJ,2014-02-25,fhrs_exempt_en-GB,Exempt,,FHRS,
412588,Hollybank Park,Monkstown,Newtownabbey,Antrim,Hollybank Primary School Meals,School/college/university,7845,5,,396296,0,,54.68574600000000,359,823,envhealth@newtownabbey.gov.uk,Newtownabbey,http://www.newtownabbey.gov.uk,-5.90871400000000,BT37 0HF,2014-06-06,fhrs_5_en-GB,5,,FHRS,5
412589,15 Granges Street,Ballyclare,Ballyclare,Antrim,Home Bargains,Retailers - other,4613,10,,691344,5,,54.75292100000000,18304,823,envhealth@newtownabbey.gov.uk,Newtownabbey,http://www.newtownabbey.gov.uk,-6.00000900000000,BT39 9ZJ,2014-08-05,fhrs_4_en-GB,4,,FHRS,0
412590,Longwood Road,Drumnadrough,Newtownabbey,Antrim,Home Bargains,Retailers - other,4613,,,396633,,,54.65550000000000,9108,823,envhealth@newtownabbey.gov.uk,Newtownabbey,http://www.newtownabbey.gov.uk,-5.91798600000000,BT37 9UH,2014-11-03,fhrs_exempt_en-GB,Exempt,,FHRS,
412591,7 Longwood Road,Drumnadrough,Newtownabbey,Antrim,Homebase,Retailers - other,4613,,,396492,,,54.65466400000000,6997,823,envhealth@newtownabbey.gov.uk,Newtownabbey,http://www.newtownabbey.gov.uk,-5.92005900000000,BT37 9UQ,2012-03-29,fhrs_exempt_en-GB,Exempt,,FHRS,
412592,Cashel Drive,Newtownabbey,Monkstown,,Homefirst Community Trust At Church Of The Good Shepherd,Other catering premises,7841,0,,396434,5,,54.68761600000000,6737,823,envhealth@newtownabbey.gov.uk,Newtownabbey,http://www.newtownabbey.gov.uk,-5.91454300000000,BT370EY,2013-06-12,fhrs_5_en-GB,5,,FHRS,0
412593,1 The Square,Ballyclare,Ballyclare,Antrim,Howlers,Restaurant/Cafe/Canteen,1,,,396684,,,54.75272000000000,9344,823,envhealth@newtownabbey.gov.uk,Newtownabbey,http://www.newtownabbey.gov.uk,-6.00143200000000,BT39 9BB,2013-12-02,fhrs_5_en-GB,5,,FHRS,
412594,187 Jordanstown Road,Monkstown,Newtownabbey,Antrim,Hullabaloo Day Nursery,Hospitals/Childcare/Caring Premises,5,,,396299,,,54.68997700000000,3611,823,envhealth@newtownabbey.gov.uk,Newtownabbey,http://www.newtownabbey.gov.uk,-5.91021800000000,BT37 0LU,2014-05-23,fhrs_5_en-GB,5,,FHRS,
412595,10 Mallusk Road,Grange Of Mallusk,Newtownabbey,Antrim,Hydepark Presbyterian Church,Other catering premises,7841,,,396416,,,54.67562000000000,6604,823,envhealth@newtownabbey.gov.uk,Newtownabbey,http://www.newtownabbey.gov.uk,-6.00243100000000,BT36 4PY,2014-06-10,fhrs_exempt_en-GB,Exempt,,FHRS,
412596,76 Doagh Road,White House,Newtownabbey,Antrim,Iceland Frozen Foods,Retailers - supermarkets/hypermarkets,7840,0,,396133,5,,54.66384100000000,1666,823,envhealth@newtownabbey.gov.uk,Newtownabbey,http://www.newtownabbey.gov.uk,-5.91135900000000,BT37 9NY,2014-11-18,fhrs_5_en-GB,5,,FHRS,5
412597,Farmley Road,Collinward,Newtownabbey,Antrim,Iceland Frozen Foods,Retailers - supermarkets/hypermarkets,7840,0,,396406,0,,54.66987300000000,654,823,envhealth@newtownabbey.gov.uk,Newtownabbey,http://www.newtownabbey.gov.uk,-5.95789700000000,BT36 7TS,2014-12-31,fhrs_5_en-GB,5,,FHRS,0
412598,The Square,Ballyclare,Ballyclare,Antrim,Imperial Kitchen,Takeaway/sandwich shop,7844,10,,396394,10,,54.75272000000000,6446,823,envhealth@newtownabbey.gov.uk,Newtownabbey,http://www.newtownabbey.gov.uk,-6.00143200000000,BT39 9BB,2014-08-20,fhrs_4_en-GB,4,,FHRS,0
412599,,,,,Indi Kaari,Mobile caterer,7846,5,,396509,0,,,7185,823,envhealth@newtownabbey.gov.uk,Newtownabbey,http://www.newtownabbey.gov.uk,,,2014-10-09,fhrs_5_en-GB,5,,FHRS,5
412600,350 Antrim Road,Glengormly,Newtownabbey,Antrim,Indian Ocean,Restaurant/Cafe/Canteen,1,,,396490,,,54.67225300000000,6983,823,envhealth@newtownabbey.gov.uk,Newtownabbey,http://www.newtownabbey.gov.uk,-5.96050600000000,BT36 5EQ,2014-07-01,fhrs_5_en-GB,5,,FHRS,
412601,1 Innis Avenue,Dunanney,Newtownabbey,Antrim,Inniscoole Day Centre,Other catering premises,7841,0,,396259,0,,54.66809400000000,2904,823,envhealth@newtownabbey.gov.uk,Newtownabbey,http://www.newtownabbey.gov.uk,-5.92039500000000,BT37 9ES,2013-12-10,fhrs_5_en-GB,5,,FHRS,5
412602,40 Rashee Road,Ballyclare,Ballyclare,Antrim,J G Fleming Chemists,Retailers - other,4613,,,396368,,,54.75444400000000,502,823,envhealth@newtownabbey.gov.uk,Newtownabbey,http://www.newtownabbey.gov.uk,-6.00248100000000,BT39 9HJ,2012-03-29,fhrs_exempt_en-GB,Exempt,,FHRS,
412603,175 Doagh Road,Croghfern,Newtownabbey,Antrim,J Gordon & Sons,Retailers - other,4613,10,,396332,5,,54.67703700000000,397,823,envhealth@newtownabbey.gov.uk,Newtownabbey,http://www.newtownabbey.gov.uk,-5.91534900000000,BT36 6AB,2012-11-14,fhrs_4_en-GB,4,,FHRS,5
412604,9 Main Street,Dunturky,,Antrim,Jacksons,Manufacturers/packers,7839,5,,396325,0,,54.77157400000000,383,823,envhealth@newtownabbey.gov.uk,Newtownabbey,http://www.newtownabbey.gov.uk,-5.95268400000000,BT39 9TU,2014-03-27,fhrs_5_en-GB,5,,FHRS,0
412605,41 Main Street,Ballyclare,Ballyclare,Antrim,Jenkins Butchers & Deli,Manufacturers/packers,7839,5,,396104,10,,54.75152800000000,152,823,envhealth@newtownabbey.gov.uk,Newtownabbey,http://www.newtownabbey.gov.uk,-5.99944100000000,BT39 9AA,2013-11-20,fhrs_4_en-GB,4,,FHRS,5
412606,33 Main Street,Ballyclare,Ballyclare,Antrim,Jia Jia,Takeaway/sandwich shop,7844,10,,727659,10,,54.75152800000000,18373,823,envhealth@newtownabbey.gov.uk,Newtownabbey,http://www.newtownabbey.gov.uk,-5.99944100000000,BT39 9AA,2014-12-09,fhrs_3_en-GB,3,,FHRS,5
412607,124 Ballyrobert Road,Grange Of Ballyrobert,Ballyclare,Antrim,Jigsaw Day Nursery,Hospitals/Childcare/Caring Premises,5,5,,396414,5,,54.72030100000000,6574,823,envhealth@newtownabbey.gov.uk,Newtownabbey,http://www.newtownabbey.gov.uk,-6.00512300000000,BT39 9RT,2014-11-10,fhrs_5_en-GB,5,,FHRS,5
412608,65 Burnside Road,Kilbride,,Antrim,Jim's Day Today T/a Burnside Stores,Retailers - other,4613,20,,396573,15,,54.75948700000000,859,823,envhealth@newtownabbey.gov.uk,Newtownabbey,http://www.newtownabbey.gov.uk,-6.04899700000000,BT39 0SH,2014-11-25,fhrs_1_en-GB,1,,FHRS,15
412609,1 Mill Road,Ballyclare,Ballyclare,Antrim,Jing Kee,Takeaway/sandwich shop,7844,10,,396494,5,,54.74994800000000,6999,823,envhealth@newtownabbey.gov.uk,Newtownabbey,http://www.newtownabbey.gov.uk,-5.99628800000000,BT39 9DR,2013-09-04,fhrs_3_en-GB,3,,FHRS,10
412610,44 The Square,Ballyclare,Ballyclare,Antrim,Johnny Whites,Takeaway/sandwich shop,7844,,,396170,,,54.75272000000000,182,823,envhealth@newtownabbey.gov.uk,Newtownabbey,http://www.newtownabbey.gov.uk,-6.00143200000000,BT39 9BB,2014-05-09,fhrs_4_en-GB,4,,FHRS,
412611,1 Old Manse Road,Jordanstown,Newtownabbey,Antrim,Jordanstown Care Home,Hospitals/Childcare/Caring Premises,5,0,,396119,0,,54.67935700000000,1585,823,envhealth@newtownabbey.gov.uk,Newtownabbey,http://www.newtownabbey.gov.uk,-5.89363000000000,BT37 0RU,2013-12-18,fhrs_5_en-GB,5,,FHRS,5
412612,646 Shore Road,Jordanstown,Newtownabbey,Antrim,Jordanstown Christian Centre,Other catering premises,7841,,,510357,,,54.68018600000000,17832,823,envhealth@newtownabbey.gov.uk,Newtownabbey,http://www.newtownabbey.gov.uk,-5.88705900000000,BT37 0PR,2014-11-06,fhrs_exempt_en-GB,Exempt,,FHRS,
412613,Jordanstown Road,,Newtownabbey,Antrim,Jordanstown School,School/college/university,7845,5,,668548,0,,,7894,823,envhealth@newtownabbey.gov.uk,Newtownabbey,http://www.newtownabbey.gov.uk,,,2014-04-04,fhrs_5_en-GB,5,,FHRS,0
412614,85 Jordanstown Road,Jordanstown,Newtownabbey,Antrim,Jordanstown School Dining Centre,School/college/university,7845,5,,396113,0,,54.68679400000000,156,823,envhealth@newtownabbey.gov.uk,Newtownabbey,http://www.newtownabbey.gov.uk,-5.89195700000000,BT37 0QE,2014-03-03,fhrs_5_en-GB,5,,FHRS,0
412615,136 Rashee Road,Ballyclare,Ballyclare,Antrim,JR's Chip Shop,Takeaway/sandwich shop,7844,5,,727655,10,,54.75688900000000,18366,823,envhealth@newtownabbey.gov.uk,Newtownabbey,http://www.newtownabbey.gov.uk,-6.00528200000000,BT39 9HT,2014-12-18,fhrs_4_en-GB,4,,FHRS,5
412616,142 Doagh Road,White Abbey,Newtownabbey,Antrim,Juniors Fish & Chips,Takeaway/sandwich shop,7844,5,,396693,5,,54.67300700000000,9362,823,envhealth@newtownabbey.gov.uk,Newtownabbey,http://www.newtownabbey.gov.uk,-5.91402000000000,BT37 9QS,2013-11-20,fhrs_5_en-GB,5,,FHRS,5
412617,458 Antrim Road,Carnmoney Bog,Newtownabbey,Antrim,Kare Bears Day Nursery,Hospitals/Childcare/Caring Premises,5,0,,396125,0,,54.67595100000000,163,823,envhealth@newtownabbey.gov.uk,Newtownabbey,http://www.newtownabbey.gov.uk,-5.96991800000000,BT36 5DA,2014-12-17,fhrs_5_en-GB,5,,FHRS,5
412618,84 Rashee Road,Ballyclare,Ballyclare,Antrim,Kare Bears Private Day Nursery,Hospitals/Childcare/Caring Premises,5,10,,396211,0,,54.75688900000000,2506,823,envhealth@newtownabbey.gov.uk,Newtownabbey,http://www.newtownabbey.gov.uk,-6.00528200000000,BT39 9HT,2014-08-07,fhrs_4_en-GB,4,,FHRS,10
412619,Farmley Road,Collinward,Newtownabbey,Antrim,Karolina International Foods Ltd,Retailers - other,4613,,,517322,,,54.66987300000000,17872,823,envhealth@newtownabbey.gov.uk,Newtownabbey,http://www.newtownabbey.gov.uk,-5.95789700000000,BT36 7TS,2013-11-25,fhrs_5_en-GB,5,,FHRS,
412620,376 Antrim Road,Carnmoney Bog,Newtownabbey,Antrim,Kentucky Fried Chicken (KFC),Takeaway/sandwich shop,7844,0,,396128,5,,54.67327600000000,165,823,envhealth@newtownabbey.gov.uk,Newtownabbey,http://www.newtownabbey.gov.uk,-5.96152500000000,BT36 5EB,2014-03-25,fhrs_4_en-GB,4,,FHRS,10
412621,51 Church Road,Drumnadrough,Newtownabbey,Antrim,Kentucky Fried Chicken (KFC),Restaurant/Cafe/Canteen,1,5,,396404,5,,54.65867000000000,6511,823,envhealth@newtownabbey.gov.uk,Newtownabbey,http://www.newtownabbey.gov.uk,-5.92256600000000,BT36 7LG,2014-02-17,fhrs_5_en-GB,5,,FHRS,0
412622,Longwood Road,Drumnadrough,Newtownabbey,Antrim,Kentucky Fried Chicken (KFC),Takeaway/sandwich shop,7844,0,,396437,5,,54.65550000000000,6766,823,envhealth@newtownabbey.gov.uk,Newtownabbey,http://www.newtownabbey.gov.uk,-5.91798600000000,BT37 9UH,2013-11-25,fhrs_5_en-GB,5,,FHRS,5
412623,377 Antrim Road,Carnmoney Bog,Newtownabbey,Antrim,Khayber Restaurant,Restaurant/Cafe/Canteen,1,,,396340,,,54.67327600000000,412,823,envhealth@newtownabbey.gov.uk,Newtownabbey,http://www.newtownabbey.gov.uk,-5.96152500000000,BT36 5EB,2014-10-08,fhrs_5_en-GB,5,,FHRS,
412624,Moyra Road,Burnside,,Antrim,Kilbride Playgroup,Hospitals/Childcare/Caring Premises,5,0,,396608,5,,54.75907100000000,8843,823,envhealth@newtownabbey.gov.uk,Newtownabbey,http://www.newtownabbey.gov.uk,-6.05440800000000,BT39 0SQ,2014-09-24,fhrs_5_en-GB,5,,FHRS,5
412625,8 Moyra Road,Kilbride,,Antrim,Kilbride Presbyterian Church Catering,Other catering premises,7841,0,,396224,0,,54.75542600000000,2576,823,envhealth@newtownabbey.gov.uk,Newtownabbey,http://www.newtownabbey.gov.uk,-6.05908800000000,BT39 0SD,2013-09-18,fhrs_5_en-GB,5,,FHRS,0
412626,56 Moyra Road,Douglasland,,Antrim,Kilbride Primary School Meals Kitchen,School/college/university,7845,0,,396131,5,,54.75907100000000,166,823,envhealth@newtownabbey.gov.uk,Newtownabbey,http://www.newtownabbey.gov.uk,-6.05440800000000,BT39 0SQ,2009-02-18,fhrs_5_en-GB,5,,FHRS,0
412627,609 Shore Road,Jordanstown,Newtownabbey,Antrim,Kinara Indian Restaurant,Restaurant/Cafe/Canteen,1,10,,396547,15,,54.67759100000000,8257,823,envhealth@newtownabbey.gov.uk,Newtownabbey,http://www.newtownabbey.gov.uk,-5.89080600000000,BT37 0ST,2014-08-13,fhrs_2_en-GB,2,,FHRS,10
412628,11 Kings Crescent,Croghfern,Newtownabbey,Antrim,King 11,Takeaway/sandwich shop,7844,5,,396619,10,,54.67829600000000,8908,823,envhealth@newtownabbey.gov.uk,Newtownabbey,http://www.newtownabbey.gov.uk,-5.91071000000000,BT37 0DH,2014-06-05,fhrs_4_en-GB,4,,FHRS,5
412629,623 Shore Road,Jordanstown,Newtownabbey,Antrim,King Wah,Takeaway/sandwich shop,7844,10,,565461,10,,54.67759100000000,18056,823,envhealth@newtownabbey.gov.uk,Newtownabbey,http://www.newtownabbey.gov.uk,-5.89080600000000,BT37 0ST,2014-12-09,fhrs_3_en-GB,3,,FHRS,10
412630,11 Main Street,Doagh,,Antrim,King's Garden,Takeaway/sandwich shop,7844,10,,467741,10,,54.73807800000000,17639,823,envhealth@newtownabbey.gov.uk,Newtownabbey,http://www.newtownabbey.gov.uk,-6.04238600000000,BT39 0QL,2014-07-02,fhrs_3_en-GB,3,,FHRS,5
412631,Kings Drive,Croghfern,Newtownabbey,Antrim,King's Park Primary School Meals,School/college/university,7845,0,,396300,0,,54.67780800000000,362,823,envhealth@newtownabbey.gov.uk,Newtownabbey,http://www.newtownabbey.gov.uk,-5.91320000000000,BT37 0DG,2013-06-06,fhrs_4_en-GB,4,,FHRS,10
412632,373-375 Antrim Rd,,Newtownabbey,Antrim,Knags Bar & Grill,Restaurant/Cafe/Canteen,1,5,,709442,5,,54.67327600000000,18314,823,envhealth@newtownabbey.gov.uk,Newtownabbey,http://www.newtownabbey.gov.uk,-5.96152500000000,BT36 5EB,2014-10-08,fhrs_5_en-GB,5,,FHRS,5
412633,18 Knowehead Road,Grange Of Ballyrobert,Templepatrick,Antrim,Laurelview Equestrian Centre,Other catering premises,7841,5,,396415,0,,54.70445100000000,6580,823,envhealth@newtownabbey.gov.uk,Newtownabbey,http://www.newtownabbey.gov.uk,-6.00615000000000,BT39 0BX,2014-10-29,fhrs_5_en-GB,5,,FHRS,5
412634,,,,,Lesley Heaney Catering,Manufacturers/packers,7839,5,,396535,0,,,8017,823,envhealth@newtownabbey.gov.uk,Newtownabbey,http://www.newtownabbey.gov.uk,,,2014-02-03,fhrs_5_en-GB,5,,FHRS,0
412635,Unit 11 Glenwell Road,Collinward,Newtownabbey,Antrim,Liddle Big Toes @ Sportsbowl,Restaurant/Cafe/Canteen,1,10,,396696,10,,54.66835300000000,9373,823,envhealth@newtownabbey.gov.uk,Newtownabbey,http://www.newtownabbey.gov.uk,-5.95620600000000,BT36 7RF,2014-07-01,fhrs_4_en-GB,4,,FHRS,0
412636,44 Ballynure Road,Ballyclare,Ballyclare,Antrim,Lidl,Retailers - supermarkets/hypermarkets,7840,0,,396501,5,,54.75050000000000,7026,823,envhealth@newtownabbey.gov.uk,Newtownabbey,http://www.newtownabbey.gov.uk,-5.99487800000000,BT39 9AG,2013-10-02,fhrs_5_en-GB,5,,FHRS,5
412637,37 Church Road,Drumnadrough,Newtownabbey,Antrim,Lidl NI GmbH,Retailers - supermarkets/hypermarkets,7840,10,,396471,0,,54.65867000000000,6918,823,envhealth@newtownabbey.gov.uk,Newtownabbey,http://www.newtownabbey.gov.uk,-5.92256600000000,BT36 7LG,2011-11-29,fhrs_4_en-GB,4,,FHRS,5
412638,4 Longlands Rd,,Newtownabbey,Antrim,Lin's Garden,Takeaway/sandwich shop,7844,10,,396452,10,,54.65493000000000,6838,823,envhealth@newtownabbey.gov.uk,Newtownabbey,http://www.newtownabbey.gov.uk,-5.92612000000000,BT36 7LZ,2014-12-03,fhrs_3_en-GB,3,,FHRS,5
412639,,,,,LJ's (14ft trailer),Mobile caterer,7846,5,,396543,10,,,8168,823,envhealth@newtownabbey.gov.uk,Newtownabbey,http://www.newtownabbey.gov.uk,,,2014-03-12,fhrs_4_en-GB,4,,FHRS,5
412640,,,,,LJ's 20ft Trailer,Mobile caterer,7846,10,,396612,10,,,8868,823,envhealth@newtownabbey.gov.uk,Newtownabbey,http://www.newtownabbey.gov.uk,,,2013-04-22,fhrs_3_en-GB,3,,FHRS,10
412641,8 Logwood Road,Bruslee,Ballyclare,Antrim,Logwood Coffee Shop,Restaurant/Cafe/Canteen,1,,,448677,,,54.73156400000000,17435,823,envhealth@newtownabbey.gov.uk,Newtownabbey,http://www.newtownabbey.gov.uk,-5.97347200000000,BT39 9LR,2014-06-10,fhrs_5_en-GB,5,,FHRS,
412642,50-52 Longlands Road,Ballygolan,Newtownabbey,Antrim,Longlands Newsagents,Retailers - other,4613,5,,396118,5,,54.65493000000000,1584,823,envhealth@newtownabbey.gov.uk,Newtownabbey,http://www.newtownabbey.gov.uk,-5.92612000000000,BT36 7LZ,2014-04-03,fhrs_5_en-GB,5,,FHRS,5
412643,182 Ballyclare Road,Carnmoney,Newtownabbey,Antrim,Lucky Future,Takeaway/sandwich shop,7844,5,,396186,5,,54.68125100000000,2068,823,envhealth@newtownabbey.gov.uk,Newtownabbey,http://www.newtownabbey.gov.uk,-5.96343500000000,BT36 5JR,2014-01-22,fhrs_5_en-GB,5,,FHRS,5
412644,334 Antrim Road,Glengormly,Newtownabbey,Antrim,Lucky House,Takeaway/sandwich shop,7844,20,,396206,5,,54.67225300000000,243,823,envhealth@newtownabbey.gov.uk,Newtownabbey,http://www.newtownabbey.gov.uk,-5.96050600000000,BT36 5EQ,2014-03-19,fhrs_1_en-GB,1,,FHRS,15
412645,3 Larne Road,Toberdowney,,Antrim,Mace Ballynure,Retailers - other,4613,,,396420,,,54.77677100000000,6629,823,envhealth@newtownabbey.gov.uk,Newtownabbey,http://www.newtownabbey.gov.uk,-5.94918800000000,BT39 9UA,2014-07-16,fhrs_4_en-GB,4,,FHRS,
412646,Mallusk Road,Grange Of Mallusk,Newtownabbey,Antrim,Mace Mallusk,Retailers - other,4613,5,,396108,10,,54.67452000000000,1535,823,envhealth@newtownabbey.gov.uk,Newtownabbey,http://www.newtownabbey.gov.uk,-5.98643900000000,BT36 4PP,2014-11-12,fhrs_4_en-GB,4,,FHRS,0
412647,96-100 Hightown Road,Ballybought,Newtownabbey,Antrim,Macs @ Edmund Rice College,Takeaway/sandwich shop,7844,5,,396521,5,,54.66571700000000,7883,823,envhealth@newtownabbey.gov.uk,Newtownabbey,http://www.newtownabbey.gov.uk,-5.97258300000000,BT36 7AU,2013-11-27,fhrs_5_en-GB,5,,FHRS,5
412648,,,,,Made At The Mill,Other catering premises,7841,5,,715747,0,,,18339,823,envhealth@newtownabbey.gov.uk,Newtownabbey,http://www.newtownabbey.gov.uk,,,2014-11-06,fhrs_5_en-GB,5,,FHRS,0
412649,82 Mallusk Road,Grange Of Mallusk,Newtownabbey,Antrim,Mallusk Community Playgroup C/o Academy Sports Club,Hospitals/Childcare/Caring Premises,5,5,,610410,5,,54.67892400000000,18088,823,envhealth@newtownabbey.gov.uk,Newtownabbey,http://www.newtownabbey.gov.uk,-6.00335400000000,BT36 4QE,2013-10-07,fhrs_5_en-GB,5,,FHRS,5
412650,82 Mallusk Road,Grange Of Mallusk,Newtownabbey,Antrim,Mallusk Primary School Meals Kitchen,School/college/university,7845,5,,396176,5,,54.67892400000000,193,823,envhealth@newtownabbey.gov.uk,Newtownabbey,http://www.newtownabbey.gov.uk,-6.00335400000000,BT36 4QE,2014-06-26,fhrs_5_en-GB,5,,FHRS,5
412651,17 Monkstown Village Centre,Monkstown,Newtownabbey,Antrim,Maloney's Chippy,Takeaway/sandwich shop,7844,5,,396522,5,,54.68915600000000,7892,823,envhealth@newtownabbey.gov.uk,Newtownabbey,http://www.newtownabbey.gov.uk,-5.91733300000000,BT37 0HS,2014-03-12,fhrs_5_en-GB,5,,FHRS,5
412652,401-403 Ballyclare Road,Kingsbog,Newtownabbey,Antrim,Maloney's Restaurant,Restaurant/Cafe/Canteen,1,10,,396135,10,,54.70648400000000,1670,823,envhealth@newtownabbey.gov.uk,Newtownabbey,http://www.newtownabbey.gov.uk,-5.99432000000000,BT36 4TH,2014-02-04,fhrs_3_en-GB,3,,FHRS,10
412653,290 Antrim Road,Collinward,Newtownabbey,Antrim,Manny's,Takeaway/sandwich shop,7844,10,,396657,10,,54.66958000000000,9203,823,envhealth@newtownabbey.gov.uk,Newtownabbey,http://www.newtownabbey.gov.uk,-5.95707500000000,BT36 7QT,2014-08-29,fhrs_3_en-GB,3,,FHRS,10
412654,51 Mallusk Road,Grange Of Mallusk,Newtownabbey,Antrim,Manor House Nursery Sense NI,Hospitals/Childcare/Caring Premises,5,0,,396114,0,,54.67818600000000,1564,823,envhealth@newtownabbey.gov.uk,Newtownabbey,http://www.newtownabbey.gov.uk,-5.99458400000000,BT36 4FE,2012-04-19,fhrs_5_en-GB,5,,FHRS,0
412655,20a Main Street,Ballyclare,Ballyclare,Antrim,Marion's Diner,Mobile caterer,7846,5,,396642,0,,54.75067300000000,9159,823,envhealth@newtownabbey.gov.uk,Newtownabbey,http://www.newtownabbey.gov.uk,-5.99715300000000,BT39 9AB,2014-02-05,fhrs_5_en-GB,5,,FHRS,0
412656,28 Abbots Cross,White Abbey,Newtownabbey,Antrim,Market Fresh Daily,Retailers - other,4613,10,,396442,5,,54.66905100000000,6815,823,envhealth@newtownabbey.gov.uk,Newtownabbey,http://www.newtownabbey.gov.uk,-5.91234700000000,BT37 9QY,2013-10-08,fhrs_4_en-GB,4,,FHRS,5
412657,3 Jennings Park,Monkstown,Newtownabbey,Antrim,Market Fresh Daily,Retailers - other,4613,0,,396140,0,,54.69089500000000,1680,823,envhealth@newtownabbey.gov.uk,Newtownabbey,http://www.newtownabbey.gov.uk,-5.91083800000000,BT37 0NB,2014-08-05,fhrs_5_en-GB,5,,FHRS,5
412658,7 Kings Crescent,Croghfern,Newtownabbey,Antrim,Market Fresh Daily,Retailers - other,4613,10,,396077,0,,54.67829600000000,1217,823,envhealth@newtownabbey.gov.uk,Newtownabbey,http://www.newtownabbey.gov.uk,-5.91071000000000,BT37 0DH,2014-01-28,fhrs_4_en-GB,4,,FHRS,10
412659,1 Old Glenmount Road,,Newtownabbey,Antrim,Marks & Spencer PLC,Retailers - supermarkets/hypermarkets,7840,0,,396478,0,,,6953,823,envhealth@newtownabbey.gov.uk,Newtownabbey,http://www.newtownabbey.gov.uk,,BT36 7DN,2013-07-09,fhrs_5_en-GB,5,,FHRS,5
412660,49 Ballyclare Road,Carnmoney Bog,Newtownabbey,Antrim,Martin Residential Trust,Hospitals/Childcare/Caring Premises,5,0,,396178,0,,54.67498600000000,197,823,envhealth@newtownabbey.gov.uk,Newtownabbey,http://www.newtownabbey.gov.uk,-5.96005900000000,BT36 5HQ,2014-03-04,fhrs_5_en-GB,5,,FHRS,5
412661,287 Carnmoney Road,Carnmoney,Newtownabbey,Antrim,Mauds,Retailers - other,4613,5,,396338,0,,54.68297200000000,407,823,envhealth@newtownabbey.gov.uk,Newtownabbey,http://www.newtownabbey.gov.uk,-5.95091200000000,BT36 6JS,2014-01-08,fhrs_5_en-GB,5,,FHRS,5
412662,3 Granges Street,Ballyclare,Ballyclare,Antrim,Mauds @ Caffe 3,Restaurant/Cafe/Canteen,1,,,396562,,,54.75292100000000,8503,823,envhealth@newtownabbey.gov.uk,Newtownabbey,http://www.newtownabbey.gov.uk,-6.00000900000000,BT39 9ZJ,2013-11-13,fhrs_5_en-GB,5,,FHRS,
412663,671 Shore Road,Jordanstown,Newtownabbey,Antrim,Mauds Cafe/video City,Restaurant/Cafe/Canteen,1,5,,396180,0,,54.67759100000000,199,823,envhealth@newtownabbey.gov.uk,Newtownabbey,http://www.newtownabbey.gov.uk,-5.89080600000000,BT37 0ST,2014-12-12,fhrs_4_en-GB,4,,FHRS,10
412664,6 Rathcoole Drive,White House,Newtownabbey,Antrim,Maud's Moments,Retailers - other,4613,5,,396641,5,,54.66029400000000,9148,823,envhealth@newtownabbey.gov.uk,Newtownabbey,http://www.newtownabbey.gov.uk,-5.91510600000000,BT37 9AE,2014-05-29,fhrs_5_en-GB,5,,FHRS,5
412665,12 Monkstown Village Centre,Monkstown,Newtownabbey,Antrim,Mauds of Monkstown,Retailers - other,4613,0,,396687,0,,54.68915600000000,9348,823,envhealth@newtownabbey.gov.uk,Newtownabbey,http://www.newtownabbey.gov.uk,-5.91733300000000,BT37 0HS,2014-12-31,fhrs_5_en-GB,5,,FHRS,0
412666,4 Mayfield High Street,Ballywonard,Newtownabbey,Antrim,Mayfield Village Butchers,Manufacturers/packers,7839,5,,396587,10,,54.66895800000000,8717,823,envhealth@newtownabbey.gov.uk,Newtownabbey,http://www.newtownabbey.gov.uk,-5.98429600000000,BT36 7WU,2014-01-28,fhrs_4_en-GB,4,,FHRS,5
412667,290 Antrim Road,Collinward,Newtownabbey,Antrim,McDonald's,Restaurant/Cafe/Canteen,1,0,,396090,5,,54.66958000000000,1432,823,envhealth@newtownabbey.gov.uk,Newtownabbey,http://www.newtownabbey.gov.uk,-5.95707500000000,BT36 7QT,2014-11-17,fhrs_5_en-GB,5,,FHRS,5
412668,5 Longwood Road,Drumnadrough,Newtownabbey,Antrim,McDonald's Restaurant,Restaurant/Cafe/Canteen,1,0,,396380,0,,54.65470200000000,581,823,envhealth@newtownabbey.gov.uk,Newtownabbey,http://www.newtownabbey.gov.uk,-5.92013400000000,BT37 9UL,2013-05-20,fhrs_5_en-GB,5,,FHRS,5
412669,Arthur Road,Ballygolan,Newtownabbey,Antrim,"McIlroy Court, Helm Housing",Other catering premises,7841,,,396530,,,54.65406300000000,7967,823,envhealth@newtownabbey.gov.uk,Newtownabbey,http://www.newtownabbey.gov.uk,-5.92848800000000,BT36 7EQ,2013-01-30,fhrs_exempt_en-GB,Exempt,,FHRS,
412670,12 Carnmoney Road,Glengormly,Newtownabbey,Antrim,McMillens News,Retailers - other,4613,5,,396378,0,,54.67166600000000,575,823,envhealth@newtownabbey.gov.uk,Newtownabbey,http://www.newtownabbey.gov.uk,-5.95768300000000,BT36 6HN,2014-11-12,fhrs_5_en-GB,5,,FHRS,0
412671,633 Antrim Road,Ballyvesey,Newtownabbey,Antrim,Meadowdale,Hospitals/Childcare/Caring Premises,5,5,,396388,0,,54.68359200000000,619,823,envhealth@newtownabbey.gov.uk,Newtownabbey,http://www.newtownabbey.gov.uk,-5.99006800000000,BT36 4RF,2014-11-24,fhrs_5_en-GB,5,,FHRS,5
412672,312 Antrim Road,Glengormly,Newtownabbey,Antrim,Medicare,Retailers - other,4613,,,396179,,,54.67082600000000,198,823,envhealth@newtownabbey.gov.uk,Newtownabbey,http://www.newtownabbey.gov.uk,-5.95899600000000,BT36 5EG,2012-03-29,fhrs_exempt_en-GB,Exempt,,FHRS,
412673,343 Carnmoney Road,Ballyduff,Newtownabbey,Antrim,Medicare,Retailers - other,4613,,,396350,,,54.68414100000000,435,823,envhealth@newtownabbey.gov.uk,Newtownabbey,http://www.newtownabbey.gov.uk,-5.95097800000000,BT36 6JT,2014-03-03,fhrs_exempt_en-GB,Exempt,,FHRS,
412674,379c Antrim Road,Carnmoney Bog,Newtownabbey,Antrim,Medicare,Retailers - other,4613,,,396337,,,54.67327600000000,406,823,envhealth@newtownabbey.gov.uk,Newtownabbey,http://www.newtownabbey.gov.uk,-5.96152500000000,BT36 5EB,2014-03-03,fhrs_exempt_en-GB,Exempt,,FHRS,
412675,Northcott Shopping Centre Ballyclare Road,,Newtownabbey,Antrim,Medicare,Retailers - other,4613,,,396692,,,54.67679900000000,9361,823,envhealth@newtownabbey.gov.uk,Newtownabbey,http://www.newtownabbey.gov.uk,-5.96260400000000,BT36 5HD,2012-07-18,fhrs_exempt_en-GB,Exempt,,FHRS,
412676,2 Beverley Road,Ballyduff,Newtownabbey,Antrim,Medicare Beverley Pharmacy,Retailers - other,4613,,,396157,,,54.68824300000000,1705,823,envhealth@newtownabbey.gov.uk,Newtownabbey,http://www.newtownabbey.gov.uk,-5.94810300000000,BT36 6QD,2012-05-02,fhrs_exempt_en-GB,Exempt,,FHRS,
412677,1 Ballyclare Road,Glengormly,Newtownabbey,Antrim,Medicare Pharmacy,Retailers - other,4613,,,396625,,,54.67381100000000,90,823,envhealth@newtownabbey.gov.uk,Newtownabbey,http://www.newtownabbey.gov.uk,-5.96021100000000,BT36 5EX,2012-03-29,fhrs_exempt_en-GB,Exempt,,FHRS,
412678,10 Richmond Gardens,Carnmoney,Newtownabbey,Antrim,MediCare Pharmacy,Retailers - other,4613,,,396433,,,54.68289200000000,6736,823,envhealth@newtownabbey.gov.uk,Newtownabbey,http://www.newtownabbey.gov.uk,-5.95950700000000,BT36 5LA,2012-03-29,fhrs_exempt_en-GB,Exempt,,FHRS,
412679,13 Woodford Road,Ballyduff,Newtownabbey,Antrim,Medicare Woodford Pharmacy,Retailers - other,4613,,,396364,,,54.69178300000000,498,823,envhealth@newtownabbey.gov.uk,Newtownabbey,http://www.newtownabbey.gov.uk,-5.93644700000000,BT36 6TS,2012-03-29,fhrs_exempt_en-GB,Exempt,,FHRS,
412680,47 Mallusk Road,Grange Of Mallusk,Newtownabbey,Antrim,Mercedes-Benz Truck & Van (NI),Restaurant/Cafe/Canteen,1,5,,396272,5,,54.67803200000000,3,823,envhealth@newtownabbey.gov.uk,Newtownabbey,http://www.newtownabbey.gov.uk,-5.99287000000000,BT36 4PJ,2014-03-04,fhrs_5_en-GB,5,,FHRS,5
412681,65 Merville Garden Village,Drumnadrough,Newtownabbey,Antrim,Merville House,Other catering premises,7841,,,396480,,,54.65548300000000,6962,823,envhealth@newtownabbey.gov.uk,Newtownabbey,http://www.newtownabbey.gov.uk,-5.91330700000000,BT37 9TH,2012-05-10,fhrs_exempt_en-GB,Exempt,,FHRS,
412682,2-3 Merville Garden Village,Drumnadrough,Newtownabbey,Antrim,Merville Newsagency,Retailers - other,4613,0,,396183,0,,54.65602700000000,202,823,envhealth@newtownabbey.gov.uk,Newtownabbey,http://www.newtownabbey.gov.uk,-5.91098500000000,BT37 9TF,2014-01-09,fhrs_5_en-GB,5,,FHRS,0
412683,12 Merville Garden Village,Drumnadrough,Newtownabbey,Antrim,Merville Pharmacy,Retailers - other,4613,,,396073,,,54.65602700000000,1177,823,envhealth@newtownabbey.gov.uk,Newtownabbey,http://www.newtownabbey.gov.uk,-5.91098500000000,BT37 9TF,2012-05-01,fhrs_exempt_en-GB,Exempt,,FHRS,
412684,2 The Square,Ballyclare,Ballyclare,Antrim,Millar Meats,Manufacturers/packers,7839,10,,396184,10,,54.75272000000000,203,823,envhealth@newtownabbey.gov.uk,Newtownabbey,http://www.newtownabbey.gov.uk,-6.00143200000000,BT39 9BB,2013-10-16,fhrs_3_en-GB,3,,FHRS,10
412685,24 Cherryvale Park,Ballybought,Newtownabbey,Antrim,Millers,Retailers - other,4613,10,,396164,5,,54.67185400000000,1721,823,envhealth@newtownabbey.gov.uk,Newtownabbey,http://www.newtownabbey.gov.uk,-5.96671200000000,BT36 7UQ,2014-01-06,fhrs_3_en-GB,3,,FHRS,10
412686,19a Newton Gardens,Ballygolan,Newtownabbey,Antrim,Millgreen Youth Centre,Other catering premises,7841,5,,396078,5,,54.65110000000000,125,823,envhealth@newtownabbey.gov.uk,Newtownabbey,http://www.newtownabbey.gov.uk,-5.91971400000000,BT36 7BX,2013-05-01,fhrs_5_en-GB,5,,FHRS,0
412687,61 Church Road,Dunanney,Newtownabbey,Antrim,Mitie Catering Services Ltd (gather & Gather),Restaurant/Cafe/Canteen,1,10,,610408,5,,54.66506400000000,18081,823,envhealth@newtownabbey.gov.uk,Newtownabbey,http://www.newtownabbey.gov.uk,-5.93028400000000,BT36 7LQ,2013-10-01,fhrs_3_en-GB,3,,FHRS,10
412688,11 Carnmoney Road,Glengormly,Newtownabbey,Antrim,Moghul Takeaway,Takeaway/sandwich shop,7844,10,,396409,5,,54.67157800000000,6559,823,envhealth@newtownabbey.gov.uk,Newtownabbey,http://www.newtownabbey.gov.uk,-5.95726900000000,BT36 6HL,2013-09-24,fhrs_3_en-GB,3,,FHRS,10
412689,Shore Rd,,Newtownabbey,Antrim,Moka,Takeaway/sandwich shop,7844,5,,610418,5,,54.68721500000000,18119,823,envhealth@newtownabbey.gov.uk,Newtownabbey,http://www.newtownabbey.gov.uk,-5.88259900000000,BT37 0QA,2013-10-16,fhrs_5_en-GB,5,,FHRS,5
412690,200 Jordanstown Road,Monkstown,Newtownabbey,Antrim,Monkstown Baptist Church,Other catering premises,7841,,,480901,,,54.68974500000000,7880,823,envhealth@newtownabbey.gov.uk,Newtownabbey,http://www.newtownabbey.gov.uk,-5.90875700000000,BT37 0LZ,2014-03-31,fhrs_exempt_en-GB,Exempt,,FHRS,
412691,100 Bridge Road,Monkstown,Newtownabbey,Antrim,Monkstown Community School Kitchen,School/college/university,7845,5,,396185,0,,54.69015500000000,206,823,envhealth@newtownabbey.gov.uk,Newtownabbey,http://www.newtownabbey.gov.uk,-5.91847600000000,BT37 0EA,2013-10-02,fhrs_5_en-GB,5,,FHRS,0
412692,100 Bridge Road,Monkstown,Newtownabbey,Antrim,Monkstown Community School Playgroup,Hospitals/Childcare/Caring Premises,5,5,,396193,0,,54.69015500000000,216,823,envhealth@newtownabbey.gov.uk,Newtownabbey,http://www.newtownabbey.gov.uk,-5.91847600000000,BT37 0EA,2013-10-02,fhrs_5_en-GB,5,,FHRS,0
412693,Jennings Park,Monkstown,Newtownabbey,Antrim,Monkstown Nursery Dining Centre,Hospitals/Childcare/Caring Premises,5,5,,396292,0,,54.69089500000000,346,823,envhealth@newtownabbey.gov.uk,Newtownabbey,http://www.newtownabbey.gov.uk,-5.91083800000000,BT37 0NB,2015-02-09,fhrs_5_en-GB,5,,FHRS,0
412694,52 Cloyne Crescent,Monkstown,Newtownabbey,Antrim,Monkstown Social Club,Pub/bar/nightclub,7843,0,,396382,0,,54.68743300000000,594,823,envhealth@newtownabbey.gov.uk,Newtownabbey,http://www.newtownabbey.gov.uk,-5.91431900000000,BT37 0HH,2014-02-10,fhrs_4_en-GB,4,,FHRS,10
412695,15-16 Abbots Cross,White Abbey,Newtownabbey,Antrim,Moores Newsagents,Retailers - other,4613,5,,396187,5,,54.66871900000000,208,823,envhealth@newtownabbey.gov.uk,Newtownabbey,http://www.newtownabbey.gov.uk,-5.91180600000000,BT37 9QU,2011-10-19,fhrs_5_en-GB,5,,FHRS,5
412696,29 Swanston Road,Ballywonard,Newtownabbey,Antrim,Mossgrove Primary School Breakfast Club,School/college/university,7845,5,,668543,0,,54.67567300000000,18262,823,envhealth@newtownabbey.gov.uk,Newtownabbey,http://www.newtownabbey.gov.uk,-5.97207100000000,BT36 5DN,2014-05-21,fhrs_5_en-GB,5,,FHRS,0
412697,29 Swanston Road,Ballywonard,Newtownabbey,Antrim,Mossgrove Primary School Meals,School/college/university,7845,5,,396301,5,,54.67567300000000,365,823,envhealth@newtownabbey.gov.uk,Newtownabbey,http://www.newtownabbey.gov.uk,-5.97207100000000,BT36 5DN,2014-02-10,fhrs_5_en-GB,5,,FHRS,0
412698,1 The Glade,Ballyhenry,Newtownabbey,Antrim,Mossley Hockey Club,Other catering premises,7841,5,,396365,5,,54.69414500000000,499,823,envhealth@newtownabbey.gov.uk,Newtownabbey,http://www.newtownabbey.gov.uk,-5.95280000000000,BT36 5NN,2014-03-03,fhrs_5_en-GB,5,,FHRS,0
412699,2a Hazelburn Road,Ballyhenry,Newtownabbey,Antrim,Mossley Nursery School - Dining Centre,Hospitals/Childcare/Caring Premises,5,0,,396191,0,,54.69260100000000,213,823,envhealth@newtownabbey.gov.uk,Newtownabbey,http://www.newtownabbey.gov.uk,-5.94597600000000,BT36 5NA,2015-02-03,fhrs_5_en-GB,5,,FHRS,5
412700,60 Manse Road,,Newtownabbey,Antrim,Mossley Parish Tea Brew & Dove Catering,Other catering premises,7841,5,,396454,0,,54.69078000000000,6840,823,envhealth@newtownabbey.gov.uk,Newtownabbey,http://www.newtownabbey.gov.uk,-5.94723100000000,BT36 6SN,2014-04-17,fhrs_5_en-GB,5,,FHRS,5
412701,2 Hazelburn Road,Ballyhenry,Newtownabbey,Antrim,Mossley Primary School Meals Kitchen,School/college/university,7845,5,,396190,0,,54.69260100000000,212,823,envhealth@newtownabbey.gov.uk,Newtownabbey,http://www.newtownabbey.gov.uk,-5.94597600000000,BT36 5NA,2014-09-25,fhrs_5_en-GB,5,,FHRS,5
412702,Unit 4c Longwood Retail Park,,Newtownabbey,Antrim,Mothercare/Early Learning Centre,Retailers - other,4613,,,396575,,,,8595,823,envhealth@newtownabbey.gov.uk,Newtownabbey,http://www.newtownabbey.gov.uk,,BT37 9UW,2012-09-06,fhrs_exempt_en-GB,Exempt,,FHRS,
412703,Carnmoney Road North,Ballyhenry,Newtownabbey,Antrim,Mount Charles @ Newtownabbey Borough Council,Restaurant/Cafe/Canteen,1,0,,396192,5,,54.69584600000000,2147,823,envhealth@newtownabbey.gov.uk,Newtownabbey,http://www.newtownabbey.gov.uk,-5.94818500000000,BT36 5QA,2013-10-22,fhrs_5_en-GB,5,,FHRS,5
412704,1 Hightown Avenue,Ballywonard,Newtownabbey,Antrim,Mount Charles @John Henderson,Restaurant/Cafe/Canteen,1,,,396110,,,54.67465600000000,1544,823,envhealth@newtownabbey.gov.uk,Newtownabbey,http://www.newtownabbey.gov.uk,-5.97841700000000,BT36 4RT,2014-07-01,fhrs_5_en-GB,5,,FHRS,
412705,167 Church Road,Glengormly,Newtownabbey,Antrim,Mount Charles Catering @ Glengormley Fire Station,Restaurant/Cafe/Canteen,1,10,,396347,10,,54.67115300000000,429,823,envhealth@newtownabbey.gov.uk,Newtownabbey,http://www.newtownabbey.gov.uk,-5.95498000000000,BT36 6HH,2013-07-30,fhrs_3_en-GB,3,,FHRS,10
412706,13-15 Glenwell Road,Collinward,Newtownabbey,Antrim,Movie House Cinemas,Retailers - other,4613,5,,396195,0,,54.66835300000000,220,823,envhealth@newtownabbey.gov.uk,Newtownabbey,http://www.newtownabbey.gov.uk,-5.95620600000000,BT36 7RF,2014-12-31,fhrs_5_en-GB,5,,FHRS,0
412707,387 Antrim Road,Carnmoney Bog,Newtownabbey,Antrim,Moyola Park,Retailers - other,4613,,,396430,,,54.67491400000000,671,823,envhealth@newtownabbey.gov.uk,Newtownabbey,http://www.newtownabbey.gov.uk,-5.96542700000000,BT36 5ED,2014-05-23,fhrs_4_en-GB,4,,FHRS,
412708,66 Templepatrick Road,Ballyclare,,Antrim,Mr George's Ice Cream 1,Retailers - other,4613,10,,687312,0,,54.75441000000000,18273,823,envhealth@newtownabbey.gov.uk,Newtownabbey,http://www.newtownabbey.gov.uk,-5.97925900000000,BT39 9AL,2014-07-07,fhrs_4_en-GB,4,,FHRS,0
412709,66 Templepatrick Road,Ballyclare,,Antrim,Mr George's Ice Cream 2,Retailers - other,4613,10,,687313,0,,54.75441000000000,18274,823,envhealth@newtownabbey.gov.uk,Newtownabbey,http://www.newtownabbey.gov.uk,-5.97925900000000,BT39 9AL,2014-07-07,fhrs_4_en-GB,4,,FHRS,0
412710,66 Templepatrick Road,Ballyclare,,Antrim,Mr George's Ice Cream 3,Retailers - other,4613,10,,687314,0,,54.75441000000000,18275,823,envhealth@newtownabbey.gov.uk,Newtownabbey,http://www.newtownabbey.gov.uk,-5.97925900000000,BT39 9AL,2014-07-07,fhrs_4_en-GB,4,,FHRS,0
412711,,,,,Ms Sharon Morrison,Hospitals/Childcare/Caring Premises,5,,,691345,,,,18311,823,envhealth@newtownabbey.gov.uk,Newtownabbey,http://www.newtownabbey.gov.uk,,,2014-08-15,fhrs_exempt_en-GB,Exempt,,FHRS,
412712,256 Carnmoney Road,Ballyduff,Newtownabbey,Antrim,Mulberry Bush Playgroup,Hospitals/Childcare/Caring Premises,5,0,,396458,0,,54.68358600000000,6859,823,envhealth@newtownabbey.gov.uk,Newtownabbey,http://www.newtownabbey.gov.uk,-5.95165700000000,BT36 6JZ,2014-02-10,fhrs_5_en-GB,5,,FHRS,0
412713,96-100 Hightown Road,Ballybought,Newtownabbey,Antrim,Naiscoil Eanna,Hospitals/Childcare/Caring Premises,5,5,,396432,0,,54.66571700000000,6734,823,envhealth@newtownabbey.gov.uk,Newtownabbey,http://www.newtownabbey.gov.uk,-5.97258300000000,BT36 7AU,2014-10-14,fhrs_5_en-GB,5,,FHRS,5
412714,386 Antrim Road,Carnmoney Bog,Newtownabbey,Antrim,Neddy Teddy's Day Nursery,Hospitals/Childcare/Caring Premises,5,0,,396449,0,,54.67381500000000,6833,823,envhealth@newtownabbey.gov.uk,Newtownabbey,http://www.newtownabbey.gov.uk,-5.96419500000000,BT36 5EJ,2014-10-27,fhrs_5_en-GB,5,,FHRS,0
412715,508 Antrim Road,Ballywonard,Newtownabbey,Antrim,Nedz Too,Hospitals/Childcare/Caring Premises,5,0,,396615,0,,54.67671400000000,8885,823,envhealth@newtownabbey.gov.uk,Newtownabbey,http://www.newtownabbey.gov.uk,-5.97257800000000,BT36 5DB,2014-02-27,fhrs_5_en-GB,5,,FHRS,0
412716,11 Kilbride Road,Kilbride,,Antrim,Need for Speed Karting,Retailers - other,4613,,,396268,,,54.74548200000000,2978,823,envhealth@newtownabbey.gov.uk,Newtownabbey,http://www.newtownabbey.gov.uk,-6.04967000000000,BT39 0QA,2014-03-03,fhrs_exempt_en-GB,Exempt,,FHRS,
412717,Glencairn Park,Carnmoney Bog,Newtownabbey,Antrim,Nesbitts Quality Meats,Retailers - other,4613,0,,396197,5,,54.67435300000000,225,823,envhealth@newtownabbey.gov.uk,Newtownabbey,http://www.newtownabbey.gov.uk,-5.96303700000000,BT36 5EN,2015-01-20,fhrs_5_en-GB,5,,FHRS,5
412718,119 Doagh Road,Croghfern,Newtownabbey,Antrim,New Century,Takeaway/sandwich shop,7844,5,,448678,10,,54.67462000000000,17444,823,envhealth@newtownabbey.gov.uk,Newtownabbey,http://www.newtownabbey.gov.uk,-5.91381300000000,BT36 6AA,2014-08-11,fhrs_4_en-GB,4,,FHRS,5
412719,173 Doagh Road,Croghfern,Newtownabbey,Antrim,New Jumbo,Takeaway/sandwich shop,7844,10,,396120,5,,54.67703700000000,159,823,envhealth@newtownabbey.gov.uk,Newtownabbey,http://www.newtownabbey.gov.uk,-5.91534900000000,BT36 6AB,2014-11-25,fhrs_4_en-GB,4,,FHRS,5
412720,Ballyearl Drive,Ballyhenry,Newtownabbey,Antrim,New Mossley Chippy,Takeaway/sandwich shop,7844,10,,709444,10,,54.68950500000000,18335,823,envhealth@newtownabbey.gov.uk,Newtownabbey,http://www.newtownabbey.gov.uk,-5.96322400000000,BT36 5XJ,2014-10-14,fhrs_3_en-GB,3,,FHRS,10
412721,1 Manse Way,Ballyhenry,Newtownabbey,Antrim,New Mossley Youth Centre,Other catering premises,7841,,,396115,,,54.68842000000000,1565,823,envhealth@newtownabbey.gov.uk,Newtownabbey,http://www.newtownabbey.gov.uk,-5.95857900000000,BT36 5UW,2012-03-29,fhrs_exempt_en-GB,Exempt,,FHRS,
412722,10 Station Road,Doagh,,Antrim,New Red Dragon,Takeaway/sandwich shop,7844,,,396339,,,54.73617300000000,411,823,envhealth@newtownabbey.gov.uk,Newtownabbey,http://www.newtownabbey.gov.uk,-6.04126700000000,BT39 0QT,2014-04-16,fhrs_5_en-GB,5,,FHRS,
412723,7 Carnmoney Road,,Newtownabbey,,New Taste,Takeaway/sandwich shop,7844,,,396598,,,54.67157800000000,8830,823,envhealth@newtownabbey.gov.uk,Newtownabbey,http://www.newtownabbey.gov.uk,-5.95726900000000,BT36 6HL,2014-01-29,fhrs_4_en-GB,4,,FHRS,
412724,24 Abbots Road,White Abbey,Newtownabbey,Antrim,New Way,Other catering premises,7841,0,,396650,0,,54.66953000000000,9175,823,envhealth@newtownabbey.gov.uk,Newtownabbey,http://www.newtownabbey.gov.uk,-5.91143900000000,BT37 9RB,2014-05-22,fhrs_5_en-GB,5,,FHRS,0
412725,2a Rathcoole Drive,White House,Newtownabbey,Antrim,Newtownabbey Community High School,School/college/university,7845,5,,396298,0,,54.65998300000000,360,823,envhealth@newtownabbey.gov.uk,Newtownabbey,http://www.newtownabbey.gov.uk,-5.91426900000000,BT37 9AD,2013-06-17,fhrs_5_en-GB,5,,FHRS,5
412726,231 Jordanstown Road,Monkstown,Newtownabbey,Antrim,Newtownabbey Educational Guidance Centre,School/college/university,7845,10,,396399,0,,54.69007500000000,6464,823,envhealth@newtownabbey.gov.uk,Newtownabbey,http://www.newtownabbey.gov.uk,-5.91330000000000,BT37 0LX,2014-02-07,fhrs_4_en-GB,4,,FHRS,5
412727,35a Rathcoole Drive,White House,Newtownabbey,Antrim,Newtownabbey Methodist Mission,Other catering premises,7841,5,,396200,0,,54.65990100000000,230,823,envhealth@newtownabbey.gov.uk,Newtownabbey,http://www.newtownabbey.gov.uk,-5.91528100000000,BT37 9AQ,2014-02-26,fhrs_4_en-GB,4,,FHRS,10
412728,35a Rathcoole Drive,White House,Newtownabbey,Antrim,Newtownabbey Methodist Mission Pre School Playgroup,Hospitals/Childcare/Caring Premises,5,0,,396602,0,,54.65990100000000,8836,823,envhealth@newtownabbey.gov.uk,Newtownabbey,http://www.newtownabbey.gov.uk,-5.91528100000000,BT37 9AQ,2014-10-09,fhrs_5_en-GB,5,,FHRS,5
412729,4 Ballynure Road,Ballyclare,Ballyclare,Antrim,Norman Watt & Son,Retailers - other,4613,10,,396273,10,,54.75050000000000,308,823,envhealth@newtownabbey.gov.uk,Newtownabbey,http://www.newtownabbey.gov.uk,-5.99487800000000,BT39 9AG,2014-05-21,fhrs_3_en-GB,3,,FHRS,5
412730,Monkstown Avenue,Croghfern,Newtownabbey,Antrim,Nortel Athletic & Social Club,Pub/bar/nightclub,7843,20,,396333,5,,,399,823,envhealth@newtownabbey.gov.uk,Newtownabbey,http://www.newtownabbey.gov.uk,,,2013-10-04,fhrs_1_en-GB,1,,FHRS,10
412731,86 Belfast Road,Bruslee,Ballyclare,Antrim,North Eastern C2K,Other catering premises,7841,5,,396366,5,,54.73414500000000,50,823,envhealth@newtownabbey.gov.uk,Newtownabbey,http://www.newtownabbey.gov.uk,-5.96502100000000,BT39 9LS,2012-03-29,fhrs_5_en-GB,5,,FHRS,5
412732,18 O'Neill Road,Drumnadrough,Newtownabbey,Antrim,Northern Ireland Children's Hospice,Hospitals/Childcare/Caring Premises,5,0,,396385,5,,54.66493500000000,6039,823,envhealth@newtownabbey.gov.uk,Newtownabbey,http://www.newtownabbey.gov.uk,-5.94593100000000,BT36 6WB,2013-08-13,fhrs_5_en-GB,5,,FHRS,5
412733,686 Shore Road,Jordanstown,Newtownabbey,Antrim,O'Briens Sandwich Bar,Restaurant/Cafe/Canteen,1,5,,396265,10,,54.68317000000000,2963,823,envhealth@newtownabbey.gov.uk,Newtownabbey,http://www.newtownabbey.gov.uk,-5.88200300000000,BT37 0PS,2013-08-02,fhrs_3_en-GB,3,,FHRS,10
412734,Longwood Road,Drumnadrough,Newtownabbey,Antrim,O'Briens Sandwich Bar,Restaurant/Cafe/Canteen,1,5,,396429,10,,54.65550000000000,6692,823,envhealth@newtownabbey.gov.uk,Newtownabbey,http://www.newtownabbey.gov.uk,-5.91798600000000,BT37 9UH,2015-01-19,fhrs_4_en-GB,4,,FHRS,5
412735,Foundry Lane,Ballyclare,Ballyclare,Antrim,Ollar Fold,Other catering premises,7841,5,,396202,0,,54.75270000000000,236,823,envhealth@newtownabbey.gov.uk,Newtownabbey,http://www.newtownabbey.gov.uk,-6.00405900000000,BT39 9UX,2014-04-08,fhrs_5_en-GB,5,,FHRS,5
412736,51a O'Neill Road,Dunanney,Newtownabbey,Antrim,O'Neill Road Centra,Retailers - other,4613,5,,396138,10,,54.66904600000000,1677,823,envhealth@newtownabbey.gov.uk,Newtownabbey,http://www.newtownabbey.gov.uk,-5.93406600000000,BT36 6UN,2014-07-29,fhrs_4_en-GB,4,,FHRS,5
412737,34 Ballynure Road,,Newtownabbey,Antrim,Open Arms,Other catering premises,7841,5,,396629,0,,54.70408700000000,9077,823,envhealth@newtownabbey.gov.uk,Newtownabbey,http://www.newtownabbey.gov.uk,-5.96911800000000,BT36 5SW,2014-04-11,fhrs_5_en-GB,5,,FHRS,5
412738,29 Ballyrobert Road,Grange Of Ballyrobert,Ballyclare,Antrim,Oregano Restaurant,Restaurant/Cafe/Canteen,1,10,,396069,10,,54.71499500000000,111,823,envhealth@newtownabbey.gov.uk,Newtownabbey,http://www.newtownabbey.gov.uk,-6.00266800000000,BT39 9RY,2013-08-30,fhrs_3_en-GB,3,,FHRS,10
412739,686 Shore Road,Jordanstown,Newtownabbey,Antrim,Pango,Restaurant/Cafe/Canteen,1,,,610416,,,54.68317000000000,18116,823,envhealth@newtownabbey.gov.uk,Newtownabbey,http://www.newtownabbey.gov.uk,-5.88200300000000,BT37 0PS,2014-03-13,fhrs_5_en-GB,5,,FHRS,
412740,335 Antrim Road,Glengormly,Newtownabbey,Antrim,Pappas Kitchen,Takeaway/sandwich shop,7844,10,,396205,10,,54.67234000000000,240,823,envhealth@newtownabbey.gov.uk,Newtownabbey,http://www.newtownabbey.gov.uk,-5.95980400000000,BT36 5DZ,2014-03-24,fhrs_2_en-GB,2,,FHRS,15
412741,1 Rectory Road,Doagh,,Antrim,Parkview Hockey Club,Pub/bar/nightclub,7843,0,,396255,5,,54.75022900000000,2888,823,envhealth@newtownabbey.gov.uk,Newtownabbey,http://www.newtownabbey.gov.uk,-6.03926800000000,BT39 0PT,2014-02-19,fhrs_5_en-GB,5,,FHRS,0
412742,,,,,Patricia Mann Cake Designs,Manufacturers/packers,7839,5,,396659,0,,,9205,823,envhealth@newtownabbey.gov.uk,Newtownabbey,http://www.newtownabbey.gov.uk,,,2014-03-03,fhrs_5_en-GB,5,,FHRS,0
412743,9 Kings Crescent,Croghfern,Newtownabbey,Antrim,Paul Banford The Butcher,Manufacturers/packers,7839,5,,396256,10,,54.67829600000000,29,823,envhealth@newtownabbey.gov.uk,Newtownabbey,http://www.newtownabbey.gov.uk,-5.91071000000000,BT37 0DH,2014-03-18,fhrs_4_en-GB,4,,FHRS,5
412744,15 Kiln Road,Ballyhenry,Newtownabbey,Antrim,PD Catering @ Sleepy Hollow,Restaurant/Cafe/Canteen,1,10,,502353,10,,54.69105700000000,17737,823,envhealth@newtownabbey.gov.uk,Newtownabbey,http://www.newtownabbey.gov.uk,-5.97919900000000,BT36 4SU,2014-12-03,fhrs_3_en-GB,3,,FHRS,10
412745,,,,,Penny's Playgroup,Hospitals/Childcare/Caring Premises,5,5,,709447,5,,,18361,823,envhealth@newtownabbey.gov.uk,Newtownabbey,http://www.newtownabbey.gov.uk,,,2014-10-21,fhrs_5_en-GB,5,,FHRS,5
412746,139 Church Road,Glengormly,Newtownabbey,Antrim,Petite Feet Day Nursery,Hospitals/Childcare/Caring Premises,5,5,,396261,0,,54.67115300000000,2922,823,envhealth@newtownabbey.gov.uk,Newtownabbey,http://www.newtownabbey.gov.uk,-5.95498000000000,BT36 6HH,2014-12-01,fhrs_5_en-GB,5,,FHRS,5
412747,5 Rashee Road,Ballyclare,Ballyclare,Antrim,Piccolos,Takeaway/sandwich shop,7844,5,,396627,5,,54.75444400000000,9053,823,envhealth@newtownabbey.gov.uk,Newtownabbey,http://www.newtownabbey.gov.uk,-6.00248100000000,BT39 9HJ,2013-09-04,fhrs_4_en-GB,4,,FHRS,10
412748,32 Inniscoole Park,Carnmoney,Newtownabbey,Antrim,Pizza Box,Mobile caterer,7846,5,,735973,5,,54.67611400000000,18258,823,envhealth@newtownabbey.gov.uk,Newtownabbey,http://www.newtownabbey.gov.uk,-5.95663700000000,BT36 6JD,2014-08-28,fhrs_5_en-GB,5,,FHRS,5
412749,144 Antrim Road,Collinward,Newtownabbey,Antrim,Pizza Hut,Restaurant/Cafe/Canteen,1,5,,396462,5,,54.66596200000000,6888,823,envhealth@newtownabbey.gov.uk,Newtownabbey,http://www.newtownabbey.gov.uk,-5.95028100000000,BT36 7QZ,2014-11-12,fhrs_5_en-GB,5,,FHRS,5
412750,11 Monkstown Village Centre,Monkstown,Newtownabbey,Antrim,Pizza Paradiso,Takeaway/sandwich shop,7844,5,,642749,5,,54.68915600000000,18142,823,envhealth@newtownabbey.gov.uk,Newtownabbey,http://www.newtownabbey.gov.uk,-5.91733300000000,BT37 0HS,2014-02-12,fhrs_5_en-GB,5,,FHRS,5
412751,376 Antrim Road,Carnmoney Bog,Newtownabbey,Antrim,Pizzarella,Takeaway/sandwich shop,7844,5,,502356,10,,54.67327600000000,17764,823,envhealth@newtownabbey.gov.uk,Newtownabbey,http://www.newtownabbey.gov.uk,-5.96152500000000,BT36 5EB,2014-11-19,fhrs_4_en-GB,4,,FHRS,5
412752,Farmley Road,Collinward,Newtownabbey,Antrim,Planks Sandwich Deli,Restaurant/Cafe/Canteen,1,5,,610412,10,,54.66987300000000,18106,823,envhealth@newtownabbey.gov.uk,Newtownabbey,http://www.newtownabbey.gov.uk,-5.95789700000000,BT36 7TS,2013-11-04,fhrs_4_en-GB,4,,FHRS,5
412753,13a The Square,Ballyclare,Ballyclare,Antrim,Pots of Coffee,Restaurant/Cafe/Canteen,1,5,,396439,5,,54.75272000000000,6794,823,envhealth@newtownabbey.gov.uk,Newtownabbey,http://www.newtownabbey.gov.uk,-6.00143200000000,BT39 9BB,2014-02-10,fhrs_5_en-GB,5,,FHRS,5
412754,73-75 Main Street,Ballyclare,Ballyclare,Antrim,Poundland,Retailers - other,4613,10,,448680,5,,54.75152800000000,17464,823,envhealth@newtownabbey.gov.uk,Newtownabbey,http://www.newtownabbey.gov.uk,-5.99944100000000,BT39 9AA,2014-10-15,fhrs_4_en-GB,4,,FHRS,5
412755,Longwood Road,Drumnadrough,Newtownabbey,Antrim,Poundland,Retailers - other,4613,10,,396613,5,,,8883,823,envhealth@newtownabbey.gov.uk,Newtownabbey,http://www.newtownabbey.gov.uk,,BT37 9UJ,2014-07-29,fhrs_4_en-GB,4,,FHRS,5
412756,Longwood Road,Drumnadrough,Newtownabbey,Antrim,Poundstretcher,Retailers - other,4613,0,,396459,0,,54.65466400000000,6870,823,envhealth@newtownabbey.gov.uk,Newtownabbey,http://www.newtownabbey.gov.uk,-5.92005900000000,BT37 9UQ,2014-02-25,fhrs_5_en-GB,5,,FHRS,0
412757,Longwood Road,Drumnadrough,Newtownabbey,Antrim,Premier Meats,Retailers - other,4613,10,,396161,0,,54.65550000000000,1716,823,envhealth@newtownabbey.gov.uk,Newtownabbey,http://www.newtownabbey.gov.uk,-5.91798600000000,BT37 9UH,2014-05-14,fhrs_4_en-GB,4,,FHRS,10
412758,3a Lisglass Road,West Division,Ballyclare,Antrim,Primrose Hill Day Nursery,Hospitals/Childcare/Caring Premises,5,10,,396668,5,,54.73504500000000,9240,823,envhealth@newtownabbey.gov.uk,Newtownabbey,http://www.newtownabbey.gov.uk,-5.95337700000000,BT39 9NP,2014-03-28,fhrs_4_en-GB,4,,FHRS,0
412759,2a Hightown Road,Glengormly,Newtownabbey,Antrim,Puccini's,Restaurant/Cafe/Canteen,1,10,,396137,10,,54.67012500000000,1673,823,envhealth@newtownabbey.gov.uk,Newtownabbey,http://www.newtownabbey.gov.uk,-5.96110900000000,BT36 7UA,2015-01-15,fhrs_3_en-GB,3,,FHRS,5
412760,Enterprise Way,Ballybought,Newtownabbey,Antrim,Quadrant Catering @ NI Mail Centre,Restaurant/Cafe/Canteen,1,0,,396253,0,,54.66777100000000,2883,823,envhealth@newtownabbey.gov.uk,Newtownabbey,http://www.newtownabbey.gov.uk,-5.97235700000000,BT36 4HQ,2013-11-14,fhrs_5_en-GB,5,,FHRS,0
412761,36 Doagh Road,Ballyclare,Ballyclare,Antrim,Queenscourt Private Nursing Home,Hospitals/Childcare/Caring Premises,5,5,,396101,0,,54.75132800000000,1516,823,envhealth@newtownabbey.gov.uk,Newtownabbey,http://www.newtownabbey.gov.uk,-6.00477800000000,BT39 9BG,2013-12-13,fhrs_5_en-GB,5,,FHRS,5
412762,16b Carnmoney Road,Glengormly,Newtownabbey,Antrim,Radhuni,Takeaway/sandwich shop,7844,5,,396679,10,,54.67166600000000,9310,823,envhealth@newtownabbey.gov.uk,Newtownabbey,http://www.newtownabbey.gov.uk,-5.95768300000000,BT36 6HN,2014-11-25,fhrs_4_en-GB,4,,FHRS,5
412763,210 Ballyduff Road,Ballyduff,Newtownabbey,Antrim,Rascals Day Nursery,Hospitals/Childcare/Caring Premises,5,0,,396387,5,,54.68539000000000,61,823,envhealth@newtownabbey.gov.uk,Newtownabbey,http://www.newtownabbey.gov.uk,-5.94036900000000,BT36 6UX,2014-09-24,fhrs_5_en-GB,5,,FHRS,0
412764,591 Doagh Road,Ballyearl,Newtownabbey,Antrim,Rascals Day Nursery,Hospitals/Childcare/Caring Premises,5,5,,396410,0,,54.70151300000000,6567,823,envhealth@newtownabbey.gov.uk,Newtownabbey,http://www.newtownabbey.gov.uk,-5.96029500000000,BT36 5RZ,2014-08-18,fhrs_5_en-GB,5,,FHRS,5
412765,45 Doagh Road,White House,Newtownabbey,Antrim,Rathcoole Filling Station,Retailers - other,4613,10,,396213,5,,54.66472700000000,251,823,envhealth@newtownabbey.gov.uk,Newtownabbey,http://www.newtownabbey.gov.uk,-5.91112800000000,BT37 9QH,2014-08-19,fhrs_4_en-GB,4,,FHRS,5
412766,Rathmore Drive,,Newtownabbey,Antrim,Rathcoole Presbyterian Church,Other catering premises,7841,,,396215,,,54.65990100000000,2529,823,envhealth@newtownabbey.gov.uk,Newtownabbey,http://www.newtownabbey.gov.uk,-5.91528100000000,BT37 9AQ,2014-11-25,fhrs_exempt_en-GB,Exempt,,FHRS,
412767,36 Derrycoole Way,,Newtownabbey,Antrim,Rathcoole Primary School (Breakfast Club),School/college/university,7845,10,,493529,5,,54.66488400000000,9287,823,envhealth@newtownabbey.gov.uk,Newtownabbey,http://www.newtownabbey.gov.uk,-5.92812300000000,BT37 9EL,2014-02-06,fhrs_4_en-GB,4,,FHRS,0
412768,Derrycoole Way,Dunanney,Newtownabbey,Antrim,Rathcoole Primary School Meals,School/college/university,7845,5,,396305,5,,54.66488400000000,369,823,envhealth@newtownabbey.gov.uk,Newtownabbey,http://www.newtownabbey.gov.uk,-5.92812300000000,BT37 9EL,2014-03-25,fhrs_5_en-GB,5,,FHRS,5
412769,26 Rathmena Gardens,Ballyclare,Ballyclare,Antrim,Rathmena Care Home,Hospitals/Childcare/Caring Premises,5,5,,396214,5,,54.75707600000000,252,823,envhealth@newtownabbey.gov.uk,Newtownabbey,http://www.newtownabbey.gov.uk,-6.01011900000000,BT39 9HU,2014-04-09,fhrs_5_en-GB,5,,FHRS,0
412770,4 Sentry Lane,Ballyvesey,Newtownabbey,Antrim,Revolution Fitness,Retailers - other,4613,0,,632385,5,,54.68131800000000,17667,823,envhealth@newtownabbey.gov.uk,Newtownabbey,http://www.newtownabbey.gov.uk,-5.98676900000000,BT36 4XX,2014-02-06,fhrs_5_en-GB,5,,FHRS,0
412771,2 Charles Drive,Ballyclare,Ballyclare,Antrim,Rhyme Thyme Nursery,Hospitals/Childcare/Caring Premises,5,5,,396402,0,,54.75729000000000,651,823,envhealth@newtownabbey.gov.uk,Newtownabbey,http://www.newtownabbey.gov.uk,-6.00344400000000,BT39 9BX,2014-08-20,fhrs_5_en-GB,5,,FHRS,5
412772,12 Richmond Gardens,Carnmoney,Newtownabbey,Antrim,Richmond Quality Meats,Manufacturers/packers,7839,0,,396220,5,,54.68289200000000,256,823,envhealth@newtownabbey.gov.uk,Newtownabbey,http://www.newtownabbey.gov.uk,-5.95950700000000,BT36 5LA,2014-03-26,fhrs_5_en-GB,5,,FHRS,0
412773,290 Antrim Road,Collinward,Newtownabbey,Antrim,Richmond Quality Meats,Retailers - other,4613,5,,396636,0,,54.66958000000000,9122,823,envhealth@newtownabbey.gov.uk,Newtownabbey,http://www.newtownabbey.gov.uk,-5.95707500000000,BT36 7QT,2012-12-04,fhrs_5_en-GB,5,,FHRS,0
412774,Longwood Road,Drumnadrough,Newtownabbey,Antrim,River Island,Retailers - other,4613,,,396068,,,54.65550000000000,1085,823,envhealth@newtownabbey.gov.uk,Newtownabbey,http://www.newtownabbey.gov.uk,-5.91798600000000,BT37 9UH,2012-03-29,fhrs_exempt_en-GB,Exempt,,FHRS,
412775,9 Rashee Road,Ballyclare,Ballyclare,Antrim,Ross's Joint,Manufacturers/packers,7839,0,,396234,0,,54.75444400000000,263,823,envhealth@newtownabbey.gov.uk,Newtownabbey,http://www.newtownabbey.gov.uk,-6.00248100000000,BT39 9HJ,2014-03-25,fhrs_5_en-GB,5,,FHRS,5
412776,2-12 Jordanstown Road,Jordanstown,Newtownabbey,Antrim,Rosstulla Special School Meals,School/college/university,7845,5,,396235,5,,54.68372500000000,264,823,envhealth@newtownabbey.gov.uk,Newtownabbey,http://www.newtownabbey.gov.uk,-5.88701400000000,BT37 0QF,2014-02-04,fhrs_5_en-GB,5,,FHRS,5
412777,18 Carnvue Gardens,Carnmoney,Newtownabbey,Antrim,Route 66 Outside Event Catering,Mobile caterer,7846,0,,700463,5,,54.68294800000000,18249,823,envhealth@newtownabbey.gov.uk,Newtownabbey,http://www.newtownabbey.gov.uk,-5.95587600000000,BT36 6NJ,2014-08-20,fhrs_5_en-GB,5,,FHRS,5
412778,377 Antrim Road,Carnmoney Bog,Newtownabbey,Antrim,Royal Thai,Restaurant/Cafe/Canteen,1,20,,396207,15,,54.67327600000000,244,823,envhealth@newtownabbey.gov.uk,Newtownabbey,http://www.newtownabbey.gov.uk,-5.96152500000000,BT36 5EB,2014-03-25,fhrs_1_en-GB,1,,FHRS,10
412779,,,,,Scrumdiddlyumptious Cakes and Cupcakes,Manufacturers/packers,7839,0,,534903,0,,,17933,823,envhealth@newtownabbey.gov.uk,Newtownabbey,http://www.newtownabbey.gov.uk,,,2013-07-17,fhrs_5_en-GB,5,,FHRS,0
412780,Longwood Road,Drumnadrough,Newtownabbey,Antrim,Semi Chem,Retailers - other,4613,,,396620,,,54.65550000000000,8909,823,envhealth@newtownabbey.gov.uk,Newtownabbey,http://www.newtownabbey.gov.uk,-5.91798600000000,BT37 9UH,2013-06-12,fhrs_exempt_en-GB,Exempt,,FHRS,
412781,20a Main Street,Ballyclare,Ballyclare,Antrim,Snocream Ices,Retailers - other,4613,5,,396589,0,,54.75067300000000,8727,823,envhealth@newtownabbey.gov.uk,Newtownabbey,http://www.newtownabbey.gov.uk,-5.99715300000000,BT39 9AB,2013-05-21,fhrs_5_en-GB,5,,FHRS,0
412782,95 Doagh Road,White Abbey,Newtownabbey,Antrim,Sodexo @ Northern Ireland Hospice,Hospitals/Childcare/Caring Premises,5,0,,467739,5,,54.67067300000000,17590,823,envhealth@newtownabbey.gov.uk,Newtownabbey,http://www.newtownabbey.gov.uk,-5.91260500000000,BT37 9QN,2014-06-19,fhrs_5_en-GB,5,,FHRS,5
412783,,,,,Sodexo Catering @ PSNI,Restaurant/Cafe/Canteen,1,,,396201,,,,231,823,envhealth@newtownabbey.gov.uk,Newtownabbey,http://www.newtownabbey.gov.uk,,,2014-03-03,fhrs_exempt_en-GB,Exempt,,FHRS,
412784,671a Shore Road,Jordanstown,Newtownabbey,Antrim,Sozo Good,Restaurant/Cafe/Canteen,1,10,,610415,15,,54.67759100000000,18111,823,envhealth@newtownabbey.gov.uk,Newtownabbey,http://www.newtownabbey.gov.uk,-5.89080600000000,BT37 0ST,2013-11-06,fhrs_2_en-GB,2,,FHRS,10
412785,13 Kings Crescent,Croghfern,Newtownabbey,Antrim,Spar,Retailers - other,4613,5,,396243,5,,54.67829600000000,275,823,envhealth@newtownabbey.gov.uk,Newtownabbey,http://www.newtownabbey.gov.uk,-5.91071000000000,BT37 0DH,2013-02-28,fhrs_5_en-GB,5,,FHRS,5
412786,14 Doagh Road,Ballyclare,Ballyclare,Antrim,Spar Ballyclare,Retailers - other,4613,10,,396088,0,,54.75132800000000,1424,823,envhealth@newtownabbey.gov.uk,Newtownabbey,http://www.newtownabbey.gov.uk,-6.00477800000000,BT39 9BG,2013-05-14,fhrs_4_en-GB,4,,FHRS,10
412787,76 Fairview Road,Ballyduff,Newtownabbey,Antrim,Spar Ballyduff,Retailers - other,4613,10,,727654,10,,54.69006100000000,18363,823,envhealth@newtownabbey.gov.uk,Newtownabbey,http://www.newtownabbey.gov.uk,-5.93718600000000,BT36 6QN,2014-12-01,fhrs_4_en-GB,4,,FHRS,0
412788,290 Antrim Road,Collinward,Newtownabbey,Antrim,Spar Glenwell,Retailers - other,4613,10,,396074,10,,54.66958000000000,119,823,envhealth@newtownabbey.gov.uk,Newtownabbey,http://www.newtownabbey.gov.uk,-5.95707500000000,BT36 7QT,2014-01-29,fhrs_3_en-GB,3,,FHRS,10
412789,197 Jordanstown Road,Monkstown,Newtownabbey,Antrim,Spar Jordanstown,Retailers - other,4613,0,,396453,5,,54.68997700000000,684,823,envhealth@newtownabbey.gov.uk,Newtownabbey,http://www.newtownabbey.gov.uk,-5.91021800000000,BT37 0LU,2013-08-01,fhrs_5_en-GB,5,,FHRS,5
412790,119 Manse Road,Ballyduff,Newtownabbey,Antrim,Spar Manse Road,Retailers - other,4613,5,,396177,5,,54.69078000000000,194,823,envhealth@newtownabbey.gov.uk,Newtownabbey,http://www.newtownabbey.gov.uk,-5.94723100000000,BT36 6SN,2015-01-07,fhrs_5_en-GB,5,,FHRS,0
412791,Rathmullan Drive,White House,Newtownabbey,Antrim,Spar Rathcoole,Retailers - other,4613,0,,396407,0,,54.66423200000000,6548,823,envhealth@newtownabbey.gov.uk,Newtownabbey,http://www.newtownabbey.gov.uk,-5.91788000000000,BT37 9NF,2013-01-03,fhrs_5_en-GB,5,,FHRS,5
412792,Shore Rd,,Newtownabbey,Antrim,Spar Shop,Retailers - other,4613,,,610417,,,54.68721500000000,18118,823,envhealth@newtownabbey.gov.uk,Newtownabbey,http://www.newtownabbey.gov.uk,-5.88259900000000,BT37 0QA,2014-03-13,fhrs_5_en-GB,5,,FHRS,
412793,607 Shore Road,Jordanstown,Newtownabbey,Antrim,Spar Whiteabbey,Retailers - other,4613,,,396127,,,54.67759100000000,1646,823,envhealth@newtownabbey.gov.uk,Newtownabbey,http://www.newtownabbey.gov.uk,-5.89080600000000,BT37 0ST,2014-11-19,fhrs_5_en-GB,5,,FHRS,
412794,91 Templepatrick Road,Ballygallagh,,Antrim,"Spar, Ballyclare",Retailers - other,4613,5,,396160,0,,54.74285400000000,1711,823,envhealth@newtownabbey.gov.uk,Newtownabbey,http://www.newtownabbey.gov.uk,-6.00628200000000,BT39 9RQ,2013-05-02,fhrs_5_en-GB,5,,FHRS,5
412795,45 Mallusk Road,Grange Of Mallusk,Newtownabbey,Antrim,Spar/ Maxol Mallusk,Retailers - other,4613,5,,396082,5,,54.67452000000000,13,823,envhealth@newtownabbey.gov.uk,Newtownabbey,http://www.newtownabbey.gov.uk,-5.98643900000000,BT36 4PP,2014-03-06,fhrs_5_en-GB,5,,FHRS,5
412796,112a Elmfield Road,Collinward,Newtownabbey,Antrim,St Bernard's Busy Bees,Hospitals/Childcare/Caring Premises,5,0,,410491,5,,54.66792900000000,17139,823,envhealth@newtownabbey.gov.uk,Newtownabbey,http://www.newtownabbey.gov.uk,-5.94971700000000,BT36 6DW,2013-12-09,fhrs_5_en-GB,5,,FHRS,0
412797,163 Antrim Road,Collinward,Newtownabbey,Antrim,St Bernard's Play Group,Hospitals/Childcare/Caring Premises,5,0,,396604,0,,54.66657100000000,8838,823,envhealth@newtownabbey.gov.uk,Newtownabbey,http://www.newtownabbey.gov.uk,-5.95017300000000,BT36 7QR,2013-11-25,fhrs_5_en-GB,5,,FHRS,0
412798,112a Elmfield Road,Collinward,Newtownabbey,Antrim,St Bernard's Primary School - Breakfast Club,School/college/university,7845,,,410490,,,54.66792900000000,17138,823,envhealth@newtownabbey.gov.uk,Newtownabbey,http://www.newtownabbey.gov.uk,-5.94971700000000,BT36 6DW,2013-05-31,fhrs_4_en-GB,4,,FHRS,
412799,49 Elmfield Road,Collinward,Newtownabbey,Antrim,St Bernard's Primary School - Healthy Break Scheme,School/college/university,7845,0,,502354,5,,54.66792900000000,17750,823,envhealth@newtownabbey.gov.uk,Newtownabbey,http://www.newtownabbey.gov.uk,-5.94971700000000,BT36 6DW,2013-03-27,fhrs_5_en-GB,5,,FHRS,5
412800,Ballyclare Road,Carnmoney Bog,Newtownabbey,Antrim,St Brigid's Church,Other catering premises,7841,,,396551,,,54.67517100000000,8289,823,envhealth@newtownabbey.gov.uk,Newtownabbey,http://www.newtownabbey.gov.uk,-5.96094900000000,BT36 5HL,2014-07-08,fhrs_exempt_en-GB,Exempt,,FHRS,
412801,Ballyclare Road,Carnmoney Bog,Newtownabbey,Antrim,St Brigids Fold Luncheon Club,Other catering premises,7841,5,,396311,0,,54.67517100000000,371,823,envhealth@newtownabbey.gov.uk,Newtownabbey,http://www.newtownabbey.gov.uk,-5.96094900000000,BT36 5HL,2013-12-09,fhrs_5_en-GB,5,,FHRS,0
412802,Hightown Road,,Newtownabbey,Antrim,St Enda's GAA,Pub/bar/nightclub,7843,20,,396508,10,,54.66571700000000,7170,823,envhealth@newtownabbey.gov.uk,Newtownabbey,http://www.newtownabbey.gov.uk,-5.97258300000000,BT36 7AU,2013-05-31,fhrs_1_en-GB,1,,FHRS,10
412803,453 Shore Road,White Abbey,Newtownabbey,Antrim,St James Parish Centre,Other catering premises,7841,,,396491,,,54.67021300000000,6991,823,envhealth@newtownabbey.gov.uk,Newtownabbey,http://www.newtownabbey.gov.uk,-5.89948300000000,BT37 9SE,2014-03-03,fhrs_exempt_en-GB,Exempt,,FHRS,
412804,17 Kings Walk,Croghfern,Newtownabbey,Antrim,St James Primary Meals Kitchen,School/college/university,7845,5,,396312,5,,54.67655400000000,372,823,envhealth@newtownabbey.gov.uk,Newtownabbey,http://www.newtownabbey.gov.uk,-5.90560500000000,BT37 0AS,2014-05-20,fhrs_5_en-GB,5,,FHRS,5
412805,Doagh Road,,Ballyclare,Antrim,St John's Church Hall,Other catering premises,7841,,,396504,,,54.75132800000000,7032,823,envhealth@newtownabbey.gov.uk,Newtownabbey,http://www.newtownabbey.gov.uk,-6.00477800000000,BT39 9BG,2013-04-05,fhrs_exempt_en-GB,Exempt,,FHRS,
412806,10 Christine Road,Ballyduff,Newtownabbey,Antrim,St MacNissi's Playgroup,Hospitals/Childcare/Caring Premises,5,0,,396580,0,,54.69201400000000,8625,823,envhealth@newtownabbey.gov.uk,Newtownabbey,http://www.newtownabbey.gov.uk,-5.94155400000000,BT36 6TG,2012-05-29,fhrs_5_en-GB,5,,FHRS,5
412807,12a Christine Road,Ballyduff,Newtownabbey,Antrim,St MacNissis Pre- School Playgroup,Hospitals/Childcare/Caring Premises,5,0,,396672,0,,54.69334900000000,9275,823,envhealth@newtownabbey.gov.uk,Newtownabbey,http://www.newtownabbey.gov.uk,-5.94134600000000,BT36 6UE,2014-11-26,fhrs_5_en-GB,5,,FHRS,5
412808,12a Christine Road,Ballyduff,Newtownabbey,Antrim,St MacNissis Primary Meals Kitchen,School/college/university,7845,0,,396316,0,,54.69334900000000,373,823,envhealth@newtownabbey.gov.uk,Newtownabbey,http://www.newtownabbey.gov.uk,-5.94134600000000,BT36 6UE,2014-06-11,fhrs_5_en-GB,5,,FHRS,5
412809,Carnmoney Road,Carnmoney,Newtownabbey,Antrim,St Mary's On The Hill Breakfast Club,School/college/university,7845,10,,396151,0,,54.67803200000000,17013,823,envhealth@newtownabbey.gov.uk,Newtownabbey,http://www.newtownabbey.gov.uk,-5.95477400000000,BT36 6JU,2012-05-28,fhrs_4_en-GB,4,,FHRS,0
412810,142 Carnmoney Road,Carnmoney,Newtownabbey,Antrim,St Mary's On The Hill Playgroup,Hospitals/Childcare/Caring Premises,5,0,,396605,0,,54.67803200000000,8839,823,envhealth@newtownabbey.gov.uk,Newtownabbey,http://www.newtownabbey.gov.uk,-5.95477400000000,BT36 6JU,2014-09-08,fhrs_5_en-GB,5,,FHRS,0
412811,142 Carnmoney Road,Carnmoney,Newtownabbey,Antrim,St Marys On-The-Hill Primary Meals,School/college/university,7845,0,,396237,5,,54.67803200000000,267,823,envhealth@newtownabbey.gov.uk,Newtownabbey,http://www.newtownabbey.gov.uk,-5.95477400000000,BT36 6JU,2014-02-13,fhrs_5_en-GB,5,,FHRS,5
412812,Jordanstown Rd,,Newtownabbey,Antrim,St Patrick's Parish Hall,Other catering premises,7841,,,396408,,,54.68890700000000,6552,823,envhealth@newtownabbey.gov.uk,Newtownabbey,http://www.newtownabbey.gov.uk,-5.89822200000000,BT37 0NT,2014-01-15,fhrs_exempt_en-GB,Exempt,,FHRS,
412813,112a Elmfield Road,Collinward,Newtownabbey,Antrim,St. Bernards Primary Dining Centre,School/college/university,7845,5,,396309,0,,54.66792900000000,370,823,envhealth@newtownabbey.gov.uk,Newtownabbey,http://www.newtownabbey.gov.uk,-5.94971700000000,BT36 6DW,2014-03-03,fhrs_5_en-GB,5,,FHRS,0
412814,,,,,Steven's Fruit,Mobile caterer,7846,0,,396571,0,,,8580,823,envhealth@newtownabbey.gov.uk,Newtownabbey,http://www.newtownabbey.gov.uk,,,2012-05-09,fhrs_4_en-GB,4,,FHRS,10
412815,Longwood Road,Drumnadrough,Newtownabbey,Antrim,Stewart Miller & Sons Ltd,Retailers - other,4613,,,396465,,,54.65470200000000,690,823,envhealth@newtownabbey.gov.uk,Newtownabbey,http://www.newtownabbey.gov.uk,-5.92013400000000,BT37 9UL,2014-03-03,fhrs_exempt_en-GB,Exempt,,FHRS,
412816,41a Circular Road,Jordanstown,Newtownabbey,Antrim,Stewart Stores - Vivo Essentials,Retailers - other,4613,10,,396121,5,,54.68137300000000,161,823,envhealth@newtownabbey.gov.uk,Newtownabbey,http://www.newtownabbey.gov.uk,-5.89330800000000,BT37 0RB,2013-02-19,fhrs_4_en-GB,4,,FHRS,5
412817,Main Street,,Straid,Antrim,Straid Congregational Church,Other catering premises,7841,,,687320,,,54.75680800000000,7196,823,envhealth@newtownabbey.gov.uk,Newtownabbey,http://www.newtownabbey.gov.uk,-5.92545000000000,BT39 9NE,2014-06-23,fhrs_exempt_en-GB,Exempt,,FHRS,
412818,3 Irish Hill Road,Straid,Ballyclare,Antrim,Straid Primary School Meals Kitchen,School/college/university,7845,5,,396246,0,,54.75192300000000,280,823,envhealth@newtownabbey.gov.uk,Newtownabbey,http://www.newtownabbey.gov.uk,-5.92776600000000,BT39 9NQ,2011-11-09,fhrs_5_en-GB,5,,FHRS,5
412819,688 Shore Road,Jordanstown,Newtownabbey,Antrim,Student Shop @ Student Union,Retailers - other,4613,0,,396252,0,,54.68317000000000,2881,823,envhealth@newtownabbey.gov.uk,Newtownabbey,http://www.newtownabbey.gov.uk,-5.88200300000000,BT37 0PS,2013-05-15,fhrs_5_en-GB,5,,FHRS,0
412820,686 Shore Road,Jordanstown,Newtownabbey,Antrim,Student Union Snack Bar,Restaurant/Cafe/Canteen,1,0,,396250,0,,54.68317000000000,2879,823,envhealth@newtownabbey.gov.uk,Newtownabbey,http://www.newtownabbey.gov.uk,-5.88200300000000,BT37 0PS,2014-11-24,fhrs_5_en-GB,5,,FHRS,5
412821,144 Doagh Road,Croghfern,Newtownabbey,Antrim,Subway,Takeaway/sandwich shop,7844,,,433704,,,54.67430200000000,17231,823,envhealth@newtownabbey.gov.uk,Newtownabbey,http://www.newtownabbey.gov.uk,-5.91462000000000,BT36 6BA,2014-08-14,fhrs_5_en-GB,5,,FHRS,
412822,376 Antrim Road,Carnmoney Bog,Newtownabbey,Antrim,Subway,Takeaway/sandwich shop,7844,,,396554,,,54.67327600000000,8324,823,envhealth@newtownabbey.gov.uk,Newtownabbey,http://www.newtownabbey.gov.uk,-5.96152500000000,BT36 5EB,2014-02-27,fhrs_5_en-GB,5,,FHRS,
412823,45a Mallusk Road,Grange Of Mallusk,Newtownabbey,Antrim,Subway,Takeaway/sandwich shop,7844,5,,396448,5,,54.67711500000000,6825,823,envhealth@newtownabbey.gov.uk,Newtownabbey,http://www.newtownabbey.gov.uk,-5.99234200000000,BT36 4PS,2014-03-13,fhrs_5_en-GB,5,,FHRS,5
412824,91 Templepatrick Road,Ballygallagh,,Antrim,Subway,Takeaway/sandwich shop,7844,5,,396531,0,,54.74285400000000,7968,823,envhealth@newtownabbey.gov.uk,Newtownabbey,http://www.newtownabbey.gov.uk,-6.00628200000000,BT39 9RQ,2014-02-28,fhrs_5_en-GB,5,,FHRS,5
412825,Longwood Road,Drumnadrough,Newtownabbey,Antrim,Subway Abbeycentre,Takeaway/sandwich shop,7844,0,,396574,5,,54.65466400000000,8591,823,envhealth@newtownabbey.gov.uk,Newtownabbey,http://www.newtownabbey.gov.uk,-5.92005900000000,BT37 9UQ,2014-07-03,fhrs_5_en-GB,5,,FHRS,5
412826,56b Main Street,Ballyclare,Ballyclare,Antrim,Sugar Loaf Cafe,Retailers - other,4613,10,,396084,5,,54.75152800000000,1340,823,envhealth@newtownabbey.gov.uk,Newtownabbey,http://www.newtownabbey.gov.uk,-5.99944100000000,BT39 9AA,2014-03-26,fhrs_3_en-GB,3,,FHRS,10
412827,1 Glenvarna Drive,Carnmoney,Newtownabbey,Antrim,Sunrise Sandwich Bar,Takeaway/sandwich shop,7844,5,,396441,0,,54.68026100000000,6803,823,envhealth@newtownabbey.gov.uk,Newtownabbey,http://www.newtownabbey.gov.uk,-5.96599700000000,BT36 5JB,2013-12-05,fhrs_5_en-GB,5,,FHRS,5
412828,Forthill Drive,Ballyduff,Newtownabbey,Antrim,Sunshine & Rainbow Kids Club,Hospitals/Childcare/Caring Premises,5,5,,709445,5,,54.68731200000000,18357,823,envhealth@newtownabbey.gov.uk,Newtownabbey,http://www.newtownabbey.gov.uk,-5.93509200000000,BT36 6QR,2014-10-15,fhrs_5_en-GB,5,,FHRS,0
412829,30a Grange Drive,Ballyclare,Ballyclare,Antrim,Super Shop,Retailers - other,4613,5,,396174,10,,54.75228400000000,189,823,envhealth@newtownabbey.gov.uk,Newtownabbey,http://www.newtownabbey.gov.uk,-6.01097600000000,BT39 9EY,2014-06-11,fhrs_4_en-GB,4,,FHRS,0
412830,Unit 59-60 Abbeycentre,Newtownabbey,Longwood Road,,Superdrug Stores PLC,Retailers - other,4613,,,396611,,,54.65550000000000,8865,823,envhealth@newtownabbey.gov.uk,Newtownabbey,http://www.newtownabbey.gov.uk,-5.91798600000000,BT37 9UH,2013-05-01,fhrs_exempt_en-GB,Exempt,,FHRS,
412831,,,,,Supersoft Ices,Retailers - other,4613,0,,396569,0,,,8564,823,envhealth@newtownabbey.gov.uk,Newtownabbey,http://www.newtownabbey.gov.uk,,,2014-06-17,fhrs_5_en-GB,5,,FHRS,0
412832,,,,,Supreme Cuisine,Mobile caterer,7846,5,,396655,10,,,9201,823,envhealth@newtownabbey.gov.uk,Newtownabbey,http://www.newtownabbey.gov.uk,,,2014-03-12,fhrs_4_en-GB,4,,FHRS,0
412833,,,,,Sweet Caroline's Cakes,Other catering premises,7841,5,,668544,0,,,18263,823,envhealth@newtownabbey.gov.uk,Newtownabbey,http://www.newtownabbey.gov.uk,,,2014-04-30,fhrs_5_en-GB,5,,FHRS,0
412834,39-41 Linford Green,White Abbey,Newtownabbey,Antrim,Synergy,Other catering premises,7841,,,396473,,,54.66989400000000,6933,823,envhealth@newtownabbey.gov.uk,Newtownabbey,http://www.newtownabbey.gov.uk,-5.91641200000000,BT37 9LL,2014-11-11,fhrs_exempt_en-GB,Exempt,,FHRS,
412835,Unit 10 Abbeycentre,,Newtownabbey,Antrim,Synge And Byrne,Restaurant/Cafe/Canteen,1,10,,632401,5,,54.65550000000000,18165,823,envhealth@newtownabbey.gov.uk,Newtownabbey,http://www.newtownabbey.gov.uk,-5.91798600000000,BT37 9UH,2014-01-06,fhrs_3_en-GB,3,,FHRS,10
412836,Longwood Road,Drumnadrough,Newtownabbey,Antrim,T K Maxx,Retailers - other,4613,,,396321,,,54.65470200000000,3755,823,envhealth@newtownabbey.gov.uk,Newtownabbey,http://www.newtownabbey.gov.uk,-5.92013400000000,BT37 9UL,2014-03-03,fhrs_exempt_en-GB,Exempt,,FHRS,
412837,170 Church Road,Glengormly,Newtownabbey,Antrim,Tandoori House,Takeaway/sandwich shop,7844,10,,396109,15,,54.67075900000000,1541,823,envhealth@newtownabbey.gov.uk,Newtownabbey,http://www.newtownabbey.gov.uk,-5.95715500000000,BT36 7XB,2014-10-27,fhrs_2_en-GB,2,,FHRS,10
412838,,,,,Tastes Of Home,Other catering premises,7841,5,,735975,5,,,18292,823,envhealth@newtownabbey.gov.uk,Newtownabbey,http://www.newtownabbey.gov.uk,,,2014-09-15,fhrs_5_en-GB,5,,FHRS,5
412839,750 Antrim Road,Kilgreel,Templepatrick,Antrim,Templepatrick Presbyterian Church,Other catering premises,7841,0,,396317,5,,54.69914500000000,3732,823,envhealth@newtownabbey.gov.uk,Newtownabbey,http://www.newtownabbey.gov.uk,-6.04055400000000,BT39 0AP,2014-06-19,fhrs_5_en-GB,5,,FHRS,5
412840,341 Carnmoney Road,Ballyduff,Newtownabbey,Antrim,Templeton Select Meats,Retailers - other,4613,10,,396248,10,,54.68414100000000,286,823,envhealth@newtownabbey.gov.uk,Newtownabbey,http://www.newtownabbey.gov.uk,-5.95097800000000,BT36 6JT,2014-03-19,fhrs_3_en-GB,3,,FHRS,10
412841,Unit 4 Church Road,Drumnadrough,Newtownabbey,Antrim,Tesco Customer Cafe and Staff Restbite,Restaurant/Cafe/Canteen,1,10,,396483,10,,54.65847700000000,6966,823,envhealth@newtownabbey.gov.uk,Newtownabbey,http://www.newtownabbey.gov.uk,-5.92493200000000,BT36 7GU,2014-03-07,fhrs_3_en-GB,3,,FHRS,5
412842,142 Doagh Road,White Abbey,Newtownabbey,Antrim,Tesco Express,Retailers - other,4613,0,,396690,0,,54.67300700000000,9359,823,envhealth@newtownabbey.gov.uk,Newtownabbey,http://www.newtownabbey.gov.uk,-5.91402000000000,BT37 9QS,2012-02-20,fhrs_5_en-GB,5,,FHRS,5
412843,4 Mayfield High Street,Ballywonard,Newtownabbey,Antrim,Tesco Express,Retailers - other,4613,0,,396488,0,,54.66895800000000,6977,823,envhealth@newtownabbey.gov.uk,Newtownabbey,http://www.newtownabbey.gov.uk,-5.98429600000000,BT36 7WU,2014-04-04,fhrs_5_en-GB,5,,FHRS,0
412844,Northcott Shopping Centre Ballyclare Road,,Newtownabbey,Antrim,Tesco Store Ltd,Retailers - supermarkets/hypermarkets,7840,5,,396688,5,,54.67679900000000,9352,823,envhealth@newtownabbey.gov.uk,Newtownabbey,http://www.newtownabbey.gov.uk,-5.96260400000000,BT36 5HD,2013-08-03,fhrs_5_en-GB,5,,FHRS,5
412845,4-7 Monkstown Village Centre,Monkstown,Newtownabbey,Antrim,Tesco Stores,Retailers - other,4613,0,,396536,0,,54.68915600000000,8018,823,envhealth@newtownabbey.gov.uk,Newtownabbey,http://www.newtownabbey.gov.uk,-5.91733300000000,BT37 0HS,2014-12-31,fhrs_5_en-GB,5,,FHRS,0
412846,Church Road,,Newtownabbey,Antrim,Tesco Stores,Retailers - supermarkets/hypermarkets,7840,0,,396304,5,,54.65847700000000,3689,823,envhealth@newtownabbey.gov.uk,Newtownabbey,http://www.newtownabbey.gov.uk,-5.92493200000000,BT36 7GU,2014-01-13,fhrs_5_en-GB,5,,FHRS,5
412847,2 Ballycraigy Way,Ballyhenry,Newtownabbey,Antrim,The Ark Community Cafe,Other catering premises,7841,5,,510358,10,,54.68778700000000,6951,823,envhealth@newtownabbey.gov.uk,Newtownabbey,http://www.newtownabbey.gov.uk,-5.96369700000000,BT36 5XH,2014-09-25,fhrs_4_en-GB,4,,FHRS,0
412848,162 Antrim Road,Collinward,Newtownabbey,Antrim,The Bridge Bar & Grill And Convenience Store,Restaurant/Cafe/Canteen,1,20,,396497,15,,54.66596200000000,7013,823,envhealth@newtownabbey.gov.uk,Newtownabbey,http://www.newtownabbey.gov.uk,-5.95028100000000,BT36 7QZ,2015-01-13,fhrs_1_en-GB,1,,FHRS,10
412849,7 Jennings Park,Monkstown,Newtownabbey,Antrim,The Butchers Monkstown,Manufacturers/packers,7839,5,,396150,0,,54.69089500000000,170,823,envhealth@newtownabbey.gov.uk,Newtownabbey,http://www.newtownabbey.gov.uk,-5.91083800000000,BT37 0NB,2013-10-07,fhrs_5_en-GB,5,,FHRS,5
412850,11 Carnmoney Road,Glengormly,Newtownabbey,Antrim,The Captain's Table,Takeaway/sandwich shop,7844,10,,396267,10,,54.67157800000000,2974,823,envhealth@newtownabbey.gov.uk,Newtownabbey,http://www.newtownabbey.gov.uk,-5.95726900000000,BT36 6HL,2014-09-15,fhrs_3_en-GB,3,,FHRS,10
412851,70 Fairview Road,Ballyduff,Newtownabbey,Antrim,The Captain's Takeaway,Takeaway/sandwich shop,7844,,,396231,,,54.69006100000000,2595,823,envhealth@newtownabbey.gov.uk,Newtownabbey,http://www.newtownabbey.gov.uk,-5.93718600000000,BT36 6QN,2014-11-26,fhrs_3_en-GB,3,,FHRS,
412852,5 Larne Road,Toberdowney,,Antrim,The Catch Ballynure,Takeaway/sandwich shop,7844,5,,427215,5,,54.77677100000000,17175,823,envhealth@newtownabbey.gov.uk,Newtownabbey,http://www.newtownabbey.gov.uk,-5.94918800000000,BT39 9UA,2014-01-27,fhrs_5_en-GB,5,,FHRS,5
412853,556 Shore Road,White Abbey,Newtownabbey,Antrim,The Chip Yard,Takeaway/sandwich shop,7844,0,,396198,0,,54.67470100000000,226,823,envhealth@newtownabbey.gov.uk,Newtownabbey,http://www.newtownabbey.gov.uk,-5.89559200000000,BT37 0SJ,2014-07-30,fhrs_5_en-GB,5,,FHRS,5
412854,10 Station Road,Doagh,,Antrim,The Chop Shop,Manufacturers/packers,7839,0,,396541,5,,54.73617300000000,8097,823,envhealth@newtownabbey.gov.uk,Newtownabbey,http://www.newtownabbey.gov.uk,-6.04126700000000,BT39 0QT,2014-05-29,fhrs_5_en-GB,5,,FHRS,5
412855,1-3 Hillhead Road,Ballygallagh,Ballyclare,Antrim,The Clarence,Takeaway/sandwich shop,7844,5,,396496,5,,54.74919900000000,70,823,envhealth@newtownabbey.gov.uk,Newtownabbey,http://www.newtownabbey.gov.uk,-5.99609200000000,BT39 9DS,2014-07-23,fhrs_5_en-GB,5,,FHRS,5
412856,10-12 Beverley Road,Ballyduff,Newtownabbey,Antrim,The Co-operative Food,Retailers - supermarkets/hypermarkets,7840,5,,396173,5,,54.68824300000000,188,823,envhealth@newtownabbey.gov.uk,Newtownabbey,http://www.newtownabbey.gov.uk,-5.94810300000000,BT36 6QD,2014-02-26,fhrs_5_en-GB,5,,FHRS,5
412857,27 Main Street,Dunturky,,Antrim,The Co-operative Food,Retailers - supermarkets/hypermarkets,7840,0,,396516,5,,54.77157400000000,76,823,envhealth@newtownabbey.gov.uk,Newtownabbey,http://www.newtownabbey.gov.uk,-5.95268400000000,BT39 9TU,2014-02-21,fhrs_5_en-GB,5,,FHRS,5
412858,2a Abbots Cross,White Abbey,Newtownabbey,Antrim,The Co-operative Food,Retailers - supermarkets/hypermarkets,7840,10,,396511,10,,54.66766800000000,74,823,envhealth@newtownabbey.gov.uk,Newtownabbey,http://www.newtownabbey.gov.uk,-5.91184500000000,BT37 9QT,2013-06-03,fhrs_3_en-GB,3,,FHRS,10
412859,11-12 Abbots Cross,White Abbey,Newtownabbey,Antrim,The Co-Operative Pharmacy,Retailers - other,4613,,,396297,,,54.66871900000000,36,823,envhealth@newtownabbey.gov.uk,Newtownabbey,http://www.newtownabbey.gov.uk,-5.91180600000000,BT37 9QU,2012-01-26,fhrs_exempt_en-GB,Exempt,,FHRS,
412860,26 The Diamond,White House,Newtownabbey,Antrim,The Co-Operative Pharmacy,Retailers - other,4613,,,396308,,,54.66370600000000,37,823,envhealth@newtownabbey.gov.uk,Newtownabbey,http://www.newtownabbey.gov.uk,-5.91863500000000,BT37 9BJ,2012-03-29,fhrs_exempt_en-GB,Exempt,,FHRS,
412861,647 Shore Road,Jordanstown,Newtownabbey,Antrim,The Cosy Chair,Restaurant/Cafe/Canteen,1,0,,396635,0,,54.67759100000000,9114,823,envhealth@newtownabbey.gov.uk,Newtownabbey,http://www.newtownabbey.gov.uk,-5.89080600000000,BT37 0ST,2013-11-14,fhrs_5_en-GB,5,,FHRS,0
412862,5 Jennings Park,Monkstown,Newtownabbey,Antrim,The Crescent,Takeaway/sandwich shop,7844,0,,396141,0,,54.69089500000000,1681,823,envhealth@newtownabbey.gov.uk,Newtownabbey,http://www.newtownabbey.gov.uk,-5.91083800000000,BT37 0NB,2013-11-07,fhrs_5_en-GB,5,,FHRS,5
412863,249 Rashee Road,Rashee,Ballyclare,Antrim,The Five Corners Restaurant,Restaurant/Cafe/Canteen,1,5,,396065,5,,54.77213500000000,104,823,envhealth@newtownabbey.gov.uk,Newtownabbey,http://www.newtownabbey.gov.uk,-6.02332100000000,BT39 9JN,2015-01-15,fhrs_5_en-GB,5,,FHRS,5
412864,10 Station Road,Doagh,,Antrim,The Forecourt Centre,Retailers - other,4613,0,,396066,5,,54.73617300000000,105,823,envhealth@newtownabbey.gov.uk,Newtownabbey,http://www.newtownabbey.gov.uk,-6.04126700000000,BT39 0QT,2014-01-31,fhrs_5_en-GB,5,,FHRS,0
412865,22-26 The Square,Ballyclare,Ballyclare,Antrim,The Grange Bar,Pub/bar/nightclub,7843,,,396107,,,54.75272000000000,1531,823,envhealth@newtownabbey.gov.uk,Newtownabbey,http://www.newtownabbey.gov.uk,-6.00143200000000,BT39 9BB,2012-08-28,fhrs_5_en-GB,5,,FHRS,
412866,Mallusk Road,Grange Of Mallusk,Newtownabbey,Antrim,The Hub Cafe/ Mallusk Chippy,Restaurant/Cafe/Canteen,1,,,396095,,,54.67452000000000,1446,823,envhealth@newtownabbey.gov.uk,Newtownabbey,http://www.newtownabbey.gov.uk,-5.98643900000000,BT36 4PP,2014-08-26,fhrs_5_en-GB,5,,FHRS,
412867,38a Devenish Drive,,Newtownabbey,,The Hut,Retailers - other,4613,5,,687318,5,,,18286,823,envhealth@newtownabbey.gov.uk,Newtownabbey,http://www.newtownabbey.gov.uk,,BT37 OXH,2014-06-26,fhrs_5_en-GB,5,,FHRS,0
412868,607 Shore Road,Jordanstown,Newtownabbey,Antrim,The Light House Bar & Wine Store,Pub/bar/nightclub,7843,10,,396124,5,,54.67759100000000,1626,823,envhealth@newtownabbey.gov.uk,Newtownabbey,http://www.newtownabbey.gov.uk,-5.89080600000000,BT37 0ST,2008-11-12,fhrs_4_en-GB,4,,FHRS,5
412869,19 Carnmoney Road North,Ballyhenry,Newtownabbey,Antrim,The Nursery,Hospitals/Childcare/Caring Premises,5,5,,396254,10,,54.69535600000000,2887,823,envhealth@newtownabbey.gov.uk,Newtownabbey,http://www.newtownabbey.gov.uk,-5.95058300000000,BT36 5NL,2014-03-06,fhrs_3_en-GB,3,,FHRS,10
412870,4 The Square,Ballyclare,Ballyclare,Antrim,The Paper Shop,Retailers - other,4613,0,,396360,5,,54.75272000000000,487,823,envhealth@newtownabbey.gov.uk,Newtownabbey,http://www.newtownabbey.gov.uk,-6.00143200000000,BT39 9BB,2015-01-12,fhrs_5_en-GB,5,,FHRS,0
412871,3 Crescent Corner,Ballyhenry,Newtownabbey,Antrim,The Railway Fryer,Takeaway/sandwich shop,7844,5,,396539,0,,54.69627900000000,8081,823,envhealth@newtownabbey.gov.uk,Newtownabbey,http://www.newtownabbey.gov.uk,-5.95092400000000,BT36 5PB,2014-03-05,fhrs_5_en-GB,5,,FHRS,0
412872,334 Antrim Road,Glengormly,Newtownabbey,Antrim,The Side Door,Restaurant/Cafe/Canteen,1,10,,396208,10,,54.67225300000000,246,823,envhealth@newtownabbey.gov.uk,Newtownabbey,http://www.newtownabbey.gov.uk,-5.96050600000000,BT36 5EQ,2014-11-05,fhrs_3_en-GB,3,,FHRS,5
412873,71 Main Street,Ballyclare,Ballyclare,Antrim,The Sportsmans Inn,Pub/bar/nightclub,7843,10,,396370,5,,54.75152800000000,504,823,envhealth@newtownabbey.gov.uk,Newtownabbey,http://www.newtownabbey.gov.uk,-5.99944100000000,BT39 9AA,2013-02-21,fhrs_3_en-GB,3,,FHRS,10
412874,686 Shore Road,Jordanstown,Newtownabbey,Antrim,The Streat,Restaurant/Cafe/Canteen,1,5,,396455,5,,54.68317000000000,6852,823,envhealth@newtownabbey.gov.uk,Newtownabbey,http://www.newtownabbey.gov.uk,-5.88200300000000,BT37 0PS,2014-06-16,fhrs_5_en-GB,5,,FHRS,5
412875,42 Mossley Road,Grange Of Ballyrobert,Ballyclare,Antrim,The Thompson Primary School Meals,School/college/university,7845,0,,396249,0,,54.71644300000000,287,823,envhealth@newtownabbey.gov.uk,Newtownabbey,http://www.newtownabbey.gov.uk,-6.00057900000000,BT39 9RX,2015-01-23,fhrs_5_en-GB,5,,FHRS,0
412876,2 Station Road,Doagh,,Antrim,The Village Tea Shop,Restaurant/Cafe/Canteen,1,5,,735979,5,,54.73617300000000,18390,823,envhealth@newtownabbey.gov.uk,Newtownabbey,http://www.newtownabbey.gov.uk,-6.04126700000000,BT39 0QT,2015-01-30,fhrs_5_en-GB,5,,FHRS,5
412877,,,,,The Vintage Teacup,Manufacturers/packers,7839,5,,642750,0,,,18150,823,envhealth@newtownabbey.gov.uk,Newtownabbey,http://www.newtownabbey.gov.uk,,,2014-02-14,fhrs_5_en-GB,5,,FHRS,0
412878,29-31 Abbots Cross,White Abbey,Newtownabbey,Antrim,The Wine Company,Retailers - other,4613,,,396245,,,54.66905100000000,278,823,envhealth@newtownabbey.gov.uk,Newtownabbey,http://www.newtownabbey.gov.uk,-5.91234700000000,BT37 9QY,2012-03-29,fhrs_exempt_en-GB,Exempt,,FHRS,
412879,7 Ballyclare Road,Glengormly,Newtownabbey,Antrim,Thompson Butchers,Manufacturers/packers,7839,5,,396116,5,,54.67241500000000,157,823,envhealth@newtownabbey.gov.uk,Newtownabbey,http://www.newtownabbey.gov.uk,-5.95893200000000,BT36 5EU,2014-03-31,fhrs_5_en-GB,5,,FHRS,5
412880,12a Jordanstown Road,Jordanstown,Newtownabbey,Antrim,Thornfield Dining Centre,School/college/university,7845,5,,396499,5,,54.68372500000000,7017,823,envhealth@newtownabbey.gov.uk,Newtownabbey,http://www.newtownabbey.gov.uk,-5.88701400000000,BT37 0QF,2009-01-21,fhrs_5_en-GB,5,,FHRS,0
412881,Longwood Road,Drumnadrough,Newtownabbey,Antrim,Thorntons,Retailers - other,4613,0,,396111,0,,54.65550000000000,1545,823,envhealth@newtownabbey.gov.uk,Newtownabbey,http://www.newtownabbey.gov.uk,-5.91798600000000,BT37 9UH,2014-01-08,fhrs_5_en-GB,5,,FHRS,5
412882,170 Church Road,Glengormly,Newtownabbey,Antrim,Thunderdome Cafe,Restaurant/Cafe/Canteen,1,10,,396431,0,,54.67075900000000,6728,823,envhealth@newtownabbey.gov.uk,Newtownabbey,http://www.newtownabbey.gov.uk,-5.95715500000000,BT36 7XB,2013-09-17,fhrs_4_en-GB,4,,FHRS,10
412883,8 Mayfield High Street,Ballywonard,Newtownabbey,Antrim,Tic Tocs Day Care,Hospitals/Childcare/Caring Premises,5,5,,396630,10,,54.66895800000000,9078,823,envhealth@newtownabbey.gov.uk,Newtownabbey,http://www.newtownabbey.gov.uk,-5.98429600000000,BT36 7WU,2014-10-15,fhrs_4_en-GB,4,,FHRS,5
412884,6 Tildarg Road,Tildarg,Kells,Antrim,Tildarg Primary Dining Centre,School/college/university,7845,,,396260,,,54.79472000000000,292,823,envhealth@newtownabbey.gov.uk,Newtownabbey,http://www.newtownabbey.gov.uk,-6.05933500000000,BT39 9JU,2013-09-13,fhrs_5_en-GB,5,,FHRS,
412885,Hollybank Park,Monkstown,Newtownabbey,Antrim,Tiny Tots Pre-School,Hospitals/Childcare/Caring Premises,5,5,,396600,5,,54.68574600000000,8834,823,envhealth@newtownabbey.gov.uk,Newtownabbey,http://www.newtownabbey.gov.uk,-5.90871400000000,BT37 0HF,2014-01-22,fhrs_5_en-GB,5,,FHRS,0
412886,60 Doagh Road,Ballyclare,Ballyclare,Antrim,Tir-Na-Nog Pre-school Centre,Hospitals/Childcare/Caring Premises,5,0,,396607,0,,54.75132800000000,8842,823,envhealth@newtownabbey.gov.uk,Newtownabbey,http://www.newtownabbey.gov.uk,-6.00477800000000,BT39 9BG,2014-02-14,fhrs_5_en-GB,5,,FHRS,0
412887,64-66 Doagh Road,Ballyclare,Ballyclare,Antrim,Tir-Na-Nog Primary Dining Centre,School/college/university,7845,0,,396324,0,,54.75132800000000,381,823,envhealth@newtownabbey.gov.uk,Newtownabbey,http://www.newtownabbey.gov.uk,-6.00477800000000,BT39 9BG,2013-06-13,fhrs_4_en-GB,4,,FHRS,10
412888,117 Collinward Avenue,Collinward,Newtownabbey,Antrim,Today's Local,Retailers - other,4613,20,,396626,10,,54.66858100000000,900,823,envhealth@newtownabbey.gov.uk,Newtownabbey,http://www.newtownabbey.gov.uk,-5.94737400000000,BT36 6DZ,2013-06-13,fhrs_1_en-GB,1,,FHRS,5
412889,27 Main Street,Doagh,,Antrim,Torrens Memorial Hall,Other catering premises,7841,10,,396223,0,,54.73807800000000,2573,823,envhealth@newtownabbey.gov.uk,Newtownabbey,http://www.newtownabbey.gov.uk,-6.04238600000000,BT39 0QL,2014-09-11,fhrs_4_en-GB,4,,FHRS,0
412890,13 Monkstown Village Centre,Monkstown,Newtownabbey,Antrim,Toto Takeaway,Takeaway/sandwich shop,7844,10,,396528,10,,54.68915600000000,7959,823,envhealth@newtownabbey.gov.uk,Newtownabbey,http://www.newtownabbey.gov.uk,-5.91733300000000,BT37 0HS,2014-09-22,fhrs_3_en-GB,3,,FHRS,5
412891,38 Mill Road,,Newtownabbey,Antrim,Toys 'r' Us,Retailers - other,4613,,,396103,,,54.65359900000000,1519,823,envhealth@newtownabbey.gov.uk,Newtownabbey,http://www.newtownabbey.gov.uk,-5.92130600000000,BT36 7BA,2014-03-03,fhrs_exempt_en-GB,Exempt,,FHRS,
412892,285 Shore Road,,Newtownabbey,Antrim,Trackside Service Station,Retailers - other,4613,10,,396349,10,,54.66038900000000,434,823,envhealth@newtownabbey.gov.uk,Newtownabbey,http://www.newtownabbey.gov.uk,-5.90710400000000,BT37 9RY,2014-02-17,fhrs_3_en-GB,3,,FHRS,5
412893,Farmley Road,Collinward,Newtownabbey,Antrim,Tramways Quality Butchers,Retailers - other,4613,5,,396266,5,,54.66987300000000,2964,823,envhealth@newtownabbey.gov.uk,Newtownabbey,http://www.newtownabbey.gov.uk,-5.95789700000000,BT36 7TS,2014-05-13,fhrs_5_en-GB,5,,FHRS,0
412894,124 Monkstown Road,Monkstown,Newtownabbey,Antrim,Twinburn Limited,Retailers - other,4613,10,,688470,5,,54.69198000000000,18300,823,envhealth@newtownabbey.gov.uk,Newtownabbey,http://www.newtownabbey.gov.uk,-5.91802600000000,BT37 0LE,2014-07-22,fhrs_4_en-GB,4,,FHRS,5
412895,3 Ballyclare Road,Glengormly,Newtownabbey,Antrim,U Payless,Retailers - other,4613,5,,396493,0,,54.67241500000000,6998,823,envhealth@newtownabbey.gov.uk,Newtownabbey,http://www.newtownabbey.gov.uk,-5.95893200000000,BT36 5EU,2014-04-04,fhrs_5_en-GB,5,,FHRS,0
412896,686 Shore Road,Jordanstown,Newtownabbey,Antrim,U.eat,Restaurant/Cafe/Canteen,1,,,396271,,,54.68317000000000,299,823,envhealth@newtownabbey.gov.uk,Newtownabbey,http://www.newtownabbey.gov.uk,-5.88200300000000,BT37 0PS,2014-03-13,fhrs_5_en-GB,5,,FHRS,
412897,16 Lynda Avenue,Jordanstown,Newtownabbey,Antrim,Ulster Transport and Bowling Club - Margaret Feenan Catering,Other catering premises,7841,5,,534902,5,,54.68700300000000,17931,823,envhealth@newtownabbey.gov.uk,Newtownabbey,http://www.newtownabbey.gov.uk,-5.89774700000000,BT37 0NX,2013-09-24,fhrs_4_en-GB,4,,FHRS,10
412898,16 Lynda Avenue,Jordanstown,Newtownabbey,Antrim,Ulster Transport Bowling & Tennis Club Bars,Pub/bar/nightclub,7843,10,,396361,5,,54.68700300000000,490,823,envhealth@newtownabbey.gov.uk,Newtownabbey,http://www.newtownabbey.gov.uk,-5.89774700000000,BT37 0NX,2013-02-19,fhrs_4_en-GB,4,,FHRS,5
412899,686 Shore Road,Jordanstown,Newtownabbey,Antrim,University Pharmacy Plus,Retailers - other,4613,,,396597,,,54.68317000000000,8827,823,envhealth@newtownabbey.gov.uk,Newtownabbey,http://www.newtownabbey.gov.uk,-5.88200300000000,BT37 0PS,2012-04-26,fhrs_exempt_en-GB,Exempt,,FHRS,
412900,44 The Square,Ballyclare,Ballyclare,Antrim,Valentino's,Takeaway/sandwich shop,7844,10,,396450,5,,54.75272000000000,6834,823,envhealth@newtownabbey.gov.uk,Newtownabbey,http://www.newtownabbey.gov.uk,-6.00143200000000,BT39 9BB,2014-06-11,fhrs_4_en-GB,4,,FHRS,5
412901,614 Shore Road,Jordanstown,Newtownabbey,Antrim,Village Pharmacy,Retailers - other,4613,,,396130,,,54.67694600000000,1652,823,envhealth@newtownabbey.gov.uk,Newtownabbey,http://www.newtownabbey.gov.uk,-5.89346000000000,BT37 0SN,2012-03-29,fhrs_exempt_en-GB,Exempt,,FHRS,
412902,26-30 Mill Road,Ballygolan,Newtownabbey,Antrim,Vivo Essentials Murphy's Stores,Retailers - other,4613,20,,727663,10,,54.65291100000000,18379,823,envhealth@newtownabbey.gov.uk,Newtownabbey,http://www.newtownabbey.gov.uk,-5.92052000000000,BT36 7BE,2014-12-10,fhrs_1_en-GB,1,,FHRS,5
412903,,,,,W J Beatty & Son,Distributors/Transporters,7,,,396703,,,,994,823,envhealth@newtownabbey.gov.uk,Newtownabbey,http://www.newtownabbey.gov.uk,,,2014-11-26,fhrs_exempt_en-GB,Exempt,,FHRS,
412904,95 Doagh Road,White Abbey,Newtownabbey,Antrim,Whiteabbey Hospital,Hospitals/Childcare/Caring Premises,5,0,,396275,0,,54.67067300000000,311,823,envhealth@newtownabbey.gov.uk,Newtownabbey,http://www.newtownabbey.gov.uk,-5.91260500000000,BT37 9QN,2013-10-01,fhrs_5_en-GB,5,,FHRS,5
412905,95 Doagh Road,White Abbey,Newtownabbey,Antrim,"Whiteabbey Hospital, Grapevine Restaurant",Restaurant/Cafe/Canteen,1,0,,396507,0,,54.67067300000000,7133,823,envhealth@newtownabbey.gov.uk,Newtownabbey,http://www.newtownabbey.gov.uk,-5.91260500000000,BT37 9QN,2014-03-05,fhrs_5_en-GB,5,,FHRS,0
412906,51 Monkstown Avenue,Croghfern,Newtownabbey,Antrim,Whiteabbey Masonic Club,Pub/bar/nightclub,7843,5,,396373,10,,54.68041300000000,520,823,envhealth@newtownabbey.gov.uk,Newtownabbey,http://www.newtownabbey.gov.uk,-5.91103500000000,BT37 0EB,2013-01-31,fhrs_4_en-GB,4,,FHRS,5
412907,566-568 Shore Road,Jordanstown,Newtownabbey,Antrim,Whiteabbey Methodist Church,Other catering premises,7841,,,396512,,,54.68387200000000,7419,823,envhealth@newtownabbey.gov.uk,Newtownabbey,http://www.newtownabbey.gov.uk,-5.88513000000000,BT37 0SL,2013-04-09,fhrs_exempt_en-GB,Exempt,,FHRS,
412908,104 Doagh Road,White Abbey,Newtownabbey,Antrim,Whiteabbey Nursing Home,Hospitals/Childcare/Caring Premises,5,0,,396544,5,,54.67031100000000,82,823,envhealth@newtownabbey.gov.uk,Newtownabbey,http://www.newtownabbey.gov.uk,-5.91346100000000,BT37 9QP,2015-01-23,fhrs_5_en-GB,5,,FHRS,5
412909,20-30 Old Manse Road,Jordanstown,Newtownabbey,Antrim,Whiteabbey Primary School Meals,School/college/university,7845,5,,396276,5,,54.67935700000000,312,823,envhealth@newtownabbey.gov.uk,Newtownabbey,http://www.newtownabbey.gov.uk,-5.89363000000000,BT37 0RU,2014-05-26,fhrs_5_en-GB,5,,FHRS,5
412910,458 Shore Road,White Abbey,Newtownabbey,Antrim,Whiteabbey Royal British Legion,Pub/bar/nightclub,7843,0,,396371,0,,54.67210100000000,513,823,envhealth@newtownabbey.gov.uk,Newtownabbey,http://www.newtownabbey.gov.uk,-5.90011400000000,BT37 0AA,2014-06-05,fhrs_5_en-GB,5,,FHRS,5
412911,29 Whitehouse Park,White House,Newtownabbey,Antrim,Whitehouse Gospel Hall,Other catering premises,7841,,,396514,,,54.65809500000000,7518,823,envhealth@newtownabbey.gov.uk,Newtownabbey,http://www.newtownabbey.gov.uk,-5.90691200000000,BT37 9SQ,2014-03-14,fhrs_exempt_en-GB,Exempt,,FHRS,
412912,213 Shore Road,Drumnadrough,Newtownabbey,Antrim,Whitehouse Kitchen,Restaurant/Cafe/Canteen,1,10,,396262,10,,54.65577500000000,2923,823,envhealth@newtownabbey.gov.uk,Newtownabbey,http://www.newtownabbey.gov.uk,-5.91044000000000,BT37 9SS,2014-10-01,fhrs_3_en-GB,3,,FHRS,5
412913,143-145 Shore Road,Drumnadrough,Newtownabbey,Antrim,Whitehouse Presbyterian Church,Other catering premises,7841,5,,396168,0,,54.65272600000000,1800,823,envhealth@newtownabbey.gov.uk,Newtownabbey,http://www.newtownabbey.gov.uk,-5.91499700000000,BT37 9SY,2014-04-01,fhrs_5_en-GB,5,,FHRS,5
412914,2 Doagh Road,White House,Newtownabbey,Antrim,Whitehouse Primary School Meals Kitchen,School/college/university,7845,0,,396675,0,,54.66151600000000,9295,823,envhealth@newtownabbey.gov.uk,Newtownabbey,http://www.newtownabbey.gov.uk,-5.90937000000000,BT37 9NZ,2014-10-20,fhrs_5_en-GB,5,,FHRS,0
412915,2 Doagh Road,White House,Newtownabbey,Antrim,Whitehouse Primary School Nursery Unit,Hospitals/Childcare/Caring Premises,5,5,,715750,5,,54.66151600000000,18362,823,envhealth@newtownabbey.gov.uk,Newtownabbey,http://www.newtownabbey.gov.uk,-5.90937000000000,BT37 9NZ,2014-10-23,fhrs_5_en-GB,5,,FHRS,0
412916,213 Shore Road,Drumnadrough,Newtownabbey,Antrim,Whitehouse Working Mens Club,Restaurant/Cafe/Canteen,1,10,,396279,0,,54.65577500000000,325,823,envhealth@newtownabbey.gov.uk,Newtownabbey,http://www.newtownabbey.gov.uk,-5.91044000000000,BT37 9SS,2014-08-19,fhrs_4_en-GB,4,,FHRS,10
412917,6 Richmond Gardens,Carnmoney,Newtownabbey,Antrim,Wineflair,Retailers - other,4613,,,396306,,,54.68289200000000,3694,823,envhealth@newtownabbey.gov.uk,Newtownabbey,http://www.newtownabbey.gov.uk,-5.95950700000000,BT36 5LA,2012-04-25,fhrs_exempt_en-GB,Exempt,,FHRS,
412918,1 Beverley Road,Ballyduff,Newtownabbey,Antrim,Wineflair (Belfast) Ltd,Retailers - other,4613,,,396278,,,54.68824300000000,322,823,envhealth@newtownabbey.gov.uk,Newtownabbey,http://www.newtownabbey.gov.uk,-5.94810300000000,BT36 6QD,2014-03-03,fhrs_exempt_en-GB,Exempt,,FHRS,
412919,196 Jordanstown Road,Monkstown,Newtownabbey,Antrim,Winemark,Retailers - other,4613,,,396263,,,54.68974500000000,2941,823,envhealth@newtownabbey.gov.uk,Newtownabbey,http://www.newtownabbey.gov.uk,-5.90875700000000,BT37 0LZ,2014-03-03,fhrs_exempt_en-GB,Exempt,,FHRS,
412920,30 Mallusk Road,Grange Of Mallusk,Newtownabbey,Antrim,Winemark,Retailers - other,4613,,,396335,,,54.67452000000000,402,823,envhealth@newtownabbey.gov.uk,Newtownabbey,http://www.newtownabbey.gov.uk,-5.98643900000000,BT36 4PP,2014-03-03,fhrs_exempt_en-GB,Exempt,,FHRS,
412921,352 Antrim Road,,Newtownabbey,Antrim,Winemark Village,Retailers - other,4613,,,396700,,,54.67327600000000,957,823,envhealth@newtownabbey.gov.uk,Newtownabbey,http://www.newtownabbey.gov.uk,-5.96152500000000,BT36 5EB,2014-03-03,fhrs_exempt_en-GB,Exempt,,FHRS,
412922,,,,,With Love Bakes And Cakes,Other catering premises,7841,0,,709446,0,,,18360,823,envhealth@newtownabbey.gov.uk,Newtownabbey,http://www.newtownabbey.gov.uk,,,2014-10-20,fhrs_5_en-GB,5,,FHRS,0
412923,Longwood Road,Drumnadrough,Newtownabbey,Antrim,Yangtze Noodle Bar,Takeaway/sandwich shop,7844,10,,396477,5,,54.65550000000000,6941,823,envhealth@newtownabbey.gov.uk,Newtownabbey,http://www.newtownabbey.gov.uk,-5.91798600000000,BT37 9UH,2014-11-05,fhrs_3_en-GB,3,,FHRS,10
412924,12a Carnmoney Road,Glengormly,Newtownabbey,Antrim,Yum Sing,Takeaway/sandwich shop,7844,10,,396282,5,,54.67166600000000,331,823,envhealth@newtownabbey.gov.uk,Newtownabbey,http://www.newtownabbey.gov.uk,-5.95768300000000,BT36 6HN,2014-01-29,fhrs_3_en-GB,3,,FHRS,10
412925,,,,,Yummy Bakes,Manufacturers/packers,7839,5,,396638,0,,,9136,823,envhealth@newtownabbey.gov.uk,Newtownabbey,http://www.newtownabbey.gov.uk,,,2014-03-03,fhrs_5_en-GB,5,,FHRS,0
