,addressline1,addressline2,addressline3,addressline4,businessname,businesstype,businesstypeid,confidenceinmanagement,extractdate,fhrsid,hygiene,itemcount,latitude,localauthoritybusinessid,localauthoritycode,localauthorityemailaddress,localauthorityname,localauthoritywebsite,longitude,postcode,ratingdate,ratingkey,ratingvalue,returncode,schemetype,structural
412926,48 NEWTOWNARDS ROAD,BANGOR,CO DOWN,,ABBEY VIEW NURSING HOME,Hospitals/Childcare/Caring Premises,5,5,,13245,5,,54.65302300000000,04/112X/0048/0002,824,env.services@northdown.gov.uk,North Down,http://www.northdown.gov.uk,-5.67565800000000,BT20 4BP,2014-05-01,fhrs_5_en-GB,5,,FHRS,5
412927,2A WARD AVE,BANGOR,CO DOWN,,ABBEYFIELD UK (NI),Hospitals/Childcare/Caring Premises,5,5,,2842,0,,54.66328500000000,01/0979/0002/0109,824,env.services@northdown.gov.uk,North Down,http://www.northdown.gov.uk,-5.65609900000000,BT20 5JW,2014-08-12,fhrs_5_en-GB,5,,FHRS,5
412928,"43, CHURCH ROAD",HOLYWOOD,CO DOWN,,ABBEYFIELD UK (NI),Hospitals/Childcare/Caring Premises,5,5,,73768,0,,54.64135400000000,17/0283/0043/0005,824,env.services@northdown.gov.uk,North Down,http://www.northdown.gov.uk,-5.83325800000000,BT18 9BU,2015-01-13,fhrs_5_en-GB,5,,FHRS,5
412929,"63, BALLYHOLME ROAD",BANGOR,CO DOWN,,ABBEYFIELD UK (NI),Hospitals/Childcare/Caring Premises,5,5,,2592,0,,54.66473000000000,01/0014/0063/0004,824,env.services@northdown.gov.uk,North Down,http://www.northdown.gov.uk,-5.65507000000000,BT20 5JR,2010-07-20,fhrs_5_en-GB,5,,FHRS,0
412930,,,,,ABRACAKEDABRA,Other catering premises,7841,0,,586769,0,,,23/1158/0026/0002,824,env.services@northdown.gov.uk,North Down,http://www.northdown.gov.uk,,,2013-08-30,fhrs_5_en-GB,5,,FHRS,0
412931,116 CLANDEBOYE ROAD,BANGOR,CO DOWN,,ABV CASH AND CARRY,Retailers - other,4613,,,415302,,,54.65225600000000,09/0481/0116/001X,824,env.services@northdown.gov.uk,North Down,http://www.northdown.gov.uk,-5.68247400000000,BT20 3JU,2012-06-01,fhrs_exempt_en-GB,Exempt,,FHRS,
412932,5 CLANDEBOYE ROAD,BANGOR,CO DOWN,,ADELE'S,Restaurant/Cafe/Canteen,1,5,,31557,5,,54.65316100000000,09/0481/0005/0008,824,env.services@northdown.gov.uk,North Down,http://www.northdown.gov.uk,-5.68143000000000,BT20 3JY,2013-09-03,fhrs_5_en-GB,5,,FHRS,0
412933,"24, HAMILTON ROAD",BANGOR,CO DOWN,,AGE NORTH DOWN AND ARDS,Restaurant/Cafe/Canteen,1,,,70533,,,54.66065200000000,16/0644/0024/0001,824,env.services@northdown.gov.uk,North Down,http://www.northdown.gov.uk,-5.66443500000000,BT20 4LE,2014-01-22,fhrs_exempt_en-GB,Exempt,,FHRS,
412934,"6, KILLAIRE AVENUE",CARNALEA,BANGOR,CO DOWN,AILSA LODGE,Hospitals/Childcare/Caring Premises,5,5,,53180,0,,54.66467200000000,12/1002/0006/0003,824,env.services@northdown.gov.uk,North Down,http://www.northdown.gov.uk,-5.70886300000000,BT19 1EW,2013-12-13,fhrs_5_en-GB,5,,FHRS,5
412935,20 BALLYHOLME ROAD,BANGOR,CO DOWN,,ALPINE HOUSE,Hospitals/Childcare/Caring Premises,5,5,,2588,10,,54.66366300000000,01/0011/0020/000X,824,env.services@northdown.gov.uk,North Down,http://www.northdown.gov.uk,-5.65748800000000,BT20 5JN,2014-08-19,fhrs_3_en-GB,3,,FHRS,10
412936,6 ENTERPRISE ROAD,BANGOR,CO DOWN,,AMH PROMOTE,Retailers - other,4613,5,,466671,5,,54.63649600000000,10/0614/0006/0003,824,env.services@northdown.gov.uk,North Down,http://www.northdown.gov.uk,-5.67407600000000,BT19 7TU,2014-05-08,fhrs_5_en-GB,5,,FHRS,5
412937,BANGOR MARKET,MARKET STREET,BANGOR,CO DOWN,APPLE BLOSSOM,Retailers - other,4613,0,,13214,0,,54.65968600000000,04/1030/0100/0039,824,env.services@northdown.gov.uk,North Down,http://www.northdown.gov.uk,-5.66842700000000,BT20 4SP,2014-04-16,fhrs_5_en-GB,5,,FHRS,0
412938,TESCO SPRINGHILL,U2 SPRINGHILL RETAIL PARK,BANGOR,CO DOWN,ARAMARK FOOD SERVICES,Restaurant/Cafe/Canteen,1,5,,88137,0,,54.65484400000000,23/114X/0002/001X,824,env.services@northdown.gov.uk,North Down,http://www.northdown.gov.uk,-5.69760700000000,BT19 1ND,2014-01-24,fhrs_5_en-GB,5,,FHRS,0
412939,10 CASTLE STREET,BANGOR,CO DOWN,,ASDA PETROL FILLING STATION,Retailers - other,4613,5,,70478,0,,54.65705100000000,16/0404/0010/0005,824,env.services@northdown.gov.uk,North Down,http://www.northdown.gov.uk,-5.66112700000000,,2010-07-27,fhrs_5_en-GB,5,,FHRS,5
412940,2 MARKET LANE,BANGOR,CO DOWN,,ASDA SUPERMARKET,Retailers - supermarkets/hypermarkets,7840,5,,13206,0,,54.65732600000000,04/1022/0002/0001,824,env.services@northdown.gov.uk,North Down,http://www.northdown.gov.uk,-5.69167100000000,BT20 4AS,2011-06-21,fhrs_5_en-GB,5,,FHRS,5
412941,"82, BELFAST ROAD",BANGOR,CO DOWN,,ASHA TANDOORI,Takeaway/sandwich shop,7844,10,,86270,5,,54.65511100000000,22/0108/0082/0008,824,env.services@northdown.gov.uk,North Down,http://www.northdown.gov.uk,-5.69038500000000,BT20 3NN,2013-08-06,fhrs_4_en-GB,4,,FHRS,5
412942,1C ASHBURY AVENUE,BANGOR,CO DOWN,,ASHBURY HOME ENTERTAINMENT,Retailers - other,4613,0,,660672,0,,54.64851400000000,03/0160/0001/0006,824,env.services@northdown.gov.uk,North Down,http://www.northdown.gov.uk,-5.63674400000000,BT19 6TH,2014-04-09,fhrs_5_en-GB,5,,FHRS,5
412943,175 CLANDEBOYE ROAD,BANGOR,CO DOWN,,ASIAN DELIGHT,Takeaway/sandwich shop,7844,10,,31564,0,,54.64555200000000,09/0481/0175/0003,824,env.services@northdown.gov.uk,North Down,http://www.northdown.gov.uk,-5.69043200000000,BT19 1AA,2011-09-14,fhrs_4_en-GB,4,,FHRS,10
412944,45/46 QUEEN'S PARADE,BANGOR,CO DOWN,,ASTALA HOUSE,Hotel/bed & breakfast/guest house,7842,0,,576962,0,,54.66249800000000,16/1273/0045/0006,824,env.services@northdown.gov.uk,North Down,http://www.northdown.gov.uk,-5.67307100000000,BT20 3BH,2013-07-31,fhrs_5_en-GB,5,,FHRS,0
412945,38 BLOOMFIELD SHOPPING CENTRE,SOUTH CIRCULAR ROAD,BANGOR,CO DOWN,AUNTIE ANNE'S PRETZELS,Takeaway/sandwich shop,7844,5,,316000,5,,54.64748700000000,05/0323/0038/0008,824,env.services@northdown.gov.uk,North Down,http://www.northdown.gov.uk,-5.65649700000000,BT19 7HB,2012-02-09,fhrs_5_en-GB,5,,FHRS,5
412946,AQUATIC & LEIS. AURORA COMPLEX,3 VALENTINE ROAD,BANGOR,CO DOWN,AURORA CAFE,Restaurant/Cafe/Canteen,1,5,,619255,0,,54.65387600000000,04/1456/0003/0007,824,env.services@northdown.gov.uk,North Down,http://www.northdown.gov.uk,-5.66206500000000,BT20 4TH,2013-11-05,fhrs_5_en-GB,5,,FHRS,5
412947,76 BALLYMACONNELL ROAD,BANGOR,CO DOWN,,AUTUMN WINDS B&B,Hotel/bed & breakfast/guest house,7842,5,,576957,0,,54.66188400000000,08/0133/0076/0005,824,env.services@northdown.gov.uk,North Down,http://www.northdown.gov.uk,-5.63116300000000,BT20 5PU,2013-07-16,fhrs_5_en-GB,5,,FHRS,0
412948,22/30 MAIN STREET,BANGOR,CO DOWN,,B&M BARGAINS,Retailers - other,4613,5,,13197,5,,54.65732600000000,04/1006/0022/0000,824,env.services@northdown.gov.uk,North Down,http://www.northdown.gov.uk,-5.69167100000000,BT20 5AR,2009-08-20,fhrs_5_en-GB,5,,FHRS,5
412949,U11/12 SPRINGHILL RETAIL PARK,BANGOR,CO DOWN,,B&M BARGAINS,Retailers - other,4613,5,,358883,5,,54.65484400000000,23/114X/0012/0006,824,env.services@northdown.gov.uk,North Down,http://www.northdown.gov.uk,-5.69760700000000,BT19 1ND,2012-04-02,fhrs_4_en-GB,4,,FHRS,10
412950,88 GROOMSPORT ROAD,BANGOR,CO DOWN,,BA WON,Takeaway/sandwich shop,7844,5,,699956,5,,54.66338000000000,01/0461/0088/0000,824,env.services@northdown.gov.uk,North Down,http://www.northdown.gov.uk,-5.64383300000000,BT20 5NF,2014-08-21,fhrs_5_en-GB,5,,FHRS,5
412951,40 DONAGHADEE ROAD,GROOMSPORT,CO DOWN,,BALLOO HOUSE RESIDENTIAL HOME,Hospitals/Childcare/Caring Premises,5,5,,67103,0,,54.67295400000000,15/0670/0040/0009,824,env.services@northdown.gov.uk,North Down,http://www.northdown.gov.uk,-5.60330800000000,BT19 6LH,2013-07-30,fhrs_5_en-GB,5,,FHRS,5
412952,94 NEWTOWNARDS ROAD,BANGOR,CO DOWN,,BALLOO TRAINING AND RESOURCE CENTRE,Hospitals/Childcare/Caring Premises,5,5,,13247,0,,54.64252800000000,04/112X/0094/0003,824,env.services@northdown.gov.uk,North Down,http://www.northdown.gov.uk,-5.67842600000000,BT19 1XZ,2014-05-01,fhrs_5_en-GB,5,,FHRS,5
412953,36A SILVERBIRCH ROAD,BANGOR,CO DOWN,,BALLYCROCHAN PRESBY CHURCH PLAYGROUP,Retailers - other,4613,,,8322,,,54.65157600000000,03/2678/0035/0001,824,env.services@northdown.gov.uk,North Down,http://www.northdown.gov.uk,-5.63292500000000,BT19 6EU,2012-10-12,fhrs_exempt_en-GB,Exempt,,FHRS,
412954,"36, SILVERBIRCH ROAD",BANGOR,CO DOWN,,BALLYCROCHAN PRESBYTERIAN CHURCH,Other catering premises,7841,0,,6094,0,,54.65157600000000,02/1245/0035/0001,824,env.services@northdown.gov.uk,North Down,http://www.northdown.gov.uk,-5.63292500000000,BT19 6EU,2014-10-10,fhrs_5_en-GB,5,,FHRS,0
412955,"101, GROOMSPORT ROAD",BANGOR,CO DOWN,,BALLYHOLME LOCAL MEATS,Retailers - other,4613,5,,2686,0,,54.66449000000000,01/0461/0101/000X,824,env.services@northdown.gov.uk,North Down,http://www.northdown.gov.uk,-5.64178400000000,BT20 5NS,2012-06-12,fhrs_4_en-GB,4,,FHRS,10
412956,68 GROOMSPORT ROAD,BANGOR,CO DOWN,,BALLYHOLME PARISH CHURCH - LUNCH CLUB,Retailers - other,4613,5,,713033,5,,54.66292800000000,01/0461/0068/001X,824,env.services@northdown.gov.uk,North Down,http://www.northdown.gov.uk,-5.64508300000000,BT20 5NE,2014-09-26,fhrs_5_en-GB,5,,FHRS,0
412957,"46, ASHLEY DRIVE",BANGOR,CO DOWN,,BALLYHOLME PRESBYTERIAN CHURCH,Retailers - other,4613,10,,415300,0,,54.66205500000000,08/0047/0046/0001,824,env.services@northdown.gov.uk,North Down,http://www.northdown.gov.uk,-5.63901100000000,BT20 5RD,2012-04-17,fhrs_4_en-GB,4,,FHRS,0
412958,"6, GLENBURN PARK",BANGOR,,,BALLYHOLME PRIMARY SCHOOL DINING CENTRE,School/college/university,7845,5,,27148,0,,54.65985100000000,08/0586/0006/0003,824,env.services@northdown.gov.uk,North Down,http://www.northdown.gov.uk,-5.65694800000000,BT20 4RG,2013-06-18,fhrs_5_en-GB,5,,FHRS,0
412959,"262, SEACLIFF ROAD",BANGOR,CO DOWN,,BALLYHOLME YACHT CLUB,Pub/bar/nightclub,7843,,,2770,,,54.66668200000000,01/0731/0262/0006,824,env.services@northdown.gov.uk,North Down,http://www.northdown.gov.uk,-5.65381100000000,BT20 5HT,2014-01-14,fhrs_exempt_en-GB,Exempt,,FHRS,
412960,"48, BALLYMACONNELL ROAD",BANGOR,CO DOWN,,BALLYMACONNELL PRIVATE NURSING HOME LTD,Hospitals/Childcare/Caring Premises,5,0,,27086,0,,54.66334300000000,08/0136/0048/0002,824,env.services@northdown.gov.uk,North Down,http://www.northdown.gov.uk,-5.63273600000000,BT20 5PS,2013-07-25,fhrs_5_en-GB,5,,FHRS,5
412961,ASHBURY AVENUE,BANGOR,CO DOWN,,BALLYMAGEE PRIMARY SCHOOL,School/college/university,7845,5,,7905,5,,54.64445300000000,03/0163/0060/0008,824,env.services@northdown.gov.uk,North Down,http://www.northdown.gov.uk,-5.63719700000000,BT19 6ZG,2014-01-08,fhrs_5_en-GB,5,,FHRS,5
412962,4 BALLYREE DRIVE,BANGOR,CO DOWN,,BALLYREE NEWS,Retailers - other,4613,10,,15747,0,,54.64253000000000,05/0102/0004/0010,824,env.services@northdown.gov.uk,North Down,http://www.northdown.gov.uk,-5.65848700000000,BT19 7HW,2014-08-12,fhrs_2_en-GB,2,,FHRS,15
412963,109 CLANDEBOYE ROAD,BANGOR,CO DOWN,,BANGOR ABBEY PRE-SCHOOL,School/college/university,7845,,,415304,,,54.65190100000000,21/0347/0109/0003,824,env.services@northdown.gov.uk,North Down,http://www.northdown.gov.uk,-5.68227700000000,BT20 3JW,2012-04-20,fhrs_exempt_en-GB,Exempt,,FHRS,
412964,"30, BLOOMFIELD ROAD",BANGOR,CO DOWN,,BANGOR ABBEYFIELD SOCIETY LTD,Hospitals/Childcare/Caring Premises,5,5,,12252,0,,54.65354700000000,04/0134/0030/0004,824,env.services@northdown.gov.uk,North Down,http://www.northdown.gov.uk,-5.66037900000000,BT20 4UN,2014-07-24,fhrs_5_en-GB,5,,FHRS,5
412965,2 CASTLE PARK ROAD,BANGOR,CO DOWN,,BANGOR ACADEMY AND SIXTH FORM COLLEGE,School/college/university,7845,5,,13065,0,,54.65724200000000,04/028X/0002/001X,824,env.services@northdown.gov.uk,North Down,http://www.northdown.gov.uk,-5.66469200000000,BT20 4TB,2013-11-04,fhrs_5_en-GB,5,,FHRS,5
412966,,,,,BANGOR BAY CAKE COMPANY,Other catering premises,7841,0,,433175,0,,,15/1456/0004/0002,824,env.services@northdown.gov.uk,North Down,http://www.northdown.gov.uk,,,2012-07-03,fhrs_5_en-GB,5,,FHRS,0
412967,23 INNOTEC DRIVE,BANGOR,CO DOWN,,BANGOR CAKE CRAFT,Retailers - other,4613,5,,586768,0,,54.63786600000000,11/9994/0023/0006,824,env.services@northdown.gov.uk,North Down,http://www.northdown.gov.uk,-5.67009400000000,BT19 7PD,2013-09-09,fhrs_5_en-GB,5,,FHRS,0
412968,73 CASTLE ST,BANGOR,CO DOWN,,BANGOR COMMUNITY HOSPITAL,Hospitals/Childcare/Caring Premises,5,10,,13078,5,,54.65828500000000,04/0344/0073/0009,824,env.services@northdown.gov.uk,North Down,http://www.northdown.gov.uk,-5.66237000000000,BT20 4TA,2014-10-02,fhrs_4_en-GB,4,,FHRS,5
412969,"47, HIGH STREET",BANGOR,,,BANGOR EX-SERVICES CLUB,Pub/bar/nightclub,7843,10,,70563,10,,54.66360900000000,16/0679/0047/0007,824,env.services@northdown.gov.uk,North Down,http://www.northdown.gov.uk,-5.66496300000000,BT20 5BE,2009-07-27,fhrs_3_en-GB,3,,FHRS,5
412970,7 BALLOO CRESCENT,BALLOO INDUSTRIAL ESTATE,BANGOR,CO DOWN,"BANGOR FOODBANK, THERMOMAX LTD",Retailers - other,4613,0,,691135,5,,54.64211300000000,10/007X/0007/0009,824,env.services@northdown.gov.uk,North Down,http://www.northdown.gov.uk,-5.67508800000000,BT19 7UP,2014-06-19,fhrs_5_en-GB,5,,FHRS,5
412971,7A BROADWAY,BANGOR,CO DOWN,,BANGOR GOLF CLUB (BAR),Pub/bar/nightclub,7843,0,,12453,0,,54.65996900000000,04/0166/0007/0017,824,env.services@northdown.gov.uk,North Down,http://www.northdown.gov.uk,-5.65559300000000,BT20 4RH,2010-03-16,fhrs_5_en-GB,5,,FHRS,5
412972,84 GRANSHA ROAD,BANGOR,CO DOWN,,BANGOR GRAMMAR SCHOOL CANTEEN (BEE GEES),School/college/university,7845,5,,699959,0,,54.64262700000000,04/0735/0084/0009,824,env.services@northdown.gov.uk,North Down,http://www.northdown.gov.uk,-5.64772900000000,BT19 7QU,2014-09-12,fhrs_5_en-GB,5,,FHRS,0
412973,1 VALENTINE ROAD,BANGOR,CO DOWN,,BANGOR OMNIPLEX,Retailers - other,4613,10,,13279,0,,54.65416000000000,04/1456/0001/0006,824,env.services@northdown.gov.uk,North Down,http://www.northdown.gov.uk,-5.66330400000000,BT20 4JH,2009-02-12,fhrs_4_en-GB,4,,FHRS,5
412974,27A MANOR AVENUE,BANGOR,CO DOWN,,BANGOR PRIVATE NURSING HOME,Hospitals/Childcare/Caring Premises,5,5,,86318,0,,54.65326900000000,22/0469/0027/0105,824,env.services@northdown.gov.uk,North Down,http://www.northdown.gov.uk,-5.69131100000000,BT20 3NG,2014-08-07,fhrs_5_en-GB,5,,FHRS,5
412975,139-141 BELFAST ROAD,BANGOR,CO DOWN,,BARNACLES,Takeaway/sandwich shop,7844,5,,31497,5,,54.65556400000000,09/0287/0139/0015,824,env.services@northdown.gov.uk,North Down,http://www.northdown.gov.uk,-5.68306000000000,BT20 3PP,2014-02-12,fhrs_5_en-GB,5,,FHRS,0
412976,90 ABBEY STREET,BANGOR,CO DOWN,,BARONS,Takeaway/sandwich shop,7844,10,,415298,10,,54.65704100000000,04/0018/0090/0001,824,env.services@northdown.gov.uk,North Down,http://www.northdown.gov.uk,-5.67386300000000,BT20 4JB,2014-02-04,fhrs_3_en-GB,3,,FHRS,10
412977,"103, GROOMSPORT ROAD",BANGOR,CO DOWN,,BAYLANDS COFFEE COMPANY,Restaurant/Cafe/Canteen,1,5,,2687,0,,54.66449000000000,01/0461/0103/0000,824,env.services@northdown.gov.uk,North Down,http://www.northdown.gov.uk,-5.64178400000000,BT20 5NS,2013-01-15,fhrs_5_en-GB,5,,FHRS,0
412978,"140, SEACLIFF ROAD",BANGOR,CO DOWN,,BAYVIEW BED & BREAKFAST,Hotel/bed & breakfast/guest house,7842,5,,70747,0,,54.66672300000000,16/1330/0140/0002,824,env.services@northdown.gov.uk,North Down,http://www.northdown.gov.uk,-5.66287700000000,BT20 5EZ,2013-08-08,fhrs_5_en-GB,5,,FHRS,0
412979,11/13 BALLYHOLME ROAD,BANGOR,CO DOWN,,BAYVIEW RESOURCE CENTRE,Hospitals/Childcare/Caring Premises,5,5,,2587,5,,54.66357900000000,01/0011/0011/0000,824,env.services@northdown.gov.uk,North Down,http://www.northdown.gov.uk,-5.66057800000000,BT20 5JH,2014-03-11,fhrs_5_en-GB,5,,FHRS,0
412980,,,,,BEECHFIELD CHILDREN'S RESPITE UNIT,Hospitals/Childcare/Caring Premises,5,5,,36586,0,,,10/0269/0032/0005,824,env.services@northdown.gov.uk,North Down,http://www.northdown.gov.uk,,,2012-04-17,fhrs_5_en-GB,5,,FHRS,5
412981,23-27 GRANSHA RD,BANGOR,CO DOWN,,BETHANY BAPTIST CHURCH,Retailers - other,4613,5,,8259,0,,54.65303500000000,03/1450/0023/0006,824,env.services@northdown.gov.uk,North Down,http://www.northdown.gov.uk,-5.65388400000000,BT20 4TN,2009-07-23,fhrs_5_en-GB,5,,FHRS,0
412982,13/15 HIGH STREET,BANGOR,CO DOWN,,BETTY BLACKS,Pub/bar/nightclub,7843,0,,70539,0,,54.66371400000000,16/0676/0013/0001,824,env.services@northdown.gov.uk,North Down,http://www.northdown.gov.uk,-5.66666200000000,BT20 5BG,2011-05-24,fhrs_5_en-GB,5,,FHRS,0
412983,THE CLARE,"64, BROADWAY",BANGOR,CO DOWN,BIG RED BALLOON,Retailers - other,4613,0,,12457,0,,54.65985100000000,04/0166/0064/000X,824,env.services@northdown.gov.uk,North Down,http://www.northdown.gov.uk,-5.65694800000000,BT20 4RG,2013-11-07,fhrs_5_en-GB,5,,FHRS,0
412984,"UNIT 2, 104 RATHGAEL ROAD",BANGOR,CO DOWN,,BILAL'S,Takeaway/sandwich shop,7844,10,,63374,10,,54.64217600000000,14/0853/0102/0102,824,env.services@northdown.gov.uk,North Down,http://www.northdown.gov.uk,-5.69248200000000,BT19 1RS,2013-11-18,fhrs_3_en-GB,3,,FHRS,10
412985,"27, CHURCH ROAD",HOLYWOOD,CO DOWN,,BISTRO IONA,Restaurant/Cafe/Canteen,1,0,,76465,0,,54.64135400000000,18/0408/0027/0008,824,env.services@northdown.gov.uk,North Down,http://www.northdown.gov.uk,-5.83325800000000,BT18 9BU,2014-06-05,fhrs_5_en-GB,5,,FHRS,5
412986,32 BRYANSBURN ROAD,BANGOR,CO DOWN,,BLAIR LODGE RESIDENTIAL HOME,Hospitals/Childcare/Caring Premises,5,5,,23530,0,,54.66080000000000,07/0162/0032/0005,824,env.services@northdown.gov.uk,North Down,http://www.northdown.gov.uk,-5.68195600000000,BT20 3SB,2014-08-07,fhrs_5_en-GB,5,,FHRS,5
412987,"142, BLOOMFIELD RD SOUTH",BANGOR,,,BLOOMFIELD ROAD PRIMARY SCHOOL KITCHEN,School/college/university,7845,5,,15816,0,,54.64333700000000,05/0288/0142/0003,824,env.services@northdown.gov.uk,North Down,http://www.northdown.gov.uk,-5.66298400000000,BT19 2PN,2014-09-22,fhrs_5_en-GB,5,,FHRS,0
412988,52 HIGH STREET,BANGOR,CO DOWN,,BLU BBQ,Restaurant/Cafe/Canteen,1,5,,713042,0,,54.66334800000000,16/0676/0052/0004,824,env.services@northdown.gov.uk,North Down,http://www.northdown.gov.uk,-5.66443500000000,BT20 5AZ,2014-10-07,fhrs_5_en-GB,5,,FHRS,5
412989,48 DONAGHADEE RD,BANGOR,CO DOWN,,BLUE-BELL LODGE PRIVATE DAY NURSERY,Retailers - other,4613,5,,2653,0,,54.66225100000000,01/0313/0048/0002,824,env.services@northdown.gov.uk,North Down,http://www.northdown.gov.uk,-5.65653100000000,BT20 4QU,2014-10-13,fhrs_5_en-GB,5,,FHRS,0
412990,72 ENTERPRISE HOUSE,BALLOO AVENUE,BANGOR,,BRAMBLES COFFEE SHOP,Restaurant/Cafe/Canteen,1,0,,36640,0,,54.64229900000000,10/0606/0072/0003,824,env.services@northdown.gov.uk,North Down,http://www.northdown.gov.uk,-5.67168400000000,BT19 7QT,2012-03-02,fhrs_5_en-GB,5,,FHRS,0
412991,201 GRANSHA ROAD,BANGOR,CO DOWN,,BRAMBLEWOOD CARE HOME,Hospitals/Childcare/Caring Premises,5,5,,315996,10,,54.64825100000000,04/0735/0201/0003,824,env.services@northdown.gov.uk,North Down,http://www.northdown.gov.uk,-5.64861300000000,BT19 7RB,2014-02-28,fhrs_3_en-GB,3,,FHRS,10
412992,357 OLD BELFAST ROAD,BANGOR,,,BRIGHT BEGINNINGS DAY NURSERY,Retailers - other,4613,5,,53239,0,,54.65131800000000,12/145X/0357/0002,824,env.services@northdown.gov.uk,North Down,http://www.northdown.gov.uk,-5.70448500000000,BT19 1RB,2013-10-31,fhrs_5_en-GB,5,,FHRS,5
412993,"21, BRUNSWICK ROAD",BANGOR,CO DOWN,,BRUNSWICK NEWS MARKET,Retailers - other,4613,5,,23511,0,,54.65856600000000,07/0130/0021/0005,824,env.services@northdown.gov.uk,North Down,http://www.northdown.gov.uk,-5.68118500000000,BT20 3DS,2013-12-12,fhrs_5_en-GB,5,,FHRS,5
412994,151 BRYANSBURN ROAD,BANGOR,CO DOWN,,BRYANSBURN BAR AND GRILL,Restaurant/Cafe/Canteen,1,5,,447055,5,,54.65996100000000,07/0162/0151/0002,824,env.services@northdown.gov.uk,North Down,http://www.northdown.gov.uk,-5.69073000000000,BT20 3RQ,2014-06-18,fhrs_5_en-GB,5,,FHRS,5
412995,"137/141, BRYANSBURN ROAD",BANGOR,CO DOWN,,BRYANSBURN FILLING STATION,Retailers - other,4613,0,,23535,5,,54.65996100000000,07/0165/0139/0007,824,env.services@northdown.gov.uk,North Down,http://www.northdown.gov.uk,-5.69073000000000,BT20 3RQ,2014-05-29,fhrs_4_en-GB,4,,FHRS,10
412996,100 BRYANSBURN ROAD,BANGOR,CO DOWN,,BRYANSBURN PRIVATE NURSING HOME,Hospitals/Childcare/Caring Premises,5,5,,70462,0,,54.66036700000000,16/0318/0096/0004,824,env.services@northdown.gov.uk,North Down,http://www.northdown.gov.uk,-5.69126500000000,BT20 3RG,2014-04-14,fhrs_5_en-GB,5,,FHRS,5
412997,"37, BLOOMFIELD SHOPPING CENTRE",SOUTH CIRCULAR ROAD,BANGOR,CO DOWN,BURGER KING,Restaurant/Cafe/Canteen,1,0,,15840,0,,54.64748700000000,05/0323/0037/0029,824,env.services@northdown.gov.uk,North Down,http://www.northdown.gov.uk,-5.65649700000000,BT19 7HB,2013-01-14,fhrs_5_en-GB,5,,FHRS,5
412998,U1 THE FOOD COURT,FLAGSHIP CENTRE,MAIN STREET,"BANGOR, CO DOWN",BURGER KING,Restaurant/Cafe/Canteen,1,0,,70757,5,,54.66314100000000,16/1524/0001/0014,824,env.services@northdown.gov.uk,North Down,http://www.northdown.gov.uk,-5.66539200000000,BT20 5DN,2010-11-15,fhrs_5_en-GB,5,,FHRS,0
412999,41A BALLOO ROAD,BANGOR,CO DOWN,,BURGER VAN - EDDIE IRVINE SPORTS,Mobile caterer,7846,5,,36572,0,,54.64050600000000,10/0169/0041/0012,824,env.services@northdown.gov.uk,North Down,http://www.northdown.gov.uk,-5.66067900000000,BT19 7PG,2014-02-03,fhrs_5_en-GB,5,,FHRS,0
413000,"2, PARK DRIVE",BANGOR,CO DOWN,,CABBAGE PATCH,Retailers - other,4613,0,,13255,0,,54.66009100000000,04/1189/0002/0001,824,env.services@northdown.gov.uk,North Down,http://www.northdown.gov.uk,-5.66376900000000,BT20 4JZ,2013-10-28,fhrs_5_en-GB,5,,FHRS,5
413001,"13, BRIDGE STREET",BANGOR,CO DOWN,,CAFE BRAZILIA,Restaurant/Cafe/Canteen,1,5,,70451,0,,54.66324100000000,16/0253/0013/0001,824,env.services@northdown.gov.uk,North Down,http://www.northdown.gov.uk,-5.66729300000000,BT20 5AW,2013-03-27,fhrs_5_en-GB,5,,FHRS,5
413002,17/21 HIGH STREET,BANGOR,CO DOWN,,CAFE CEOL/STATUS NIGHTCLUB,Pub/bar/nightclub,7843,5,,70541,0,,54.66371400000000,16/0676/0017/0003,824,env.services@northdown.gov.uk,North Down,http://www.northdown.gov.uk,-5.66666200000000,BT20 5BG,2011-06-06,fhrs_5_en-GB,5,,FHRS,5
413003,"5, BRIDGE STREET",BANGOR,CO DOWN,,CAFE COD,Restaurant/Cafe/Canteen,1,10,,70449,5,,54.66324100000000,16/0250/0005/0008,824,env.services@northdown.gov.uk,North Down,http://www.northdown.gov.uk,-5.66729300000000,BT20 5AW,2013-11-18,fhrs_4_en-GB,4,,FHRS,5
413004,17 HAMILTON ROAD,BANGOR,CO DOWN,,CAFE ESSENCE,Restaurant/Cafe/Canteen,1,0,,70531,0,,54.66092800000000,16/0641/0017/0003,824,env.services@northdown.gov.uk,North Down,http://www.northdown.gov.uk,-5.66524000000000,BT20 4LF,2010-07-28,fhrs_5_en-GB,5,,FHRS,5
413005,"1, ABBEY STREET",BANGOR,CO DOWN,,"CAFE RED, BANGOR STATION",Restaurant/Cafe/Canteen,1,10,,10356,0,,54.65786900000000,04/0018/0001/0006,824,env.services@northdown.gov.uk,North Down,http://www.northdown.gov.uk,-5.67201800000000,BT20 4JA,2012-09-17,fhrs_4_en-GB,4,,FHRS,10
413006,7A BROADWAY,BANGOR,CO DOWN,,"CAFE UNO LTD, BANGOR GOLF CLUB",Restaurant/Cafe/Canteen,1,5,,20227,5,,54.65996900000000,06/0259/0007/0106,824,env.services@northdown.gov.uk,North Down,http://www.northdown.gov.uk,-5.65559300000000,BT20 4RH,2014-07-21,fhrs_5_en-GB,5,,FHRS,5
413007,40 MAIN STREET,BANGOR,CO DOWN,,CAFFE NERO,Restaurant/Cafe/Canteen,1,5,,13199,5,,54.66225900000000,04/1006/0040/0017,824,env.services@northdown.gov.uk,North Down,http://www.northdown.gov.uk,-5.66812500000000,BT20 5AG,2013-05-20,fhrs_5_en-GB,5,,FHRS,0
413008,UNIT 1 LESLEY MEWS,70 HIGH STREET,HOLYWOOD,CO DOWN,CAFFE NERO GROUP LTD,Restaurant/Cafe/Canteen,1,0,,73829,0,,54.63653800000000,17/0582/0070/0002,824,env.services@northdown.gov.uk,North Down,http://www.northdown.gov.uk,-5.80590200000000,BT18 8AE,2014-01-28,fhrs_5_en-GB,5,,FHRS,5
413009,"278, SEACLIFF ROAD",BANGOR,CO DOWN,,CAIRN BAY GUEST HOUSE,Hotel/bed & breakfast/guest house,7842,5,,2771,5,,54.66555200000000,01/0731/0278/0003,824,env.services@northdown.gov.uk,North Down,http://www.northdown.gov.uk,-5.65387600000000,BT20 5HS,2013-08-01,fhrs_5_en-GB,5,,FHRS,5
413010,,,,,"CAKE, RATTLE AND ROLL",Other catering premises,7841,5,,481953,0,,,03/0748/0099/0000,824,env.services@northdown.gov.uk,North Down,http://www.northdown.gov.uk,,,2012-11-15,fhrs_5_en-GB,5,,FHRS,0
413011,8 SHORE ROAD,HOLYWOOD,CO DOWN,,CAMPHILL COMMUNITY HOLYWOOD,Manufacturers/packers,7839,10,,73995,0,,54.64246000000000,17/1112/0008/0004,824,env.services@northdown.gov.uk,North Down,http://www.northdown.gov.uk,-5.83533700000000,BT18 9HX,2014-03-18,fhrs_4_en-GB,4,,FHRS,10
413012,1 RIVERSIDE,HOLYWOOD,CO DOWN,,CAMPHILL COMMUNITY HOLYWOOD RIVERSIDE,Hospitals/Childcare/Caring Premises,5,5,,76573,5,,54.64041500000000,18/0820/0001/0006,824,env.services@northdown.gov.uk,North Down,http://www.northdown.gov.uk,-5.82849000000000,BT18 9DB,2014-05-19,fhrs_5_en-GB,5,,FHRS,5
413013,2 QUEENS PARADE,BANGOR,CO DOWN,,CAPRONI,Restaurant/Cafe/Canteen,1,5,,713043,0,,,16/1273/0002/0001,824,env.services@northdown.gov.uk,North Down,http://www.northdown.gov.uk,,BT20 5BJ,2014-09-15,fhrs_5_en-GB,5,,FHRS,5
413014,"3, CARMEN LANE",BANGOR,CO DOWN,,CARMEN HOUSE,Hospitals/Childcare/Caring Premises,5,10,,31486,0,,54.65424800000000,09/0287/0003/0007,824,env.services@northdown.gov.uk,North Down,http://www.northdown.gov.uk,-5.68987600000000,BT20 3PL,2014-08-19,fhrs_4_en-GB,4,,FHRS,5
413015,"20, CRAWFORDSBURN RD",BANGOR,CO DOWN,,CARNALEA CARE HOME,Hospitals/Childcare/Caring Premises,5,5,,81838,0,,54.66081400000000,20/0252/0020/000X,824,env.services@northdown.gov.uk,North Down,http://www.northdown.gov.uk,-5.69917600000000,BT19 1BE,2013-11-19,fhrs_5_en-GB,5,,FHRS,5
413016,80 STATION ROAD,CARNALEA,BANGOR,CO DOWN,CARNALEA GOLF CLUB (CATERER),Restaurant/Cafe/Canteen,1,10,,53247,5,,54.66445100000000,12/1662/0080/0007,824,env.services@northdown.gov.uk,North Down,http://www.northdown.gov.uk,-5.70569700000000,BT19 1EZ,2014-08-18,fhrs_3_en-GB,3,,FHRS,10
413017,"80, STATION ROAD",BANGOR,CO DOWN,,CARNALEA GOLF CLUB (CLUB HOUSE),Pub/bar/nightclub,7843,5,,81943,10,,54.66445100000000,20/1006/0080/0007,824,env.services@northdown.gov.uk,North Down,http://www.northdown.gov.uk,-5.70569700000000,BT19 1EZ,2009-06-16,fhrs_4_en-GB,4,,FHRS,5
413018,,,,,CEDAR WOOD PLANTS,Other catering premises,7841,5,,49362,0,,,11/0350/0003/0007,824,env.services@northdown.gov.uk,North Down,http://www.northdown.gov.uk,,,2011-06-10,fhrs_5_en-GB,5,,FHRS,0
413019,101 HIGH STREET,HOLYWOOD,CO DOWN,,CENTRA HOLYWOOD,Retailers - supermarkets/hypermarkets,7840,10,,316008,0,,54.64135800000000,17/0582/0101/000X,824,env.services@northdown.gov.uk,North Down,http://www.northdown.gov.uk,-5.83547300000000,BT18 9AG,2013-11-19,fhrs_4_en-GB,4,,FHRS,5
413020,147 DONAGHADEE RD,BANGOR,CO DOWN,,CENTRA WINDMILL,Retailers - other,4613,0,,358877,0,,54.65934100000000,01/0313/0147/0000,824,env.services@northdown.gov.uk,North Down,http://www.northdown.gov.uk,-5.63901400000000,BT20 4RY,2014-07-22,fhrs_5_en-GB,5,,FHRS,0
413021,9 CENTRAL AVENUE,BANGOR,CO DOWN,,CENTRAL BAKERY,Manufacturers/packers,7839,5,,70488,5,,54.66090200000000,16/0439/0009/000X,824,env.services@northdown.gov.uk,North Down,http://www.northdown.gov.uk,-5.66948900000000,BT20 3AF,2010-09-07,fhrs_4_en-GB,4,,FHRS,10
413022,"33, CENTRAL AVENUE",BANGOR,,,CENTRAL GOSPEL HALL,Retailers - other,4613,5,,447058,5,,54.66090200000000,16/0431/0033/0000,824,env.services@northdown.gov.uk,North Down,http://www.northdown.gov.uk,-5.66948900000000,BT20 3AF,2012-08-03,fhrs_5_en-GB,5,,FHRS,5
413023,7 SEAFRONT RD,CULTRA,HOLYWOOD,CO DOWN,"CHARTHOUSE CATERING, ROYAL NI YACHT CLUB",Restaurant/Cafe/Canteen,1,,,58461,,,54.65496500000000,13/1242/0007/0009,824,env.services@northdown.gov.uk,North Down,http://www.northdown.gov.uk,-5.81271300000000,BT18 0BB,2013-07-17,fhrs_5_en-GB,5,,FHRS,
413024,UNIT 3 ASHBURY AVENUE,BANGOR,CO DOWN,,CHINA STAR,Takeaway/sandwich shop,7844,10,,505778,5,,54.64851400000000,03/0160/0013/0036,824,env.services@northdown.gov.uk,North Down,http://www.northdown.gov.uk,-5.63674400000000,BT19 6TH,2013-01-15,fhrs_3_en-GB,3,,FHRS,10
413025,35 CARDY CLOSE,BANGOR,CO DOWN,,CLANDEBOYE CARE HOME,Hospitals/Childcare/Caring Premises,5,0,,31529,0,,54.64975500000000,09/0376/0035/0001,824,env.services@northdown.gov.uk,North Down,http://www.northdown.gov.uk,-5.69175800000000,BT19 1AT,2014-10-02,fhrs_5_en-GB,5,,FHRS,5
413026,"10, ESTATE ROAD",CLANDEBOYE,BANGOR,CO DOWN,CLANDEBOYE LODGE,Hotel/bed & breakfast/guest house,7842,5,,31604,5,,54.63716300000000,09/0700/0201/0003,824,env.services@northdown.gov.uk,North Down,http://www.northdown.gov.uk,-5.71716400000000,BT19 1UR,2014-06-17,fhrs_5_en-GB,5,,FHRS,5
413027,"109, CLANDEBOYE ROAD",BANGOR,CO DOWN,,CLANDEBOYE ROAD PRIMARY SCHOOL KITCHEN,School/college/university,7845,0,,84422,0,,54.66325100000000,21/034X/0109/0801,824,env.services@northdown.gov.uk,North Down,http://www.northdown.gov.uk,-5.67761600000000,BT20 3SW,2012-11-05,fhrs_5_en-GB,5,,FHRS,5
413028,SAVOY APARTMENTS BLOCK A,DONAGHADEE ROAD,BANGOR,CO DOWN,CLANMILL HOUSING ASSOCIATION,Restaurant/Cafe/Canteen,1,,,20366,,,54.66266000000000,06/1042/0001/0006,824,env.services@northdown.gov.uk,North Down,http://www.northdown.gov.uk,-5.65908000000000,BT20 4QR,2014-05-22,fhrs_exempt_en-GB,Exempt,,FHRS,
413029,292A OLD BELFAST ROAD,BANGOR,CO DOWN,,CLIFTON SCHOOL (SEELB),School/college/university,7845,0,,53238,0,,54.64787200000000,12/145X/0292/0018,824,env.services@northdown.gov.uk,North Down,http://www.northdown.gov.uk,-5.71233300000000,BT19 1RH,2013-06-20,fhrs_5_en-GB,5,,FHRS,0
413030,18A RATHMORE ROAD,BANGOR,CO DOWN,,COFFEE CURE,Restaurant/Cafe/Canteen,1,5,,63380,5,,54.65849500000000,14/0888/0018/0017,824,env.services@northdown.gov.uk,North Down,http://www.northdown.gov.uk,-5.70339800000000,BT19 1DL,2014-05-13,fhrs_5_en-GB,5,,FHRS,5
413031,6 VALENTINE ROAD,BANGOR,CO DOWN,,COFFEE CURE @ THE WALLED GARDEN,Restaurant/Cafe/Canteen,1,5,,447054,0,,54.65283200000000,04/1456/0006/0003,824,env.services@northdown.gov.uk,North Down,http://www.northdown.gov.uk,-5.66479000000000,BT20 4JH,2014-05-08,fhrs_5_en-GB,5,,FHRS,0
413032,THE MUSEUM,TOWN HALL,BANGOR,CO DOWN,COFFEE CURE AT THE MUSEUM,Restaurant/Cafe/Canteen,1,5,,12955,0,,54.65638900000000,04/0255/0002/001X,824,env.services@northdown.gov.uk,North Down,http://www.northdown.gov.uk,-5.66939100000000,BT20 4BT,2013-06-19,fhrs_5_en-GB,5,,FHRS,5
413033,102/104 HIGH STREET,HOLYWOOD,CO DOWN,,COFFEE YARD,Restaurant/Cafe/Canteen,1,0,,73833,0,,54.63954900000000,17/0582/0102/0005,824,env.services@northdown.gov.uk,North Down,http://www.northdown.gov.uk,-5.83731900000000,BT18 9HW,2014-08-11,fhrs_5_en-GB,5,,FHRS,5
413034,"1, CHURCH STREET",BANGOR,CO DOWN,,COLIN'S HOT FOODS,Takeaway/sandwich shop,7844,5,,84411,0,,54.65519700000000,21/0315/0001/0006,824,env.services@northdown.gov.uk,North Down,http://www.northdown.gov.uk,-5.67748700000000,BT20 3HX,2012-09-20,fhrs_5_en-GB,5,,FHRS,0
413035,,,,,COLIN'S WHIPPY ICE CREAM VAN,Retailers - other,4613,5,,576958,0,,,08/0672/0026/0002,824,env.services@northdown.gov.uk,North Down,http://www.northdown.gov.uk,,,2013-06-18,fhrs_5_en-GB,5,,FHRS,0
413036,4 MAIN STREET,CONLIG,NEWTOWNARDS,CO DOWN,CONLIG PRESBYTERIAN CHURCH,Retailers - other,4613,10,,36714,5,,54.62790000000000,10/0967/0004/0010,824,env.services@northdown.gov.uk,North Down,http://www.northdown.gov.uk,-5.67800500000000,BT23 7PT,2010-03-16,fhrs_3_en-GB,3,,FHRS,10
413037,CONLIG PRESBYTERIAN CHURCH,"4 MAIN STREET, CONLIG",NEWTOWNARDS,CO DOWN,"CONLIG WORKSKILLS, PRAXIS CARE",Retailers - other,4613,10,,36713,5,,54.62790000000000,10/0967/0004/0002,824,env.services@northdown.gov.uk,North Down,http://www.northdown.gov.uk,-5.67800500000000,BT23 7PT,2012-10-04,fhrs_4_en-GB,4,,FHRS,5
413038,CONLIG PRESBY CHURCH HALL,"4, MAIN STREET, CONLIG",NEWTOWNARDS,CO DOWN,COOKIE COMPANY/PRAXIS CARE,Manufacturers/packers,7839,0,,36716,0,,54.62790000000000,10/0967/0038/0008,824,env.services@northdown.gov.uk,North Down,http://www.northdown.gov.uk,-5.67800500000000,BT23 7PT,2014-05-22,fhrs_4_en-GB,4,,FHRS,10
413039,82/84 GROOMSPORT ROAD,BANGOR,CO DOWN,,CO-OP BALLYHOLME,Retailers - supermarkets/hypermarkets,7840,5,,2683,0,,54.66338000000000,01/0461/0082/0008,824,env.services@northdown.gov.uk,North Down,http://www.northdown.gov.uk,-5.64383300000000,BT20 5NF,2014-03-18,fhrs_5_en-GB,5,,FHRS,5
413040,35 MAIN STREET,BANGOR,CO DOWN,,CO-OPERATIVE FOOD,Retailers - supermarkets/hypermarkets,7840,10,,631904,5,,54.66157000000000,04/1006/0035/0001,824,env.services@northdown.gov.uk,North Down,http://www.northdown.gov.uk,-5.66776100000000,BT20 5AF,2014-01-13,fhrs_4_en-GB,4,,FHRS,5
413041,U19 BLOOMFIELD SHOPPING CENTRE,SOUTH CIRCULAR ROAD,BANGOR,CO DOWN,COSTA COFFEE,Restaurant/Cafe/Canteen,1,5,,315999,0,,54.64748700000000,05/0323/0019/0004,824,env.services@northdown.gov.uk,North Down,http://www.northdown.gov.uk,-5.65649700000000,BT19 7HB,2014-03-12,fhrs_5_en-GB,5,,FHRS,0
413042,39 MAIN STREET,GROOMSPORT,CO DOWN,,COTTAGE KITCHEN,Restaurant/Cafe/Canteen,1,5,,67194,5,,54.67573100000000,15/1189/0039/0003,824,env.services@northdown.gov.uk,North Down,http://www.northdown.gov.uk,-5.61883600000000,BT19 6JR,2013-07-22,fhrs_5_en-GB,5,,FHRS,5
413043,"5, CRANLEY AVENUE",BANGOR,CO DOWN,,CRANLEY LODGE RESIDENTIAL HOME,Hospitals/Childcare/Caring Premises,5,10,,8123,10,,54.64751300000000,03/1062/0005/0008,824,env.services@northdown.gov.uk,North Down,http://www.northdown.gov.uk,-5.64298500000000,BT19 7BY,2013-12-10,fhrs_3_en-GB,3,,FHRS,10
413044,"142, BANGOR ROAD,",CRAIGAVAD,HOLYWOOD,CO DOWN,CULLODEN ESTATE AND SPA,Hotel/bed & breakfast/guest house,7842,10,,49329,0,,54.65208900000000,11/0167/0142/0003,824,env.services@northdown.gov.uk,North Down,http://www.northdown.gov.uk,-5.80225200000000,BT18 0EX,2014-08-14,fhrs_4_en-GB,4,,FHRS,10
413045,100 ABBEY STREET,BANGOR,CO DOWN,,CURIOUS CAT CAFE,Restaurant/Cafe/Canteen,1,5,,10368,0,,54.65704100000000,04/0018/0100/0004,824,env.services@northdown.gov.uk,North Down,http://www.northdown.gov.uk,-5.67386300000000,BT20 4JB,2013-06-13,fhrs_5_en-GB,5,,FHRS,5
413046,UNIT 1A,13A ASHBURY AVENUE,BANGOR,CO DOWN,CURRY BAZAAR,Takeaway/sandwich shop,7844,20,,415297,10,,54.64851400000000,03/0160/0013/001X,824,env.services@northdown.gov.uk,North Down,http://www.northdown.gov.uk,-5.63674400000000,BT19 6TH,2014-08-21,fhrs_1_en-GB,1,,FHRS,15
413047,173A CLANDEBOYE ROAD,BANGOR,CO DOWN,,DAINTYS FISH AND CHIP,Takeaway/sandwich shop,7844,5,,699961,5,,54.64555200000000,09/0481/0173/0002,824,env.services@northdown.gov.uk,North Down,http://www.northdown.gov.uk,-5.69043200000000,BT19 1AA,2014-08-22,fhrs_5_en-GB,5,,FHRS,5
413048,81 HIGH STREET,HOLYWOOD,CO DOWN,,DARRYL FLYNN T/A EIGHTY-ONE,Restaurant/Cafe/Canteen,1,10,,73830,0,,54.64132900000000,17/0582/0081/0002,824,env.services@northdown.gov.uk,North Down,http://www.northdown.gov.uk,-5.83538100000000,BT18 9AQ,2014-08-21,fhrs_4_en-GB,4,,FHRS,0
413049,"112, ABBEY STREET",BANGOR,CO DOWN,,DAVID BURNS BUTCHERS,Retailers - other,4613,5,,9986,5,,54.65704100000000,04/0010/0112/000X,824,env.services@northdown.gov.uk,North Down,http://www.northdown.gov.uk,-5.67386300000000,BT20 4JB,2013-02-26,fhrs_5_en-GB,5,,FHRS,0
413050,"78, MAIN STREET",BANGOR,CO DOWN,,DAVID MAWHINNEY (BUTCHERS),Retailers - other,4613,5,,70627,5,,54.66113000000000,16/0857/0078/0006,824,env.services@northdown.gov.uk,North Down,http://www.northdown.gov.uk,-5.66828200000000,BT20 5AE,2011-07-27,fhrs_5_en-GB,5,,FHRS,5
413051,,,,,DAWN'S CUSTOM CAKES,Other catering premises,7841,5,,316010,0,,,19/0648/0008/0004,824,env.services@northdown.gov.uk,North Down,http://www.northdown.gov.uk,,,2012-02-22,fhrs_5_en-GB,5,,FHRS,0
413052,"135, CLANDEBOYE ROAD",BANGOR,CO DOWN,,DENMAN INTERNATIONAL,Restaurant/Cafe/Canteen,1,10,,84423,0,,54.64994700000000,21/034X/0135/0005,824,env.services@northdown.gov.uk,North Down,http://www.northdown.gov.uk,-5.68393800000000,BT20 3JH,2012-10-16,fhrs_4_en-GB,4,,FHRS,0
413053,"UNIT 2, 14 RATHMORE ROAD",BANGOR,CO DOWN,,DINING ORIENTAL,Takeaway/sandwich shop,7844,5,,631905,0,,54.65848200000000,14/0888/0014/0023,824,env.services@northdown.gov.uk,North Down,http://www.northdown.gov.uk,-5.70369300000000,BT19 1DL,2014-01-07,fhrs_5_en-GB,5,,FHRS,5
413054,53B HIGH STREET,BANGOR,CO DOWN,,DOLCE VITA,Takeaway/sandwich shop,7844,0,,433176,0,,54.66360900000000,16/0676/0053/0026,824,env.services@northdown.gov.uk,North Down,http://www.northdown.gov.uk,-5.66496300000000,BT20 5BE,2014-07-23,fhrs_5_en-GB,5,,FHRS,0
413055,96 ABBEY STREET,BANGOR,CO DOWN,,DOMINO'S PIZZA,Takeaway/sandwich shop,7844,5,,10366,0,,54.65704100000000,04/0018/0096/0004,824,env.services@northdown.gov.uk,North Down,http://www.northdown.gov.uk,-5.67386300000000,BT20 4JB,2013-08-05,fhrs_5_en-GB,5,,FHRS,5
413056,84 ABBEY STREET,BANGOR,CO DOWN,,DRAGON'S KITCHEN CHINESE TAKEAWAY,Takeaway/sandwich shop,7844,20,,10365,5,,54.65704100000000,04/0018/0084/0009,824,env.services@northdown.gov.uk,North Down,http://www.northdown.gov.uk,-5.67386300000000,BT20 4JB,2014-10-02,fhrs_1_en-GB,1,,FHRS,15
413057,UNIT 5 BLOOMFIELD RETAIL PARK,BANGOR,CO DOWN,,DW SPORTS FITNESS,Restaurant/Cafe/Canteen,1,5,,15814,5,,54.64631100000000,05/0285/0113/0056,824,env.services@northdown.gov.uk,North Down,http://www.northdown.gov.uk,-5.65885800000000,BT19 7HR,2014-05-14,fhrs_5_en-GB,5,,FHRS,0
413058,"22, CHURCH ROAD",HOLYWOOD,,,E. HERRON & SON,Retailers - other,4613,5,,76464,0,,54.64135400000000,18/0408/0022/0000,824,env.services@northdown.gov.uk,North Down,http://www.northdown.gov.uk,-5.83325800000000,BT18 9BU,2012-11-16,fhrs_5_en-GB,5,,FHRS,0
413059,77 ASHBURY AVENUE,BANGOR,CO DOWN,,"EARLY DAYS PLAYGROUP, BALLYMAGEE PS",Retailers - other,4613,,,7901,,,54.64445300000000,03/0160/0077/0000,824,env.services@northdown.gov.uk,North Down,http://www.northdown.gov.uk,-5.63719700000000,BT19 6ZG,2012-11-15,fhrs_exempt_en-GB,Exempt,,FHRS,
413060,CHURCH STREET,BANGOR,CO DOWN,,EBENEZER GOSPEL HALL (NEW),Retailers - other,4613,,,447066,,,54.65519700000000,21/0312/0066/0000,824,env.services@northdown.gov.uk,North Down,http://www.northdown.gov.uk,-5.67748700000000,BT20 3HX,2012-06-18,fhrs_exempt_en-GB,Exempt,,FHRS,
413061,41 BALLOO ROAD,BANGOR,CO DOWN,,EDDIE IRVINE SPORTS,Restaurant/Cafe/Canteen,1,5,,15713,5,,54.64050600000000,05/0048/0041/0004,824,env.services@northdown.gov.uk,North Down,http://www.northdown.gov.uk,-5.66067900000000,BT19 7PG,2009-07-27,fhrs_5_en-GB,5,,FHRS,5
413062,7/9 PRINCETOWN ROAD,BANGOR,CO DOWN,,ENNISLARE HOUSE BED & BREAKFAST,Hotel/bed & breakfast/guest house,7842,5,,81921,0,,54.66201600000000,20/0732/0007/0009,824,env.services@northdown.gov.uk,North Down,http://www.northdown.gov.uk,-5.67553200000000,BT20 3TA,2011-03-11,fhrs_5_en-GB,5,,FHRS,0
413063,4 ABBEY STREET,BANGOR,CO DOWN,,ERNIES,Takeaway/sandwich shop,7844,20,,10358,15,,54.65786900000000,04/0018/0004/0401,824,env.services@northdown.gov.uk,North Down,http://www.northdown.gov.uk,-5.67201800000000,BT20 4JA,2013-06-11,fhrs_1_en-GB,1,,FHRS,15
413064,51 TOWER ROAD,CONLIG,NEWTOWNARDS,CO DOWN,"ESSENCE CATERING , CLANDEBOYE GOLF CLUB",Restaurant/Cafe/Canteen,1,10,,36753,0,,54.54163600000000,10/136X/0051/0017,824,env.services@northdown.gov.uk,North Down,http://www.northdown.gov.uk,-5.71645600000000,BT23 3PN,2013-11-06,fhrs_4_en-GB,4,,FHRS,10
413065,98 RATHGAEL RD,BANGOR,CO DOWN,,EURO SPAR/BP FILLING STATION,Retailers - supermarkets/hypermarkets,7840,0,,31824,0,,54.64217600000000,09/1429/0102/0005,824,env.services@northdown.gov.uk,North Down,http://www.northdown.gov.uk,-5.69248200000000,BT19 1RS,2010-11-08,fhrs_5_en-GB,5,,FHRS,5
413066,15 ASHBURY AVENUE,BANGOR,CO DOWN,,EUROSPAR,Retailers - supermarkets/hypermarkets,7840,5,,7897,0,,54.64851400000000,03/0160/0015/0002,824,env.services@northdown.gov.uk,North Down,http://www.northdown.gov.uk,-5.63674400000000,BT19 6TH,2009-07-31,fhrs_4_en-GB,4,,FHRS,10
413067,K2 BLOOMFIELD SHOPPING CENTRE,SOUTH CIRCULAR ROAD,BANGOR,,EVA'S,Retailers - other,4613,0,,15835,0,,54.64723500000000,05/0323/0002/0028,824,env.services@northdown.gov.uk,North Down,http://www.northdown.gov.uk,-5.66236700000000,,2012-05-16,fhrs_5_en-GB,5,,FHRS,0
413068,SPAR ABBEYHILL,71/79 NEWTOWNARDS ROAD,BANGOR,CO DOWN,FAIRFIELDS QUALITY FAMILY BUTCHERS,Retailers - other,4613,5,,505779,0,,54.65624600000000,04/112X/0071/0016,824,env.services@northdown.gov.uk,North Down,http://www.northdown.gov.uk,-5.67411000000000,BT20 4BW,2013-01-21,fhrs_5_en-GB,5,,FHRS,0
413069,61A HIGH STREET,HOLYWOOD,CO DOWN,,FONTANA,Restaurant/Cafe/Canteen,1,10,,76489,10,,54.64106500000000,18/0653/0061/0011,824,env.services@northdown.gov.uk,North Down,http://www.northdown.gov.uk,-5.83519400000000,BT18 9AE,2013-10-08,fhrs_2_en-GB,2,,FHRS,15
413070,U10 BLOOMFIELD RETAIL PARK,SOUTH CIRCULAR ROAD,BANGOR,CO DOWN,FRANKIE & BENNY'S,Restaurant/Cafe/Canteen,1,0,,16275,0,,54.64631100000000,05/3268/0010/0005,824,env.services@northdown.gov.uk,North Down,http://www.northdown.gov.uk,-5.65885800000000,BT19 7HR,2014-04-14,fhrs_5_en-GB,5,,FHRS,5
413071,42 ABBEY STREET,BANGOR,CO DOWN,,FREDDIE'S,Restaurant/Cafe/Canteen,1,0,,691131,5,,54.65781600000000,04/0018/0042/000X,824,env.services@northdown.gov.uk,North Down,http://www.northdown.gov.uk,-5.67206800000000,BT20 4JA,2014-07-01,fhrs_5_en-GB,5,,FHRS,5
413072,62A HIGH STREET,HOLYWOOD,CO DOWN,,FRISKY BEAR,Pub/bar/nightclub,7843,5,,73827,0,,54.64106500000000,17/0582/0062/0017,824,env.services@northdown.gov.uk,North Down,http://www.northdown.gov.uk,-5.83519400000000,BT18 9AE,2012-11-29,fhrs_5_en-GB,5,,FHRS,5
413073,9 HARBOUR ROAD,GROOMSPORT,CO DOWN,,GABBY'S,Takeaway/sandwich shop,7844,10,,67152,5,,54.67615400000000,15/0794/0009/000X,824,env.services@northdown.gov.uk,North Down,http://www.northdown.gov.uk,-5.61701200000000,BT19 6JP,2014-08-22,fhrs_3_en-GB,3,,FHRS,10
413074,9 BINGHAM ST,BANGOR,CO DOWN,,GANGES BANGOR,Restaurant/Cafe/Canteen,1,10,,619265,5,,54.66154900000000,16/0161/0009/000X,824,env.services@northdown.gov.uk,North Down,http://www.northdown.gov.uk,-5.66574700000000,BT20 5DW,2013-10-03,fhrs_4_en-GB,4,,FHRS,5
413075,80 GROOMSPORT ROAD,BANGOR,CO DOWN,,GARFUNKEL'S BALLYHOLME,Restaurant/Cafe/Canteen,1,5,,2682,10,,54.66338000000000,01/0461/0080/0007,824,env.services@northdown.gov.uk,North Down,http://www.northdown.gov.uk,-5.64383300000000,BT20 5NF,2013-10-14,fhrs_4_en-GB,4,,FHRS,5
413076,70 GRANSHA ROAD,BANGOR,CO DOWN,,GAZE,Takeaway/sandwich shop,7844,10,,13159,10,,54.64374800000000,04/0735/0070/0002,824,env.services@northdown.gov.uk,North Down,http://www.northdown.gov.uk,-5.64622400000000,BT19 7PU,2013-10-22,fhrs_4_en-GB,4,,FHRS,0
413077,BANGOR MARKET,MARKET STREET,BANGOR,CO DOWN,GEORGE S CULLY AND SON,Retailers - other,4613,5,,13213,0,,54.65968600000000,04/1030/0100/0020,824,env.services@northdown.gov.uk,North Down,http://www.northdown.gov.uk,-5.66842700000000,BT20 4SP,2014-04-16,fhrs_5_en-GB,5,,FHRS,5
413078,"91, HIGH STREET",HOLYWOOD,CO DOWN,,GEORGIA'S,Takeaway/sandwich shop,7844,10,,73832,0,,54.64132900000000,17/0582/0091/0007,824,env.services@northdown.gov.uk,North Down,http://www.northdown.gov.uk,-5.83538100000000,BT18 9AQ,2013-09-17,fhrs_4_en-GB,4,,FHRS,5
413079,LORNE HOUSE,30 STATION ROAD,CRAIGAVAD,HOLYWOOD,GIRL GUIDING ULSTER,Restaurant/Cafe/Canteen,1,,,49517,,,54.65798600000000,11/1600/0030/0004,824,env.services@northdown.gov.uk,North Down,http://www.northdown.gov.uk,-5.79545600000000,BT18 0BP,2012-08-30,fhrs_5_en-GB,5,,FHRS,
413080,4 SEAHILL ROAD,CRAIGAVAD,HOLYWOOD,CO DOWN,GLENCRAIG CAMPHILL COMMUNITY,Hospitals/Childcare/Caring Premises,5,10,,49513,0,,54.66322600000000,11/1511/0001/0006,824,env.services@northdown.gov.uk,North Down,http://www.northdown.gov.uk,-5.77638600000000,BT18 0DB,2014-09-11,fhrs_4_en-GB,4,,FHRS,10
413081,GLENCRAIG PRIMARY SCHOOL,32 SEAHILL ROAD,CRAIGAVAD,"HOLYWOOD, CO DOWN",GLENCRAIG INTEGRATED CHILDREN'S CENTRE,Retailers - other,4613,,,49515,,,54.66220700000000,11/1519/0032/0005,824,env.services@northdown.gov.uk,North Down,http://www.northdown.gov.uk,-5.76641300000000,BT18 0DJ,2011-12-13,fhrs_exempt_en-GB,Exempt,,FHRS,
413082,"30, SEAHILL ROAD",CRAIGAVAD,HOLYWOOD,,GLENCRAIG PRIMARY SCHOOL KITCHEN,School/college/university,7845,10,,49514,0,,54.66220700000000,11/1511/0030/0101,824,env.services@northdown.gov.uk,North Down,http://www.northdown.gov.uk,-5.76641300000000,BT18 0DJ,2009-03-31,fhrs_4_en-GB,4,,FHRS,5
413083,"2, VALENTINE ROAD",BANGOR,CO DOWN,,GLENLOLA COLLEGIATE SCHOOL KITCHEN,School/college/university,7845,0,,13281,0,,54.65387600000000,04/1456/0002/0001,824,env.services@northdown.gov.uk,North Down,http://www.northdown.gov.uk,-5.66206500000000,BT20 4TH,2014-06-18,fhrs_5_en-GB,5,,FHRS,0
413084,118A HIGH STREET,HOLYWOOD,CO DOWN,,GO! BAY TREE,Takeaway/sandwich shop,7844,5,,73837,5,,54.63954900000000,17/0582/0118/0029,824,env.services@northdown.gov.uk,North Down,http://www.northdown.gov.uk,-5.83731900000000,BT18 9HW,2014-01-23,fhrs_4_en-GB,4,,FHRS,10
413085,85 CHURCH STREET,BANGOR,CO DOWN,,GOOD FOOD HOUSE,Takeaway/sandwich shop,7844,10,,84409,5,,54.65519700000000,21/0312/0085/0004,824,env.services@northdown.gov.uk,North Down,http://www.northdown.gov.uk,-5.67748700000000,BT20 3HX,2012-03-15,fhrs_4_en-GB,4,,FHRS,5
413086,"27, GRANGE PARK",BANGOR,CO DOWN,,GRANGE PARK PRIMARY SCHOOL KITCHEN,School/college/university,7845,0,,23642,5,,54.65868100000000,07/0556/0027/0008,824,env.services@northdown.gov.uk,North Down,http://www.northdown.gov.uk,-5.68722300000000,BT20 3QG,2014-10-14,fhrs_5_en-GB,5,,FHRS,5
413087,,,,,GRANNY ANNIES SWEETSHOP,Retailers - other,4613,,,447065,,,,18/0944/0025/0015,824,env.services@northdown.gov.uk,North Down,http://www.northdown.gov.uk,,,2012-08-13,fhrs_exempt_en-GB,Exempt,,FHRS,
413088,69 HAMILTON ROAD,BANGOR,CO DOWN,,HAMILTON ROAD PRESBYTERIAN CHURCH,Retailers - other,4613,0,,70535,0,,54.66204600000000,16/0644/0080/0007,824,env.services@northdown.gov.uk,North Down,http://www.northdown.gov.uk,-5.66032500000000,BT20 4LN,2010-08-10,fhrs_4_en-GB,4,,FHRS,10
413089,14 MARKET STREET,BANGOR,CO DOWN,,HANA D'S,Restaurant/Cafe/Canteen,1,5,,576956,5,,54.65968600000000,04/1030/0014/0007,824,env.services@northdown.gov.uk,North Down,http://www.northdown.gov.uk,-5.66842700000000,BT20 4SP,2013-07-30,fhrs_5_en-GB,5,,FHRS,5
413090,"71, MAIN STREET",CONLIG,NEWTOWNARDS,CO DOWN,HAPPY DAYS DAY NURSERY,School/college/university,7845,5,,36717,0,,54.62790000000000,10/0967/0071/0008,824,env.services@northdown.gov.uk,North Down,http://www.northdown.gov.uk,-5.67800500000000,BT23 7PT,2014-03-11,fhrs_4_en-GB,4,,FHRS,10
413091,1A CLANDEBOYE WAY,BANGOR,CO DOWN,,HAPPY EVER AFTER,Retailers - other,4613,5,,713037,5,,54.64730400000000,09/049X/0001/0014,824,env.services@northdown.gov.uk,North Down,http://www.northdown.gov.uk,-5.69045600000000,BT19 1AD,2014-09-19,fhrs_5_en-GB,5,,FHRS,5
413092,"78, SEACLIFF ROAD",BANGOR,CO DOWN,,HARGREAVES HOUSE,Hotel/bed & breakfast/guest house,7842,0,,2768,0,,54.66672300000000,01/0731/0078/0006,824,env.services@northdown.gov.uk,North Down,http://www.northdown.gov.uk,-5.66287700000000,BT20 5EZ,2010-10-27,fhrs_5_en-GB,5,,FHRS,0
413093,"94, MAIN STREET",BANGOR,,,HEATHERLEA BAKERY,Restaurant/Cafe/Canteen,1,0,,70629,5,,54.66020100000000,16/0857/0094/0003,824,env.services@northdown.gov.uk,North Down,http://www.northdown.gov.uk,-5.66901700000000,BT20 4AG,2014-08-26,fhrs_5_en-GB,5,,FHRS,5
413094,GOLF ROAD,HELEN'S BAY,BANGOR,CO DOWN,HELEN'S BAY GOLF CLUB,Pub/bar/nightclub,7843,20,,53152,0,,54.66742500000000,12/0855/0016/0105,824,env.services@northdown.gov.uk,North Down,http://www.northdown.gov.uk,-5.73820800000000,BT19 1TL,2009-01-29,fhrs_1_en-GB,1,,FHRS,10
413095,"72, HIGH STREET",HOLYWOOD,CO DOWN,,HIGH STREET PRESBYTERIAN CHURCH,Retailers - other,4613,0,,76490,0,,54.64106500000000,18/0653/0072/0003,824,env.services@northdown.gov.uk,North Down,http://www.northdown.gov.uk,-5.83519400000000,BT18 9AE,2010-02-17,fhrs_5_en-GB,5,,FHRS,0
413096,116 BELFAST ROAD,BANGOR,CO DOWN,,HILLMOUNT BANGOR LTD,Restaurant/Cafe/Canteen,1,5,,660673,5,,54.65511100000000,09/0287/0116/0001,824,env.services@northdown.gov.uk,North Down,http://www.northdown.gov.uk,-5.69038500000000,BT20 3NN,2014-03-14,fhrs_5_en-GB,5,,FHRS,5
413097,"221, OLD HOLYWOOD ROAD",HOLYWOOD,CO DOWN,,HOLYWOOD CARE HOME,Hospitals/Childcare/Caring Premises,5,10,,79108,5,,54.62293500000000,19/0462/0221/0002,824,env.services@northdown.gov.uk,North Down,http://www.northdown.gov.uk,-5.84236600000000,BT18 9QS,2014-10-14,fhrs_4_en-GB,4,,FHRS,5
413098,32 HIGH STREET,HOLYWOOD,CO DOWN,,HOLYWOOD FISH CAFE,Restaurant/Cafe/Canteen,1,0,,73822,5,,54.64220300000000,17/0582/0032/0005,824,env.services@northdown.gov.uk,North Down,http://www.northdown.gov.uk,-5.83353800000000,BT18 9AD,2014-03-31,fhrs_5_en-GB,5,,FHRS,5
413099,GABBY'S AT HOLYWOOD,70 NUNS WALK,DEMESNE ROAD,"HOLYWOOD, CO DOWN",HOLYWOOD GOLF CLUB (CATERER),Restaurant/Cafe/Canteen,1,5,,73793,0,,54.63127800000000,17/0434/0076/0005,824,env.services@northdown.gov.uk,North Down,http://www.northdown.gov.uk,-5.83006100000000,BT18 9LE,2013-04-24,fhrs_5_en-GB,5,,FHRS,5
413100,"71, CHURCH ROAD",HOLYWOOD,CO DOWN,,HOLYWOOD PARISH CHURCH & PARISH CENTRE,Restaurant/Cafe/Canteen,1,5,,73769,0,,54.64026300000000,17/0283/0071/0008,824,env.services@northdown.gov.uk,North Down,http://www.northdown.gov.uk,-5.82955100000000,BT18 9BX,2014-08-27,fhrs_5_en-GB,5,,FHRS,5
413101,141 HIGH STREET,HOLYWOOD,CO DOWN,,HOLYWOOD PIZZA CO,Takeaway/sandwich shop,7844,10,,73839,0,,54.63958600000000,17/0582/0141/0008,824,env.services@northdown.gov.uk,North Down,http://www.northdown.gov.uk,-5.83792100000000,BT18 9LG,2012-06-12,fhrs_4_en-GB,4,,FHRS,10
413102,"38, HILLVIEW PLACE",HOLYWOOD,CO DOWN,,HOLYWOOD PRIMARY SCHOOL DINING CENTRE,School/college/university,7845,10,,73859,0,,54.63936300000000,17/0615/0038/0008,824,env.services@northdown.gov.uk,North Down,http://www.northdown.gov.uk,-5.83196900000000,BT18 9DL,2009-04-23,fhrs_4_en-GB,4,,FHRS,0
413103,34 CROFT ROAD,HOLYWOOD,CO DOWN,,HOLYWOOD RUDOLF STEINER PLAYGROUP,School/college/university,7845,,,76474,,,54.63905300000000,18/0464/0034/0006,824,env.services@northdown.gov.uk,North Down,http://www.northdown.gov.uk,-5.81669600000000,BT18 0PR,2014-11-17,fhrs_exempt_en-GB,Exempt,,FHRS,
413104,34 CROFT ROAD,HOLYWOOD,CO DOWN,,HOLYWOOD RUDOLF STEINER SCHOOL,School/college/university,7845,5,,76475,0,,54.63905300000000,18/0464/0034/0014,824,env.services@northdown.gov.uk,North Down,http://www.northdown.gov.uk,-5.81669600000000,BT18 0PR,2011-03-01,fhrs_5_en-GB,5,,FHRS,0
413105,21A BELFAST ROAD,HOLYWOOD,CO DOWN,,HOLYWOOD RUGBY FOOTBALL & CRICKET CLUB,Pub/bar/nightclub,7843,10,,79041,5,,54.63631000000000,19/0160/0021/0102,824,env.services@northdown.gov.uk,North Down,http://www.northdown.gov.uk,-5.84162700000000,BT18 9EH,2009-07-22,fhrs_4_en-GB,4,,FHRS,5
413106,"1, KINNEGAR ROAD",HOLYWOOD,,,HOLYWOOD YACHT CLUB,Pub/bar/nightclub,7843,10,,73889,5,,54.64052500000000,17/0739/0001/0006,824,env.services@northdown.gov.uk,North Down,http://www.northdown.gov.uk,-5.84318500000000,BT18 9JN,2009-04-03,fhrs_4_en-GB,4,,FHRS,0
413107,,,,,HOME MAKER CAKES,Other catering premises,7841,5,,481955,0,,,17/1279/0024/0001,824,env.services@northdown.gov.uk,North Down,http://www.northdown.gov.uk,,,2012-11-15,fhrs_5_en-GB,5,,FHRS,0
413108,69 HIGH STREET,HOLYWOOD,CO DOWN,,HOMEBIRD COFFEE SHOP,Restaurant/Cafe/Canteen,1,5,,73828,0,,54.64132900000000,17/0582/0069/0007,824,env.services@northdown.gov.uk,North Down,http://www.northdown.gov.uk,-5.83538100000000,BT18 9AQ,2013-11-22,fhrs_5_en-GB,5,,FHRS,0
413109,16 GOLF ROAD,HELEN'S BAY,BANGOR,CO DOWN,"HOWLETTS CATERING, HELEN'S BAY GOLF CLUB",Restaurant/Cafe/Canteen,1,5,,53150,5,,54.66742500000000,12/0852/0016/0008,824,env.services@northdown.gov.uk,North Down,http://www.northdown.gov.uk,-5.73820800000000,BT19 1TL,2014-09-01,fhrs_5_en-GB,5,,FHRS,5
413110,43- 45 FLAGSHIP CENTRE,MAIN STREET,BANGOR,CO DOWN,ICELAND,Retailers - supermarkets/hypermarkets,7840,0,,70765,0,,54.66259600000000,16/1524/0045/0006,824,env.services@northdown.gov.uk,North Down,http://www.northdown.gov.uk,-5.66737700000000,BT20 5AU,2010-10-20,fhrs_5_en-GB,5,,FHRS,5
413111,"4, CENTRAL AVENUE",BANGOR,CO DOWN,,IMPERIAL BAR AND LOUNGES,Restaurant/Cafe/Canteen,1,5,,70482,0,,54.66090200000000,16/0431/0004/0002,824,env.services@northdown.gov.uk,North Down,http://www.northdown.gov.uk,-5.66948900000000,BT20 3AF,2013-08-05,fhrs_5_en-GB,5,,FHRS,5
413112,"188, SEACLIFF ROAD",BANGOR,CO DOWN,,JAMAICA INN,Restaurant/Cafe/Canteen,1,0,,2780,0,,54.66845800000000,01/0739/0188/0004,824,env.services@northdown.gov.uk,North Down,http://www.northdown.gov.uk,-5.66012700000000,BT20 5HA,2013-06-20,fhrs_5_en-GB,5,,FHRS,5
413113,BANGOR MARKET,MARKET STREET,BANGOR,CO DOWN,JAMES MURDOCK,Retailers - other,4613,0,,13215,0,,54.65968600000000,04/1030/0100/0047,824,env.services@northdown.gov.uk,North Down,http://www.northdown.gov.uk,-5.66842700000000,BT20 4SP,2014-04-16,fhrs_5_en-GB,5,,FHRS,0
413114,123 HIGH STREET,BANGOR,CO DOWN,,JAZZBERRY BAKERY & CAFE,Restaurant/Cafe/Canteen,1,5,,70556,5,,54.66351600000000,16/0676/0123/000X,824,env.services@northdown.gov.uk,North Down,http://www.northdown.gov.uk,-5.66292200000000,BT20 5BD,2013-06-28,fhrs_5_en-GB,5,,FHRS,5
413115,62 BALLYMACONNELL ROAD,BANGOR,CO DOWN,,JEAN'S NEWSAGENT,Retailers - other,4613,,,27084,,,54.66188400000000,08/0133/0062/0009,824,env.services@northdown.gov.uk,North Down,http://www.northdown.gov.uk,-5.63116300000000,BT20 5PU,2009-08-14,fhrs_exempt_en-GB,Exempt,,FHRS,
413116,"41, HIGH STREET",BANGOR,CO DOWN,,JENNY WATTS,Restaurant/Cafe/Canteen,1,10,,70562,10,,54.66360900000000,16/0679/0041/0004,824,env.services@northdown.gov.uk,North Down,http://www.northdown.gov.uk,-5.66496300000000,BT20 5BE,2013-07-29,fhrs_3_en-GB,3,,FHRS,5
413117,41 HIGH STREET,BANGOR,CO DOWN,,JENNY WATTS - CATERING,Restaurant/Cafe/Canteen,1,10,,619267,10,,54.66360900000000,16/0676/0041/0012,824,env.services@northdown.gov.uk,North Down,http://www.northdown.gov.uk,-5.66496300000000,BT20 5BE,2013-07-29,fhrs_3_en-GB,3,,FHRS,5
413118,UNIT 71 ENTERPRISE HOUSE,2/4 BALLOO AVENUE,BANGOR,CO DOWN,JENNY'S CAKES,Manufacturers/packers,7839,0,,36639,0,,54.64229900000000,10/0606/0071/0008,824,env.services@northdown.gov.uk,North Down,http://www.northdown.gov.uk,-5.67168400000000,BT19 7QT,2010-04-08,fhrs_5_en-GB,5,,FHRS,0
413119,"110, MAIN STREET",BANGOR,CO DOWN,,JOSEPH'S RESTAURANT (MENARY'S),Restaurant/Cafe/Canteen,1,10,,13204,5,,54.66020100000000,04/1009/0110/0017,824,env.services@northdown.gov.uk,North Down,http://www.northdown.gov.uk,-5.66901700000000,BT20 4AG,2014-08-14,fhrs_3_en-GB,3,,FHRS,10
413120,,,,,JOY'S ARTISAN FOODS,Other catering premises,7841,5,,466672,0,,,15/1502/0020/000X,824,env.services@northdown.gov.uk,North Down,http://www.northdown.gov.uk,,,2012-09-19,fhrs_5_en-GB,5,,FHRS,0
413121,,,,,JUDE-JUDITH'S UNIQUE DESSERT EXPERIENCE,Other catering premises,7841,5,,699963,5,,,10/0029/0012/0006,824,env.services@northdown.gov.uk,North Down,http://www.northdown.gov.uk,,,2014-08-07,fhrs_5_en-GB,5,,FHRS,5
413122,101 HIGH STREET,BANGOR,CO DOWN,,JUMPIN JAVA KITCHEN,Restaurant/Cafe/Canteen,1,5,,70551,5,,54.66351600000000,16/0676/0101/000X,824,env.services@northdown.gov.uk,North Down,http://www.northdown.gov.uk,-5.66292200000000,BT20 5BD,2014-09-11,fhrs_4_en-GB,4,,FHRS,10
413123,,,,,JUST LIKE HEAVEN,Other catering premises,7841,0,,713041,0,,,15/1758/0026/0002,824,env.services@northdown.gov.uk,North Down,http://www.northdown.gov.uk,,,2014-09-05,fhrs_5_en-GB,5,,FHRS,0
413124,U4 GREEN ROAD SHOPPING CTRE,NEWTOWNARDS,CO DOWN,,KALDI COFFEE HOUSE,Restaurant/Cafe/Canteen,1,5,,699958,0,,54.63224200000000,03/1485/0004/0002,824,env.services@northdown.gov.uk,North Down,http://www.northdown.gov.uk,-5.66738000000000,BT23 7PZ,2014-08-07,fhrs_5_en-GB,5,,FHRS,5
413125,"2, GROOMSPORT ROAD",BANGOR,CO DOWN,,KENSINGTON RESIDENTIAL HOME,Hospitals/Childcare/Caring Premises,5,5,,27152,5,,54.66156300000000,08/0640/0002/0001,824,env.services@northdown.gov.uk,North Down,http://www.northdown.gov.uk,-5.64880500000000,BT20 5LN,2014-10-31,fhrs_5_en-GB,5,,FHRS,5
413126,"2, BALLOO LINK",BANGOR,CO DOWN,,KENTUCKY FRIED CHICKEN (KFC),Takeaway/sandwich shop,7844,10,,36554,0,,54.64477500000000,10/0137/0002/0001,824,env.services@northdown.gov.uk,North Down,http://www.northdown.gov.uk,-5.67007100000000,BT19 7HJ,2014-09-08,fhrs_4_en-GB,4,,FHRS,10
413127,2 FAULKNER ROAD,BANGOR,CO DOWN,,KIDZ CLUB - REST/CAFE,Restaurant/Cafe/Canteen,1,5,,433178,5,,54.64954700000000,21/0347/0118/0002,824,env.services@northdown.gov.uk,North Down,http://www.northdown.gov.uk,-5.68650200000000,BT20 3JS,2012-07-04,fhrs_4_en-GB,4,,FHRS,10
413128,2A GANAWAY AVENUE,BANGOR,CO DOWN,,KILCOOLEY PRIMARY SCHOOL CANTEEN,School/college/university,7845,5,,31648,0,,54.64734200000000,09/0794/0002/0109,824,env.services@northdown.gov.uk,North Down,http://www.northdown.gov.uk,-5.69858900000000,BT19 1QS,2013-09-30,fhrs_5_en-GB,5,,FHRS,5
413129,"6, LYNDALE DRIVE",BANGOR,CO DOWN,,KILMAINE PRIMARY SCHOOL KITCHEN,School/college/university,7845,0,,8298,0,,54.64333700000000,03/1844/0006/0003,824,env.services@northdown.gov.uk,North Down,http://www.northdown.gov.uk,-5.66298400000000,BT19 2EF,2012-10-16,fhrs_5_en-GB,5,,FHRS,0
413130,93 HIGH STREET,BANGOR,CO DOWN,,KING FU CHINESE TAKEAWAY,Takeaway/sandwich shop,7844,10,,576961,5,,54.66351600000000,16/0676/0093/0008,824,env.services@northdown.gov.uk,North Down,http://www.northdown.gov.uk,-5.66292200000000,BT20 5BD,2013-08-07,fhrs_4_en-GB,4,,FHRS,5
413131,69 BELFAST ROAD,HOLYWOOD,CO DOWN,,KINNEGAR SPAR/SERVICE STN,Retailers - other,4613,10,,73741,0,,54.63435400000000,17/0132/0069/0007,824,env.services@northdown.gov.uk,North Down,http://www.northdown.gov.uk,-5.84482800000000,BT18 9ES,2010-10-19,fhrs_4_en-GB,4,,FHRS,5
413132,7 CHURCH ROAD,HOLYWOOD,CO DOWN,,KNOTTS BAKERY LIMITED,Retailers - other,4613,5,,73757,5,,54.64135400000000,17/0280/0007/0009,824,env.services@northdown.gov.uk,North Down,http://www.northdown.gov.uk,-5.83325800000000,BT18 9BU,2013-08-20,fhrs_5_en-GB,5,,FHRS,5
413133,10/12 SHORE ROAD,HOLYWOOD,CO DOWN,,KOI ASIAN CUISINE,Restaurant/Cafe/Canteen,1,10,,73997,5,,54.64246000000000,17/1112/0010/0005,824,env.services@northdown.gov.uk,North Down,http://www.northdown.gov.uk,-5.83533700000000,BT18 9HX,2014-02-11,fhrs_3_en-GB,3,,FHRS,10
413134,96 NEWTOWNARDS ROAD,BANGOR,CO DOWN,,LAKEWOOD SECURE CARE,Restaurant/Cafe/Canteen,1,5,,13248,0,,54.64328200000000,04/112X/0096/0004,824,env.services@northdown.gov.uk,North Down,http://www.northdown.gov.uk,-5.67838300000000,BT19 1GZ,2014-02-27,fhrs_5_en-GB,5,,FHRS,5
413135,"47, HIGH STREET",HOLYWOOD,CO DOWN,,LAPAMANZI CAFE,Restaurant/Cafe/Canteen,1,5,,73825,5,,54.64260200000000,17/0582/0047/0007,824,env.services@northdown.gov.uk,North Down,http://www.northdown.gov.uk,-5.83370200000000,BT18 9AB,2014-04-08,fhrs_5_en-GB,5,,FHRS,0
413136,9 GRAY'S HILL,BANGOR,CO DOWN,,LI LI'S CHINESE RESTAURANT,Restaurant/Cafe/Canteen,1,10,,70524,10,,54.66172100000000,16/0617/0009/000X,824,env.services@northdown.gov.uk,North Down,http://www.northdown.gov.uk,-5.67280500000000,BT20 3BB,2013-07-09,fhrs_3_en-GB,3,,FHRS,10
413137,"97, BLOOMFIELD ROAD",BANGOR,CO DOWN,,LIDL,Retailers - supermarkets/hypermarkets,7840,0,,12230,0,,54.64943400000000,04/0131/0097/000X,824,env.services@northdown.gov.uk,North Down,http://www.northdown.gov.uk,-5.66095600000000,BT20 4XA,2011-09-30,fhrs_5_en-GB,5,,FHRS,0
413138,7 BALLYGOWAN GARDENS,BANGOR,CO DOWN,,LINDA'S HOT FOOD BAR,Mobile caterer,7846,5,,713035,0,,54.64513200000000,09/0112/0007/0009,824,env.services@northdown.gov.uk,North Down,http://www.northdown.gov.uk,-5.69293500000000,BT19 1QG,2014-07-22,fhrs_5_en-GB,5,,FHRS,0
413139,"UNIT 2, 13B ASHBURY AVENUE",BANGOR,CO DOWN,,LITTLE BEARS DAY NURSERY,Retailers - other,4613,0,,7896,0,,54.64851400000000,03/0160/0013/0001,824,env.services@northdown.gov.uk,North Down,http://www.northdown.gov.uk,-5.63674400000000,BT19 6TH,2014-08-18,fhrs_5_en-GB,5,,FHRS,0
413140,10 VICTORIA ROAD,BANGOR,CO DOWN,,LITTLE KINGDOM KIDS,Retailers - other,4613,5,,691137,5,,54.66513100000000,16/1605/0010/0005,824,env.services@northdown.gov.uk,North Down,http://www.northdown.gov.uk,-5.66606900000000,BT20 5EX,2014-07-17,fhrs_5_en-GB,5,,FHRS,5
413141,"74, GRANSHA RD",BANGOR,CO DOWN,,LITTLE STARS DAY NURSERY,Retailers - other,4613,5,,8261,0,,54.64374800000000,03/1450/0074/0004,824,env.services@northdown.gov.uk,North Down,http://www.northdown.gov.uk,-5.64622400000000,BT19 7PU,2011-10-06,fhrs_5_en-GB,5,,FHRS,0
413142,74 HIGH STREET,HOLYWOOD,CO DOWN,,LITTLE WING PIZZERIA,Restaurant/Cafe/Canteen,1,5,,727143,0,,54.64106500000000,17/0582/0074/0004,824,env.services@northdown.gov.uk,North Down,http://www.northdown.gov.uk,-5.83519400000000,BT18 9AE,2014-12-01,fhrs_5_en-GB,5,,FHRS,0
413143,18 SHORE ROAD,HOLYWOOD,CO DOWN,,LOGANBERRY,Restaurant/Cafe/Canteen,1,5,,73998,5,,54.64246000000000,17/1112/0018/0009,824,env.services@northdown.gov.uk,North Down,http://www.northdown.gov.uk,-5.83533700000000,BT18 9HX,2014-01-31,fhrs_5_en-GB,5,,FHRS,0
413144,159 HIGH STREET,HOLYWOOD,CO DOWN,,LOUGHVIEW FOLD,Hospitals/Childcare/Caring Premises,5,5,,505783,0,,54.63913800000000,17/0582/0159/0014,824,env.services@northdown.gov.uk,North Down,http://www.northdown.gov.uk,-5.83899900000000,BT18 9HU,2013-01-14,fhrs_5_en-GB,5,,FHRS,5
413145,EUROSPAR,15A ASHBURY AVENUE,BANGOR,CO DOWN,M M LARMOUR BUTCHER,Retailers - other,4613,10,,7898,10,,54.64851400000000,03/0160/0015/0010,824,env.services@northdown.gov.uk,North Down,http://www.northdown.gov.uk,-5.63674400000000,BT19 6TH,2014-11-14,fhrs_3_en-GB,3,,FHRS,5
413146,STATION ROAD,CRAIGAVAD,HOLYWOOD,CO DOWN,M&K CUISINE @ ROYAL BELFAST GOLF CLUB,Restaurant/Cafe/Canteen,1,5,,691136,5,,54.65860700000000,11/1608/0000/0000,824,env.services@northdown.gov.uk,North Down,http://www.northdown.gov.uk,-5.79255500000000,BT18 0BJ,2014-07-25,fhrs_5_en-GB,5,,FHRS,5
413147,BANGOR MARKET,MARKET STREET,BANGOR,CO DOWN,M.T. FOODS,Retailers - other,4613,0,,13216,0,,54.65968600000000,04/1030/0100/0055,824,env.services@northdown.gov.uk,North Down,http://www.northdown.gov.uk,-5.66842700000000,BT20 4SP,2014-04-16,fhrs_5_en-GB,5,,FHRS,5
413148,1 KILCOOLEY SQUARE,BANGOR,CO DOWN,,MACE,Retailers - supermarkets/hypermarkets,7840,20,,63296,5,,54.64845300000000,14/0462/0001/0006,824,env.services@northdown.gov.uk,North Down,http://www.northdown.gov.uk,-5.69888200000000,BT19 1SH,2014-09-17,fhrs_1_en-GB,1,,FHRS,15
413149,"UNIT 6, 5 GREEN ROAD",CONLIG,NEWTOWNARDS,CO DOWN,MACE - CONLIG,Retailers - supermarkets/hypermarkets,7840,0,,36665,5,,54.63224200000000,10/0762/0006/0003,824,env.services@northdown.gov.uk,North Down,http://www.northdown.gov.uk,-5.66738000000000,BT23 7PZ,2009-06-23,fhrs_5_en-GB,5,,FHRS,5
413150,98 ABBEY RING,HOLYWOOD,CO DOWN,,MACE EXPRESS LOUGHVIEW,Retailers - supermarkets/hypermarkets,7840,10,,79025,5,,54.63234100000000,19/0044/0098/0005,824,env.services@northdown.gov.uk,North Down,http://www.northdown.gov.uk,-5.83875500000000,BT18 9PF,2009-04-24,fhrs_4_en-GB,4,,FHRS,0
413151,82 HIGH STREET,BANGOR,CO DOWN,,MAGUIRE PHARMACY,Retailers - other,4613,,,466673,,,54.66334800000000,16/0676/0082/0008,824,env.services@northdown.gov.uk,North Down,http://www.northdown.gov.uk,-5.66443500000000,BT20 5AZ,2012-07-24,fhrs_exempt_en-GB,Exempt,,FHRS,
413152,111 BLOOMFIELD RD SOUTH,BANGOR,CO DOWN,,MAKHULU 5,Restaurant/Cafe/Canteen,1,5,,15813,5,,54.64631100000000,05/0285/0111/0012,824,env.services@northdown.gov.uk,North Down,http://www.northdown.gov.uk,-5.65885800000000,BT19 7HR,2014-05-15,fhrs_5_en-GB,5,,FHRS,0
413153,13 ASHBURY AVENUE,BANGOR,CO DOWN,,MAMA MIA,Takeaway/sandwich shop,7844,20,,505777,15,,54.64851400000000,03/0160/0013/0028,824,env.services@northdown.gov.uk,North Down,http://www.northdown.gov.uk,-5.63674400000000,BT19 6TH,2013-01-15,fhrs_1_en-GB,1,,FHRS,15
413154,,,,,MAMAFUDGE,Other catering premises,7841,5,,713040,0,,,15/1448/0010/0005,824,env.services@northdown.gov.uk,North Down,http://www.northdown.gov.uk,,,2014-09-19,fhrs_5_en-GB,5,,FHRS,0
413155,48/52 ABBEY STREET,BANGOR,CO DOWN,,MANDARIN BUFFET,Restaurant/Cafe/Canteen,1,,,10363,,,54.65786900000000,04/0018/0048/0002,824,env.services@northdown.gov.uk,North Down,http://www.northdown.gov.uk,-5.67201800000000,BT20 4JA,2014-05-02,fhrs_4_en-GB,4,,FHRS,
413156,14 ABBEY STREET,BANGOR,CO DOWN,,MAREROSA,Restaurant/Cafe/Canteen,1,10,,10359,0,,54.65786900000000,04/0018/0014/0007,824,env.services@northdown.gov.uk,North Down,http://www.northdown.gov.uk,-5.67201800000000,BT20 4JA,2011-11-29,fhrs_4_en-GB,4,,FHRS,10
413157,96/98 BANGOR ROAD,HOLYWOOD,CO DOWN,,MARINO FILLING STATION,Retailers - supermarkets/hypermarkets,7840,5,,631906,5,,54.64709200000000,18/0286/0096/0004,824,env.services@northdown.gov.uk,North Down,http://www.northdown.gov.uk,-5.81505700000000,BT18 0LR,2014-01-27,fhrs_5_en-GB,5,,FHRS,5
413158,22 HIGH STREET,BANGOR,CO DOWN,,MARIO'S,Takeaway/sandwich shop,7844,10,,70543,10,,54.66346600000000,16/0676/0022/0000,824,env.services@northdown.gov.uk,North Down,http://www.northdown.gov.uk,-5.66684600000000,BT20 5AY,2012-07-25,fhrs_3_en-GB,3,,FHRS,10
413159,29 BLOOMFIELD SHOPPING CTRE,SOUTH CIRCULAR ROAD,BANGOR,CO DOWN,MARKS AND SPENCER PLC,Retailers - supermarkets/hypermarkets,7840,0,,15846,5,,54.64748700000000,05/0326/0003/0007,824,env.services@northdown.gov.uk,North Down,http://www.northdown.gov.uk,-5.65649700000000,BT19 7HB,2014-05-15,fhrs_5_en-GB,5,,FHRS,5
413160,126 CHURCH ROAD,HOLYWOOD,CO DOWN,,MARMION ADOLESCENT UNIT,Hospitals/Childcare/Caring Premises,5,0,,73767,5,,54.63887000000000,17/0280/0126/0014,824,env.services@northdown.gov.uk,North Down,http://www.northdown.gov.uk,-5.82652700000000,BT18 9BY,2014-08-27,fhrs_5_en-GB,5,,FHRS,5
413161,"100, BELFAST ROAD",HOLYWOOD,CO DOWN,,MARYFIELD,Restaurant/Cafe/Canteen,1,0,,79042,0,,54.62386400000000,19/0160/0100/0004,824,env.services@northdown.gov.uk,North Down,http://www.northdown.gov.uk,-5.85112800000000,BT18 9QY,2011-12-19,fhrs_4_en-GB,4,,FHRS,10
413162,64 HIGH STREET,HOLYWOOD,CO DOWN,,MAUDS,Restaurant/Cafe/Canteen,1,10,,619268,0,,54.64106500000000,17/0582/0064/000X,824,env.services@northdown.gov.uk,North Down,http://www.northdown.gov.uk,-5.83519400000000,BT18 9AE,2013-10-08,fhrs_4_en-GB,4,,FHRS,10
413163,57 HIGH STREET,BANGOR,CO DOWN,,MAUDS ICE CREAM,Retailers - other,4613,0,,486157,5,,54.66360900000000,16/0676/0057/0001,824,env.services@northdown.gov.uk,North Down,http://www.northdown.gov.uk,-5.66496300000000,BT20 5BE,2012-11-27,fhrs_5_en-GB,5,,FHRS,0
413164,60 BLOOMFIELD SHOPPING CENTRE,SOUTH CIRCULAR ROAD,BANGOR,CO DOWN,McDONALD'S RESTAURANT,Takeaway/sandwich shop,7844,0,,15848,0,,54.64748700000000,05/0326/0045/0006,824,env.services@northdown.gov.uk,North Down,http://www.northdown.gov.uk,-5.65649700000000,BT19 7HB,2014-11-06,fhrs_5_en-GB,5,,FHRS,5
413165,1 QUAY STREET,BANGOR,CO DOWN,,MCKEE CLOCK ARENA (KIFDO LTD),Mobile caterer,7846,10,,70735,5,,54.66403700000000,16/1249/0001/0006,824,env.services@northdown.gov.uk,North Down,http://www.northdown.gov.uk,-5.66805400000000,BT20 5ED,2013-07-23,fhrs_4_en-GB,4,,FHRS,5
413166,"14, HIGH STREET",BANGOR,CO DOWN,,MCKEOWNS,Retailers - other,4613,5,,70558,10,,54.66346600000000,16/0679/0014/0007,824,env.services@northdown.gov.uk,North Down,http://www.northdown.gov.uk,-5.66684600000000,BT20 5AY,2014-08-26,fhrs_4_en-GB,4,,FHRS,5
413167,36 BREEZEMOUNT CLOSE,CONLIG,NEWTOWNARDS,CO DOWN,MEATS,Mobile caterer,7846,10,,619257,5,,54.63122900000000,10/0347/0036/0007,824,env.services@northdown.gov.uk,North Down,http://www.northdown.gov.uk,-5.66841400000000,BT23 7TU,2013-08-29,fhrs_4_en-GB,4,,FHRS,5
413168,2 PLAS MERDYN,CHURCH ROAD,HOLYWOOD,CO DOWN,MERDYN DAY NURSERY,Retailers - other,4613,5,,76466,0,,54.63642400000000,18/0408/0121/0009,824,env.services@northdown.gov.uk,North Down,http://www.northdown.gov.uk,-5.82541900000000,BT18 9DF,2014-07-10,fhrs_5_en-GB,5,,FHRS,0
413169,228 DONAGHADEE RD,BANGOR,CO DOWN,,MILLBROOK COURT (FOLD:HOUSING WITH CARE),Hospitals/Childcare/Caring Premises,5,10,,2655,0,,54.65779000000000,01/0316/0228/0000,824,env.services@northdown.gov.uk,North Down,http://www.northdown.gov.uk,-5.63502800000000,BT20 4RZ,2014-04-14,fhrs_4_en-GB,4,,FHRS,10
413170,"90, CHURCH STREET",BANGOR,CO DOWN,,MILLIKENS BUTCHERS,Retailers - other,4613,10,,86272,5,,54.65513400000000,22/0132/0090/0001,824,env.services@northdown.gov.uk,North Down,http://www.northdown.gov.uk,-5.67840500000000,BT20 3HY,2013-09-06,fhrs_4_en-GB,4,,FHRS,5
413171,53 OLD BELFAST ROAD,BANGOR,CO DOWN,,MR GREG KERR,Retailers - other,4613,5,,660675,0,,54.63569000000000,12/145X/0053/000X,824,env.services@northdown.gov.uk,North Down,http://www.northdown.gov.uk,-5.67701900000000,BT19 7RU,2014-04-16,fhrs_5_en-GB,5,,FHRS,5
413172,BANGOR MARKET,MARKET STREET,BANGOR,CO DOWN,MR JIM MURDOCK,Retailers - other,4613,0,,13219,0,,54.65968600000000,04/1030/0100/0101,824,env.services@northdown.gov.uk,North Down,http://www.northdown.gov.uk,-5.66842700000000,BT20 4SP,2014-04-16,fhrs_5_en-GB,5,,FHRS,0
413173,BANGOR MARKET,MARKET STREET,BANGOR,CO DOWN,MR JOHN MCCARTHY,Retailers - other,4613,10,,315998,5,,54.65968600000000,04/1030/0100/0098,824,env.services@northdown.gov.uk,North Down,http://www.northdown.gov.uk,-5.66842700000000,BT20 4SP,2014-04-16,fhrs_3_en-GB,3,,FHRS,10
413174,BANGOR MARKET,MARKET STREET,BANGOR,CO DOWN,MR ROBIN DUGAN,Retailers - other,4613,0,,13220,0,,54.65968600000000,04/1030/0100/011X,824,env.services@northdown.gov.uk,North Down,http://www.northdown.gov.uk,-5.66842700000000,BT20 4SP,2014-04-16,fhrs_5_en-GB,5,,FHRS,0
413175,BANGOR MARKET,MARKET STREET,BANGOR,CO DOWN,MR T ARMSTRONG,Retailers - other,4613,0,,415299,0,,54.65968600000000,04/1030/0100/008X,824,env.services@northdown.gov.uk,North Down,http://www.northdown.gov.uk,-5.66842700000000,BT20 4SP,2014-04-16,fhrs_5_en-GB,5,,FHRS,0
413176,,,,,"MRS MYATT'S CAKES, MRS MICHELLE MYATT",Other catering premises,7841,5,,691134,5,,,09/1097/0099/0000,824,env.services@northdown.gov.uk,North Down,http://www.northdown.gov.uk,,,2014-07-03,fhrs_5_en-GB,5,,FHRS,5
413177,,,,,MRS WHIPPY/PARADISE ICES,Retailers - other,4613,5,,12957,0,,,04/0255/0100/0004,824,env.services@northdown.gov.uk,North Down,http://www.northdown.gov.uk,,,2010-07-21,fhrs_5_en-GB,5,,FHRS,0
413178,109 PRINCETOWN ROAD,BANGOR,CO DOWN,,MS KATHRYN HALLIDAY,Hotel/bed & breakfast/guest house,7842,,,481956,,,54.66594600000000,20/0732/0109/0003,824,env.services@northdown.gov.uk,North Down,http://www.northdown.gov.uk,-5.67805100000000,BT20 3TG,2012-10-16,fhrs_exempt_en-GB,Exempt,,FHRS,
413179,,,,,MS KERRY McILWAINE,Other catering premises,7841,5,,691130,0,,,02/103X/0012/0006,824,env.services@northdown.gov.uk,North Down,http://www.northdown.gov.uk,,,2014-07-02,fhrs_5_en-GB,5,,FHRS,0
413180,8 DUFFERIN AVENUE,BANGOR,CO DOWN,,NEW CHINA 121,Takeaway/sandwich shop,7844,10,,316004,5,,54.65962600000000,16/0587/0008/0004,824,env.services@northdown.gov.uk,North Down,http://www.northdown.gov.uk,-5.67089500000000,BT20 3AA,2013-08-08,fhrs_4_en-GB,4,,FHRS,5
413181,143 HIGH STREET,HOLYWOOD,CO DOWN,,NEW INDIA,Takeaway/sandwich shop,7844,10,,73840,10,,54.63958600000000,17/0582/0143/0009,824,env.services@northdown.gov.uk,North Down,http://www.northdown.gov.uk,-5.83792100000000,BT18 9LG,2014-03-06,fhrs_3_en-GB,3,,FHRS,10
413182,"7, HAMILTON ROAD",BANGOR,CO DOWN,,NEW ORLEANS,Restaurant/Cafe/Canteen,1,5,,70532,5,,54.66092800000000,16/0644/0007/0009,824,env.services@northdown.gov.uk,North Down,http://www.northdown.gov.uk,-5.66617000000000,BT20 4JP,2014-06-16,fhrs_5_en-GB,5,,FHRS,5
413183,90 HIGH STREET,BANGOR,CO DOWN,,NEW WING WAH,Takeaway/sandwich shop,7844,0,,187757,5,,54.66328900000000,16/0676/0090/0001,824,env.services@northdown.gov.uk,North Down,http://www.northdown.gov.uk,-5.66327600000000,BT20 5BA,2014-02-26,fhrs_5_en-GB,5,,FHRS,5
413184,126 CHURCH ROAD,HOLYWOOD,CO DOWN,,NEWCROFT LODGE,Hospitals/Childcare/Caring Premises,5,10,,73766,0,,54.63887000000000,17/0280/0126/0006,824,env.services@northdown.gov.uk,North Down,http://www.northdown.gov.uk,-5.82652700000000,BT18 9BY,2014-10-07,fhrs_4_en-GB,4,,FHRS,10
413185,9 RATHGILL TERRACE,BANGOR,,,NISA LOCAL,Retailers - supermarkets/hypermarkets,7840,5,,36741,5,,54.63931100000000,10/119X/0009/000X,824,env.services@northdown.gov.uk,North Down,http://www.northdown.gov.uk,-5.65929200000000,BT19 7WF,2014-08-13,fhrs_5_en-GB,5,,FHRS,5
413186,50 BELFAST ROAD,HOLYWOOD,CO DOWN,,OAKEY DOKEY DAY CARE,Retailers - other,4613,5,,73740,0,,54.63383800000000,17/0132/0050/0003,824,env.services@northdown.gov.uk,North Down,http://www.northdown.gov.uk,-5.84462300000000,BT18 9EL,2014-08-13,fhrs_5_en-GB,5,,FHRS,5
413187,96 NEWTOWNARDS ROAD,BANGOR,CO DOWN,,OAKLANDS INTENSIVE SUPPORT UNIT,Restaurant/Cafe/Canteen,1,0,,13249,0,,54.64328200000000,04/112X/0096/0012,824,env.services@northdown.gov.uk,North Down,http://www.northdown.gov.uk,-5.67838300000000,BT19 1GZ,2014-08-06,fhrs_5_en-GB,5,,FHRS,0
413188,267 OLD BELFAST ROAD,BANGOR,CO DOWN,,OAKMONT CARE HOME,Hospitals/Childcare/Caring Premises,5,10,,505782,10,,54.65281500000000,12/145X/0267/0003,824,env.services@northdown.gov.uk,North Down,http://www.northdown.gov.uk,-5.69911600000000,BT19 1LU,2014-08-12,fhrs_3_en-GB,3,,FHRS,5
413189,1/3 MAIN STREET,BANGOR,CO DOWN,,OASIS,Restaurant/Cafe/Canteen,1,5,,691132,5,,54.66157000000000,04/1006/0001/0006,824,env.services@northdown.gov.uk,North Down,http://www.northdown.gov.uk,-5.66776100000000,BT20 5AF,2014-07-03,fhrs_5_en-GB,5,,FHRS,0
413190,1A VALENTINE ROAD,BANGOR,CO DOWN,,OASIS BINGO HALL,Restaurant/Cafe/Canteen,1,5,,13280,0,,54.65416000000000,04/1456/0001/0014,824,env.services@northdown.gov.uk,North Down,http://www.northdown.gov.uk,-5.66330400000000,BT20 4JH,2012-11-22,fhrs_5_en-GB,5,,FHRS,0
413191,6 BALLYREE DRIVE,BANGOR,CO DOWN,,OCEAN PEARL,Takeaway/sandwich shop,7844,10,,15748,0,,54.64333700000000,05/0102/0006/0003,824,env.services@northdown.gov.uk,North Down,http://www.northdown.gov.uk,-5.66298400000000,BT19 2HW,2012-03-13,fhrs_4_en-GB,4,,FHRS,5
413192,"56, HIGH STREET",HOLYWOOD,CO DOWN,,ORRS BUTCHER,Retailers - other,4613,5,,73843,5,,54.64106500000000,17/0585/0056/0006,824,env.services@northdown.gov.uk,North Down,http://www.northdown.gov.uk,-5.83519400000000,BT18 9AE,2013-02-27,fhrs_5_en-GB,5,,FHRS,0
413193,60 ABBEY STREET,BANGOR,CO DOWN,,PANDA HOUSE,Takeaway/sandwich shop,7844,10,,10364,0,,54.65704100000000,04/0018/0060/0008,824,env.services@northdown.gov.uk,North Down,http://www.northdown.gov.uk,-5.67386300000000,BT20 4JB,2012-03-13,fhrs_4_en-GB,4,,FHRS,10
413194,25 CHURCH ROAD,HOLYWOOD,CO DOWN,,PANINI,Restaurant/Cafe/Canteen,1,5,,73761,0,,54.64135400000000,17/0280/0025/0007,824,env.services@northdown.gov.uk,North Down,http://www.northdown.gov.uk,-5.83325800000000,BT18 9BU,2015-01-07,fhrs_5_en-GB,5,,FHRS,5
413195,,,,,PAPAS MINERAL COMPANY (ICE CREAM),Mobile caterer,7846,5,,554720,0,,,05/0641/0048/0002,824,env.services@northdown.gov.uk,North Down,http://www.northdown.gov.uk,,,2013-05-03,fhrs_5_en-GB,5,,FHRS,0
413196,,,,,PARIS MACARON COMPANY,Other catering premises,7841,5,,433177,0,,,17/0108/0009/000X,824,env.services@northdown.gov.uk,North Down,http://www.northdown.gov.uk,,,2012-07-06,fhrs_5_en-GB,5,,FHRS,0
413197,DONEGANS,37/39 HIGH STREET,BANGOR,CO DOWN,PAUL GRAY CATERING,Restaurant/Cafe/Canteen,1,5,,70545,0,,54.66360900000000,16/0676/0037/0010,824,env.services@northdown.gov.uk,North Down,http://www.northdown.gov.uk,-5.66496300000000,BT20 5BE,2014-08-07,fhrs_5_en-GB,5,,FHRS,5
413198,6 HAMILTON RD,BANGOR,CO DOWN,,PAULINE'S COFFEE HOUSE,Restaurant/Cafe/Canteen,1,5,,2697,5,,54.66065200000000,01/0496/0006/0003,824,env.services@northdown.gov.uk,North Down,http://www.northdown.gov.uk,-5.66443500000000,BT20 4LE,2013-06-28,fhrs_5_en-GB,5,,FHRS,5
413199,"UNIT 8, 5 GREEN ROAD",CONLIG,NEWTOWNARDS,,PEKING GARDEN CHINESE TAKEAWAY,Takeaway/sandwich shop,7844,5,,36667,0,,54.63224200000000,10/0762/0008/0004,824,env.services@northdown.gov.uk,North Down,http://www.northdown.gov.uk,-5.66738000000000,BT23 7PZ,2014-08-28,fhrs_5_en-GB,5,,FHRS,5
413200,"6, MARKET STREET",BANGOR,CO DOWN,,PHOENIX WU LTD,Restaurant/Cafe/Canteen,1,5,,13210,5,,54.65968600000000,04/1030/0006/0003,824,env.services@northdown.gov.uk,North Down,http://www.northdown.gov.uk,-5.66842700000000,BT20 4SP,2013-06-10,fhrs_4_en-GB,4,,FHRS,10
413201,3 HIGH STREET,BANGOR,CO DOWN,,PICCOLA,Takeaway/sandwich shop,7844,10,,447059,0,,54.66371400000000,16/0676/0003/0007,824,env.services@northdown.gov.uk,North Down,http://www.northdown.gov.uk,-5.66666200000000,BT20 5BG,2012-07-05,fhrs_4_en-GB,4,,FHRS,5
413202,MARINE GARDENS,BANGOR,CO DOWN,,PICKIE FUN PARK,Restaurant/Cafe/Canteen,1,10,,81881,5,,,20/052X/0001/0006,824,env.services@northdown.gov.uk,North Down,http://www.northdown.gov.uk,,BT20 3UR,2014-09-09,fhrs_4_en-GB,4,,FHRS,5
413203,"114, HIGH STREET",HOLYWOOD,CO DOWN,,PIZZINI,Takeaway/sandwich shop,7844,0,,76491,5,,54.63954900000000,18/0653/0114/0000,824,env.services@northdown.gov.uk,North Down,http://www.northdown.gov.uk,-5.83731900000000,BT18 9HW,2014-02-21,fhrs_4_en-GB,4,,FHRS,10
413204,2 SOUTHWELL ROAD,BANGOR,CO DOWN,,POLITA,Retailers - other,4613,0,,713044,0,,54.66156800000000,16/1397/0002/0001,824,env.services@northdown.gov.uk,North Down,http://www.northdown.gov.uk,-5.67092300000000,BT20 3AQ,2014-08-21,fhrs_5_en-GB,5,,FHRS,0
413205,"UNIT 15, 16 BALLOO AVENUE",BANGOR,CO DOWN,,POSH NOSH,Retailers - other,4613,5,,36000,5,,54.64229900000000,10/0045/0016/0016,824,env.services@northdown.gov.uk,North Down,http://www.northdown.gov.uk,-5.67168400000000,BT19 7QT,2014-08-29,fhrs_5_en-GB,5,,FHRS,5
413206,19 FLAGSHIP CENTRE,MAIN STREET,BANGOR,CO DOWN,POUNDWORLD LTD,Retailers - other,4613,,,70763,,,54.66259600000000,16/1524/0019/0004,824,env.services@northdown.gov.uk,North Down,http://www.northdown.gov.uk,-5.66737700000000,BT20 5AU,2014-03-20,fhrs_exempt_en-GB,Exempt,,FHRS,
413207,3 PRIMACY ROAD,BANGOR,CO DOWN,,PRIMACY DAY NURSERY,Retailers - other,4613,5,,316001,0,,54.63986500000000,05/0641/0003/0007,824,env.services@northdown.gov.uk,North Down,http://www.northdown.gov.uk,-5.65035200000000,BT19 7PQ,2013-11-01,fhrs_5_en-GB,5,,FHRS,5
413208,26A PRIMACY ROAD,BANGOR,CO DOWN,,PRIMACY FOOD VILLAGE,Retailers - other,4613,5,,15914,5,,54.63986500000000,05/0641/0026/0010,824,env.services@northdown.gov.uk,North Down,http://www.northdown.gov.uk,-5.65035200000000,BT19 7PQ,2014-06-11,fhrs_5_en-GB,5,,FHRS,0
413209,1 BLOOMFIELD SHOPPING CENTRE,SOUTH CIRCULAR ROAD,BANGOR,CO DOWN,"PRIMACY MEATS COUNTER, TESCO STORES",Retailers - other,4613,0,,486154,5,,,05/0323/0001/0022,824,env.services@northdown.gov.uk,North Down,http://www.northdown.gov.uk,,BT19 2HD,2012-12-07,fhrs_5_en-GB,5,,FHRS,0
413210,14A MY LADYS MILE,HOLYWOOD,CO DOWN,,PRIORY COLLEGE,School/college/university,7845,5,,73931,0,,54.63713700000000,17/0852/0014/0104,824,env.services@northdown.gov.uk,North Down,http://www.northdown.gov.uk,-5.83561900000000,BT18 9EW,2013-11-11,fhrs_5_en-GB,5,,FHRS,0
413211,"12, QUEENS PARADE",BANGOR,CO DOWN,,QUEENS PARADE METHODIST CHURCH,Restaurant/Cafe/Canteen,1,5,,81925,5,,54.66266600000000,20/0794/0012/0049,824,env.services@northdown.gov.uk,North Down,http://www.northdown.gov.uk,-5.67273100000000,,2014-09-16,fhrs_5_en-GB,5,,FHRS,0
413212,19 CLANDEBOYE ROAD,BANGOR,CO DOWN,,RAINEY'S,Takeaway/sandwich shop,7844,10,,31558,0,,54.65409200000000,09/0481/0019/0004,824,env.services@northdown.gov.uk,North Down,http://www.northdown.gov.uk,-5.67981200000000,BT20 3LB,2012-09-13,fhrs_4_en-GB,4,,FHRS,5
413213,"79, COOTEHALL ROAD",CLANDEBOYE,BANGOR,CO DOWN,"RAMBLIN' ROSE, DICKSONS GDN CTR",Restaurant/Cafe/Canteen,1,0,,31574,0,,54.65186100000000,09/0522/0079/0001,824,env.services@northdown.gov.uk,North Down,http://www.northdown.gov.uk,-5.72134500000000,BT19 1UW,2011-03-01,fhrs_5_en-GB,5,,FHRS,5
413214,"23, RATHMORE ROAD",BANGOR,CO DOWN,,RATHMORE PRIMARY SCHOOL KITCHEN,School/college/university,7845,0,,88122,5,,54.65743200000000,23/0855/0023/0103,824,env.services@northdown.gov.uk,North Down,http://www.northdown.gov.uk,-5.70328800000000,BT19 1DJ,2012-11-07,fhrs_5_en-GB,5,,FHRS,5
413215,14 RAVARA GARDENS,BANGOR,CO DOWN,,RAVARA TRAINING & RESOURCE CENTRE,Hospitals/Childcare/Caring Premises,5,10,,63392,0,,54.64836300000000,14/0918/0014/0007,824,env.services@northdown.gov.uk,North Down,http://www.northdown.gov.uk,-5.70076200000000,BT19 1SD,2014-02-19,fhrs_4_en-GB,4,,FHRS,5
413216,"60, DEMESNE ROAD",HOLYWOOD,CO DOWN,,RAYANNE HOUSE,Hotel/bed & breakfast/guest house,7842,5,,73794,0,,54.63339300000000,17/0437/0060/0008,824,env.services@northdown.gov.uk,North Down,http://www.northdown.gov.uk,-5.83128000000000,BT18 9EX,2012-11-29,fhrs_5_en-GB,5,,FHRS,0
413217,"19, SEAFRONT RD",CULTRA,HOLYWOOD,,RICHMOND PRIVATE NURSING HOME LTD.,Hospitals/Childcare/Caring Premises,5,5,,58464,5,,54.65496500000000,13/1245/0019/0004,824,env.services@northdown.gov.uk,North Down,http://www.northdown.gov.uk,-5.81271300000000,BT18 0BB,2014-02-27,fhrs_4_en-GB,4,,FHRS,10
413218,"200, DONAGHADEE RD",BANGOR,,,RIVERSIDE FILLING STATION,Retailers - other,4613,5,,20262,5,,54.65779000000000,06/0550/0200/0008,824,env.services@northdown.gov.uk,North Down,http://www.northdown.gov.uk,-5.63502800000000,BT20 4RZ,2014-10-07,fhrs_5_en-GB,5,,FHRS,5
413219,"15, ROCKPORT ROAD",CRAIGAVAD,HOLYWOOD,,ROCKPORT PREPARATORY SCHOOL,School/college/university,7845,0,,49509,0,,54.66466300000000,11/1422/0015/0002,824,env.services@northdown.gov.uk,North Down,http://www.northdown.gov.uk,-5.77289700000000,BT18 0DD,2012-11-21,fhrs_5_en-GB,5,,FHRS,5
413220,2 STATION SQUARE,HELEN'S BAY,BANGOR,CO DOWN,"ROSEBERY WINE LTD, T/A BAY WINES",Retailers - other,4613,0,,53249,0,,54.66675800000000,12/1697/0002/0001,824,env.services@northdown.gov.uk,North Down,http://www.northdown.gov.uk,-5.74049300000000,BT19 1TN,2014-06-12,fhrs_5_en-GB,5,,FHRS,0
413221,"7, SEAFRONT RD",CULTRA,HOLYWOOD,,ROYAL NORTH OF IRELAND YACHT CLUB,Pub/bar/nightclub,7843,10,,58463,5,,54.65496500000000,13/1245/0007/0106,824,env.services@northdown.gov.uk,North Down,http://www.northdown.gov.uk,-5.81271300000000,BT18 0BB,2009-01-30,fhrs_4_en-GB,4,,FHRS,5
413222,"101, CLIFTON ROAD",BANGOR,CO DOWN,,ROYAL ULSTER YACHT CLUB,Pub/bar/nightclub,7843,5,,70500,5,,54.66719900000000,16/0490/0101/000X,824,env.services@northdown.gov.uk,North Down,http://www.northdown.gov.uk,-5.65961000000000,BT20 5HY,2012-12-12,fhrs_5_en-GB,5,,FHRS,5
413223,102 RATHGAEL ROAD,BANGOR,CO DOWN,,RUBY KING,Takeaway/sandwich shop,7844,10,,63373,10,,54.64217600000000,14/0853/0102/0005,824,env.services@northdown.gov.uk,North Down,http://www.northdown.gov.uk,-5.69248200000000,BT19 1RS,2014-02-26,fhrs_3_en-GB,3,,FHRS,5
413224,33 HIBERNIA STREET,HOLYWOOD,CO DOWN,,RUDDY DUCK FISH HOUSE,Takeaway/sandwich shop,7844,10,,316007,10,,54.64132200000000,17/0558/0033/0000,824,env.services@northdown.gov.uk,North Down,http://www.northdown.gov.uk,-5.83652800000000,BT18 9JE,2014-05-12,fhrs_4_en-GB,4,,FHRS,0
413225,,,,,RUTH HOWELL CAKES,Other catering premises,7841,5,,486158,0,,,23/0194/0003/0007,824,env.services@northdown.gov.uk,North Down,http://www.northdown.gov.uk,,,2012-12-03,fhrs_5_en-GB,5,,FHRS,0
413226,BALLOO RETAIL PARK,BALLOO LINK,BANGOR,CO DOWN,SAINSBURY'S SUPERMARKETS LTD,Retailers - supermarkets/hypermarkets,7840,0,,358882,5,,54.64477500000000,10/0134/0001/0014,824,env.services@northdown.gov.uk,North Down,http://www.northdown.gov.uk,-5.67007100000000,BT19 7HJ,2014-08-06,fhrs_5_en-GB,5,,FHRS,5
413227,"UNIT 7, 5 GREEN ROAD",CONLIG,NEWTOWNARDS,CO DOWN,SALT 'N' VINEGAR,Takeaway/sandwich shop,7844,5,,36666,0,,54.63224200000000,10/0762/0007/0009,824,env.services@northdown.gov.uk,North Down,http://www.northdown.gov.uk,-5.66738000000000,BT23 7PZ,2013-11-27,fhrs_5_en-GB,5,,FHRS,5
413228,276 SEACLIFF ROAD,BANGOR,CO DOWN,,SEAVIEW HOUSE,Hospitals/Childcare/Caring Premises,5,5,,2781,0,,54.66555200000000,01/0739/0276/0002,824,env.services@northdown.gov.uk,North Down,http://www.northdown.gov.uk,-5.65387600000000,BT20 5HS,2014-09-29,fhrs_4_en-GB,4,,FHRS,10
413229,43 BALLOO ROAD,BANGOR,CO DOWN,,"SERCO INTEGRATED SERVS, DEPT OF EDUCATIO",Restaurant/Cafe/Canteen,1,10,,447056,5,,54.63959000000000,10/0169/0043/0005,824,env.services@northdown.gov.uk,North Down,http://www.northdown.gov.uk,-5.67566600000000,BT19 7PR,2014-02-27,fhrs_4_en-GB,4,,FHRS,5
413230,"48, BINGHAM ST",BANGOR,CO DOWN,,SEVEN ATE NINE,Restaurant/Cafe/Canteen,1,5,,70443,0,,54.66314100000000,16/0161/0048/0002,824,env.services@northdown.gov.uk,North Down,http://www.northdown.gov.uk,-5.66539200000000,BT20 5DN,2013-07-16,fhrs_5_en-GB,5,,FHRS,5
413231,"95, GROOMSPORT ROAD",BANGOR,CO DOWN,,SHERIDAN CAKE SHOP,Manufacturers/packers,7839,10,,2688,5,,54.65326900000000,01/0464/0095/0009,824,env.services@northdown.gov.uk,North Down,http://www.northdown.gov.uk,-5.69131100000000,BT20 3NG,2014-08-05,fhrs_3_en-GB,3,,FHRS,10
413232,"17, KING STREET",BANGOR,CO DOWN,,SIMPLE SIMONS,Manufacturers/packers,7839,5,,70608,0,,54.66166400000000,16/0792/0017/0003,824,env.services@northdown.gov.uk,North Down,http://www.northdown.gov.uk,-5.66938300000000,BT20 3AH,2013-10-08,fhrs_5_en-GB,5,,FHRS,0
413233,"39, BANGOR ROAD",HOLYWOOD,CO DOWN,,SIR SAMUEL KELLY MEMORIAL EVENTIDE HOME,Hospitals/Childcare/Caring Premises,5,0,,76436,0,,54.64512000000000,18/0289/0039/0003,824,env.services@northdown.gov.uk,North Down,http://www.northdown.gov.uk,-5.81632500000000,BT18 0NE,2013-08-14,fhrs_4_en-GB,4,,FHRS,10
413234,"58, HIGH STREET",HOLYWOOD,CO DOWN,,SKINNERS,Restaurant/Cafe/Canteen,1,10,,73844,5,,54.64106500000000,17/0585/0058/0007,824,env.services@northdown.gov.uk,North Down,http://www.northdown.gov.uk,-5.83519400000000,BT18 9AE,2012-02-24,fhrs_4_en-GB,4,,FHRS,5
413235,UNIT 2 WEST CIRCULAR RETAIL PK,169 CLANDEBOYE ROAD,BANGOR,CO DOWN,SNAKES AND LADDERS,Restaurant/Cafe/Canteen,1,0,,31561,5,,54.65193000000000,09/0481/0169/0000,824,env.services@northdown.gov.uk,North Down,http://www.northdown.gov.uk,-5.68047800000000,BT20 3JN,2014-08-11,fhrs_5_en-GB,5,,FHRS,5
413236,8 BALLOO DRIVE,BANGOR,CO DOWN,,SOUP BY JAMES,Retailers - other,4613,10,,734990,0,,54.64311400000000,05/0013/0008/0047,824,env.services@northdown.gov.uk,North Down,http://www.northdown.gov.uk,-5.66737700000000,BT19 7QY,2014-11-14,fhrs_4_en-GB,4,,FHRS,0
413237,159A HIGH STREET,HOLYWOOD,CO DOWN,,SPAFIELD FOLD,Hospitals/Childcare/Caring Premises,5,5,,79093,0,,54.63842800000000,19/0314/0159/0103,824,env.services@northdown.gov.uk,North Down,http://www.northdown.gov.uk,-5.83950100000000,BT18 9HJ,2015-01-13,fhrs_5_en-GB,5,,FHRS,0
413238,10 RATHMORE ROAD,BANGOR,CO DOWN,,SPAR,Retailers - supermarkets/hypermarkets,7840,5,,63378,0,,54.65849500000000,14/0888/0010/0005,824,env.services@northdown.gov.uk,North Down,http://www.northdown.gov.uk,-5.70339800000000,BT19 1DL,2012-11-15,fhrs_5_en-GB,5,,FHRS,5
413239,2 BALLYHOLME ROAD,BANGOR,CO DOWN,,SPAR / MAXOL BALLYHOLME,Retailers - supermarkets/hypermarkets,7840,10,,2585,0,,54.66326400000000,01/0011/0002/0001,824,env.services@northdown.gov.uk,North Down,http://www.northdown.gov.uk,-5.66010000000000,BT20 5JJ,2014-08-11,fhrs_4_en-GB,4,,FHRS,10
413240,"71/79, NEWTOWNARDS ROAD",BANGOR,CO DOWN,,SPAR ABBEYHILL/PETROL FILLING STATION,Retailers - supermarkets/hypermarkets,7840,5,,13246,0,,54.65040300000000,04/112X/0071/0008,824,env.services@northdown.gov.uk,North Down,http://www.northdown.gov.uk,-5.67444400000000,BT20 4DW,2011-07-15,fhrs_5_en-GB,5,,FHRS,0
413241,"90, BALLYROBERT ROAD",CRAWFORDSBURN,BANGOR,CO DOWN,SPAR CRAWFORDSBURN/PETROL FILLING STN,Retailers - other,4613,5,,53015,5,,54.65915100000000,12/0103/0090/0001,824,env.services@northdown.gov.uk,North Down,http://www.northdown.gov.uk,-5.72964700000000,BT19 1JS,2014-01-30,fhrs_4_en-GB,4,,FHRS,10
413242,66 GRANSHA RD,BANGOR,CO DOWN,,SPAR GRANSHA / FILLING STATION,Retailers - supermarkets/hypermarkets,7840,0,,8260,0,,54.64374800000000,03/1450/0066/0000,824,env.services@northdown.gov.uk,North Down,http://www.northdown.gov.uk,-5.64622400000000,BT19 7PU,2010-01-12,fhrs_5_en-GB,5,,FHRS,5
413243,"8, HIGH STREET",BANGOR,CO DOWN,,SPICE ISLAND,Takeaway/sandwich shop,7844,10,,70538,5,,54.66346600000000,16/0676/0008/0004,824,env.services@northdown.gov.uk,North Down,http://www.northdown.gov.uk,-5.66684600000000,BT20 5AY,2014-09-26,fhrs_3_en-GB,3,,FHRS,10
413244,52 BALLOO DRIVE,BANGOR,CO DOWN,,SPUDS AND SUBS,Restaurant/Cafe/Canteen,1,5,,15192,5,,54.64311500000000,05/0013/0052/0004,824,env.services@northdown.gov.uk,North Down,http://www.northdown.gov.uk,-5.66737700000000,BT19 7QY,2014-09-16,fhrs_5_en-GB,5,,FHRS,5
413245,66A BALLYMACONNELL ROAD,BANGOR,,,ST COLUMBANUS HIGH SCHOOL KITCHEN,School/college/university,7845,5,,27087,0,,54.66188400000000,08/0136/0066/0108,824,env.services@northdown.gov.uk,North Down,http://www.northdown.gov.uk,-5.63116300000000,BT20 5PU,2012-11-28,fhrs_5_en-GB,5,,FHRS,5
413246,"23, BRUNSWICK ROAD",BANGOR,CO DOWN,,ST COMGALL'S PRIMARY SCHOOL DINING CTRE,School/college/university,7845,10,,23512,0,,54.65856600000000,07/0130/0025/0007,824,env.services@northdown.gov.uk,North Down,http://www.northdown.gov.uk,-5.68118500000000,BT20 3DS,2009-04-21,fhrs_4_en-GB,4,,FHRS,0
413247,171A CLANDEBOYE ROAD,BANGOR,CO DOWN,,ST MALACHYS PRIMARY SCHOOL KITCHEN,School/college/university,7845,5,,84424,0,,54.64555200000000,21/034X/0171/0109,824,env.services@northdown.gov.uk,North Down,http://www.northdown.gov.uk,-5.69043200000000,BT19 1AA,2014-04-29,fhrs_5_en-GB,5,,FHRS,5
413248,"108, ABBEY STREET",BANGOR,CO DOWN,,STAR OF BENGAL,Takeaway/sandwich shop,7844,10,,10369,10,,54.65704100000000,04/0018/0108/0008,824,env.services@northdown.gov.uk,North Down,http://www.northdown.gov.uk,-5.67386300000000,BT20 4JB,2014-07-07,fhrs_3_en-GB,3,,FHRS,10
413249,U7 SPRINGHILL RETAIL PARK,BANGOR,CO DOWN,,STARBUCKS COFFEE COMPANY,Restaurant/Cafe/Canteen,1,0,,88140,0,,54.65484400000000,23/114X/0007/0009,824,env.services@northdown.gov.uk,North Down,http://www.northdown.gov.uk,-5.69760700000000,BT19 1ND,2013-10-25,fhrs_5_en-GB,5,,FHRS,0
413250,UNIT 11 ASHBURY SHOPPING CTRE,ASHBURY AVENUE,BANGOR,CO DOWN,STARVINS CAFE,Restaurant/Cafe/Canteen,1,5,,642761,5,,54.64851400000000,03/0160/0011/0027,824,env.services@northdown.gov.uk,North Down,http://www.northdown.gov.uk,-5.63674400000000,BT19 6TH,2014-02-12,fhrs_5_en-GB,5,,FHRS,5
413251,"2, ABBEY STREET",BANGOR,,,STATION NEWS,Retailers - other,4613,5,,9982,0,,54.65786900000000,04/0010/0002/0206,824,env.services@northdown.gov.uk,North Down,http://www.northdown.gov.uk,-5.67201800000000,BT20 4JA,2009-01-14,fhrs_5_en-GB,5,,FHRS,0
413252,1 CHURCH AVENUE,BANGOR,CO DOWN,,STEPPING STONES DAY NURSERY,Retailers - other,4613,0,,554721,0,,54.65390900000000,18/0375/0001/0014,824,env.services@northdown.gov.uk,North Down,http://www.northdown.gov.uk,-5.67683200000000,BT20 3EQ,2014-11-11,fhrs_5_en-GB,5,,FHRS,5
413253,39 DOWNSHIRE ROAD,BANGOR,CO DOWN,,STEWART MEMORIAL HOUSE,Hospitals/Childcare/Caring Premises,5,5,,81856,10,,54.66612800000000,20/0317/0039/0011,824,env.services@northdown.gov.uk,North Down,http://www.northdown.gov.uk,-5.68714000000000,BT20 3RD,2014-08-06,fhrs_4_en-GB,4,,FHRS,5
413254,"95, HIGH STREET",HOLYWOOD,CO DOWN,,STEWART MILLER,Retailers - other,4613,,,73848,,,54.64132900000000,17/0585/0097/000X,824,env.services@northdown.gov.uk,North Down,http://www.northdown.gov.uk,-5.83538100000000,BT18 9AQ,2009-07-27,fhrs_exempt_en-GB,Exempt,,FHRS,
413255,9 ENTERPRISE ROAD,BANGOR,CO DOWN,,STOREHOUSE NORTH DOWN,Retailers - other,4613,0,,619258,0,,54.63710700000000,10/0614/0009/000X,824,env.services@northdown.gov.uk,North Down,http://www.northdown.gov.uk,-5.67407200000000,BT19 7TA,2013-11-07,fhrs_5_en-GB,5,,FHRS,0
413256,126 HIGH STREET,BANGOR,CO DOWN,,STUDIO CAFE,Restaurant/Cafe/Canteen,1,10,,660676,10,,54.66324600000000,16/0676/0126/0014,824,env.services@northdown.gov.uk,North Down,http://www.northdown.gov.uk,-5.66241000000000,BT20 5BB,2014-04-07,fhrs_4_en-GB,4,,FHRS,0
413257,99B GROOMSPORT ROAD,BANGOR,CO DOWN,,SUBURBAN,Takeaway/sandwich shop,7844,0,,699957,0,,54.66365100000000,01/0461/0099/0027,824,env.services@northdown.gov.uk,North Down,http://www.northdown.gov.uk,-5.64436000000000,BT20 5NG,2014-08-15,fhrs_5_en-GB,5,,FHRS,5
413258,133A HIGH STREET,HOLYWOOD,CO DOWN,,SUBWAY,Restaurant/Cafe/Canteen,1,5,,76485,5,,54.63958600000000,18/0650/0133/0004,824,env.services@northdown.gov.uk,North Down,http://www.northdown.gov.uk,-5.83792100000000,BT18 9LG,2013-11-12,fhrs_5_en-GB,5,,FHRS,5
413259,37C BLOOMFIELD SHOPPING CENTRE,SOUTH CIRCULAR ROAD,BANGOR,,SUBWAY,Restaurant/Cafe/Canteen,1,5,,15841,5,,54.64748700000000,05/0323/0037/0045,824,env.services@northdown.gov.uk,North Down,http://www.northdown.gov.uk,-5.65649700000000,BT19 7HB,2014-09-25,fhrs_5_en-GB,5,,FHRS,5
413260,U3 THE FOOD COURT,FLAGSHIP CENTRE,MAIN STREET,"BANGOR, CO DOWN",SUBWAY,Takeaway/sandwich shop,7844,5,,70759,0,,54.66259600000000,16/1524/0003/0007,824,env.services@northdown.gov.uk,North Down,http://www.northdown.gov.uk,-5.66737700000000,BT20 5AU,2014-08-14,fhrs_5_en-GB,5,,FHRS,0
413261,98A RATHGAEL ROAD,BANGOR,CO DOWN,,SUBWAY @ EUROSPAR,Takeaway/sandwich shop,7844,5,,63372,0,,54.64215200000000,14/0853/0098/0013,824,env.services@northdown.gov.uk,North Down,http://www.northdown.gov.uk,-5.68792900000000,BT19 1RU,2013-01-11,fhrs_5_en-GB,5,,FHRS,0
413262,41 BANGOR ROAD,HOLYWOOD,CO DOWN,,SUBWAY TORGRANGE,Takeaway/sandwich shop,7844,0,,76431,5,,54.64512000000000,18/0286/0041/0012,824,env.services@northdown.gov.uk,North Down,http://www.northdown.gov.uk,-5.81632500000000,BT18 0NE,2014-07-24,fhrs_5_en-GB,5,,FHRS,5
413263,"6, BELFAST ROAD",HOLYWOOD,CO DOWN,,SULLIVAN UPPER SCHOOL MAIN CANTEEN,School/college/university,7845,5,,73744,0,,54.63470000000000,17/0135/0006/0003,824,env.services@northdown.gov.uk,North Down,http://www.northdown.gov.uk,-5.83703500000000,BT18 9EP,2012-11-08,fhrs_5_en-GB,5,,FHRS,5
413264,"1, ALEXANDRA PARK",HOLYWOOD,CO DOWN,,SULLIVAN UPPER SCHOOL PREP CANTEEN,School/college/university,7845,0,,73726,0,,54.63470000000000,17/0046/0001/0006,824,env.services@northdown.gov.uk,North Down,http://www.northdown.gov.uk,-5.83703500000000,BT18 9EP,2009-05-14,fhrs_5_en-GB,5,,FHRS,5
413265,277 CLANDEBOYE ROAD,BANGOR,CO DOWN,,SUNBEAMS PRE-SCHOOL GROUP,Retailers - other,4613,,,31556,,,54.64555200000000,09/0473/0277/0016,824,env.services@northdown.gov.uk,North Down,http://www.northdown.gov.uk,-5.69043200000000,BT19 1AA,2014-09-16,fhrs_exempt_en-GB,Exempt,,FHRS,
413266,8 CENTRAL AVENUE,BANGOR,CO DOWN,,SUNFLOWER SANDWICH BAR LTD,Restaurant/Cafe/Canteen,1,5,,70487,0,,54.66090200000000,16/0439/0008/0004,824,env.services@northdown.gov.uk,North Down,http://www.northdown.gov.uk,-5.66948900000000,BT20 3AF,2013-07-11,fhrs_5_en-GB,5,,FHRS,5
413267,25 RIVERWOOD VALE,DONAGHADEE ROAD,BANGOR,CO DOWN,SUNNYSIDE HOUSE,Hospitals/Childcare/Caring Premises,5,0,,27138,0,,54.65784700000000,08/0524/0025/0007,824,env.services@northdown.gov.uk,North Down,http://www.northdown.gov.uk,-5.63610900000000,BT20 4QE,2014-02-19,fhrs_5_en-GB,5,,FHRS,5
413268,"UNITS 5/6, 104 RATHGAEL ROAD",BANGOR,CO DOWN,,SUPER CHIPPY/SUPER PIZZA,Takeaway/sandwich shop,7844,5,,699962,5,,54.64709900000000,09/1429/0005/0008,824,env.services@northdown.gov.uk,North Down,http://www.northdown.gov.uk,-5.70944900000000,BT19 1RW,2014-08-20,fhrs_5_en-GB,5,,FHRS,5
413269,101 BLOOMFIELD RD SOUTH,BANGOR,CO DOWN,,SUTTONS,Takeaway/sandwich shop,7844,10,,15811,5,,54.64631100000000,05/0285/0101/000X,824,env.services@northdown.gov.uk,North Down,http://www.northdown.gov.uk,-5.65885800000000,BT19 7HR,2013-09-16,fhrs_4_en-GB,4,,FHRS,5
413270,,,,,SWEET THING,Other catering premises,7841,5,,619262,0,,,12/1123/0002/0001,824,env.services@northdown.gov.uk,North Down,http://www.northdown.gov.uk,,,2013-09-19,fhrs_5_en-GB,5,,FHRS,0
413271,26 ABBEY STREET,BANGOR,CO DOWN,,TASTE OF SHANGHAI,Takeaway/sandwich shop,7844,5,,10360,5,,54.65786900000000,04/0018/0026/0002,824,env.services@northdown.gov.uk,North Down,http://www.northdown.gov.uk,-5.67201800000000,BT20 4JA,2012-11-28,fhrs_5_en-GB,5,,FHRS,0
413272,29 HIBERNIA STREET,HOLYWOOD,CO DOWN,,TATES BAR & GRILL,Restaurant/Cafe/Canteen,1,5,,624044,5,,54.64132200000000,17/0558/0029/0009,824,env.services@northdown.gov.uk,North Down,http://www.northdown.gov.uk,-5.83652800000000,BT18 9JE,2013-12-05,fhrs_5_en-GB,5,,FHRS,0
413273,,,,,TAYLOR'S TASTY TREATS,Other catering premises,7841,5,,619269,0,,,19/0648/0007/0009,824,env.services@northdown.gov.uk,North Down,http://www.northdown.gov.uk,,,2013-10-08,fhrs_5_en-GB,5,,FHRS,0
413274,1 CASTLE ST,BANGOR,CO DOWN,,TEDDY'S,Restaurant/Cafe/Canteen,1,10,,13077,10,,54.65952000000000,04/0344/0001/0006,824,env.services@northdown.gov.uk,North Down,http://www.northdown.gov.uk,-5.66539900000000,BT20 4SU,2013-10-01,fhrs_3_en-GB,3,,FHRS,5
413275,84A BELFAST ROAD,BANGOR,CO DOWN,,TEINZEN,Takeaway/sandwich shop,7844,5,,31495,0,,54.65511100000000,09/0287/0084/0017,824,env.services@northdown.gov.uk,North Down,http://www.northdown.gov.uk,-5.69038500000000,BT20 3NN,2013-08-06,fhrs_4_en-GB,4,,FHRS,10
413276,"36/42, HIGH STREET",HOLYWOOD,CO DOWN,,TESCO EXPRESS,Retailers - supermarkets/hypermarkets,7840,0,,76486,0,,54.64220300000000,18/0653/0036/0007,824,env.services@northdown.gov.uk,North Down,http://www.northdown.gov.uk,-5.83353800000000,BT18 9AD,2014-03-10,fhrs_5_en-GB,5,,FHRS,0
413277,U1 SPRINGHILL RETAIL PARK,KILLEEN AVENUE,BANGOR,CO DOWN,TESCO SPRINGHILL,Retailers - supermarkets/hypermarkets,7840,5,,88136,5,,54.65484400000000,23/114X/0002/0001,824,env.services@northdown.gov.uk,North Down,http://www.northdown.gov.uk,-5.69760700000000,BT19 1ND,2013-11-14,fhrs_5_en-GB,5,,FHRS,5
413278,"1, BLOOMFIELD SHOPPING CENTRE",SOUTH CIRCULAR ROAD,BANGOR,CO DOWN,TESCO STORES LTD,Retailers - supermarkets/hypermarkets,7840,5,,15845,10,,54.66279983520508,05/0326/0001/0006,824,env.services@northdown.gov.uk,North Down,http://www.northdown.gov.uk,-5.66973018646240,BT19 2HD,2014-03-05,fhrs_4_en-GB,4,,FHRS,5
413279,132 MAIN STREET,BANGOR,CO DOWN,,THE AVA,Restaurant/Cafe/Canteen,1,5,,699960,5,,54.66024500000000,04/1006/0132/0009,824,env.services@northdown.gov.uk,North Down,http://www.northdown.gov.uk,-5.66896800000000,BT20 4AG,2014-08-04,fhrs_5_en-GB,5,,FHRS,5
413280,"118, HIGH STREET",HOLYWOOD,CO DOWN,,THE BAY TREE,Restaurant/Cafe/Canteen,1,10,,73849,5,,54.63954900000000,17/0585/0118/0002,824,env.services@northdown.gov.uk,North Down,http://www.northdown.gov.uk,-5.83731900000000,BT18 9HW,2014-02-02,fhrs_4_en-GB,4,,FHRS,5
413281,"1, CASTLE PARK ROAD",BANGOR,CO DOWN,,THE BIRCHES RESTAURANT/SCRIBBLES,Restaurant/Cafe/Canteen,1,0,,13048,0,,54.65818400000000,04/0282/0001/0103,824,env.services@northdown.gov.uk,North Down,http://www.northdown.gov.uk,-5.66693200000000,BT20 4TF,2013-05-03,fhrs_5_en-GB,5,,FHRS,0
413282,1A SEACLIFF ROAD,BANGOR,CO DOWN,,THE BOATHOUSE,Restaurant/Cafe/Canteen,1,0,,2773,0,,54.66845800000000,01/0739/0001/0030,824,env.services@northdown.gov.uk,North Down,http://www.northdown.gov.uk,-5.66012700000000,BT20 5HA,2014-12-18,fhrs_5_en-GB,5,,FHRS,5
413283,2A KING STREET,BANGOR,CO DOWN,,THE BOKHARA RESTAURANT,Restaurant/Cafe/Canteen,1,5,,70605,5,,54.66166400000000,16/0792/0002/0001,824,env.services@northdown.gov.uk,North Down,http://www.northdown.gov.uk,-5.66938300000000,BT20 3AH,2013-11-01,fhrs_4_en-GB,4,,FHRS,10
413284,,,,,THE CAKE AND BAKE COMPANY,Other catering premises,7841,0,,486155,0,,,07/1096/0007/0009,824,env.services@northdown.gov.uk,North Down,http://www.northdown.gov.uk,,,2012-11-27,fhrs_5_en-GB,5,,FHRS,0
413285,,,,,THE CAKE CRUSADER,Other catering premises,7841,10,,466670,0,,,03/0861/0020/000X,824,env.services@northdown.gov.uk,North Down,http://www.northdown.gov.uk,,,2012-10-09,fhrs_4_en-GB,4,,FHRS,0
413286,117 HIGH STREET,BANGOR,CO DOWN,,THE CLEO,Takeaway/sandwich shop,7844,10,,70554,10,,54.66351600000000,16/0676/0117/0007,824,env.services@northdown.gov.uk,North Down,http://www.northdown.gov.uk,-5.66292200000000,BT20 5BD,2014-08-28,fhrs_3_en-GB,3,,FHRS,10
413287,30 HIGH STREET,HOLYWOOD,CO DOWN,,THE COAST RESTAURANT,Restaurant/Cafe/Canteen,1,5,,73821,5,,54.64106500000000,17/0582/0030/0004,824,env.services@northdown.gov.uk,North Down,http://www.northdown.gov.uk,-5.83519400000000,BT18 9AE,2014-03-06,fhrs_4_en-GB,4,,FHRS,10
413288,THE COURTYARD,6/8 MAIN STREET,BANGOR,CO DOWN,THE COURTYARD TEA ROOM,Restaurant/Cafe/Canteen,1,,,554719,,,54.66225900000000,04/1006/0006/0011,824,env.services@northdown.gov.uk,North Down,http://www.northdown.gov.uk,-5.66812500000000,BT20 5AG,2013-11-19,fhrs_5_en-GB,5,,FHRS,
413289,"71, BLOOMFIELD ROAD",BANGOR,CO DOWN,,THE CROFT COMMUNITY,Hospitals/Childcare/Caring Premises,5,5,,12228,0,,54.65142200000000,04/0131/0071/0008,824,env.services@northdown.gov.uk,North Down,http://www.northdown.gov.uk,-5.66110600000000,BT20 4UR,2013-05-08,fhrs_5_en-GB,5,,FHRS,0
413290,"1, CULTRA STATION RD",CULTRA,HOLYWOOD,CO DOWN,THE CULTRA INN,Restaurant/Cafe/Canteen,1,10,,58404,5,,54.65798600000000,13/0559/0001/0006,824,env.services@northdown.gov.uk,North Down,http://www.northdown.gov.uk,-5.79545600000000,BT18 0BP,2012-02-29,fhrs_3_en-GB,3,,FHRS,10
413291,,,,,THE CULTURED CLUB,Other catering premises,7841,5,,713036,5,,,09/0317/0003/0007,824,env.services@northdown.gov.uk,North Down,http://www.northdown.gov.uk,,,2014-09-18,fhrs_5_en-GB,5,,FHRS,5
413292,"2, KINNEGAR ROAD",HOLYWOOD,CO DOWN,,THE DIRTY DUCK,Restaurant/Cafe/Canteen,1,5,,73890,5,,54.64052500000000,17/0739/0002/0001,824,env.services@northdown.gov.uk,North Down,http://www.northdown.gov.uk,-5.84318500000000,BT18 9JN,2013-07-19,fhrs_4_en-GB,4,,FHRS,10
413293,12 BALLYHOLME ESPLANADE,BANGOR,CO DOWN,,THE ESPLANADE,Restaurant/Cafe/Canteen,1,10,,2831,5,,54.66330600000000,01/0941/0012/0006,824,env.services@northdown.gov.uk,North Down,http://www.northdown.gov.uk,-5.64926200000000,BT20 5LD,2013-07-31,fhrs_4_en-GB,4,,FHRS,5
413294,,,,,THE FROTHY WHISK,Other catering premises,7841,10,,619259,5,,,10/1572/0006/0003,824,env.services@northdown.gov.uk,North Down,http://www.northdown.gov.uk,,,2013-11-26,fhrs_4_en-GB,4,,FHRS,0
413295,12 RATHMORE ROAD,BANGOR,CO DOWN,,THE FRYING SQUAD,Takeaway/sandwich shop,7844,5,,447057,5,,54.65849500000000,14/0888/0012/0006,824,env.services@northdown.gov.uk,North Down,http://www.northdown.gov.uk,-5.70339800000000,BT19 1DL,2014-06-02,fhrs_5_en-GB,5,,FHRS,5
413296,"9, BALLOO ROAD",BANGOR,CO DOWN,,THE FRYING SQUAD,Takeaway/sandwich shop,7844,5,,15705,0,,54.64050600000000,05/0048/0009/000X,824,env.services@northdown.gov.uk,North Down,http://www.northdown.gov.uk,-5.66067900000000,BT19 7PG,2012-09-19,fhrs_5_en-GB,5,,FHRS,0
413297,47/49 HIGH STREET,HOLYWOOD,CO DOWN,,THE GANGES,Restaurant/Cafe/Canteen,1,5,,76487,5,,54.64260200000000,18/0653/0049/0016,824,env.services@northdown.gov.uk,North Down,http://www.northdown.gov.uk,-5.83370200000000,BT18 9AB,2011-11-21,fhrs_4_en-GB,4,,FHRS,10
413298,2 BALLYREE DRIVE,BANGOR,CO DOWN,,THE GELLIE,Takeaway/sandwich shop,7844,5,,15746,5,,54.64253000000000,05/0102/0002/0001,824,env.services@northdown.gov.uk,North Down,http://www.northdown.gov.uk,-5.65848700000000,BT19 7HW,2014-07-01,fhrs_5_en-GB,5,,FHRS,5
413299,2 BINGHAM MALL,53 MAIN STREET,BANGOR,CO DOWN,THE GOAT'S TOE,Restaurant/Cafe/Canteen,1,10,,358880,15,,54.66149600000000,04/1006/0053/000X,824,env.services@northdown.gov.uk,North Down,http://www.northdown.gov.uk,-5.66719200000000,BT20 5BQ,2013-07-11,fhrs_2_en-GB,2,,FHRS,10
413300,6 CHURCH ROAD,HOLYWOOD,CO DOWN,,THE GOLDEN RAINBOW,Takeaway/sandwich shop,7844,10,,73756,15,,54.64135400000000,17/0280/0006/0003,824,env.services@northdown.gov.uk,North Down,http://www.northdown.gov.uk,-5.83325800000000,BT18 9BU,2014-02-26,fhrs_2_en-GB,2,,FHRS,15
413301,26/28 MAIN STREET,GROOMSPORT,CO DOWN,,THE GROOMSPORT INN,Restaurant/Cafe/Canteen,1,5,,67193,0,,54.67573100000000,15/1189/0016/0008,824,env.services@northdown.gov.uk,North Down,http://www.northdown.gov.uk,-5.61883600000000,BT19 6JR,2013-07-24,fhrs_5_en-GB,5,,FHRS,5
413302,,,,,THE LITTLE CUPCAKERY,Other catering premises,7841,5,,433174,0,,,01/0437/0027/0008,824,env.services@northdown.gov.uk,North Down,http://www.northdown.gov.uk,,,2012-07-19,fhrs_5_en-GB,5,,FHRS,0
413303,"20, QUAY STREET",BANGOR,CO DOWN,,THE MARINE COURT HOTEL,Hotel/bed & breakfast/guest house,7842,10,,70732,0,,54.66403700000000,16/1241/0020/000X,824,env.services@northdown.gov.uk,North Down,http://www.northdown.gov.uk,-5.66805400000000,BT20 5ED,2014-11-11,fhrs_4_en-GB,4,,FHRS,10
413304,UNIT 73 ENTERPRISE HOUSE,2/4 BALLOO AVENUE,BANGOR,CO DOWN,THE MARSHMALLOW GROVE,Manufacturers/packers,7839,5,,505780,0,,54.64229900000000,10/0606/0002/0079,824,env.services@northdown.gov.uk,North Down,http://www.northdown.gov.uk,-5.67168400000000,BT19 7QT,2013-01-18,fhrs_5_en-GB,5,,FHRS,5
413305,"13/15, MAIN STREET",CRAWFORDSBURN,BANGOR,CO DOWN,THE OLD INN,Hotel/bed & breakfast/guest house,7842,5,,53196,5,,54.65881300000000,12/1185/0013/0001,824,env.services@northdown.gov.uk,North Down,http://www.northdown.gov.uk,-5.72838000000000,BT19 1JH,2012-09-06,fhrs_5_en-GB,5,,FHRS,5
413306,39 BALLOO ROAD,BANGOR,CO DOWN,,THE PIT STOP CAFE,Restaurant/Cafe/Canteen,1,5,,31820,5,,54.64050600000000,09/1421/0039/0003,824,env.services@northdown.gov.uk,North Down,http://www.northdown.gov.uk,-5.66067900000000,BT19 7PG,2014-05-19,fhrs_4_en-GB,4,,FHRS,10
413307,BANGOR,CO DOWN,,,THE PITSTOP TAKEAWAY,Takeaway/sandwich shop,7844,0,,713039,5,,54.64050600000000,10/0169/0039/0003,824,env.services@northdown.gov.uk,North Down,http://www.northdown.gov.uk,-5.66067900000000,BT19 7PG,2014-08-18,fhrs_5_en-GB,5,,FHRS,5
413308,6 DUFFERIN AVENUE,BANGOR,CO DOWN,,THE PLAICE TO GO,Restaurant/Cafe/Canteen,1,5,,70516,0,,54.65962600000000,16/0587/0006/0003,824,env.services@northdown.gov.uk,North Down,http://www.northdown.gov.uk,-5.67089500000000,BT20 3AA,2013-07-23,fhrs_5_en-GB,5,,FHRS,5
413309,30/32 QUAY STREET,BANGOR,CO DOWN,,THE RABBIT ROOMS,Restaurant/Cafe/Canteen,1,10,,70738,5,,54.66403700000000,16/1249/0030/0004,824,env.services@northdown.gov.uk,North Down,http://www.northdown.gov.uk,-5.66805400000000,BT20 5ED,2013-07-25,fhrs_4_en-GB,4,,FHRS,5
413310,"2, MAIN STREET",BANGOR,CO DOWN,,THE RED BERRY COFFEE CO & PHEZULU RESTAU,Restaurant/Cafe/Canteen,1,5,,13196,5,,54.67498654000000,04/1006/0002/0001,824,env.services@northdown.gov.uk,North Down,http://www.northdown.gov.uk,-5.61538549000000,,2014-03-10,fhrs_5_en-GB,5,,FHRS,5
413311,"11, STATION ROAD",CRAIGAVAD,HOLYWOOD,CO DOWN,THE ROYAL BELFAST GOLF CLUB,Pub/bar/nightclub,7843,5,,49516,5,,54.65798600000000,11/1600/0011/0000,824,env.services@northdown.gov.uk,North Down,http://www.northdown.gov.uk,-5.79545600000000,BT18 0BP,2009-07-09,fhrs_5_en-GB,5,,FHRS,5
413312,"6, KILCOOLEY SQUARE",BANGOR,CO DOWN,,THE SQUARE CENTRE,Restaurant/Cafe/Canteen,1,5,,63297,5,,54.64845300000000,14/0462/0006/0003,824,env.services@northdown.gov.uk,North Down,http://www.northdown.gov.uk,-5.69888200000000,BT19 1SH,2014-08-21,fhrs_5_en-GB,5,,FHRS,0
413313,1b DONAGHADEE ROAD,GROOMSPORT,CO DOWN,,THE STABLES / GORDON'S WINE BAR,Restaurant/Cafe/Canteen,1,5,,67101,0,,54.67407800000000,15/0670/0018/0009,824,env.services@northdown.gov.uk,North Down,http://www.northdown.gov.uk,-5.61516500000000,BT19 6LG,2012-08-31,fhrs_5_en-GB,5,,FHRS,5
413314,139/141 BELFAST ROAD,BANGOR,CO DOWN,,THE STREAT AT SPAR,Takeaway/sandwich shop,7844,10,,31498,5,,54.65556400000000,09/0287/0139/0023,824,env.services@northdown.gov.uk,North Down,http://www.northdown.gov.uk,-5.68306000000000,BT20 3PP,2014-03-04,fhrs_4_en-GB,4,,FHRS,5
413315,,,,,THE SUMMERHILL CAKE CO,Other catering premises,7841,5,,619260,0,,,11/0555/0066/0000,824,env.services@northdown.gov.uk,North Down,http://www.northdown.gov.uk,,,2013-09-23,fhrs_5_en-GB,5,,FHRS,0
413316,13 THORNLEIGH GARDENS,BANGOR,CO DOWN,,THE TRUE FOOD CAFE,Restaurant/Cafe/Canteen,1,5,,619256,0,,54.65959100000000,06/1066/0013/0001,824,env.services@northdown.gov.uk,North Down,http://www.northdown.gov.uk,-5.64585000000000,BT20 4NW,2013-11-05,fhrs_5_en-GB,5,,FHRS,0
413317,,,,,THE WEE CAKE COMPANY,Other catering premises,7841,5,,624042,0,,,12/145X/0475/0004,824,env.services@northdown.gov.uk,North Down,http://www.northdown.gov.uk,,,2013-12-12,fhrs_5_en-GB,5,,FHRS,0
413318,18 HIGH STREET,BANGOR,CO DOWN,,THE WEE SHOP,Retailers - other,4613,10,,624043,5,,54.66346600000000,16/0676/0018/0009,824,env.services@northdown.gov.uk,North Down,http://www.northdown.gov.uk,-5.66684600000000,BT20 5AY,2013-12-10,fhrs_3_en-GB,3,,FHRS,10
413319,48C HIGH STREET,HOLYWOOD,CO DOWN,,THE WHALLEY GALLERY,Restaurant/Cafe/Canteen,1,10,,73826,5,,54.64106500000000,17/0582/0048/0037,824,env.services@northdown.gov.uk,North Down,http://www.northdown.gov.uk,-5.83519400000000,BT18 9AE,2013-04-23,fhrs_4_en-GB,4,,FHRS,5
413320,87 HIGH STREET,BANGOR,,,THOMAS FAMILY BUTCHER,Retailers - other,4613,5,,316006,5,,54.66324600000000,16/0676/0087/0005,824,env.services@northdown.gov.uk,North Down,http://www.northdown.gov.uk,-5.66241000000000,BT20 5BB,2013-02-26,fhrs_5_en-GB,5,,FHRS,0
413321,68 GROOMSPORT ROAD,BANGOR,CO DOWN,,TIDDLI-WINKS PLAYGROUP,Retailers - other,4613,,,2681,,,54.66292800000000,01/0461/0068/0001,824,env.services@northdown.gov.uk,North Down,http://www.northdown.gov.uk,-5.64508300000000,BT20 5NE,2009-02-03,fhrs_exempt_en-GB,Exempt,,FHRS,
413322,MOIRA DRIVE,BANGOR,CO DOWN,,TONIC FOLD,Hospitals/Childcare/Caring Premises,5,5,,676490,5,,54.66157400000000,06/1007/0000/0000,824,env.services@northdown.gov.uk,North Down,http://www.northdown.gov.uk,-5.66005700000000,BT20 4XY,2014-05-01,fhrs_5_en-GB,5,,FHRS,5
413323,41 BANGOR ROAD,HOLYWOOD,CO DOWN,,TORGRANGE FILLING STN & SUPERMARKET,Retailers - supermarkets/hypermarkets,7840,0,,316009,0,,54.64512000000000,18/0286/0041/0004,824,env.services@northdown.gov.uk,North Down,http://www.northdown.gov.uk,-5.81632500000000,BT18 0NE,2012-01-12,fhrs_4_en-GB,4,,FHRS,10
413324,"88, TOWERVIEW CRESCENT",BANGOR,CO DOWN,,TOWERVIEW PRIMARY SCHOOL KITCHEN,School/college/university,7845,5,,6102,0,,54.64333700000000,02/1423/0088/0000,824,env.services@northdown.gov.uk,North Down,http://www.northdown.gov.uk,-5.66298400000000,BT19 2AZ,2014-06-13,fhrs_5_en-GB,5,,FHRS,0
413325,"26, MANSE ROAD",BANGOR,,,TRINITY NURSERY SCHOOL DINING CENTRE,School/college/university,7845,,,23666,,,54.65740000000000,07/070X/0026/0002,824,env.services@northdown.gov.uk,North Down,http://www.northdown.gov.uk,-5.67711300000000,BT20 3DY,2013-08-12,fhrs_exempt_en-GB,Exempt,,FHRS,
413326,"33, MAIN STREET",BANGOR,CO DOWN,,TRINITY PRESBYTERIAN CHURCH,Other catering premises,7841,10,,70625,5,,54.66161400000000,16/0857/0033/0000,824,env.services@northdown.gov.uk,North Down,http://www.northdown.gov.uk,-5.66772700000000,BT20 5AF,2009-07-27,fhrs_4_en-GB,4,,FHRS,5
413327,19A CHURCH AVENUE,HOLYWOOD,CO DOWN,,TWISEL LODGE RESIDENTIAL HOME,Hospitals/Childcare/Caring Premises,5,5,,76451,0,,54.63999900000000,18/0378/0019/0101,824,env.services@northdown.gov.uk,North Down,http://www.northdown.gov.uk,-5.82637400000000,BT18 9BJ,2014-10-02,fhrs_5_en-GB,5,,FHRS,5
413328,"212, OLD HOLYWOOD ROAD",HOLYWOOD,CO DOWN,,TWO-ONE-TWO,Hospitals/Childcare/Caring Premises,5,10,,79113,5,,54.62293500000000,19/046X/0212/0003,824,env.services@northdown.gov.uk,North Down,http://www.northdown.gov.uk,-5.84236600000000,BT18 9QS,2013-08-06,fhrs_4_en-GB,4,,FHRS,5
413329,EDUCATION CENTRE,153 BANGOR ROAD,HOLYWOOD,CO DOWN,ULSTER FOLK & TRANSPORT MUSEUM,Retailers - other,4613,5,,447063,5,,54.64953600000000,18/0286/0153/0038,824,env.services@northdown.gov.uk,North Down,http://www.northdown.gov.uk,-5.79771100000000,BT18 0EU,2014-03-20,fhrs_5_en-GB,5,,FHRS,5
413330,MIDLAND KIOSK: RAILWAY EXHIBIT,153 BANGOR ROAD,HOLYWOOD,CO DOWN,ULSTER FOLK & TRANSPORT MUSEUM,Restaurant/Cafe/Canteen,1,0,,447064,5,,54.64953600000000,18/0286/0153/0046,824,env.services@northdown.gov.uk,North Down,http://www.northdown.gov.uk,-5.79771100000000,BT18 0EU,2014-06-04,fhrs_5_en-GB,5,,FHRS,0
413331,STAFF CANTEEN,153 BANGOR ROAD,HOLYWOOD,CO DOWN,ULSTER FOLK & TRANSPORT MUSEUM,Restaurant/Cafe/Canteen,1,5,,447060,5,,54.64953600000000,18/0286/0153/0003,824,env.services@northdown.gov.uk,North Down,http://www.northdown.gov.uk,-5.79771100000000,BT18 0EU,2014-03-20,fhrs_5_en-GB,5,,FHRS,5
413332,THE MANOR HOUSE,153 BANGOR ROAD,HOLYWOOD,CO DOWN,ULSTER FOLK & TRANSPORT MUSEUM,Restaurant/Cafe/Canteen,1,5,,447061,0,,54.64953600000000,18/0286/0153/0011,824,env.services@northdown.gov.uk,North Down,http://www.northdown.gov.uk,-5.79771100000000,BT18 0EU,2014-03-20,fhrs_5_en-GB,5,,FHRS,5
413333,THE TEA ROOM,153 BANGOR ROAD,HOLYWOOD,CO DOWN,ULSTER FOLK & TRANSPORT MUSEUM,Restaurant/Cafe/Canteen,1,5,,447062,0,,54.64953600000000,18/0286/0153/002X,824,env.services@northdown.gov.uk,North Down,http://www.northdown.gov.uk,-5.79771100000000,BT18 0EU,2014-03-20,fhrs_5_en-GB,5,,FHRS,5
413334,3 HIBERNIA STREET,HOLYWOOD,CO DOWN,,VENTNORS,Restaurant/Cafe/Canteen,1,10,,73817,5,,54.64132200000000,17/0558/0003/0007,824,env.services@northdown.gov.uk,North Down,http://www.northdown.gov.uk,-5.83652800000000,BT18 9JE,2013-11-05,fhrs_4_en-GB,4,,FHRS,5
413335,106 BELFAST ROAD,HOLYWOOD,CO DOWN,,VIRGIN ACTIVE HEALTH CLUB,Restaurant/Cafe/Canteen,1,5,,73743,5,,54.62386400000000,17/0132/0106/0007,824,env.services@northdown.gov.uk,North Down,http://www.northdown.gov.uk,-5.85112800000000,BT18 9QY,2014-02-13,fhrs_5_en-GB,5,,FHRS,5
413336,35/37 MAIN STREET,GROOMSPORT,CO DOWN,,WALTER NELSON HALLS,Retailers - other,4613,,,67191,,,54.67573100000000,15/1189/0002/0001,824,env.services@northdown.gov.uk,North Down,http://www.northdown.gov.uk,-5.61883600000000,BT19 6JR,2010-08-19,fhrs_exempt_en-GB,Exempt,,FHRS,
413337,"16, CRONSTON COURT",BANGOR,CO DOWN,,WARD HOUSE HOSTEL,Hospitals/Childcare/Caring Premises,5,10,,36615,0,,54.63719700000000,10/0498/0016/0008,824,env.services@northdown.gov.uk,North Down,http://www.northdown.gov.uk,-5.65687200000000,BT19 7YU,2014-10-10,fhrs_4_en-GB,4,,FHRS,5
413338,"108, MAIN STREET",BANGOR,CO DOWN,,WARD'S,Restaurant/Cafe/Canteen,1,10,,70630,5,,54.66020100000000,16/0857/0108/0008,824,env.services@northdown.gov.uk,North Down,http://www.northdown.gov.uk,-5.66901700000000,BT20 4AG,2011-07-26,fhrs_3_en-GB,3,,FHRS,10
413339,"5, HAMILTON RD",BANGOR,CO DOWN,,WESLEY CENTENARY METHODIST CHURCH,Restaurant/Cafe/Canteen,1,5,,2702,0,,54.66092800000000,01/0499/0005/0008,824,env.services@northdown.gov.uk,North Down,http://www.northdown.gov.uk,-5.66617000000000,BT20 4JP,2010-05-13,fhrs_5_en-GB,5,,FHRS,5
413340,40/42 HIGH STREET,HOLYWOOD,CO DOWN,,WILLIAM CORRIE,Retailers - other,4613,5,,691138,5,,54.64220300000000,17/0582/0040/0009,824,env.services@northdown.gov.uk,North Down,http://www.northdown.gov.uk,-5.83353800000000,BT18 9AD,2014-06-18,fhrs_5_en-GB,5,,FHRS,5
413341,9/11 KING STREET,BANGOR,CO DOWN,,WINNING POST,Pub/bar/nightclub,7843,5,,70607,0,,54.66166400000000,16/0792/0015/0002,824,env.services@northdown.gov.uk,North Down,http://www.northdown.gov.uk,-5.66938300000000,BT20 3AH,2014-07-22,fhrs_4_en-GB,4,,FHRS,10
413342,31 HIGH STREET,BANGOR,CO DOWN,,WOK,Takeaway/sandwich shop,7844,10,,619266,10,,54.66371400000000,16/0676/0031/000X,824,env.services@northdown.gov.uk,North Down,http://www.northdown.gov.uk,-5.66666200000000,BT20 5BG,2013-11-11,fhrs_3_en-GB,3,,FHRS,10
413343,"24, HIGH STREET",BANGOR,CO DOWN,,WOLSEYS,Restaurant/Cafe/Canteen,1,10,,70559,10,,54.66346600000000,16/0679/0024/0001,824,env.services@northdown.gov.uk,North Down,http://www.northdown.gov.uk,-5.66684600000000,BT20 5AY,2013-07-26,fhrs_3_en-GB,3,,FHRS,5
413344,24 BRIDGE ROAD SOUTH,HELEN'S BAY,BANGOR,CO DOWN,WOODLANDS CAFE NI LTD,Restaurant/Cafe/Canteen,1,5,,660674,5,,,11/0318/0024/0001,824,env.services@northdown.gov.uk,North Down,http://www.northdown.gov.uk,,BT19 1FT,2014-03-14,fhrs_5_en-GB,5,,FHRS,5
413345,1 MOSSWOOD CLOSE,RATHGAEL ROAD,BANGOR,CO DOWN,WOODLANDS JUVENILE JUSTICE CENTRE,Restaurant/Cafe/Canteen,1,5,,31826,5,,54.64185700000000,09/1429/0167/000X,824,env.services@northdown.gov.uk,North Down,http://www.northdown.gov.uk,-5.68421200000000,BT19 1TA,2013-11-18,fhrs_5_en-GB,5,,FHRS,5
413346,68 HIGH STREET,HOLYWOOD,CO DOWN,,YEA YO,Restaurant/Cafe/Canteen,1,5,,691139,5,,54.64106500000000,17/0582/0068/0001,824,env.services@northdown.gov.uk,North Down,http://www.northdown.gov.uk,-5.83519400000000,BT18 9AE,2014-07-03,fhrs_5_en-GB,5,,FHRS,5
413347,,,,,YUM,Other catering premises,7841,5,,576960,0,,,14/1019/0025/0007,824,env.services@northdown.gov.uk,North Down,http://www.northdown.gov.uk,,,2013-05-29,fhrs_5_en-GB,5,,FHRS,0
