,addressline1,addressline2,addressline3,addressline4,businessname,businesstype,businesstypeid,confidenceinmanagement,extractdate,fhrsid,hygiene,itemcount,latitude,localauthoritybusinessid,localauthoritycode,localauthorityemailaddress,localauthorityname,localauthoritywebsite,longitude,postcode,ratingdate,ratingkey,ratingvalue,returncode,schemetype,structural
144520,,125 Stockton Road,Hartlepool,,11 O'clock Shop,Retailers - other,4613,0,,259089,0,,54.67639900000000,5603,859,jane.kett@hartlepool.gov.uk,Hartlepool,http://www.hartlepool.gov.uk,-1.21538200000000,TS25 1SL,2013-01-03,fhrs_5_en-GB,5,,FHRS,5
144521,,Trunk Road A19,Hartlepool,,A19 (North) Service Station,Restaurant/Cafe/Canteen,1,5,,259245,0,,54.65522700000000,6107,859,jane.kett@hartlepool.gov.uk,Hartlepool,http://www.hartlepool.gov.uk,-1.30840300000000,TS27 3HH,2014-03-31,fhrs_5_en-GB,5,,FHRS,5
144522,,Trunk Road A19,Hartlepool,,A19 (South) Service Station,Restaurant/Cafe/Canteen,1,5,,259520,5,,54.65522700000000,6118,859,jane.kett@hartlepool.gov.uk,Hartlepool,http://www.hartlepool.gov.uk,-1.30840300000000,TS27 3HH,2014-07-02,fhrs_5_en-GB,5,,FHRS,5
144523,,46-48 Station Lane,Hartlepool,,Aarondale Hotel,Hotel/bed & breakfast/guest house,7842,5,,259485,0,,54.66133500000000,3331,859,jane.kett@hartlepool.gov.uk,Hartlepool,http://www.hartlepool.gov.uk,-1.19183000000000,TS25 1BG,2014-10-02,fhrs_5_en-GB,5,,FHRS,0
144524,,Cleveland Road,Hartlepool,,Admiral Court Care Home,Hospitals/Childcare/Caring Premises,5,5,,259053,0,,54.70232400000000,2444,859,jane.kett@hartlepool.gov.uk,Hartlepool,http://www.hartlepool.gov.uk,-1.20262300000000,TS24 0SY,2014-06-25,fhrs_5_en-GB,5,,FHRS,5
144525,"Unit E, Sovereign Park",Brenda Road,Hartlepool,,Advanced Education Hartlepool School,School/college/university,7845,5,,447109,5,,54.66140900000000,51626,859,jane.kett@hartlepool.gov.uk,Hartlepool,http://www.hartlepool.gov.uk,-1.20838500000000,TS25 1NN,2013-03-06,fhrs_5_en-GB,5,,FHRS,5
144526,Unit 2,Clavering Road,Hartlepool,,Alchino's Pizzeria,Takeaway/sandwich shop,7844,5,,259571,5,,54.70851000000000,7345,859,jane.kett@hartlepool.gov.uk,Hartlepool,http://www.hartlepool.gov.uk,-1.24369300000000,TS27 3PQ,2013-07-18,fhrs_5_en-GB,5,,FHRS,5
144527,The Parade,Grange Road,Hartlepool,,Aldersyde Day Nursery,Hospitals/Childcare/Caring Premises,5,0,,259639,0,,54.68554900000000,2484,859,jane.kett@hartlepool.gov.uk,Hartlepool,http://www.hartlepool.gov.uk,-1.23668900000000,TS26 0DS,2014-03-28,fhrs_5_en-GB,5,,FHRS,0
144528,,Dunston Road,Hartlepool,,Aldi,Retailers - supermarkets/hypermarkets,7840,0,,259687,0,,54.68960100000000,2589,859,jane.kett@hartlepool.gov.uk,Hartlepool,http://www.hartlepool.gov.uk,-1.24500600000000,TS26 0EN,2013-02-13,fhrs_5_en-GB,5,,FHRS,0
144529,Teesbay Retail Park,Brenda Road,Hartlepool,,Aldi,Retailers - supermarkets/hypermarkets,7840,0,,259390,0,,54.66575100000000,1220,859,jane.kett@hartlepool.gov.uk,Hartlepool,http://www.hartlepool.gov.uk,-1.20999000000000,TS25 1XJ,2012-10-19,fhrs_5_en-GB,5,,FHRS,0
144530,,11 Davison Drive,Hartlepool,,Allen Bakery and Greengrocer,Retailers - other,4613,10,,259241,5,,54.70482400000000,64,859,jane.kett@hartlepool.gov.uk,Hartlepool,http://www.hartlepool.gov.uk,-1.22780800000000,TS24 9BN,2014-03-27,fhrs_2_en-GB,2,,FHRS,15
144531,,,,,Allergies Made Easy,Retailers - other,4613,5,,606602,0,,,55826,859,jane.kett@hartlepool.gov.uk,Hartlepool,http://www.hartlepool.gov.uk,,,2013-12-05,fhrs_5_en-GB,5,,FHRS,0
144532,,33 The Front,Hartlepool,,Allsorts,Retailers - other,4613,10,,259131,0,,54.66002200000000,5620,859,jane.kett@hartlepool.gov.uk,Hartlepool,http://www.hartlepool.gov.uk,-1.18763900000000,TS25 1BS,2012-08-22,fhrs_4_en-GB,4,,FHRS,5
144533,,18 Brus Corner,Hartlepool,,Al's Pizzeria,Takeaway/sandwich shop,7844,5,,259624,5,,54.70903400000000,7037,859,jane.kett@hartlepool.gov.uk,Hartlepool,http://www.hartlepool.gov.uk,-1.22152000000000,TS24 9LA,2013-04-17,fhrs_4_en-GB,4,,FHRS,10
144534,,19 The Green,Seaton Carew,Hartlepool,Altonlea Lodge Guest House,Hotel/bed & breakfast/guest house,7842,0,,259178,0,,54.66215700000000,596,859,jane.kett@hartlepool.gov.uk,Hartlepool,http://www.hartlepool.gov.uk,-1.18838700000000,TS25 1AT,2013-04-17,fhrs_5_en-GB,5,,FHRS,0
144535,,2 Heather Grove,Hartlepool,,Alzheimers Day Centre,Hospitals/Childcare/Caring Premises,5,5,,259379,0,,54.69818700000000,3132,859,jane.kett@hartlepool.gov.uk,Hartlepool,http://www.hartlepool.gov.uk,-1.22993500000000,TS24 8QZ,2013-09-30,fhrs_5_en-GB,5,,FHRS,0
144536,,Croft Terrace,Hartlepool,,Amerigo's Traditional Ice Cream W312 YEC,Retailers - other,4613,10,,680608,5,,54.69467800000000,55302,859,jane.kett@hartlepool.gov.uk,Hartlepool,http://www.hartlepool.gov.uk,-1.18261900000000,TS24 0QX,2014-07-14,fhrs_4_en-GB,4,,FHRS,5
144537,,South Crescent,Hartlepool,,Amerigo's Traditional Ice Cream W840 XCP,Retailers - other,4613,10,,688642,5,,54.69466600000000,56637,859,jane.kett@hartlepool.gov.uk,Hartlepool,http://www.hartlepool.gov.uk,-1.17821300000000,TS24 0QG,2014-09-09,fhrs_4_en-GB,4,,FHRS,5
144538,,122 Oxford Road,Hartlepool,,Amore,Takeaway/sandwich shop,7844,20,,655925,20,,54.67450900000000,56325,859,jane.kett@hartlepool.gov.uk,Hartlepool,http://www.hartlepool.gov.uk,-1.22179200000000,TS25 5RH,2014-11-20,fhrs_1_en-GB,1,,FHRS,10
144539,,69-71 Jutland Road,Hartlepool,,Ananth's,Retailers - other,4613,10,,259189,5,,54.65982600000000,6117,859,jane.kett@hartlepool.gov.uk,Hartlepool,http://www.hartlepool.gov.uk,-1.21653900000000,TS25 1LP,2013-04-16,fhrs_3_en-GB,3,,FHRS,10
144540,,27b Park View Road West,Hartlepool,,Andersons Bakery,Retailers - other,4613,5,,655914,5,,54.66077200000000,13969,859,jane.kett@hartlepool.gov.uk,Hartlepool,http://www.hartlepool.gov.uk,-1.21278400000000,TS25 1UD,2014-05-12,fhrs_4_en-GB,4,,FHRS,10
144541,,62 Owton Manor Lane,Hartlepool,,Ange's Chippy,Takeaway/sandwich shop,7844,10,,259563,5,,54.65867300000000,52070,859,jane.kett@hartlepool.gov.uk,Hartlepool,http://www.hartlepool.gov.uk,-1.23007800000000,TS25 3AU,2013-09-13,fhrs_4_en-GB,4,,FHRS,5
144542,,120 Northgate,Hartlepool,,ARAS Convenience Store,Retailers - other,4613,10,,632804,0,,54.70115700000000,56167,859,jane.kett@hartlepool.gov.uk,Hartlepool,http://www.hartlepool.gov.uk,-1.19195400000000,TS24 0EJ,2014-02-12,fhrs_4_en-GB,4,,FHRS,10
144543,,Marina Way,Hartlepool,,Asda (Main Store),Retailers - supermarkets/hypermarkets,7840,0,,259194,0,,54.69052700000000,1397,859,jane.kett@hartlepool.gov.uk,Hartlepool,http://www.hartlepool.gov.uk,-1.21118500000000,TS24 0XR,2012-11-20,fhrs_5_en-GB,5,,FHRS,0
144544,Asda,Marina Way,Hartlepool,,Asda Cafe,Restaurant/Cafe/Canteen,1,0,,706429,0,,54.69052700000000,56767,859,jane.kett@hartlepool.gov.uk,Hartlepool,http://www.hartlepool.gov.uk,-1.21118500000000,TS24 0XR,2014-11-20,fhrs_5_en-GB,5,,FHRS,0
144545,Asda,Marina Way,Hartlepool,,Asda Staff Restaurant,Restaurant/Cafe/Canteen,1,0,,259501,0,,54.69052700000000,2701,859,jane.kett@hartlepool.gov.uk,Hartlepool,http://www.hartlepool.gov.uk,-1.21118500000000,TS24 0XR,2012-08-01,fhrs_5_en-GB,5,,FHRS,5
144546,Ashfield Caravan Park,Dalton Piercy Road,Dalton Piercy,Hartlepool,Ashfield Caravan Park Clubhouse,Pub/bar/nightclub,7843,5,,259121,0,,54.67823300000000,6424,859,jane.kett@hartlepool.gov.uk,Hartlepool,http://www.hartlepool.gov.uk,-1.26868200000000,TS27 3HY,2014-09-24,fhrs_5_en-GB,5,,FHRS,0
144547,,224b Owton Manor Lane,Hartlepool,,Atkinson & Co Allsorts Store,Retailers - other,4613,,,259306,,,54.65777300000000,7579,859,jane.kett@hartlepool.gov.uk,Hartlepool,http://www.hartlepool.gov.uk,-1.24564300000000,TS25 3QD,2014-06-25,fhrs_exempt_en-GB,Exempt,,FHRS,
144548,,Lauder Street,Hartlepool,,Avenue,Restaurant/Cafe/Canteen,1,5,,564599,5,,54.68625100000000,55325,859,jane.kett@hartlepool.gov.uk,Hartlepool,http://www.hartlepool.gov.uk,-1.21564200000000,TS24 8BB,2014-02-11,fhrs_5_en-GB,5,,FHRS,5
144549,Unit 4,The Highlight,Hartlepool,,B & M Retail Ltd,Retailers - other,4613,,,259404,,,54.69287000000000,6859,859,jane.kett@hartlepool.gov.uk,Hartlepool,http://www.hartlepool.gov.uk,-1.20539900000000,TS24 0UX,2014-10-23,fhrs_exempt_en-GB,Exempt,,FHRS,
144550,,57 Church Street,Hartlepool,,Baan Thai,Restaurant/Cafe/Canteen,1,5,,683109,5,,54.68653500000000,56610,859,jane.kett@hartlepool.gov.uk,Hartlepool,http://www.hartlepool.gov.uk,-1.20682600000000,TS24 7DX,2015-01-13,fhrs_5_en-GB,5,,FHRS,0
144551,,,,,Bake That,Retailers - other,4613,0,,535330,0,,,55105,859,jane.kett@hartlepool.gov.uk,Hartlepool,http://www.hartlepool.gov.uk,,,2013-05-10,fhrs_5_en-GB,5,,FHRS,0
144552,,232 Owton Manor Lane,Hartlepool,,Bakewells,Takeaway/sandwich shop,7844,5,,430790,0,,54.65777300000000,356,859,jane.kett@hartlepool.gov.uk,Hartlepool,http://www.hartlepool.gov.uk,-1.24564300000000,TS25 3QD,2014-11-04,fhrs_5_en-GB,5,,FHRS,5
144553,,56 Owton Manor Lane,Hartlepool,,Bambinos,Takeaway/sandwich shop,7844,5,,259317,5,,54.65867300000000,3058,859,jane.kett@hartlepool.gov.uk,Hartlepool,http://www.hartlepool.gov.uk,-1.23007800000000,TS25 3AU,2014-03-19,fhrs_5_en-GB,5,,FHRS,5
144554,,31-33 Murray Street,Hartlepool,,Bangla Bazaar,Retailers - other,4613,,,730033,,,54.68813600000000,57041,859,jane.kett@hartlepool.gov.uk,Hartlepool,http://www.hartlepool.gov.uk,-1.21946800000000,TS26 8PQ,,fhrs_awaitinginspection_en-GB,AwaitingInspection,,FHRS,
144555,,Ferry Road,Hartlepool,,Banjo Club,Pub/bar/nightclub,7843,5,,409821,0,,54.69486000000000,51071,859,jane.kett@hartlepool.gov.uk,Hartlepool,http://www.hartlepool.gov.uk,-1.19097800000000,TS24 0RY,2012-10-04,fhrs_5_en-GB,5,,FHRS,0
144556,,Navigation Point,Middleton Road,Hartlepool,Bar 516,Pub/bar/nightclub,7843,5,,259014,5,,54.69195200000000,7344,859,jane.kett@hartlepool.gov.uk,Hartlepool,http://www.hartlepool.gov.uk,-1.19825000000000,TS24 0UH,2013-01-16,fhrs_5_en-GB,5,,FHRS,5
144557,,6-8 Victoria Road,Hartlepool,,Bar Paris,Pub/bar/nightclub,7843,5,,259327,0,,54.68548900000000,244,859,jane.kett@hartlepool.gov.uk,Hartlepool,http://www.hartlepool.gov.uk,-1.21602900000000,TS24 7SD,2014-03-24,fhrs_5_en-GB,5,,FHRS,5
144558,20-22 Navigation Point,Middleton Road,Hartlepool,,Bar V,Pub/bar/nightclub,7843,5,,259431,0,,54.69189000000000,1040,859,jane.kett@hartlepool.gov.uk,Hartlepool,http://www.hartlepool.gov.uk,-1.19853000000000,TS24 0UG,2013-09-26,fhrs_5_en-GB,5,,FHRS,0
144559,,Barnard Grove,Hartlepool,,Barnard Grove Primary School,School/college/university,7845,0,,259455,0,,54.71626100000000,2204,859,jane.kett@hartlepool.gov.uk,Hartlepool,http://www.hartlepool.gov.uk,-1.24438700000000,TS24 9SD,2015-01-07,fhrs_5_en-GB,5,,FHRS,5
144560,,119 Elwick Road,Hartlepool,,Bebes Sandwich Shop,Takeaway/sandwich shop,7844,5,,259092,0,,54.67916200000000,1443,859,jane.kett@hartlepool.gov.uk,Hartlepool,http://www.hartlepool.gov.uk,-1.22285100000000,TS26 9BQ,2014-11-07,fhrs_5_en-GB,5,,FHRS,0
144561,Belle Vue Sports Centre,Kendal Road,Hartlepool,,Belle Vue Bistro,Restaurant/Cafe/Canteen,1,0,,259681,0,,54.67243100000000,3423,859,jane.kett@hartlepool.gov.uk,Hartlepool,http://www.hartlepool.gov.uk,-1.21040400000000,TS25 1QU,2014-07-14,fhrs_5_en-GB,5,,FHRS,5
144562,"Units 1-2, Belle Vue",Belle Vue Way,Hartlepool,,Belle Vue Store,Retailers - other,4613,10,,455911,0,,54.66924200000000,54183,859,jane.kett@hartlepool.gov.uk,Hartlepool,http://www.hartlepool.gov.uk,-1.21198500000000,TS25 1QW,2012-10-10,fhrs_4_en-GB,4,,FHRS,5
144563,,Kendal Road,Hartlepool,,Belle Vue Way Social Club,Pub/bar/nightclub,7843,10,,258984,0,,54.67243100000000,1554,859,jane.kett@hartlepool.gov.uk,Hartlepool,http://www.hartlepool.gov.uk,-1.21040400000000,TS25 1QU,2014-01-31,fhrs_4_en-GB,4,,FHRS,10
144564,,2 Sydenham Road,Hartlepool,,Belle Vue Wines,Retailers - other,4613,5,,259612,0,,54.67362900000000,6657,859,jane.kett@hartlepool.gov.uk,Hartlepool,http://www.hartlepool.gov.uk,-1.21355900000000,TS25 1QB,2012-04-13,fhrs_4_en-GB,4,,FHRS,10
144565,,,,,Berry's Kitchen,Retailers - other,4613,5,,578509,0,,,55460,859,jane.kett@hartlepool.gov.uk,Hartlepool,http://www.hartlepool.gov.uk,,,2013-12-23,fhrs_5_en-GB,5,,FHRS,0
144566,,106 Brenda Road,Hartlepool,,Best-One,Retailers - other,4613,5,,258977,0,,54.67130000000000,1289,859,jane.kett@hartlepool.gov.uk,Hartlepool,http://www.hartlepool.gov.uk,-1.21340300000000,TS25 1QD,2014-12-03,fhrs_5_en-GB,5,,FHRS,0
144567,,94 Middleton Grange Centre,Hartlepool,,BHS,Restaurant/Cafe/Canteen,1,5,,259202,5,,54.70172600000000,6910,859,jane.kett@hartlepool.gov.uk,Hartlepool,http://www.hartlepool.gov.uk,-1.21856800000000,TS24 7RN,2014-01-14,fhrs_5_en-GB,5,,FHRS,5
144568,7 Navigation Point,Middleton Road,Hartlepool,,Bianco's Deli,Takeaway/sandwich shop,7844,5,,259632,10,,54.69189000000000,4517,859,jane.kett@hartlepool.gov.uk,Hartlepool,http://www.hartlepool.gov.uk,-1.19853000000000,TS24 0UG,2013-11-08,fhrs_4_en-GB,4,,FHRS,5
144569,,113 Raby Road,Hartlepool,,Bits & Pieces,Retailers - other,4613,,,508729,,,54.69011100000000,54694,859,jane.kett@hartlepool.gov.uk,Hartlepool,http://www.hartlepool.gov.uk,-1.21784800000000,TS24 8DT,2013-02-14,fhrs_exempt_en-GB,Exempt,,FHRS,
144570,10-12 Navigation Point,Middleton Road,Hartlepool,,Black Olive,Pub/bar/nightclub,7843,5,,259218,0,,54.69189000000000,7285,859,jane.kett@hartlepool.gov.uk,Hartlepool,http://www.hartlepool.gov.uk,-1.19853000000000,TS24 0UG,2014-01-17,fhrs_5_en-GB,5,,FHRS,0
144571,,Stockton Road,Hartlepool,,Blackfords Garden Centre,Retailers - other,4613,5,,319484,5,,54.65343600000000,1279,859,jane.kett@hartlepool.gov.uk,Hartlepool,http://www.hartlepool.gov.uk,-1.22481400000000,TS25 2PN,2012-05-22,fhrs_4_en-GB,4,,FHRS,10
144572,,Stranton,Hartlepool,,Blacksmiths Arms,Pub/bar/nightclub,7843,5,,259307,0,,54.67999649047852,52244,859,jane.kett@hartlepool.gov.uk,Hartlepool,http://www.hartlepool.gov.uk,-1.21306407451630,TS24 7QT,2013-12-09,fhrs_5_en-GB,5,,FHRS,5
144573,,Stockton Road,Newton Bewley,Billingham,Blue Bells,Pub/bar/nightclub,7843,5,,259032,0,,54.63268800000000,51952,859,jane.kett@hartlepool.gov.uk,Hartlepool,http://www.hartlepool.gov.uk,-1.28074600000000,TS22 5PQ,2012-12-05,fhrs_4_en-GB,4,,FHRS,10
144574,,122 Stockton Road,Hartlepool,,Blue Cow Butchers,Retailers - other,4613,10,,259319,5,,54.67348100000000,4719,859,jane.kett@hartlepool.gov.uk,Hartlepool,http://www.hartlepool.gov.uk,-1.21576400000000,TS25 5AB,2013-11-21,fhrs_3_en-GB,3,,FHRS,10
144575,,25 Park Road,Hartlepool,,Blue Dragon Chop Suey House,Takeaway/sandwich shop,7844,5,,259216,5,,54.68234100000000,6791,859,jane.kett@hartlepool.gov.uk,Hartlepool,http://www.hartlepool.gov.uk,-1.21416600000000,TS24 7PW,2013-10-03,fhrs_5_en-GB,5,,FHRS,5
144576,,89 Middleton Grange Centre,Hartlepool,,Boots,Retailers - other,4613,0,,259303,0,,54.68428200000000,777,859,jane.kett@hartlepool.gov.uk,Hartlepool,http://www.hartlepool.gov.uk,-1.21411300000000,TS24 7RW,2012-07-02,fhrs_5_en-GB,5,,FHRS,5
144577,One Life Centre,Park Road,Hartlepool,,Boots,Retailers - other,4613,,,259546,,,54.68234100000000,8964,859,jane.kett@hartlepool.gov.uk,Hartlepool,http://www.hartlepool.gov.uk,-1.21416600000000,TS24 7PW,2013-11-06,fhrs_exempt_en-GB,Exempt,,FHRS,
144578,"Unit 7, Anchor Retail Park",Marina Way,Hartlepool,,Boots,Retailers - other,4613,0,,259289,0,,54.69052700000000,4382,859,jane.kett@hartlepool.gov.uk,Hartlepool,http://www.hartlepool.gov.uk,-1.21118500000000,TS24 0XR,2012-01-12,fhrs_5_en-GB,5,,FHRS,0
144579,,36 Mulgrave Road,Hartlepool,,Bosco Convenience Store,Retailers - other,4613,10,,540059,0,,54.68623300000000,53504,859,jane.kett@hartlepool.gov.uk,Hartlepool,http://www.hartlepool.gov.uk,-1.22687300000000,TS26 8EB,2013-05-24,fhrs_4_en-GB,4,,FHRS,5
144580,,161 Stockton Road,Hartlepool,,Brafferton Guest House,Hotel/bed & breakfast/guest house,7842,0,,259351,0,,54.67639900000000,796,859,jane.kett@hartlepool.gov.uk,Hartlepool,http://www.hartlepool.gov.uk,-1.21538200000000,TS25 1SL,2014-03-27,fhrs_5_en-GB,5,,FHRS,5
144581,,57-59 Hutton Avenue,Hartlepool,,Briar Court & Brackton Lodge,Hospitals/Childcare/Caring Premises,5,5,,259302,0,,54.68464900000000,3052,859,jane.kett@hartlepool.gov.uk,Hartlepool,http://www.hartlepool.gov.uk,-1.22235800000000,TS26 9PW,2013-05-21,fhrs_5_en-GB,5,,FHRS,0
144582,1 Brierton Shops,Brierton Lane,Hartlepool,,Brierton Fisheries,Takeaway/sandwich shop,7844,10,,259650,10,,54.66618000000000,835,859,jane.kett@hartlepool.gov.uk,Hartlepool,http://www.hartlepool.gov.uk,-1.24350200000000,TS25 4BX,2014-08-22,fhrs_3_en-GB,3,,FHRS,10
144583,,Brierton Lane,Hartlepool,,Brierton Lodge,Hospitals/Childcare/Caring Premises,5,0,,259537,0,,54.66531300000000,5477,859,jane.kett@hartlepool.gov.uk,Hartlepool,http://www.hartlepool.gov.uk,-1.23271200000000,TS25 5DR,2014-06-16,fhrs_5_en-GB,5,,FHRS,0
144584,6 Brierton Shops,Brierton Lane,Hartlepool,,Brierton Store,Retailers - other,4613,0,,452503,0,,54.66618000000000,53447,859,jane.kett@hartlepool.gov.uk,Hartlepool,http://www.hartlepool.gov.uk,-1.24350200000000,TS25 4BX,2012-09-17,fhrs_5_en-GB,5,,FHRS,0
144585,,Blakelock Road,Hartlepool,,Brinkburn Youth Centre,Other catering premises,7841,5,,259291,0,,54.67584700000000,3323,859,jane.kett@hartlepool.gov.uk,Hartlepool,http://www.hartlepool.gov.uk,-1.22734900000000,TS25 5PG,2012-12-13,fhrs_5_en-GB,5,,FHRS,5
144586,,40-42 Catcote Road,Hartlepool,,Britannia Fisheries,Takeaway/sandwich shop,7844,10,,259603,5,,54.67174400000000,1660,859,jane.kett@hartlepool.gov.uk,Hartlepool,http://www.hartlepool.gov.uk,-1.23640600000000,TS25 4HG,2014-02-12,fhrs_3_en-GB,3,,FHRS,10
144587,,Brougham Terrace,Hartlepool,,Brougham Primary School,School/college/university,7845,0,,258991,0,,54.69386900000000,2434,859,jane.kett@hartlepool.gov.uk,Hartlepool,http://www.hartlepool.gov.uk,-1.21659700000000,TS24 8EY,2013-05-15,fhrs_5_en-GB,5,,FHRS,5
144588,,Browning Avenue,Hartlepool,,Browning Avenue Baptist Church,Other catering premises,7841,5,,259119,5,,54.67393200000000,2885,859,jane.kett@hartlepool.gov.uk,Hartlepool,http://www.hartlepool.gov.uk,-1.23424000000000,TS25 5PS,2013-02-26,fhrs_5_en-GB,5,,FHRS,5
144589,,6 Brus Corner,Hartlepool,,Brus Bakers,Retailers - other,4613,5,,259663,10,,54.70903400000000,72,859,jane.kett@hartlepool.gov.uk,Hartlepool,http://www.hartlepool.gov.uk,-1.22152000000000,TS24 9LA,2014-01-14,fhrs_4_en-GB,4,,FHRS,5
144590,,8 High Street,Greatham,Hartlepool,Bull & Dog,Pub/bar/nightclub,7843,0,,655928,0,,54.64663900000000,56371,859,jane.kett@hartlepool.gov.uk,Hartlepool,http://www.hartlepool.gov.uk,-1.23999100000000,TS25 2EJ,2014-06-18,fhrs_5_en-GB,5,,FHRS,5
144591,,2 Stratford Road,Hartlepool,,Bungalow Stores,Retailers - other,4613,0,,259268,0,,54.67260200000000,352,859,jane.kett@hartlepool.gov.uk,Hartlepool,http://www.hartlepool.gov.uk,-1.21878900000000,TS25 5AR,2013-04-12,fhrs_5_en-GB,5,,FHRS,0
144592,28 Navigation Point,Middleton Road,Hartlepool,,Buon Cibo,Restaurant/Cafe/Canteen,1,5,,535327,5,,54.69189000000000,54155,859,jane.kett@hartlepool.gov.uk,Hartlepool,http://www.hartlepool.gov.uk,-1.19853000000000,TS24 0UG,2014-11-11,fhrs_5_en-GB,5,,FHRS,5
144593,,70-71 The Front,Hartlepool,,Burger Heaven,Mobile caterer,7846,0,,259580,0,,54.65917200000000,5384,859,jane.kett@hartlepool.gov.uk,Hartlepool,http://www.hartlepool.gov.uk,-1.18685000000000,TS25 1BU,2013-11-22,fhrs_5_en-GB,5,,FHRS,0
144594,Anchor Retail Park,Marina Way,Hartlepool,,Burger King,Takeaway/sandwich shop,7844,0,,259488,0,,54.69052700000000,2702,859,jane.kett@hartlepool.gov.uk,Hartlepool,http://www.hartlepool.gov.uk,-1.21118500000000,TS24 0XR,2014-08-05,fhrs_5_en-GB,5,,FHRS,0
144595,,253 York Road,Hartlepool,,Burn Valley Wine Stores,Retailers - other,4613,0,,259678,0,,54.67914100000000,485,859,jane.kett@hartlepool.gov.uk,Hartlepool,http://www.hartlepool.gov.uk,-1.21686500000000,TS26 9AD,2013-01-16,fhrs_5_en-GB,5,,FHRS,0
144596,,75 Church Street,Hartlepool,,Busby's (was),Pub/bar/nightclub,7843,5,,259593,5,,54.68696400000000,4961,859,jane.kett@hartlepool.gov.uk,Hartlepool,http://www.hartlepool.gov.uk,-1.20509600000000,TS24 7DN,2011-03-03,fhrs_5_en-GB,5,,FHRS,5
144597,Law Courts,Victoria Road,Hartlepool,,Butterwick Childrens Hospice Coffee Bar,Restaurant/Cafe/Canteen,1,5,,259215,0,,54.68514300000000,4982,859,jane.kett@hartlepool.gov.uk,Hartlepool,http://www.hartlepool.gov.uk,-1.21811400000000,TS26 8DB,2012-06-20,fhrs_5_en-GB,5,,FHRS,0
144598,,104 York Road,Hartlepool,,C & J News,Retailers - other,4613,10,,259552,0,,54.68429700000000,1559,859,jane.kett@hartlepool.gov.uk,Hartlepool,http://www.hartlepool.gov.uk,-1.21648600000000,TS26 9DE,2013-04-12,fhrs_4_en-GB,4,,FHRS,0
144599,,21-23 Whitby Street,Hartlepool,,Cafe India,Restaurant/Cafe/Canteen,1,5,,259304,0,,54.68475300000000,2996,859,jane.kett@hartlepool.gov.uk,Hartlepool,http://www.hartlepool.gov.uk,-1.20650400000000,TS24 7AB,2015-01-12,fhrs_5_en-GB,5,,FHRS,0
144600,Lifestyle Fitness,Harbour Walk,Hartlepool,,Cafe Life,Restaurant/Cafe/Canteen,1,10,,706423,15,,54.69128000000000,56745,859,jane.kett@hartlepool.gov.uk,Hartlepool,http://www.hartlepool.gov.uk,-1.20682600000000,TS24 0YA,2015-01-14,fhrs_2_en-GB,2,,FHRS,10
144601,5-6 Navigation Point,Middleton Road,Hartlepool,,Cafe Rappor Bar,Restaurant/Cafe/Canteen,1,5,,259101,0,,54.69189000000000,3580,859,jane.kett@hartlepool.gov.uk,Hartlepool,http://www.hartlepool.gov.uk,-1.19853000000000,TS24 0UG,2013-11-26,fhrs_5_en-GB,5,,FHRS,0
144602,,79 The Front,Hartlepool,,Cafe Royal,Retailers - other,4613,5,,680609,5,,54.65917200000000,55458,859,jane.kett@hartlepool.gov.uk,Hartlepool,http://www.hartlepool.gov.uk,-1.18685000000000,TS25 1BU,2014-08-13,fhrs_5_en-GB,5,,FHRS,5
144603,,,,,Cakes Adore,Retailers - other,4613,5,,657198,0,,,56184,859,jane.kett@hartlepool.gov.uk,Hartlepool,http://www.hartlepool.gov.uk,,,2014-05-02,fhrs_5_en-GB,5,,FHRS,0
144604,,251 Raby Road,Hartlepool,,Cakes By Nemo,Retailers - other,4613,5,,558930,0,,54.69267300000000,51990,859,jane.kett@hartlepool.gov.uk,Hartlepool,http://www.hartlepool.gov.uk,-1.21936600000000,TS24 8EH,2013-06-21,fhrs_5_en-GB,5,,FHRS,5
144605,Tata Steel,Brenda Road,Hartlepool,,Canteen 42 Inch Pipe Mill,Restaurant/Cafe/Canteen,1,0,,259255,0,,54.65218700000000,2806,859,jane.kett@hartlepool.gov.uk,Hartlepool,http://www.hartlepool.gov.uk,-1.21377200000000,TS25 2EG,2014-01-13,fhrs_5_en-GB,5,,FHRS,0
144606,,5 Murray Street,Hartlepool,,Canton Chef,Takeaway/sandwich shop,7844,5,,259103,0,,54.68665500000000,51958,859,jane.kett@hartlepool.gov.uk,Hartlepool,http://www.hartlepool.gov.uk,-1.21979200000000,TS26 8PD,2013-07-29,fhrs_5_en-GB,5,,FHRS,5
144607,,210 Owton Manor Lane,Hartlepool,,Cantonese House,Takeaway/sandwich shop,7844,0,,259654,5,,54.65777300000000,5630,859,jane.kett@hartlepool.gov.uk,Hartlepool,http://www.hartlepool.gov.uk,-1.24564300000000,TS25 3QD,2014-11-20,fhrs_5_en-GB,5,,FHRS,5
144608,,34a Catcote Road,Hartlepool,,Capri,Takeaway/sandwich shop,7844,5,,587189,5,,54.67174400000000,55643,859,jane.kett@hartlepool.gov.uk,Hartlepool,http://www.hartlepool.gov.uk,-1.23640600000000,TS25 4HG,2015-02-11,fhrs_5_en-GB,5,,FHRS,5
144609,Unit B,Middleton Grange Centre,Hartlepool,,Card Factory,Retailers - other,4613,,,352790,,,54.68366000000000,3751,859,jane.kett@hartlepool.gov.uk,Hartlepool,http://www.hartlepool.gov.uk,-1.21380000000000,TS24 7RR,2012-05-14,fhrs_exempt_en-GB,Exempt,,FHRS,
144610,,75 The Front,Hartlepool,,Cards R Hudsons,Restaurant/Cafe/Canteen,1,0,,259180,0,,54.65917200000000,4161,859,jane.kett@hartlepool.gov.uk,Hartlepool,http://www.hartlepool.gov.uk,-1.18685000000000,TS25 1BU,2015-01-14,fhrs_5_en-GB,5,,FHRS,0
144611,,57 Clifton Avenue,Hartlepool,,Care Link Northern Ltd,Hospitals/Childcare/Caring Premises,5,10,,534440,0,,54.68388200000000,55099,859,jane.kett@hartlepool.gov.uk,Hartlepool,http://www.hartlepool.gov.uk,-1.22595600000000,TS26 9QW,2013-09-05,fhrs_4_en-GB,4,,FHRS,5
144612,,York Road,Hartlepool,,Carlton Club,Restaurant/Cafe/Canteen,1,0,,259175,0,,54.68639000000000,1439,859,jane.kett@hartlepool.gov.uk,Hartlepool,http://www.hartlepool.gov.uk,-1.21629100000000,TS26 8AA,2013-06-25,fhrs_5_en-GB,5,,FHRS,5
144613,,,,,Carnaby's Treats,Retailers - other,4613,,,691468,,,,56591,859,jane.kett@hartlepool.gov.uk,Hartlepool,http://www.hartlepool.gov.uk,,,,fhrs_awaitinginspection_en-GB,AwaitingInspection,,FHRS,
144614,,62 Dalton Street,Hartlepool,,Carol Hammond Dance Studio,Retailers - other,4613,,,259548,,,54.68280900000000,1240,859,jane.kett@hartlepool.gov.uk,Hartlepool,http://www.hartlepool.gov.uk,-1.21992700000000,TS26 9EL,2013-03-15,fhrs_exempt_en-GB,Exempt,,FHRS,
144615,24 Navigation Point,Middleton Road,Hartlepool,,Casa Del Mar,Restaurant/Cafe/Canteen,1,5,,259367,0,,54.69189000000000,4898,859,jane.kett@hartlepool.gov.uk,Hartlepool,http://www.hartlepool.gov.uk,-1.19853000000000,TS24 0UG,2013-07-02,fhrs_5_en-GB,5,,FHRS,5
144616,,Andrew Street,Hartlepool,,Cascades Convenience Store (Premier),Retailers - other,4613,10,,717463,5,,54.68273100000000,56860,859,jane.kett@hartlepool.gov.uk,Hartlepool,http://www.hartlepool.gov.uk,-1.21060700000000,TS24 7LB,2014-11-05,fhrs_3_en-GB,3,,FHRS,10
144617,,202 Owton Manor Lane,Hartlepool,,Cashcare,Retailers - other,4613,10,,259445,0,,54.65777300000000,441,859,jane.kett@hartlepool.gov.uk,Hartlepool,http://www.hartlepool.gov.uk,-1.24564300000000,TS25 3QD,2014-07-18,fhrs_4_en-GB,4,,FHRS,5
144618,,Catcote Road,Hartlepool,,Catcote Academy,School/college/university,7845,5,,259254,0,,54.67756700000000,367,859,jane.kett@hartlepool.gov.uk,Hartlepool,http://www.hartlepool.gov.uk,-1.23631200000000,TS25 4EZ,2015-02-09,fhrs_5_en-GB,5,,FHRS,5
144619,Catcote Academy,Catcote Road,Hartlepool,,Catcote Coffee Shop,Restaurant/Cafe/Canteen,1,5,,259235,5,,54.67756700000000,2178,859,jane.kett@hartlepool.gov.uk,Hartlepool,http://www.hartlepool.gov.uk,-1.23631200000000,TS25 4EZ,2014-01-15,fhrs_5_en-GB,5,,FHRS,0
144620,,Brierton Lane,Hartlepool,,Catcote Futures,Restaurant/Cafe/Canteen,1,5,,584388,0,,54.66521100000000,55497,859,jane.kett@hartlepool.gov.uk,Hartlepool,http://www.hartlepool.gov.uk,-1.23801600000000,TS25 4AF,2013-11-25,fhrs_5_en-GB,5,,FHRS,0
144621,,Havelock Street,Hartlepool,,Centre for Independent Living,Other catering premises,7841,0,,259165,0,,54.68092000000000,480,859,jane.kett@hartlepool.gov.uk,Hartlepool,http://www.hartlepool.gov.uk,-1.20164600000000,TS24 7LT,2013-05-24,fhrs_5_en-GB,5,,FHRS,0
144622,,1 Groves Street,Hartlepool,,Chambers Chemist,Retailers - other,4613,,,259482,,,54.69665000000000,12304,859,jane.kett@hartlepool.gov.uk,Hartlepool,http://www.hartlepool.gov.uk,-1.18312200000000,TS24 0NY,2014-07-23,fhrs_exempt_en-GB,Exempt,,FHRS,
144623,,59 Northgate,Hartlepool,,Chambers Health & Beauty,Retailers - other,4613,,,259575,,,54.69748500000000,226,859,jane.kett@hartlepool.gov.uk,Hartlepool,http://www.hartlepool.gov.uk,-1.18434700000000,TS24 0JX,2012-06-20,fhrs_exempt_en-GB,Exempt,,FHRS,
144624,,100 York Road,Hartlepool,,Changes,Pub/bar/nightclub,7843,10,,259010,5,,54.68497100000000,8943,859,jane.kett@hartlepool.gov.uk,Hartlepool,http://www.hartlepool.gov.uk,-1.21648900000000,TS26 9DQ,2013-12-17,fhrs_4_en-GB,4,,FHRS,5
144625,,,,,Chapman's Cheesecakes,Retailers - other,4613,5,,680611,0,,,56598,859,jane.kett@hartlepool.gov.uk,Hartlepool,http://www.hartlepool.gov.uk,,,2014-07-04,fhrs_5_en-GB,5,,FHRS,0
144626,,44 Duke Street,Hartlepool,,Charlies Convenience Store,Retailers - other,4613,10,,259082,0,,54.68820900000000,3004,859,jane.kett@hartlepool.gov.uk,Hartlepool,http://www.hartlepool.gov.uk,-1.22663400000000,TS26 8PU,2013-04-12,fhrs_4_en-GB,4,,FHRS,0
144627,,1 Cundall Road,Hartlepool,,Charlie's Pappa-Roni's,Takeaway/sandwich shop,7844,10,,259115,5,,54.68777400000000,2849,859,jane.kett@hartlepool.gov.uk,Hartlepool,http://www.hartlepool.gov.uk,-1.22748000000000,TS26 8LQ,2014-03-17,fhrs_3_en-GB,3,,FHRS,10
144628,,Flaxton Street,Hartlepool,,Charlotte Grange Residential Home,Hospitals/Childcare/Caring Premises,5,0,,259430,0,,54.68045100000000,2456,859,jane.kett@hartlepool.gov.uk,Hartlepool,http://www.hartlepool.gov.uk,-1.21927500000000,TS26 9JY,2014-06-03,fhrs_5_en-GB,5,,FHRS,0
144629,Dyke House Sports/Tech College,Mapleton Road,Hartlepool,,Cheeky Monkeys,School/college/university,7845,5,,319498,0,,54.69594400000000,53571,859,jane.kett@hartlepool.gov.uk,Hartlepool,http://www.hartlepool.gov.uk,-1.21782900000000,TS24 8NQ,2014-01-22,fhrs_5_en-GB,5,,FHRS,5
144630,,38a Catcote Road,Hartlepool,,Chicago's,Takeaway/sandwich shop,7844,0,,259041,10,,54.67174400000000,8806,859,jane.kett@hartlepool.gov.uk,Hartlepool,http://www.hartlepool.gov.uk,-1.23640600000000,TS25 4HG,2014-03-21,fhrs_4_en-GB,4,,FHRS,5
144631,,27 Murray Street,Hartlepool,,Chilli 'n' Spice,Takeaway/sandwich shop,7844,5,,259209,5,,54.68739000000000,5374,859,jane.kett@hartlepool.gov.uk,Hartlepool,http://www.hartlepool.gov.uk,-1.21951400000000,TS26 8PF,2013-11-27,fhrs_5_en-GB,5,,FHRS,5
144632,,162 Raby Road,Hartlepool,,Chippizza,Takeaway/sandwich shop,7844,10,,259428,5,,54.69303000000000,7487,859,jane.kett@hartlepool.gov.uk,Hartlepool,http://www.hartlepool.gov.uk,-1.21897100000000,TS24 8EJ,2013-03-06,fhrs_3_en-GB,3,,FHRS,10
144633,Parsons Business Centre,Brenda Road,Hartlepool,,Chipstix,Retailers - other,4613,0,,259021,0,,54.65643300000000,51633,859,jane.kett@hartlepool.gov.uk,Hartlepool,http://www.hartlepool.gov.uk,-1.20617200000000,TS25 2BJ,2013-09-23,fhrs_5_en-GB,5,,FHRS,0
144634,"Unit 2, Middle Warren Centre",Mulberry Rise,Hartlepool,,Chisholm Bookmakers,Retailers - other,4613,,,352797,,,54.70747500000000,7161,859,jane.kett@hartlepool.gov.uk,Hartlepool,http://www.hartlepool.gov.uk,-1.24922200000000,TS26 0BF,2012-05-24,fhrs_exempt_en-GB,Exempt,,FHRS,
144635,,,,,Chocolate Surprise,Retailers - other,4613,0,,495598,0,,,54575,859,jane.kett@hartlepool.gov.uk,Hartlepool,http://www.hartlepool.gov.uk,,,2015-01-15,fhrs_5_en-GB,5,,FHRS,0
144636,,60 Murray Street,Hartlepool,,Chow Kee Chop Suey House,Takeaway/sandwich shop,7844,20,,259673,15,,54.68847400000000,253,859,jane.kett@hartlepool.gov.uk,Hartlepool,http://www.hartlepool.gov.uk,-1.21899700000000,TS26 8PL,2014-12-11,fhrs_0_en-GB,0,,FHRS,20
144637,29 Navigation Point,Middleton Road,Hartlepool,,Cinnamons,Restaurant/Cafe/Canteen,1,5,,259457,0,,54.69295100000000,6326,859,jane.kett@hartlepool.gov.uk,Hartlepool,http://www.hartlepool.gov.uk,-1.19849400000000,TS24 0UQ,2013-07-04,fhrs_5_en-GB,5,,FHRS,5
144638,,141 Oxford Road,Hartlepool,,Classic News,Retailers - other,4613,5,,259685,0,,54.67401800000000,3119,859,jane.kett@hartlepool.gov.uk,Hartlepool,http://www.hartlepool.gov.uk,-1.22242200000000,TS25 5RJ,2013-05-22,fhrs_5_en-GB,5,,FHRS,0
144639,,Clavering Road,Hartlepool,,Clavering Primary School,School/college/university,7845,0,,259007,5,,54.71085700000000,303,859,jane.kett@hartlepool.gov.uk,Hartlepool,http://www.hartlepool.gov.uk,-1.24833600000000,TS27 3PN,2014-09-24,fhrs_5_en-GB,5,,FHRS,0
144640,,76-78 Oxford Road,Hartlepool,,Clayfield Pharmacy,Retailers - other,4613,,,259204,,,54.67489000000000,276,859,jane.kett@hartlepool.gov.uk,Hartlepool,http://www.hartlepool.gov.uk,-1.21958300000000,TS25 5SA,2014-11-04,fhrs_exempt_en-GB,Exempt,,FHRS,
144641,,Church Square,Hartlepool,,Cleveland College of Art & Design,Restaurant/Cafe/Canteen,1,5,,258996,0,,54.68522500000000,505,859,jane.kett@hartlepool.gov.uk,Hartlepool,http://www.hartlepool.gov.uk,-1.20989200000000,TS24 7EX,2013-11-12,fhrs_5_en-GB,5,,FHRS,0
144642,,Throston Grange Lane,Hartlepool,,Clever Clogs,Hospitals/Childcare/Caring Premises,5,5,,259095,5,,54.70002600000000,6211,859,jane.kett@hartlepool.gov.uk,Hartlepool,http://www.hartlepool.gov.uk,-1.23087800000000,TS26 0UF,2014-04-16,fhrs_5_en-GB,5,,FHRS,5
144643,,94-96 Clifton Avenue,Hartlepool,,Clifton House Residential Home,Hospitals/Childcare/Caring Premises,5,5,,259198,0,,54.68360000000000,2451,859,jane.kett@hartlepool.gov.uk,Hartlepool,http://www.hartlepool.gov.uk,-1.22835000000000,TS26 9QP,2014-01-23,fhrs_5_en-GB,5,,FHRS,5
144644,,187 Middleton Grange Centre,Hartlepool,,Clintons,Retailers - other,4613,,,352793,,,54.68466700000000,53639,859,jane.kett@hartlepool.gov.uk,Hartlepool,http://www.hartlepool.gov.uk,-1.21258600000000,TS24 7RD,2012-06-06,fhrs_exempt_en-GB,Exempt,,FHRS,
144645,,93 Northgate,Hartlepool,,CMB Fruitiers,Retailers - other,4613,5,,259243,0,,54.69748500000000,132,859,jane.kett@hartlepool.gov.uk,Hartlepool,http://www.hartlepool.gov.uk,-1.18434700000000,TS24 0JX,2014-10-20,fhrs_4_en-GB,4,,FHRS,10
144646,,144-146 York Road,Hartlepool,,Coffee Rappor Bar,Restaurant/Cafe/Canteen,1,5,,534433,5,,54.68581000000000,55090,859,jane.kett@hartlepool.gov.uk,Hartlepool,http://www.hartlepool.gov.uk,-1.21696900000000,TS26 8AD,2013-04-03,fhrs_5_en-GB,5,,FHRS,5
144647,HCFE,Stockton Street,Hartlepool,,Coffee Rapport,Restaurant/Cafe/Canteen,1,5,,259567,0,,54.68393100000000,52031,859,jane.kett@hartlepool.gov.uk,Hartlepool,http://www.hartlepool.gov.uk,-1.20990100000000,TS24 7NT,2013-10-03,fhrs_5_en-GB,5,,FHRS,0
144648,Gardner House,Brierton Lane,Hartlepool,,Community Integrated Care,Hospitals/Childcare/Caring Premises,5,5,,259300,0,,54.66658400000000,2457,859,jane.kett@hartlepool.gov.uk,Hartlepool,http://www.hartlepool.gov.uk,-1.24341700000000,TS25 4AG,2013-12-18,fhrs_5_en-GB,5,,FHRS,5
144649,,15-17 Church Square,Hartlepool,,Cook's Corner Cafe,Restaurant/Cafe/Canteen,1,5,,259698,0,,54.68551400000000,7260,859,jane.kett@hartlepool.gov.uk,Hartlepool,http://www.hartlepool.gov.uk,-1.20872300000000,TS24 7EY,2013-10-21,fhrs_5_en-GB,5,,FHRS,5
144650,Strathmore House,Stockton Road,Hartlepool,,Co-operative Funeral Service,Other catering premises,7841,0,,259426,0,,54.67850700000000,807,859,jane.kett@hartlepool.gov.uk,Hartlepool,http://www.hartlepool.gov.uk,-1.21602400000000,TS25 1TY,2013-03-18,fhrs_5_en-GB,5,,FHRS,0
144651,,174a Middleton Grange Centre,Hartlepool,,Cooplands,Takeaway/sandwich shop,7844,0,,566925,0,,54.68366000000000,52323,859,jane.kett@hartlepool.gov.uk,Hartlepool,http://www.hartlepool.gov.uk,-1.21380000000000,TS24 7RR,2013-08-12,fhrs_5_en-GB,5,,FHRS,0
144652,,Wynyard Road,Hartlepool,,Coral,Retailers - other,4613,,,259120,,,54.66117200000000,162,859,jane.kett@hartlepool.gov.uk,Hartlepool,http://www.hartlepool.gov.uk,-1.23872800000000,TS25 3LQ,2012-10-24,fhrs_exempt_en-GB,Exempt,,FHRS,
144653,,136 Oxford Road,Hartlepool,,Coral,Retailers - other,4613,,,259450,,,54.67450900000000,1786,859,jane.kett@hartlepool.gov.uk,Hartlepool,http://www.hartlepool.gov.uk,-1.22179200000000,TS25 5RH,2012-10-24,fhrs_exempt_en-GB,Exempt,,FHRS,
144654,,12 Station Lane,Hartlepool,,Coral,Retailers - other,4613,,,259579,,,54.66140400000000,7163,859,jane.kett@hartlepool.gov.uk,Hartlepool,http://www.hartlepool.gov.uk,-1.18868100000000,TS25 1AX,2014-01-29,fhrs_exempt_en-GB,Exempt,,FHRS,
144655,33 Vicarage Gardens,Stockton Road,Hartlepool,,Coral,Retailers - other,4613,,,258983,,,54.67949500000000,6101,859,jane.kett@hartlepool.gov.uk,Hartlepool,http://www.hartlepool.gov.uk,-1.21322900000000,TS25 1TU,2013-12-12,fhrs_exempt_en-GB,Exempt,,FHRS,
144656,23 Vicarage Gardens,Stockton Road,Hartlepool,,Cora's General Dealer,Retailers - other,4613,10,,259228,10,,54.67949500000000,812,859,jane.kett@hartlepool.gov.uk,Hartlepool,http://www.hartlepool.gov.uk,-1.21322900000000,TS25 1TU,2014-05-15,fhrs_3_en-GB,3,,FHRS,5
144657,St Georges United Reformed Chu,Park Road,Hartlepool,,Cornerstone Cafe,Restaurant/Cafe/Canteen,1,10,,259583,5,,54.68232200000000,8510,859,jane.kett@hartlepool.gov.uk,Hartlepool,http://www.hartlepool.gov.uk,-1.21812200000000,TS26 9HP,2014-10-09,fhrs_3_en-GB,3,,FHRS,10
144658,,119 Cornwall Street,Hartlepool,,Cornwall Street Convenience Store (Premier),Retailers - other,4613,10,,259396,10,,54.67550100000000,52024,859,jane.kett@hartlepool.gov.uk,Hartlepool,http://www.hartlepool.gov.uk,-1.22233200000000,TS25 5RN,2015-01-15,fhrs_4_en-GB,4,,FHRS,0
144659,,Whitby Street,Hartlepool,,Corporation Welfare Club,Pub/bar/nightclub,7843,5,,259621,5,,54.68475300000000,442,859,jane.kett@hartlepool.gov.uk,Hartlepool,http://www.hartlepool.gov.uk,-1.20650400000000,TS24 7AB,2012-03-14,fhrs_5_en-GB,5,,FHRS,5
144660,,39-41 Chatham Road,Hartlepool,,Costcutter,Retailers - other,4613,0,,259208,0,,54.69497100000000,6759,859,jane.kett@hartlepool.gov.uk,Hartlepool,http://www.hartlepool.gov.uk,-1.22309200000000,TS24 8QG,2013-11-11,fhrs_5_en-GB,5,,FHRS,5
144661,"Unit 17, Gemini Centre",Villiers Street,Hartlepool,,Creative Cafe,Restaurant/Cafe/Canteen,1,5,,578506,0,,54.68488400000000,54529,859,jane.kett@hartlepool.gov.uk,Hartlepool,http://www.hartlepool.gov.uk,-1.21549800000000,TS24 7SA,2013-09-03,fhrs_5_en-GB,5,,FHRS,5
144662,,7 South Crescent,Hartlepool,,Crescent Care Home,Hospitals/Childcare/Caring Premises,5,0,,259064,0,,54.69466600000000,2787,859,jane.kett@hartlepool.gov.uk,Hartlepool,http://www.hartlepool.gov.uk,-1.17821300000000,TS24 0QG,2013-03-04,fhrs_5_en-GB,5,,FHRS,5
144663,,9 Middlegate,Hartlepool,,Croft Shop,Retailers - other,4613,0,,259388,0,,54.69604300000000,3086,859,jane.kett@hartlepool.gov.uk,Hartlepool,http://www.hartlepool.gov.uk,-1.18383200000000,TS24 0JD,2013-04-04,fhrs_5_en-GB,5,,FHRS,0
144664,,65 King Oswy Drive,Hartlepool,,Crumbs,Retailers - other,4613,5,,259005,5,,54.71123300000000,314,859,jane.kett@hartlepool.gov.uk,Hartlepool,http://www.hartlepool.gov.uk,-1.23807000000000,TS24 9PF,2013-04-22,fhrs_5_en-GB,5,,FHRS,5
144665,,136-138 Northgate,Hartlepool,,Crumbs Bakehouse,Retailers - other,4613,5,,727218,0,,54.70115700000000,48998,859,jane.kett@hartlepool.gov.uk,Hartlepool,http://www.hartlepool.gov.uk,-1.19195400000000,TS24 0EJ,2015-01-30,fhrs_5_en-GB,5,,FHRS,5
144666,,,,,Cupcakes by Victoria,Retailers - other,4613,5,,495597,5,,,54539,859,jane.kett@hartlepool.gov.uk,Hartlepool,http://www.hartlepool.gov.uk,,,2013-01-09,fhrs_5_en-GB,5,,FHRS,5
144667,,180 York Road,Hartlepool,,Davinci's Pizzeria,Takeaway/sandwich shop,7844,5,,720312,0,,54.68135700000000,56958,859,jane.kett@hartlepool.gov.uk,Hartlepool,http://www.hartlepool.gov.uk,-1.21632600000000,TS26 9EA,2014-12-04,fhrs_5_en-GB,5,,FHRS,5
144668,,,,,Dawn P's Vintage Teas,Other catering premises,7841,0,,470752,0,,,54375,859,jane.kett@hartlepool.gov.uk,Hartlepool,http://www.hartlepool.gov.uk,,,2012-12-04,fhrs_5_en-GB,5,,FHRS,0
144669,,51 Wynyard Road,Hartlepool,,Deen's Bakery,Retailers - other,4613,5,,259239,5,,54.66069100000000,187,859,jane.kett@hartlepool.gov.uk,Hartlepool,http://www.hartlepool.gov.uk,-1.23661300000000,TS25 3LB,2014-02-13,fhrs_5_en-GB,5,,FHRS,5
144670,,197 York Road,Hartlepool,,Delhi Express,Takeaway/sandwich shop,7844,0,,259044,0,,54.68056100000000,5778,859,jane.kett@hartlepool.gov.uk,Hartlepool,http://www.hartlepool.gov.uk,-1.21682200000000,TS26 9EE,2013-03-20,fhrs_4_en-GB,4,,FHRS,10
144671,"Unit 2, The Mowbray",Mowbray Road,Hartlepool,,Deli B,Takeaway/sandwich shop,7844,5,,657197,5,,54.65389100000000,55964,859,jane.kett@hartlepool.gov.uk,Hartlepool,http://www.hartlepool.gov.uk,-1.24428800000000,TS25 2ND,2014-05-12,fhrs_5_en-GB,5,,FHRS,5
144672,,,,,Delicate Divine Cakes,Retailers - other,4613,5,,655915,0,,,26308,859,jane.kett@hartlepool.gov.uk,Hartlepool,http://www.hartlepool.gov.uk,,,2014-04-17,fhrs_5_en-GB,5,,FHRS,0
144673,5 Brierton Shops,Brierton Lane,Hartlepool,,Deli-licious,Takeaway/sandwich shop,7844,5,,668536,5,,54.66618000000000,56567,859,jane.kett@hartlepool.gov.uk,Hartlepool,http://www.hartlepool.gov.uk,-1.24350200000000,TS25 4BX,2014-06-16,fhrs_5_en-GB,5,,FHRS,5
144674,,6 Oxford Road,Hartlepool,,Deli-Lite,Mobile caterer,7846,5,,706424,5,,54.67517400000000,56760,859,jane.kett@hartlepool.gov.uk,Hartlepool,http://www.hartlepool.gov.uk,-1.21632100000000,TS25 5SS,2014-10-07,fhrs_5_en-GB,5,,FHRS,0
144675,5-6 Bovis House,Victoria Road,Hartlepool,,Diablo's Bar,Pub/bar/nightclub,7843,10,,259109,5,,54.68512800000000,7300,859,jane.kett@hartlepool.gov.uk,Hartlepool,http://www.hartlepool.gov.uk,-1.21566400000000,TS24 7SE,2014-07-15,fhrs_3_en-GB,3,,FHRS,10
144676,Derwent Grange,Clearpool Close,Hartlepool,,Diamond Cafe,Restaurant/Cafe/Canteen,1,10,,624646,10,,54.70252900000000,55959,859,jane.kett@hartlepool.gov.uk,Hartlepool,http://www.hartlepool.gov.uk,-1.20923000000000,TS24 0TP,2014-01-27,fhrs_4_en-GB,4,,FHRS,0
144677,,50-51 Church Street,Hartlepool,,Dilshad Tandoori Restaurant,Restaurant/Cafe/Canteen,1,10,,259127,5,,54.68653500000000,2284,859,jane.kett@hartlepool.gov.uk,Hartlepool,http://www.hartlepool.gov.uk,-1.20682600000000,TS24 7DX,2014-03-24,fhrs_3_en-GB,3,,FHRS,10
144678,,123-125 King Oswy Drive,Hartlepool,,Dimensions UK,Hospitals/Childcare/Caring Premises,5,5,,259067,0,,54.71263900000000,996,859,jane.kett@hartlepool.gov.uk,Hartlepool,http://www.hartlepool.gov.uk,-1.24152000000000,TS24 9PH,2014-10-28,fhrs_5_en-GB,5,,FHRS,0
144679,,3 Murray Street,Hartlepool,,Dine at Home,Takeaway/sandwich shop,7844,5,,259332,5,,54.68665500000000,3341,859,jane.kett@hartlepool.gov.uk,Hartlepool,http://www.hartlepool.gov.uk,-1.21979200000000,TS26 8PD,2014-11-12,fhrs_5_en-GB,5,,FHRS,5
144680,Huntsman Tioxide,Tees Road,Hartlepool,,Dine Contract Catering,Restaurant/Cafe/Canteen,1,0,,259230,5,,54.63177400000000,5187,859,jane.kett@hartlepool.gov.uk,Hartlepool,http://www.hartlepool.gov.uk,-1.20350700000000,TS25 2DD,2014-08-13,fhrs_5_en-GB,5,,FHRS,5
144681,,42-44 Station Lane,Hartlepool,,Dinsdale Lodge Nursing Home,Hospitals/Childcare/Caring Premises,5,5,,259420,0,,54.66133500000000,2519,859,jane.kett@hartlepool.gov.uk,Hartlepool,http://www.hartlepool.gov.uk,-1.19183000000000,TS25 1BG,2014-11-19,fhrs_2_en-GB,2,,FHRS,15
144682,,178 York Road,Hartlepool,,Domino's Pizza,Takeaway/sandwich shop,7844,5,,259573,0,,54.68135700000000,3296,859,jane.kett@hartlepool.gov.uk,Hartlepool,http://www.hartlepool.gov.uk,-1.21632600000000,TS26 9EA,2013-01-16,fhrs_5_en-GB,5,,FHRS,0
144683,,107 Raby Road,Hartlepool,,Donnatello's Pizzeria,Takeaway/sandwich shop,7844,0,,259090,0,,54.69011100000000,527,859,jane.kett@hartlepool.gov.uk,Hartlepool,http://www.hartlepool.gov.uk,-1.21784800000000,TS24 8DT,2014-03-24,fhrs_5_en-GB,5,,FHRS,5
144684,,171 Stockton Road,Hartlepool,,DS Stores,Retailers - other,4613,0,,259475,0,,54.67639900000000,797,859,jane.kett@hartlepool.gov.uk,Hartlepool,http://www.hartlepool.gov.uk,-1.21538200000000,TS25 1SL,2012-05-09,fhrs_5_en-GB,5,,FHRS,0
144685,"Unit 1, Highpoint Park",Marina Way,Hartlepool,,Dunelm Mill,Restaurant/Cafe/Canteen,1,0,,540057,0,,54.69291700000000,13485,859,jane.kett@hartlepool.gov.uk,Hartlepool,http://www.hartlepool.gov.uk,-1.21113900000000,TS24 0RN,2013-05-01,fhrs_5_en-GB,5,,FHRS,0
144686,,38-39 The Front,Hartlepool,,Durham Hotel,Hotel/bed & breakfast/guest house,7842,5,,259625,0,,54.65769800000000,6904,859,jane.kett@hartlepool.gov.uk,Hartlepool,http://www.hartlepool.gov.uk,-1.18681800000000,TS25 1DA,2014-01-09,fhrs_5_en-GB,5,,FHRS,0
144687,,Mapleton Road,Hartlepool,,Dyke House Sports & Technology College,School/college/university,7845,5,,259026,0,,54.69594400000000,302,859,jane.kett@hartlepool.gov.uk,Hartlepool,http://www.hartlepool.gov.uk,-1.21782900000000,TS24 8NQ,2014-03-18,fhrs_5_en-GB,5,,FHRS,0
144688,,62-64 Murray Street,Hartlepool,,Ed's Good Food Parlour,Takeaway/sandwich shop,7844,5,,606601,0,,54.68847400000000,55817,859,jane.kett@hartlepool.gov.uk,Hartlepool,http://www.hartlepool.gov.uk,-1.21899700000000,TS26 8PL,2013-11-12,fhrs_5_en-GB,5,,FHRS,0
144689,,1 Eldon Grove,Hartlepool,,Eldon Grove Academy,School/college/university,7845,5,,259688,0,,54.68089200000000,236,859,jane.kett@hartlepool.gov.uk,Hartlepool,http://www.hartlepool.gov.uk,-1.22790500000000,TS26 9LY,2013-10-09,fhrs_5_en-GB,5,,FHRS,0
144690,,14-16 Whitby Street,Hartlepool,,Elim,Restaurant/Cafe/Canteen,1,10,,259496,5,,54.68562900000000,53505,859,jane.kett@hartlepool.gov.uk,Hartlepool,http://www.hartlepool.gov.uk,-1.20712300000000,TS24 7AD,2013-11-13,fhrs_3_en-GB,3,,FHRS,10
144691,,77 York Road,Hartlepool,,Elly B's,Takeaway/sandwich shop,7844,10,,624645,5,,54.68709500000000,55951,859,jane.kett@hartlepool.gov.uk,Hartlepool,http://www.hartlepool.gov.uk,-1.21694400000000,TS26 8AH,2014-01-09,fhrs_3_en-GB,3,,FHRS,10
144692,,Elwick Road,Hartlepool,,Elwick Grange,Hospitals/Childcare/Caring Premises,5,5,,259453,0,,54.68314500000000,439,859,jane.kett@hartlepool.gov.uk,Hartlepool,http://www.hartlepool.gov.uk,-1.24312500000000,TS26 0BH,2014-09-10,fhrs_5_en-GB,5,,FHRS,5
144693,,33 The Green,Elwick,Hartlepool,Elwick Village Shop & Post Office,Retailers - other,4613,10,,259581,0,,54.68383000000000,26,859,jane.kett@hartlepool.gov.uk,Hartlepool,http://www.hartlepool.gov.uk,-1.29401900000000,TS27 3EF,2014-05-12,fhrs_4_en-GB,4,,FHRS,5
144694,,Catcote Road,Hartlepool,,English Martyrs School & Sixth Form College,School/college/university,7845,0,,259476,0,,54.67554600000000,368,859,jane.kett@hartlepool.gov.uk,Hartlepool,http://www.hartlepool.gov.uk,-1.23647400000000,TS25 4HA,2014-05-02,fhrs_5_en-GB,5,,FHRS,5
144695,,,,,Ephemeral Cakes,Retailers - other,4613,5,,655930,0,,,56375,859,jane.kett@hartlepool.gov.uk,Hartlepool,http://www.hartlepool.gov.uk,,,2014-05-29,fhrs_5_en-GB,5,,FHRS,0
144696,,Park Road,Hartlepool,,Eugene's,Restaurant/Cafe/Canteen,1,5,,564595,0,,54.70172600000000,54426,859,jane.kett@hartlepool.gov.uk,Hartlepool,http://www.hartlepool.gov.uk,-1.21856800000000,TS24 7PN,2013-08-30,fhrs_5_en-GB,5,,FHRS,5
144697,Seaton Carew Golf Club,Tees Road,Hartlepool,,Executive Catering,Pub/bar/nightclub,7843,10,,259035,10,,54.65719000000000,7413,859,jane.kett@hartlepool.gov.uk,Hartlepool,http://www.hartlepool.gov.uk,-1.18613000000000,TS25 1DE,2014-09-09,fhrs_3_en-GB,3,,FHRS,10
144698,Victoria Park,Clarence Road,Hartlepool,,Executive Catering@HUFC,Restaurant/Cafe/Canteen,1,0,,259616,0,,54.68818800000000,9576,859,jane.kett@hartlepool.gov.uk,Hartlepool,http://www.hartlepool.gov.uk,-1.21365000000000,TS24 8BZ,2013-02-25,fhrs_5_en-GB,5,,FHRS,5
144699,,Exmoor Grove,Hartlepool,,Exmoor Grove Childrens Home,Hospitals/Childcare/Caring Premises,5,5,,259514,0,,54.69561500000000,2445,859,jane.kett@hartlepool.gov.uk,Hartlepool,http://www.hartlepool.gov.uk,-1.24106200000000,TS26 0XE,2013-03-21,fhrs_5_en-GB,5,,FHRS,0
144700,,Catcote Road,Hartlepool,,Farm Foods,Retailers - other,4613,0,,558932,0,,54.66403900000000,55288,859,jane.kett@hartlepool.gov.uk,Hartlepool,http://www.hartlepool.gov.uk,-1.23597600000000,TS25 4RB,2013-07-12,fhrs_5_en-GB,5,,FHRS,0
144701,,17 Church Street,Hartlepool,,Fast Snacks,Takeaway/sandwich shop,7844,10,,259052,5,,54.68622800000000,461,859,jane.kett@hartlepool.gov.uk,Hartlepool,http://www.hartlepool.gov.uk,-1.20655300000000,TS24 7DH,2015-01-07,fhrs_4_en-GB,4,,FHRS,5
144702,,195 York Road,Hartlepool,,Fatso's,Takeaway/sandwich shop,7844,5,,259400,5,,54.68056100000000,5366,859,jane.kett@hartlepool.gov.uk,Hartlepool,http://www.hartlepool.gov.uk,-1.21682200000000,TS26 9EE,2013-08-15,fhrs_5_en-GB,5,,FHRS,5
144703,Navigation Point,Middleton Road,Hartlepool,,Fatso's,Takeaway/sandwich shop,7844,5,,259350,5,,54.69105500000000,6260,859,jane.kett@hartlepool.gov.uk,Hartlepool,http://www.hartlepool.gov.uk,-1.19856200000000,TS24 0YF,2013-12-12,fhrs_5_en-GB,5,,FHRS,5
144704,,402 Catcote Road,Hartlepool,,Fens Fish Grill,Takeaway/sandwich shop,7844,10,,259527,5,,54.65519000000000,1291,859,jane.kett@hartlepool.gov.uk,Hartlepool,http://www.hartlepool.gov.uk,-1.23361600000000,TS25 2LS,2014-08-18,fhrs_3_en-GB,3,,FHRS,10
144705,,Mowbray Road,Hartlepool,,Fens Primary School,School/college/university,7845,5,,259525,0,,54.65373700000000,366,859,jane.kett@hartlepool.gov.uk,Hartlepool,http://www.hartlepool.gov.uk,-1.23409300000000,TS25 2LY,2014-11-26,fhrs_5_en-GB,5,,FHRS,5
144706,,64 Elizabeth Way,Hartlepool,,Finlaysons Family Bakers,Retailers - other,4613,5,,259002,5,,54.65559900000000,8924,859,jane.kett@hartlepool.gov.uk,Hartlepool,http://www.hartlepool.gov.uk,-1.19419100000000,TS25 2AX,2014-03-05,fhrs_5_en-GB,5,,FHRS,5
144707,,36 The Front,Hartlepool,,Fish Face,Restaurant/Cafe/Canteen,1,5,,259558,0,,54.66002200000000,9341,859,jane.kett@hartlepool.gov.uk,Hartlepool,http://www.hartlepool.gov.uk,-1.18763900000000,TS25 1BS,2013-10-21,fhrs_5_en-GB,5,,FHRS,5
144708,,Brenda Road,Hartlepool,,Fitness Connexion,Retailers - other,4613,,,259446,,,54.65933300000000,2777,859,jane.kett@hartlepool.gov.uk,Hartlepool,http://www.hartlepool.gov.uk,-1.20983600000000,TS25 1HS,2013-04-26,fhrs_exempt_en-GB,Exempt,,FHRS,
144709,,42 Westbourne Road,Hartlepool,,Five Penny House,Hospitals/Childcare/Caring Premises,5,0,,259226,0,,54.67633100000000,2810,859,jane.kett@hartlepool.gov.uk,Hartlepool,http://www.hartlepool.gov.uk,-1.21868700000000,TS25 5RE,2012-05-29,fhrs_5_en-GB,5,,FHRS,0
144710,,15-17 The Front,Hartlepool,,Fizzy Izzy's,Restaurant/Cafe/Canteen,1,5,,666192,0,,54.66002200000000,56144,859,jane.kett@hartlepool.gov.uk,Hartlepool,http://www.hartlepool.gov.uk,-1.18763900000000,TS25 1BS,2014-06-13,fhrs_5_en-GB,5,,FHRS,5
144711,,25-27 Church Square,Hartlepool,,Flix Movie Cafe,Restaurant/Cafe/Canteen,1,5,,259472,5,,54.68521300000000,6714,859,jane.kett@hartlepool.gov.uk,Hartlepool,http://www.hartlepool.gov.uk,-1.20948900000000,TS24 7EU,2013-12-17,fhrs_4_en-GB,4,,FHRS,10
144712,,,,,Floral Fondant Fancies,Retailers - other,4613,5,,680612,0,,,56600,859,jane.kett@hartlepool.gov.uk,Hartlepool,http://www.hartlepool.gov.uk,,,2014-07-31,fhrs_5_en-GB,5,,FHRS,0
144713,HCFE,Stockton Street,Hartlepool,,Food Court & Skills Cafe,Restaurant/Cafe/Canteen,1,0,,259484,0,,54.68582500000000,52034,859,jane.kett@hartlepool.gov.uk,Hartlepool,http://www.hartlepool.gov.uk,-1.21099700000000,TS24 7NU,2014-03-26,fhrs_5_en-GB,5,,FHRS,5
144714,,,,,Food Fairies,Retailers - other,4613,0,,696124,5,,,56676,859,jane.kett@hartlepool.gov.uk,Hartlepool,http://www.hartlepool.gov.uk,,,2014-08-22,fhrs_5_en-GB,5,,FHRS,5
144715,,Tees Street,Hartlepool,,Footprints (Learning For Life),Hospitals/Childcare/Caring Premises,5,5,,259366,0,,54.68693500000000,2781,859,jane.kett@hartlepool.gov.uk,Hartlepool,http://www.hartlepool.gov.uk,-1.21441900000000,TS24 8HA,2015-01-12,fhrs_5_en-GB,5,,FHRS,5
144716,Rift House Children's Centre,Masefield Road,Hartlepool,,Footprints Rift House,Hospitals/Childcare/Caring Premises,5,5,,611117,0,,54.67276400000000,55859,859,jane.kett@hartlepool.gov.uk,Hartlepool,http://www.hartlepool.gov.uk,-1.24285300000000,TS25 4JY,2013-12-02,fhrs_5_en-GB,5,,FHRS,0
144717,,70 Oxford Road,Hartlepool,,Fosters Fish Grill,Takeaway/sandwich shop,7844,0,,259689,0,,54.67489000000000,277,859,jane.kett@hartlepool.gov.uk,Hartlepool,http://www.hartlepool.gov.uk,-1.21958300000000,TS25 5SA,2014-01-15,fhrs_5_en-GB,5,,FHRS,5
144718,,77 King Oswy Drive,Hartlepool,,Four Seasons Chop Suey House,Takeaway/sandwich shop,7844,5,,534430,5,,54.71123300000000,54687,859,jane.kett@hartlepool.gov.uk,Hartlepool,http://www.hartlepool.gov.uk,-1.23807000000000,TS24 9PF,2014-01-23,fhrs_4_en-GB,4,,FHRS,10
144719,,Elwick Road,Hartlepool,,Four Winds Residential Home,Hospitals/Childcare/Caring Premises,5,10,,259708,0,,54.68644200000000,2455,859,jane.kett@hartlepool.gov.uk,Hartlepool,http://www.hartlepool.gov.uk,-1.24585600000000,TS26 0DD,2014-04-28,fhrs_4_en-GB,4,,FHRS,10
144720,,77 Jutland Road,Hartlepool,,Freddies,Takeaway/sandwich shop,7844,10,,680610,10,,54.65879200000000,56590,859,jane.kett@hartlepool.gov.uk,Hartlepool,http://www.hartlepool.gov.uk,-1.21648100000000,TS25 1LW,2014-07-18,fhrs_3_en-GB,3,,FHRS,10
144721,,55 King Oswy Drive,Hartlepool,,Fruit Boy,Retailers - other,4613,0,,259361,0,,54.71123300000000,310,859,jane.kett@hartlepool.gov.uk,Hartlepool,http://www.hartlepool.gov.uk,-1.23807000000000,TS24 9PF,2013-02-19,fhrs_5_en-GB,5,,FHRS,0
144722,,414 Catcote Road,Hartlepool,,Fruit Boy,Retailers - other,4613,10,,259545,5,,54.65519000000000,2278,859,jane.kett@hartlepool.gov.uk,Hartlepool,http://www.hartlepool.gov.uk,-1.23361600000000,TS25 2LS,2013-01-25,fhrs_3_en-GB,3,,FHRS,10
144723,,53 Wynyard Road,Hartlepool,,Fruit Boy,Retailers - other,4613,10,,259643,0,,54.66069100000000,189,859,jane.kett@hartlepool.gov.uk,Hartlepool,http://www.hartlepool.gov.uk,-1.23661300000000,TS25 3LB,2014-09-25,fhrs_4_en-GB,4,,FHRS,10
144724,,145 Oxford Road,Hartlepool,,Fruitfayre,Retailers - other,4613,10,,259273,0,,54.67401800000000,2965,859,jane.kett@hartlepool.gov.uk,Hartlepool,http://www.hartlepool.gov.uk,-1.22242200000000,TS25 5RJ,2012-10-03,fhrs_2_en-GB,2,,FHRS,15
144725,,240 Catcote Road,Hartlepool,,Full House Chinese Takeaway,Takeaway/sandwich shop,7844,5,,259604,10,,54.66067700000000,191,859,jane.kett@hartlepool.gov.uk,Hartlepool,http://www.hartlepool.gov.uk,-1.23577600000000,TS25 3JN,2013-11-28,fhrs_4_en-GB,4,,FHRS,5
144726,,50 The Front,Hartlepool,,G and S Accommodation,Hotel/bed & breakfast/guest house,7842,,,259451,,,54.66002200000000,646,859,jane.kett@hartlepool.gov.uk,Hartlepool,http://www.hartlepool.gov.uk,-1.18763900000000,TS25 1BS,2014-08-15,fhrs_exempt_en-GB,Exempt,,FHRS,
144727,,81 King Oswy Drive,Hartlepool,,G S Hind,Retailers - other,4613,,,259292,,,54.71123300000000,311,859,jane.kett@hartlepool.gov.uk,Hartlepool,http://www.hartlepool.gov.uk,-1.23807000000000,TS24 9PF,2012-10-23,fhrs_exempt_en-GB,Exempt,,FHRS,
144728,,47 Northgate,Hartlepool,,Gaiety's,Pub/bar/nightclub,7843,5,,259441,0,,54.69748500000000,52030,859,jane.kett@hartlepool.gov.uk,Hartlepool,http://www.hartlepool.gov.uk,-1.18434700000000,TS24 0JX,2013-05-14,fhrs_5_en-GB,5,,FHRS,5
144729,Kiosk 3,Middleton Grange Centre,Hartlepool,,Galleries News,Retailers - other,4613,5,,259345,0,,54.70172600000000,7496,859,jane.kett@hartlepool.gov.uk,Hartlepool,http://www.hartlepool.gov.uk,-1.21856800000000,TS24 2RZ,2013-07-09,fhrs_5_en-GB,5,,FHRS,0
144730,Dock Offices,Cleveland Road,Hartlepool,,Get Stuffed,Other catering premises,7841,5,,409826,0,,54.70125600000000,53844,859,jane.kett@hartlepool.gov.uk,Hartlepool,http://www.hartlepool.gov.uk,-1.20141800000000,TS24 0UZ,2012-07-13,fhrs_5_en-GB,5,,FHRS,0
144731,,Clavering Road,Hartlepool,,Gillen Arms,Pub/bar/nightclub,7843,5,,259680,0,,54.71234800000000,1615,859,jane.kett@hartlepool.gov.uk,Hartlepool,http://www.hartlepool.gov.uk,-1.24962800000000,TS27 3QY,2012-11-06,fhrs_5_en-GB,5,,FHRS,5
144732,,Wynyard Road,Hartlepool,,Gillens Petrol Station,Retailers - other,4613,,,259167,,,54.66117200000000,1777,859,jane.kett@hartlepool.gov.uk,Hartlepool,http://www.hartlepool.gov.uk,-1.23872800000000,TS25 3LQ,2014-03-13,fhrs_exempt_en-GB,Exempt,,FHRS,
144733,,A19/A179 Junction,Hart Bypass,Hartlepool,Gill's Bait Box,Mobile caterer,7846,5,,259378,5,,54.70456100000000,4632,859,jane.kett@hartlepool.gov.uk,Hartlepool,http://www.hartlepool.gov.uk,-1.30723300000000,TS27,2014-01-23,fhrs_4_en-GB,4,,FHRS,10
144734,,9 Young Street,Hartlepool,,Gills Chip Shop,Takeaway/sandwich shop,7844,0,,259212,5,,54.68905300000000,5484,859,jane.kett@hartlepool.gov.uk,Hartlepool,http://www.hartlepool.gov.uk,-1.21813200000000,TS26 8BS,2013-09-30,fhrs_5_en-GB,5,,FHRS,5
144735,,234b Owton Manor Lane,Hartlepool,,Gill's Fast Food,Takeaway/sandwich shop,7844,10,,259519,5,,54.65777300000000,9605,859,jane.kett@hartlepool.gov.uk,Hartlepool,http://www.hartlepool.gov.uk,-1.24564300000000,TS25 3QD,2015-01-14,fhrs_3_en-GB,3,,FHRS,10
144736,Stalls 9a&c,The Market Hall,Middleton Grange Centre,Hartlepool,GJ Watson Fruiterers,Retailers - other,4613,10,,259177,0,,54.68405400000000,6,859,jane.kett@hartlepool.gov.uk,Hartlepool,http://www.hartlepool.gov.uk,-1.21500200000000,TS24 7RX,2013-04-18,fhrs_4_en-GB,4,,FHRS,0
144737,,35 The Front,Hartlepool,,Glady's Vintage Tea Room,Restaurant/Cafe/Canteen,1,5,,717464,10,,54.66002200000000,6044,859,jane.kett@hartlepool.gov.uk,Hartlepool,http://www.hartlepool.gov.uk,-1.18763900000000,TS25 1BS,2014-11-04,fhrs_4_en-GB,4,,FHRS,5
144738,,138 Stockton Road,Hartlepool,,Glendale,Hospitals/Childcare/Caring Premises,5,0,,259048,0,,54.67203900000000,2521,859,jane.kett@hartlepool.gov.uk,Hartlepool,http://www.hartlepool.gov.uk,-1.21650500000000,TS25 5AX,2013-07-10,fhrs_5_en-GB,5,,FHRS,5
144739,,357 Stockton Road,Hartlepool,,Golden Bird,Takeaway/sandwich shop,7844,5,,520627,0,,54.66485500000000,54983,859,jane.kett@hartlepool.gov.uk,Hartlepool,http://www.hartlepool.gov.uk,-1.21878300000000,TS25 1JX,2013-07-23,fhrs_4_en-GB,4,,FHRS,10
144740,,141 Burbank Street,Hartlepool,,Golden Choi's,Takeaway/sandwich shop,7844,5,,259219,5,,54.68085700000000,4553,859,jane.kett@hartlepool.gov.uk,Hartlepool,http://www.hartlepool.gov.uk,-1.20842500000000,TS24 7JW,2015-01-15,fhrs_4_en-GB,4,,FHRS,10
144741,,143 Oxford Road,Hartlepool,,Golden Dragon,Takeaway/sandwich shop,7844,10,,259172,5,,54.67401800000000,6064,859,jane.kett@hartlepool.gov.uk,Hartlepool,http://www.hartlepool.gov.uk,-1.22242200000000,TS25 5RJ,2014-01-08,fhrs_4_en-GB,4,,FHRS,5
144742,,Seaton Lane,Hartlepool,,Golden Flatts Primary School,School/college/university,7845,0,,259507,0,,54.65811500000000,1159,859,jane.kett@hartlepool.gov.uk,Hartlepool,http://www.hartlepool.gov.uk,-1.21184400000000,TS25 1HN,2013-09-06,fhrs_5_en-GB,5,,FHRS,5
144743,,Dunston Road,Hartlepool,,Golden Lion,Pub/bar/nightclub,7843,5,,259237,5,,54.68960100000000,4593,859,jane.kett@hartlepool.gov.uk,Hartlepool,http://www.hartlepool.gov.uk,-1.24500600000000,TS26 0EN,2015-01-13,fhrs_4_en-GB,4,,FHRS,10
144744,,26 The Front,Hartlepool,,Golden River,Takeaway/sandwich shop,7844,10,,259402,5,,54.66002200000000,7531,859,jane.kett@hartlepool.gov.uk,Hartlepool,http://www.hartlepool.gov.uk,-1.18763900000000,TS25 1BS,2013-06-26,fhrs_3_en-GB,3,,FHRS,10
144745,,127 Raby Road,Hartlepool,,Goodfillers,Restaurant/Cafe/Canteen,1,5,,724519,5,,54.69011100000000,5919,859,jane.kett@hartlepool.gov.uk,Hartlepool,http://www.hartlepool.gov.uk,-1.21784800000000,TS24 8DT,2014-12-11,fhrs_5_en-GB,5,,FHRS,5
144746,,56 Elizabeth Way,Hartlepool,,Gordon Snowdon,Retailers - other,4613,10,,259435,5,,54.65559900000000,625,859,jane.kett@hartlepool.gov.uk,Hartlepool,http://www.hartlepool.gov.uk,-1.19419100000000,TS25 2AX,2014-02-13,fhrs_4_en-GB,4,,FHRS,5
144747,,Swainson Street,Hartlepool,,Grand Hotel,Restaurant/Cafe/Canteen,1,5,,259224,5,,54.68569600000000,6544,859,jane.kett@hartlepool.gov.uk,Hartlepool,http://www.hartlepool.gov.uk,-1.21321800000000,TS24 8AA,2014-03-05,fhrs_5_en-GB,5,,FHRS,5
144748,,Owton Manor Lane,Hartlepool,,Grange Primary School,School/college/university,7845,0,,259557,0,,54.65732800000000,364,859,jane.kett@hartlepool.gov.uk,Hartlepool,http://www.hartlepool.gov.uk,-1.24346500000000,TS25 3PU,2013-07-05,fhrs_5_en-GB,5,,FHRS,5
144749,,Tankerville Street,Hartlepool,,Grange Road Methodist Church,Other catering premises,7841,0,,259348,0,,54.68609400000000,2908,859,jane.kett@hartlepool.gov.uk,Hartlepool,http://www.hartlepool.gov.uk,-1.22333900000000,TS26 8DU,2015-02-03,fhrs_5_en-GB,5,,FHRS,5
144750,,24 Granville Avenue,Hartlepool,,Granville Residential Home,Hospitals/Childcare/Caring Premises,5,5,,259282,0,,54.68965500000000,2480,859,jane.kett@hartlepool.gov.uk,Hartlepool,http://www.hartlepool.gov.uk,-1.23084200000000,TS26 8ND,2013-01-10,fhrs_5_en-GB,5,,FHRS,0
144751,,Egerton Terrace,Greatham,Hartlepool,Greatham C of E School,School/college/university,7845,0,,259463,0,,54.63987700000000,333,859,jane.kett@hartlepool.gov.uk,Hartlepool,http://www.hartlepool.gov.uk,-1.23655300000000,TS25 2EU,2013-04-26,fhrs_5_en-GB,5,,FHRS,5
144752,,152A Stockton Road,Hartlepool,,Greenfields Lodge,Hospitals/Childcare/Caring Premises,5,5,,259132,0,,54.67089800000000,3217,859,jane.kett@hartlepool.gov.uk,Hartlepool,http://www.hartlepool.gov.uk,-1.21792300000000,TS25 5BQ,2013-07-09,fhrs_5_en-GB,5,,FHRS,0
144753,,130 Middleton Grange Centre,Hartlepool,,Greggs,Takeaway/sandwich shop,7844,0,,259111,0,,54.68466700000000,764,859,jane.kett@hartlepool.gov.uk,Hartlepool,http://www.hartlepool.gov.uk,-1.21258600000000,TS24 7RG,2013-11-29,fhrs_5_en-GB,5,,FHRS,0
144754,,398 Catcote Road,Hartlepool,,Greggs,Takeaway/sandwich shop,7844,0,,259657,0,,54.65519000000000,5288,859,jane.kett@hartlepool.gov.uk,Hartlepool,http://www.hartlepool.gov.uk,-1.23361600000000,TS25 2LS,2013-01-30,fhrs_5_en-GB,5,,FHRS,0
144755,,175 Middleton Grange Centre,Hartlepool,,Greggs,Restaurant/Cafe/Canteen,1,0,,259464,0,,54.68366000000000,751,859,jane.kett@hartlepool.gov.uk,Hartlepool,http://www.hartlepool.gov.uk,-1.21380000000000,TS24 7RR,2015-02-11,fhrs_5_en-GB,5,,FHRS,5
144756,Unit 2,Powlett Road,Hartlepool,,Greggs,Takeaway/sandwich shop,7844,0,,427006,0,,54.69841000000000,53915,859,jane.kett@hartlepool.gov.uk,Hartlepool,http://www.hartlepool.gov.uk,-1.21840200000000,TS24 8NA,2014-07-14,fhrs_5_en-GB,5,,FHRS,0
144757,"Unit 6, Belle Vue Centre",Belle Vue Way,Hartlepool,,Greggs,Takeaway/sandwich shop,7844,0,,259418,5,,54.66525500000000,6653,859,jane.kett@hartlepool.gov.uk,Hartlepool,http://www.hartlepool.gov.uk,-1.21803100000000,TS25 1JZ,2014-06-05,fhrs_5_en-GB,5,,FHRS,5
144758,,5 Wynyard Road,Hartlepool,,Greg's Fish and Chips,Takeaway/sandwich shop,7844,0,,259517,0,,54.66069100000000,8920,859,jane.kett@hartlepool.gov.uk,Hartlepool,http://www.hartlepool.gov.uk,-1.23661300000000,TS25 3LB,2014-06-13,fhrs_5_en-GB,5,,FHRS,5
144759,,1 Heather Grove,Hartlepool,,Gretton Court Nursing Home,Hospitals/Childcare/Caring Premises,5,0,,259414,0,,54.69818700000000,2880,859,jane.kett@hartlepool.gov.uk,Hartlepool,http://www.hartlepool.gov.uk,-1.22993500000000,TS24 8QZ,2015-01-20,fhrs_5_en-GB,5,,FHRS,0
144760,,60 Elizabeth Way,Hartlepool,,GSW Fruiterers,Retailers - other,4613,0,,259206,0,,54.65559900000000,624,859,jane.kett@hartlepool.gov.uk,Hartlepool,http://www.hartlepool.gov.uk,-1.19419100000000,TS25 2AX,2013-12-19,fhrs_5_en-GB,5,,FHRS,0
144761,,33 Miers Avenue,Hartlepool,,Guan Can Cook,Takeaway/sandwich shop,7844,0,,352798,0,,54.70705100000000,8513,859,jane.kett@hartlepool.gov.uk,Hartlepool,http://www.hartlepool.gov.uk,-1.22193000000000,TS24 9HH,2012-08-13,fhrs_5_en-GB,5,,FHRS,5
144762,,89-91 Chatham Road,Hartlepool,,Hallidays Stores,Retailers - other,4613,5,,535328,0,,54.69461300000000,54696,859,jane.kett@hartlepool.gov.uk,Hartlepool,http://www.hartlepool.gov.uk,-1.22465000000000,TS24 8QQ,2013-06-20,fhrs_5_en-GB,5,,FHRS,5
144763,"Unit 1, Navigation Point",Middleton Road,Hartlepool,,Happy Daze,Restaurant/Cafe/Canteen,1,5,,430793,0,,54.69189000000000,53949,859,jane.kett@hartlepool.gov.uk,Hartlepool,http://www.hartlepool.gov.uk,-1.19853000000000,TS24 0UG,2014-03-03,fhrs_5_en-GB,5,,FHRS,5
144764,,50 Murray Street,Hartlepool,,Harkwrights of Hartlepool,Retailers - other,4613,10,,730032,5,,54.68847400000000,56621,859,jane.kett@hartlepool.gov.uk,Hartlepool,http://www.hartlepool.gov.uk,-1.21899600000000,TS26 8PL,2015-01-07,fhrs_3_en-GB,3,,FHRS,10
144765,,43 Northgate,Hartlepool,,Harlows,Retailers - other,4613,5,,259056,5,,54.69748500000000,4768,859,jane.kett@hartlepool.gov.uk,Hartlepool,http://www.hartlepool.gov.uk,-1.18434700000000,TS24 0JX,2013-01-22,fhrs_4_en-GB,4,,FHRS,10
144766,,74 Hart Lane,Hartlepool,,Hart Lane Off Licence,Retailers - other,4613,10,,259550,5,,54.69062200000000,6616,859,jane.kett@hartlepool.gov.uk,Hartlepool,http://www.hartlepool.gov.uk,-1.23305700000000,TS26 8NJ,2013-01-25,fhrs_3_en-GB,3,,FHRS,10
144767,,178-180 Raby Road,Hartlepool,,Hart Mini Mart (Lifetsyle Express),Retailers - other,4613,0,,444566,10,,54.69358000000000,5867,859,jane.kett@hartlepool.gov.uk,Hartlepool,http://www.hartlepool.gov.uk,-1.21920900000000,TS24 8LF,2012-08-20,fhrs_4_en-GB,4,,FHRS,5
144768,,Magdalene Drive,Hart Village,Hartlepool,Hart Primary School,School/college/university,7845,0,,259076,0,,54.70826500000000,1315,859,jane.kett@hartlepool.gov.uk,Hartlepool,http://www.hartlepool.gov.uk,-1.27417900000000,TS27 3AP,2013-06-16,fhrs_5_en-GB,5,,FHRS,5
144769,,Hartfields Manor,Hartlepool,,Hartfields Restaurant,Restaurant/Cafe/Canteen,1,0,,259244,5,,54.70281000000000,6908,859,jane.kett@hartlepool.gov.uk,Hartlepool,http://www.hartlepool.gov.uk,-1.23624100000000,TS26 0US,2015-01-12,fhrs_5_en-GB,5,,FHRS,0
144770,Alice House,Wells Avenue,Hartlepool,,Hartlepool and District Hospice,Hospitals/Childcare/Caring Premises,5,0,,259278,5,,54.70227800000000,4072,859,jane.kett@hartlepool.gov.uk,Hartlepool,http://www.hartlepool.gov.uk,-1.22461300000000,TS24 9DA,2014-10-17,fhrs_5_en-GB,5,,FHRS,0
144771,,Marlowe Road,Hartlepool,,Hartlepool Catholic Mens Social Club,Pub/bar/nightclub,7843,10,,259179,0,,54.67116600000000,1593,859,jane.kett@hartlepool.gov.uk,Hartlepool,http://www.hartlepool.gov.uk,-1.23744000000000,TS25 4JJ,2014-11-07,fhrs_4_en-GB,4,,FHRS,5
144772,,1 Park Drive,Hartlepool,,Hartlepool Cricket Club,Pub/bar/nightclub,7843,5,,259384,5,,54.68571400000000,346,859,jane.kett@hartlepool.gov.uk,Hartlepool,http://www.hartlepool.gov.uk,-1.24427200000000,TS26 0DA,2014-03-21,fhrs_4_en-GB,4,,FHRS,10
144773,,Harbour Walk,Hartlepool,,Hartlepool Divers Club,Pub/bar/nightclub,7843,5,,259622,0,,54.69323700000000,2914,859,jane.kett@hartlepool.gov.uk,Hartlepool,http://www.hartlepool.gov.uk,-1.19969800000000,TS24 0YQ,2015-02-13,fhrs_5_en-GB,5,,FHRS,0
144774,,28 Raby Road,Hartlepool,,Hartlepool Engineers Club,Pub/bar/nightclub,7843,5,,259444,5,,54.68652100000000,515,859,jane.kett@hartlepool.gov.uk,Hartlepool,http://www.hartlepool.gov.uk,-1.21289100000000,TS24 8AE,2012-01-10,fhrs_4_en-GB,4,,FHRS,10
144775,,28 Church Street,Hartlepool,,Hartlepool Foodbank,Retailers - other,4613,5,,530318,0,,54.68622800000000,54236,859,jane.kett@hartlepool.gov.uk,Hartlepool,http://www.hartlepool.gov.uk,-1.20655300000000,TS24 7DH,2013-03-19,fhrs_5_en-GB,5,,FHRS,0
144776,,Speeding Drive,Hartlepool,,Hartlepool Golf Club,Pub/bar/nightclub,7843,5,,259668,0,,54.71785400000000,573,859,jane.kett@hartlepool.gov.uk,Hartlepool,http://www.hartlepool.gov.uk,-1.23757300000000,TS24 9QF,2014-03-06,fhrs_4_en-GB,4,,FHRS,10
144777,Mill House Leisure Centre,Raby Road,Hartlepool,,Hartlepool Indoor Bowling Club,Pub/bar/nightclub,7843,0,,259249,0,,54.68937000000000,2780,859,jane.kett@hartlepool.gov.uk,Hartlepool,http://www.hartlepool.gov.uk,-1.21575300000000,TS24 8AR,2013-04-24,fhrs_5_en-GB,5,,FHRS,0
144778,Hartlepool Marina,Maritime Avenue,Hartlepool,,Hartlepool Maritime Experience,Retailers - other,4613,,,319487,,,54.69016400000000,5218,859,jane.kett@hartlepool.gov.uk,Hartlepool,http://www.hartlepool.gov.uk,-1.20798100000000,TS24 0XZ,2012-05-15,fhrs_exempt_en-GB,Exempt,,FHRS,
144779,Hartlepool Power Station,Tees Road,Hartlepool,,Hartlepool Power Station Sports & Social Club,Pub/bar/nightclub,7843,10,,259104,10,,54.63548900000000,2793,859,jane.kett@hartlepool.gov.uk,Hartlepool,http://www.hartlepool.gov.uk,-1.18111000000000,TS25 2BZ,2014-06-13,fhrs_2_en-GB,2,,FHRS,15
144780,,Easington Road,Hartlepool,,"Hartlepool Rovers Quoit, Sports & Social Club",Pub/bar/nightclub,7843,0,,409820,0,,54.69974700000000,48272,859,jane.kett@hartlepool.gov.uk,Hartlepool,http://www.hartlepool.gov.uk,-1.22508000000000,TS24 8JZ,2012-11-22,fhrs_5_en-GB,5,,FHRS,0
144781,,West View Road,Hartlepool,,Hartlepool Rovers RFC,Pub/bar/nightclub,7843,10,,259364,5,,54.70555300000000,712,859,jane.kett@hartlepool.gov.uk,Hartlepool,http://www.hartlepool.gov.uk,-1.20988500000000,TS24 0BP,2015-01-20,fhrs_4_en-GB,4,,FHRS,5
144782,Mayfield Park,Easington Road,Hartlepool,,Hartlepool Rugby Club,Pub/bar/nightclub,7843,5,,259360,5,,54.70555500000000,1632,859,jane.kett@hartlepool.gov.uk,Hartlepool,http://www.hartlepool.gov.uk,-1.23397100000000,TS24 9BA,2014-09-25,fhrs_5_en-GB,5,,FHRS,5
144783,Hartlepool Sixth Form College,Blakelock Road,Hartlepool,,Hartlepool Sixth Form College Canteen,School/college/university,7845,5,,319492,0,,54.67676900000000,53511,859,jane.kett@hartlepool.gov.uk,Hartlepool,http://www.hartlepool.gov.uk,-1.22948800000000,TS25 5PF,2013-09-25,fhrs_5_en-GB,5,,FHRS,5
144784,,Middleton Road,Hartlepool,,Hartlepool Smallcraft Association,Pub/bar/nightclub,7843,0,,259371,0,,54.69318600000000,1598,859,jane.kett@hartlepool.gov.uk,Hartlepool,http://www.hartlepool.gov.uk,-1.19597600000000,TS24 0SA,2013-12-13,fhrs_5_en-GB,5,,FHRS,0
144785,Victoria Park,Clarence Road,Hartlepool,,Hartlepool United Football Club,Pub/bar/nightclub,7843,5,,259534,0,,54.68818800000000,2124,859,jane.kett@hartlepool.gov.uk,Hartlepool,http://www.hartlepool.gov.uk,-1.21365000000000,TS24 8BZ,2013-02-25,fhrs_5_en-GB,5,,FHRS,5
144786,,Sandringham Road,Hartlepool,,Hartlepool Utd Supporters Club,Pub/bar/nightclub,7843,0,,259337,0,,54.68864600000000,1597,859,jane.kett@hartlepool.gov.uk,Hartlepool,http://www.hartlepool.gov.uk,-1.22471800000000,TS26 8PS,2014-03-21,fhrs_5_en-GB,5,,FHRS,0
144787,,King Oswy Drive,Hartlepool,,Hartlepool Working Mens Club,Pub/bar/nightclub,7843,10,,259564,0,,54.71123300000000,307,859,jane.kett@hartlepool.gov.uk,Hartlepool,http://www.hartlepool.gov.uk,-1.23807000000000,TS24 9PF,2014-06-17,fhrs_4_en-GB,4,,FHRS,10
144788,,179 York Road,Hartlepool,,Hartlepotz,Retailers - other,4613,,,259628,,,54.68159500000000,7436,859,jane.kett@hartlepool.gov.uk,Hartlepool,http://www.hartlepool.gov.uk,-1.21695700000000,TS26 9EQ,2013-02-01,fhrs_exempt_en-GB,Exempt,,FHRS,
144789,,6 Duke Street,Hartlepool,,Hartleys Store,Retailers - other,4613,10,,259664,0,,54.68971000000000,5410,859,jane.kett@hartlepool.gov.uk,Hartlepool,http://www.hartlepool.gov.uk,-1.22677600000000,TS26 8QE,2014-04-08,fhrs_4_en-GB,4,,FHRS,5
144790,,Baptist Street,Hartlepool,,Headland Baptist Church,Restaurant/Cafe/Canteen,1,0,,259163,0,,54.69451000000000,13946,859,jane.kett@hartlepool.gov.uk,Hartlepool,http://www.hartlepool.gov.uk,-1.18032600000000,TS24 0QN,2015-01-22,fhrs_5_en-GB,5,,FHRS,0
144791,,73 Northgate,Hartlepool,,Headland Cafe,Restaurant/Cafe/Canteen,1,5,,655924,5,,54.69748500000000,56312,859,jane.kett@hartlepool.gov.uk,Hartlepool,http://www.hartlepool.gov.uk,-1.18434700000000,TS24 0JX,2014-04-07,fhrs_4_en-GB,4,,FHRS,10
144792,,3 Abbey Street,Hartlepool,,Headland Future Ltd,Other catering premises,7841,0,,259071,0,,54.69657900000000,2723,859,jane.kett@hartlepool.gov.uk,Hartlepool,http://www.hartlepool.gov.uk,-1.18462900000000,TS24 0JR,2013-01-14,fhrs_5_en-GB,5,,FHRS,0
144793,,Throston Street,Hartlepool,,Headland Social Club,Pub/bar/nightclub,7843,0,,259040,0,,54.69793800000000,1596,859,jane.kett@hartlepool.gov.uk,Hartlepool,http://www.hartlepool.gov.uk,-1.18359300000000,TS24 0LG,2011-09-12,fhrs_5_en-GB,5,,FHRS,0
144794,,Heriot Grange,Heriot Grove,Hartlepool,Heriot Grange Tenants Association,Other catering premises,7841,5,,259669,0,,54.64804900000000,51894,859,jane.kett@hartlepool.gov.uk,Hartlepool,http://www.hartlepool.gov.uk,-1.20678700000000,TS25 3TH,2013-03-01,fhrs_5_en-GB,5,,FHRS,0
144795,,33-34 Middleton Grange Centre,Hartlepool,,Heron Foods,Retailers - other,4613,5,,259662,0,,54.68379400000000,5067,859,jane.kett@hartlepool.gov.uk,Hartlepool,http://www.hartlepool.gov.uk,-1.21375100000000,TS24 7RY,2012-12-04,fhrs_5_en-GB,5,,FHRS,5
144796,,424 Catcote Road,Hartlepool,,Heron Foods,Retailers - other,4613,0,,259267,0,,54.65519000000000,7714,859,jane.kett@hartlepool.gov.uk,Hartlepool,http://www.hartlepool.gov.uk,-1.23361600000000,TS25 2LS,2013-08-19,fhrs_5_en-GB,5,,FHRS,5
144797,High Throston,Hart Lane,Hartlepool,,High Throston Golf Club,Pub/bar/nightclub,7843,0,,259150,0,,54.69556100000000,2866,859,jane.kett@hartlepool.gov.uk,Hartlepool,http://www.hartlepool.gov.uk,-1.24976700000000,TS26 0UG,2014-03-26,fhrs_5_en-GB,5,,FHRS,0
144798,,Elwick Road,Hartlepool,,High Tunstall Comprehensive School,School/college/university,7845,0,,259599,0,,54.68834900000000,2214,859,jane.kett@hartlepool.gov.uk,Hartlepool,http://www.hartlepool.gov.uk,-1.24896900000000,TS26 0LQ,2013-06-13,fhrs_5_en-GB,5,,FHRS,5
144799,,Park Avenue,Hartlepool,,Highnam Hall,Hospitals/Childcare/Caring Premises,5,5,,259196,0,,54.68507500000000,5416,859,jane.kett@hartlepool.gov.uk,Hartlepool,http://www.hartlepool.gov.uk,-1.23845100000000,TS26 0DZ,2014-03-13,fhrs_5_en-GB,5,,FHRS,5
144800,,31-32 Church Street,Hartlepool,,Hillcarter Hotel,Hotel/bed & breakfast/guest house,7842,5,,259442,0,,54.68622800000000,4496,859,jane.kett@hartlepool.gov.uk,Hartlepool,http://www.hartlepool.gov.uk,-1.20655300000000,TS24 7DH,2014-03-20,fhrs_5_en-GB,5,,FHRS,5
144801,,184 Middleton Grange Centre,Hartlepool,,Holland & Barratt,Retailers - other,4613,0,,259344,0,,54.68366000000000,1266,859,jane.kett@hartlepool.gov.uk,Hartlepool,http://www.hartlepool.gov.uk,-1.21380000000000,TS24 7RR,2012-10-10,fhrs_5_en-GB,5,,FHRS,5
144802,,Crawford Street,Hartlepool,,Holy Trinity C of E  Primary School,School/college/university,7845,0,,259138,0,,54.65816100000000,2191,859,jane.kett@hartlepool.gov.uk,Hartlepool,http://www.hartlepool.gov.uk,-1.19012600000000,TS25 1BZ,2013-03-30,fhrs_5_en-GB,5,,FHRS,5
144803,,35-38a Middleton Grange Centre,Hartlepool,,Home Bargains,Retailers - other,4613,0,,452506,0,,54.68428200000000,53973,859,jane.kett@hartlepool.gov.uk,Hartlepool,http://www.hartlepool.gov.uk,-1.21411300000000,TS24 7RZ,2012-10-15,fhrs_5_en-GB,5,,FHRS,0
144804,"Unit 5, Teesbay Retail Park",Brenda Road,Hartlepool,,Home Bargains,Retailers - other,4613,0,,717461,0,,54.66740200000000,56616,859,jane.kett@hartlepool.gov.uk,Hartlepool,http://www.hartlepool.gov.uk,-1.20823700000000,TS25 1XJ,2014-11-18,fhrs_5_en-GB,5,,FHRS,0
144805,,45 Chatham Road,Hartlepool,,Hong Kong Sha Tin,Takeaway/sandwich shop,7844,10,,540058,10,,54.69461300000000,53458,859,jane.kett@hartlepool.gov.uk,Hartlepool,http://www.hartlepool.gov.uk,-1.22465000000000,TS24 8QQ,2013-06-27,fhrs_3_en-GB,3,,FHRS,10
144806,,High Street,Greatham,Hartlepool,Hope and Anchor,Pub/bar/nightclub,7843,5,,259338,0,,54.64347400000000,85,859,jane.kett@hartlepool.gov.uk,Hartlepool,http://www.hartlepool.gov.uk,-1.23975500000000,TS25 2EN,2014-03-11,fhrs_4_en-GB,4,,FHRS,10
144807,2 Seaton Reach,Coronation Drive,Hartlepool,,Hornsey's Bar and Grill,Restaurant/Cafe/Canteen,1,5,,259551,0,,54.66949900000000,5782,859,jane.kett@hartlepool.gov.uk,Hartlepool,http://www.hartlepool.gov.uk,-1.19097000000000,TS25 1XN,2013-03-20,fhrs_5_en-GB,5,,FHRS,5
144808,,162a York Road,Hartlepool,,HP Convenience Store,Retailers - other,4613,10,,611113,0,,54.68197800000000,50034,859,jane.kett@hartlepool.gov.uk,Hartlepool,http://www.hartlepool.gov.uk,-1.21642200000000,TS26 9DT,2013-12-05,fhrs_4_en-GB,4,,FHRS,10
144809,"Unit 1, Middle Warren Local Centre",Mulberry Rise,Hartlepool,,Hungry Joe's,Takeaway/sandwich shop,7844,,,655931,,,54.70747500000000,56377,859,jane.kett@hartlepool.gov.uk,Hartlepool,http://www.hartlepool.gov.uk,-1.24922200000000,TS26 0BF,,fhrs_awaitinginspection_en-GB,AwaitingInspection,,FHRS,
144810,,141 Stockton Road,Hartlepool,,Hungry Tums,Takeaway/sandwich shop,7844,5,,259631,0,,54.67639900000000,7129,859,jane.kett@hartlepool.gov.uk,Hartlepool,http://www.hartlepool.gov.uk,-1.21538200000000,TS25 1SL,2012-11-23,fhrs_5_en-GB,5,,FHRS,5
144811,,Skerne Road,Oakesway Industrial Estate,Hartlepool,Iceland Foods Ltd,Retailers - other,4613,0,,589581,0,,54.70484100000000,55393,859,jane.kett@hartlepool.gov.uk,Hartlepool,http://www.hartlepool.gov.uk,-1.21654100000000,TS24 0RH,2013-11-21,fhrs_5_en-GB,5,,FHRS,0
144812,"Unit 3a, Teesbay Retail Park",Brenda Road,Hartlepool,,Iceland Foods Ltd,Retailers - other,4613,0,,724518,0,,54.66740200000000,56976,859,jane.kett@hartlepool.gov.uk,Hartlepool,http://www.hartlepool.gov.uk,-1.20823700000000,TS25 1XJ,2015-01-13,fhrs_5_en-GB,5,,FHRS,5
144813,,27-29 Middleton Grange Centre,Hartlepool,,Iceland Frozen Foods,Retailers - other,4613,0,,259225,0,,54.68379400000000,1767,859,jane.kett@hartlepool.gov.uk,Hartlepool,http://www.hartlepool.gov.uk,-1.21375100000000,TS24 7RY,2013-10-07,fhrs_5_en-GB,5,,FHRS,5
144814,,35 Church Street,Hartlepool,,Idols,Pub/bar/nightclub,7843,0,,259036,0,,54.68593100000000,4884,859,jane.kett@hartlepool.gov.uk,Hartlepool,http://www.hartlepool.gov.uk,-1.20792300000000,TS24 7DG,2013-01-16,fhrs_5_en-GB,5,,FHRS,5
144815,Stall 10 b&d,The Market Hall,Middleton Grange Centre,Hartlepool,In The Mix,Retailers - other,4613,5,,259549,0,,,52038,859,jane.kett@hartlepool.gov.uk,Hartlepool,http://www.hartlepool.gov.uk,,TS24 7RU,2013-12-18,fhrs_5_en-GB,5,,FHRS,0
144816,,41 York Road,Hartlepool,,Indian Cottage,Restaurant/Cafe/Canteen,1,10,,259714,10,,54.68709500000000,1889,859,jane.kett@hartlepool.gov.uk,Hartlepool,http://www.hartlepool.gov.uk,-1.21694400000000,TS26 8AH,2013-02-07,fhrs_3_en-GB,3,,FHRS,10
144817,Stranton Nursery,Tanfield Road,Hartlepool,,Inspirations Coffee House,Restaurant/Cafe/Canteen,1,5,,540061,0,,54.66781300000000,55166,859,jane.kett@hartlepool.gov.uk,Hartlepool,http://www.hartlepool.gov.uk,-1.22041600000000,TS25 5DD,2013-05-28,fhrs_5_en-GB,5,,FHRS,5
144818,,,,,Isis Cakes,Retailers - other,4613,0,,430792,0,,,53948,859,jane.kett@hartlepool.gov.uk,Hartlepool,http://www.hartlepool.gov.uk,,,2012-08-30,fhrs_5_en-GB,5,,FHRS,5
144819,,98 York Road,Hartlepool,,Istanbuls,Takeaway/sandwich shop,7844,10,,655933,5,,54.68497100000000,7517,859,jane.kett@hartlepool.gov.uk,Hartlepool,http://www.hartlepool.gov.uk,-1.21648900000000,TS26 9DQ,2014-05-14,fhrs_4_en-GB,4,,FHRS,5
144820,19 Navigation Point,Middleton Road,Hartlepool,,Jack Rabbit Slims,Restaurant/Cafe/Canteen,1,5,,691466,0,,54.69189000000000,54641,859,jane.kett@hartlepool.gov.uk,Hartlepool,http://www.hartlepool.gov.uk,-1.19853000000000,TS24 0UG,2015-01-16,fhrs_5_en-GB,5,,FHRS,5
144821,,72 The Front,Hartlepool,,Jack's Snacks,Takeaway/sandwich shop,7844,5,,732081,10,,54.65917200000000,57061,859,jane.kett@hartlepool.gov.uk,Hartlepool,http://www.hartlepool.gov.uk,-1.18685000000000,TS25 1BU,2015-01-14,fhrs_4_en-GB,4,,FHRS,5
144822,,Tower Street,Hartlepool,,Jacksons Arms,Pub/bar/nightclub,7843,0,,259281,0,,54.68490100000000,2049,859,jane.kett@hartlepool.gov.uk,Hartlepool,http://www.hartlepool.gov.uk,-1.20845500000000,TS24 7HH,2013-02-06,fhrs_5_en-GB,5,,FHRS,0
144823,,The Highlight,Hartlepool,,Jacksons Wharf,Pub/bar/nightclub,7843,5,,259191,0,,54.70172600000000,2127,859,jane.kett@hartlepool.gov.uk,Hartlepool,http://www.hartlepool.gov.uk,-1.21856800000000,TS24 0XN,2014-03-31,fhrs_5_en-GB,5,,FHRS,5
144824,,,,,Jeni Made Cakes,Retailers - other,4613,0,,688643,0,,,56641,859,jane.kett@hartlepool.gov.uk,Hartlepool,http://www.hartlepool.gov.uk,,,2014-07-29,fhrs_5_en-GB,5,,FHRS,0
144825,,Jesmond Gardens,Hartlepool,,Jesmond Gardens School,School/college/university,7845,0,,259615,0,,54.69859500000000,2215,859,jane.kett@hartlepool.gov.uk,Hartlepool,http://www.hartlepool.gov.uk,-1.22899700000000,TS24 8PJ,2014-11-05,fhrs_5_en-GB,5,,FHRS,0
144826,Unit 4,Wiltshire Way,Hartlepool,,JG Jones Family Butcher,Retailers - other,4613,5,,259608,5,,54.69400100000000,3420,859,jane.kett@hartlepool.gov.uk,Hartlepool,http://www.hartlepool.gov.uk,-1.24300100000000,TS26 0XP,2014-10-09,fhrs_5_en-GB,5,,FHRS,5
144827,,183 York Road,Hartlepool,,Joanna's Fish Bar,Takeaway/sandwich shop,7844,10,,319490,10,,54.68056100000000,53421,859,jane.kett@hartlepool.gov.uk,Hartlepool,http://www.hartlepool.gov.uk,-1.21682200000000,TS26 9EE,2013-07-17,fhrs_3_en-GB,3,,FHRS,10
144828,,13 Davison Drive,Hartlepool,,John The Butcher,Retailers - other,4613,10,,259412,5,,54.70476600000000,63,859,jane.kett@hartlepool.gov.uk,Hartlepool,http://www.hartlepool.gov.uk,-1.22725000000000,TS24 9BW,2013-09-13,fhrs_3_en-GB,3,,FHRS,10
144829,,12 Murray Street,Hartlepool,,Just Jan's Cafe,Restaurant/Cafe/Canteen,1,5,,611116,5,,54.68673300000000,55856,859,jane.kett@hartlepool.gov.uk,Hartlepool,http://www.hartlepool.gov.uk,-1.21932500000000,TS26 8PE,2013-12-18,fhrs_5_en-GB,5,,FHRS,5
144830,,54 Church Street,Hartlepool,,Ken Tong House,Takeaway/sandwich shop,7844,5,,550865,10,,54.68653500000000,54700,859,jane.kett@hartlepool.gov.uk,Hartlepool,http://www.hartlepool.gov.uk,-1.20682600000000,TS24 7DX,2013-06-20,fhrs_4_en-GB,4,,FHRS,5
144831,The Lanyard,Marina Way,Hartlepool,,Kentucky Fried Chicken,Restaurant/Cafe/Canteen,1,10,,259693,0,,54.69052700000000,2887,859,jane.kett@hartlepool.gov.uk,Hartlepool,http://www.hartlepool.gov.uk,-1.21118500000000,TS24 0XR,2013-07-03,fhrs_4_en-GB,4,,FHRS,5
144832,,Hindpool Children's Centre,Hindpool Close,Hartlepool,Kiddikins Nursery & Community Cafe,Hospitals/Childcare/Caring Premises,5,5,,259635,0,,54.70176100000000,8963,859,jane.kett@hartlepool.gov.uk,Hartlepool,http://www.hartlepool.gov.uk,-1.20995800000000,TS24 0TB,2013-11-28,fhrs_5_en-GB,5,,FHRS,5
144833,3 Navigation Point,Middleton Road,Hartlepool,,Kilimandjaro,Restaurant/Cafe/Canteen,1,10,,683107,5,,54.69189000000000,56182,859,jane.kett@hartlepool.gov.uk,Hartlepool,http://www.hartlepool.gov.uk,-1.19853000000000,TS24 0UG,2014-09-03,fhrs_4_en-GB,4,,FHRS,5
144834,,44 Kilmarnock Road,Hartlepool,,Kilmarnock Road Children & Young People Resource Centre,Restaurant/Cafe/Canteen,1,5,,259201,5,,54.65840300000000,1648,859,jane.kett@hartlepool.gov.uk,Hartlepool,http://www.hartlepool.gov.uk,-1.24431300000000,TS25 3NU,2013-10-31,fhrs_5_en-GB,5,,FHRS,5
144835,,South Road,Hartlepool,,King Johns Tavern,Pub/bar/nightclub,7843,5,,259661,5,,54.68461100000000,2788,859,jane.kett@hartlepool.gov.uk,Hartlepool,http://www.hartlepool.gov.uk,-1.21779900000000,TS26 9HD,2015-01-08,fhrs_4_en-GB,4,,FHRS,10
144836,,61 King Oswy Drive,Hartlepool,,King Oswy Fish & Chip Shop,Takeaway/sandwich shop,7844,0,,455914,0,,54.71123300000000,54211,859,jane.kett@hartlepool.gov.uk,Hartlepool,http://www.hartlepool.gov.uk,-1.23807000000000,TS24 9PF,2014-06-18,fhrs_5_en-GB,5,,FHRS,5
144837,4 Navigation Point,Middleton Road,Hartlepool,,Kings Bar & Restaurant,Restaurant/Cafe/Canteen,1,10,,455910,5,,54.69189000000000,53672,859,jane.kett@hartlepool.gov.uk,Hartlepool,http://www.hartlepool.gov.uk,-1.19853000000000,TS24 0UG,2014-10-16,fhrs_4_en-GB,4,,FHRS,5
144838,,26 Thornton Street,Hartlepool,,Kings Fish Shop,Retailers - other,4613,5,,259061,0,,54.68363300000000,1,859,jane.kett@hartlepool.gov.uk,Hartlepool,http://www.hartlepool.gov.uk,-1.21801900000000,TS26 9ET,2013-07-19,fhrs_5_en-GB,5,,FHRS,0
144839,,1 Taybrooke Avenue,Hartlepool,,Kingsley Primary School,School/college/university,7845,0,,259168,0,,54.67206100000000,535,859,jane.kett@hartlepool.gov.uk,Hartlepool,http://www.hartlepool.gov.uk,-1.23264700000000,TS25 5JR,2013-02-14,fhrs_5_en-GB,5,,FHRS,0
144840,,136A Oxford Road,Hartlepool,,Kinnersleys,Retailers - other,4613,5,,259330,5,,54.67450900000000,4284,859,jane.kett@hartlepool.gov.uk,Hartlepool,http://www.hartlepool.gov.uk,-1.22179200000000,TS25 5RH,2014-05-29,fhrs_4_en-GB,4,,FHRS,10
144841,,,,,Kirsty's Cakes,Retailers - other,4613,10,,259039,5,,,21157,859,jane.kett@hartlepool.gov.uk,Hartlepool,http://www.hartlepool.gov.uk,,,2014-10-24,fhrs_4_en-GB,4,,FHRS,0
144842,,122 West View Road,Hartlepool,,Kullar Central Stores,Retailers - other,4613,10,,259406,0,,54.70371800000000,714,859,jane.kett@hartlepool.gov.uk,Hartlepool,http://www.hartlepool.gov.uk,-1.20678600000000,TS24 0BN,2014-09-17,fhrs_4_en-GB,4,,FHRS,0
144843,,14 Brus Corner,Hartlepool,,Kullar News & Booze,Retailers - other,4613,10,,259136,0,,54.70903400000000,7343,859,jane.kett@hartlepool.gov.uk,Hartlepool,http://www.hartlepool.gov.uk,-1.22152000000000,TS24 9LA,2012-12-12,fhrs_4_en-GB,4,,FHRS,5
144844,,112 Flint Walk,Hartlepool,,Kullar's Corner,Retailers - other,4613,10,,259274,5,,54.69763800000000,9523,859,jane.kett@hartlepool.gov.uk,Hartlepool,http://www.hartlepool.gov.uk,-1.23834000000000,TS26 0TQ,2013-01-07,fhrs_4_en-GB,4,,FHRS,5
144845,,56 Middleton Grange Centre,Hartlepool,,Kwicksnax,Restaurant/Cafe/Canteen,1,5,,259377,0,,54.68405400000000,52243,859,jane.kett@hartlepool.gov.uk,Hartlepool,http://www.hartlepool.gov.uk,-1.21500200000000,TS24 7RX,2013-06-25,fhrs_5_en-GB,5,,FHRS,5
144846,,184 Raby Road,Hartlepool,,La Nuova,Takeaway/sandwich shop,7844,10,,259242,0,,54.69358000000000,51558,859,jane.kett@hartlepool.gov.uk,Hartlepool,http://www.hartlepool.gov.uk,-1.21920900000000,TS24 8LF,2013-03-12,fhrs_4_en-GB,4,,FHRS,0
144847,,7 Murray Street,Hartlepool,,La Piazza,Takeaway/sandwich shop,7844,5,,564600,5,,54.68665500000000,55326,859,jane.kett@hartlepool.gov.uk,Hartlepool,http://www.hartlepool.gov.uk,-1.21979200000000,TS26 8PD,2013-09-10,fhrs_5_en-GB,5,,FHRS,5
144848,,48 Church Street,Hartlepool,,Ladbrokes,Retailers - other,4613,,,259296,,,54.70172600000000,4384,859,jane.kett@hartlepool.gov.uk,Hartlepool,http://www.hartlepool.gov.uk,-1.21856800000000,TS24 7EH,2013-09-12,fhrs_exempt_en-GB,Exempt,,FHRS,
144849,,430 Catcote Road,Hartlepool,,Ladbrokes,Retailers - other,4613,,,259123,,,54.65519000000000,425,859,jane.kett@hartlepool.gov.uk,Hartlepool,http://www.hartlepool.gov.uk,-1.23361600000000,TS25 2LS,2012-11-20,fhrs_exempt_en-GB,Exempt,,FHRS,
144850,,96 York Road,Hartlepool,,Ladbrokes,Retailers - other,4613,,,259674,,,54.68497100000000,1643,859,jane.kett@hartlepool.gov.uk,Hartlepool,http://www.hartlepool.gov.uk,-1.21648900000000,TS26 9DQ,2014-02-06,fhrs_exempt_en-GB,Exempt,,FHRS,
144851,,4a Woodbine Terrace,Hartlepool,,Lambs Greatham Post Office,Retailers - other,4613,10,,259647,0,,54.64062800000000,260,859,jane.kett@hartlepool.gov.uk,Hartlepool,http://www.hartlepool.gov.uk,-1.23736000000000,TS25 2ET,2012-05-09,fhrs_4_en-GB,4,,FHRS,5
144852,Laurel Gardens,Marlowe Road,Hartlepool,,Laurel Catering,Restaurant/Cafe/Canteen,1,5,,352791,0,,54.67046300000000,53637,859,jane.kett@hartlepool.gov.uk,Hartlepool,http://www.hartlepool.gov.uk,-1.23849200000000,TS25 4NZ,2013-12-06,fhrs_5_en-GB,5,,FHRS,5
144853,Heerema Fabrication,Greenland Road,Hartlepool,,LB Catering,Restaurant/Cafe/Canteen,1,0,,259381,0,,54.69786300000000,2333,859,jane.kett@hartlepool.gov.uk,Hartlepool,http://www.hartlepool.gov.uk,-1.20475900000000,TS24 0RQ,2014-01-29,fhrs_5_en-GB,5,,FHRS,5
144854,St Helens Children's Centre,Durham Street,Hartlepool,,Leapfrogs Playgroup,Hospitals/Childcare/Caring Premises,5,0,,258994,0,,54.70052900000000,51997,859,jane.kett@hartlepool.gov.uk,Hartlepool,http://www.hartlepool.gov.uk,-1.18669100000000,TS24 0HG,2014-11-05,fhrs_5_en-GB,5,,FHRS,0
144855,,57 Northgate,Hartlepool,,Lee Garden,Takeaway/sandwich shop,7844,5,,259152,5,,54.69748500000000,2741,859,jane.kett@hartlepool.gov.uk,Hartlepool,http://www.hartlepool.gov.uk,-1.18434700000000,TS24 0JX,2013-10-09,fhrs_4_en-GB,4,,FHRS,10
144856,,35 Chatham Road,Hartlepool,,Lee Meats,Retailers - other,4613,10,,259110,5,,54.69497100000000,1420,859,jane.kett@hartlepool.gov.uk,Hartlepool,http://www.hartlepool.gov.uk,-1.22309200000000,TS24 8QG,2013-11-06,fhrs_3_en-GB,3,,FHRS,10
144857,Summerhill Visitor Centre,Summerhill Lane,Hartlepool,,Liberty Catering @ Summerhill,Restaurant/Cafe/Canteen,1,5,,427009,5,,54.67718500000000,53920,859,jane.kett@hartlepool.gov.uk,Hartlepool,http://www.hartlepool.gov.uk,-1.24283300000000,TS25 4LL,2014-08-18,fhrs_5_en-GB,5,,FHRS,5
144858,,206 York Road,Hartlepool,,Liberty Catering Solutions,Restaurant/Cafe/Canteen,1,0,,259696,0,,54.68036000000000,9010,859,jane.kett@hartlepool.gov.uk,Hartlepool,http://www.hartlepool.gov.uk,-1.21631400000000,TS26 9EB,2013-09-18,fhrs_5_en-GB,5,,FHRS,5
144859,,Jesmond Gardens,Hartlepool,,Lidl,Retailers - supermarkets/hypermarkets,7840,0,,259256,0,,54.69859500000000,6973,859,jane.kett@hartlepool.gov.uk,Hartlepool,http://www.hartlepool.gov.uk,-1.22899700000000,TS24 8PJ,2012-06-22,fhrs_5_en-GB,5,,FHRS,0
144860,,41 Northgate,Hartlepool,,Lifestyle Express,Retailers - other,4613,20,,259610,0,,54.69748500000000,7334,859,jane.kett@hartlepool.gov.uk,Hartlepool,http://www.hartlepool.gov.uk,-1.18434700000000,TS24 0JX,2013-04-04,fhrs_1_en-GB,1,,FHRS,10
144861,,27-29 Miers Avenue,Hartlepool,,Lifestyle Express,Retailers - other,4613,0,,683110,0,,54.70705100000000,56622,859,jane.kett@hartlepool.gov.uk,Hartlepool,http://www.hartlepool.gov.uk,-1.22193000000000,TS24 9HH,2014-07-15,fhrs_5_en-GB,5,,FHRS,0
144862,,Rossmere Way,Hartlepool,,Lifestyle Express,Retailers - other,4613,5,,259568,0,,54.66437600000000,6065,859,jane.kett@hartlepool.gov.uk,Hartlepool,http://www.hartlepool.gov.uk,-1.22539700000000,TS25 5ER,2014-07-09,fhrs_5_en-GB,5,,FHRS,0
144863,,11-13 Church Square,Hartlepool,,Lifestyle Express,Retailers - other,4613,10,,546319,5,,54.68551400000000,54018,859,jane.kett@hartlepool.gov.uk,Hartlepool,http://www.hartlepool.gov.uk,-1.20872300000000,TS24 7EY,2013-05-16,fhrs_4_en-GB,4,,FHRS,5
144864,Mission Hall,Burbank Street,Hartlepool,,Lifestyle Express,Retailers - other,4613,10,,564593,0,,54.68085700000000,51624,859,jane.kett@hartlepool.gov.uk,Hartlepool,http://www.hartlepool.gov.uk,-1.20842500000000,TS24 7JW,2013-07-04,fhrs_4_en-GB,4,,FHRS,5
144865,,Masefield Road,Hartlepool,,Lindisfarne Care Home,Hospitals/Childcare/Caring Premises,5,5,,259015,0,,54.67276400000000,4777,859,jane.kett@hartlepool.gov.uk,Hartlepool,http://www.hartlepool.gov.uk,-1.24285300000000,TS25 4JY,2015-01-29,fhrs_5_en-GB,5,,FHRS,0
144866,,44 Lister Street,Hartlepool,,Lister Fisheries,Takeaway/sandwich shop,7844,20,,642881,5,,54.68092300000000,56173,859,jane.kett@hartlepool.gov.uk,Hartlepool,http://www.hartlepool.gov.uk,-1.21721800000000,TS26 9LF,2014-02-14,fhrs_1_en-GB,1,,FHRS,10
144867,,68 Lister Street,Hartlepool,,Lister News,Retailers - other,4613,10,,259652,5,,54.68080200000000,1200,859,jane.kett@hartlepool.gov.uk,Hartlepool,http://www.hartlepool.gov.uk,-1.22081900000000,TS26 9JW,2015-01-07,fhrs_3_en-GB,3,,FHRS,10
144868,,18 Whitby Street,Hartlepool,,Little Black Book,Pub/bar/nightclub,7843,0,,258980,0,,54.68562900000000,7039,859,jane.kett@hartlepool.gov.uk,Hartlepool,http://www.hartlepool.gov.uk,-1.20712300000000,TS24 7AD,2012-12-04,fhrs_5_en-GB,5,,FHRS,0
144869,,29 Wynyard Road,Hartlepool,,Lloyds Pharmacy,Retailers - other,4613,,,259363,,,54.66069100000000,6125,859,jane.kett@hartlepool.gov.uk,Hartlepool,http://www.hartlepool.gov.uk,-1.23661300000000,TS25 3LB,2013-09-04,fhrs_exempt_en-GB,Exempt,,FHRS,
144870,,79 Park Road,Hartlepool,,Lloyds Pharmacy,Retailers - other,4613,,,259665,,,54.68234100000000,50265,859,jane.kett@hartlepool.gov.uk,Hartlepool,http://www.hartlepool.gov.uk,-1.21416600000000,TS24 7PW,2014-02-06,fhrs_exempt_en-GB,Exempt,,FHRS,
144871,,91 Elwick Road,Hartlepool,,Local Shop,Retailers - other,4613,10,,620649,0,,54.67927100000000,54318,859,jane.kett@hartlepool.gov.uk,Hartlepool,http://www.hartlepool.gov.uk,-1.22022800000000,TS26 9AU,2013-12-19,fhrs_4_en-GB,4,,FHRS,5
144872,,130 Grange Road,Hartlepool,,Lonsdale Nursery,Hospitals/Childcare/Caring Premises,5,5,,259499,0,,54.68608600000000,2483,859,jane.kett@hartlepool.gov.uk,Hartlepool,http://www.hartlepool.gov.uk,-1.22777600000000,TS26 8JJ,2013-10-23,fhrs_5_en-GB,5,,FHRS,5
144873,,10 Victoria Road,Hartlepool,,Loons,Pub/bar/nightclub,7843,5,,258998,0,,54.68548900000000,2624,859,jane.kett@hartlepool.gov.uk,Hartlepool,http://www.hartlepool.gov.uk,-1.21602900000000,TS24 7SD,2014-03-24,fhrs_5_en-GB,5,,FHRS,5
144874,,139 Stockton Road,Hartlepool,,Lotus Express,Takeaway/sandwich shop,7844,10,,259498,10,,54.67639900000000,6957,859,jane.kett@hartlepool.gov.uk,Hartlepool,http://www.hartlepool.gov.uk,-1.21538200000000,TS25 1SL,2013-11-28,fhrs_3_en-GB,3,,FHRS,10
144875,,186 Raby Road,Hartlepool,,Lotus House,Takeaway/sandwich shop,7844,10,,512328,10,,54.69358000000000,54967,859,jane.kett@hartlepool.gov.uk,Hartlepool,http://www.hartlepool.gov.uk,-1.21920900000000,TS24 8LF,2013-09-05,fhrs_3_en-GB,3,,FHRS,10
144876,,37 Wynyard Road,Hartlepool,,Lucky House,Takeaway/sandwich shop,7844,5,,578507,5,,54.66069100000000,55103,859,jane.kett@hartlepool.gov.uk,Hartlepool,http://www.hartlepool.gov.uk,-1.23661300000000,TS25 3LB,2013-10-03,fhrs_4_en-GB,4,,FHRS,10
144877,,1 Grosvenor Street,Hartlepool,,Lynnfield Primary School,School/college/university,7845,0,,259600,0,,54.68596200000000,92,859,jane.kett@hartlepool.gov.uk,Hartlepool,http://www.hartlepool.gov.uk,-1.22107700000000,TS26 8DP,2014-04-23,fhrs_5_en-GB,5,,FHRS,0
144878,Anchor Housing Association,Lynton Court,Hartlepool,,Lynton Court Residents,Hospitals/Childcare/Caring Premises,5,5,,259263,0,,54.69640200000000,52383,859,jane.kett@hartlepool.gov.uk,Hartlepool,http://www.hartlepool.gov.uk,-1.24041100000000,TS26 0XN,2014-03-13,fhrs_5_en-GB,5,,FHRS,0
144879,,75 Northgate,Hartlepool,,M & L Ayre,Retailers - other,4613,5,,259329,10,,54.69748500000000,229,859,jane.kett@hartlepool.gov.uk,Hartlepool,http://www.hartlepool.gov.uk,-1.18434700000000,TS24 0JX,2014-02-04,fhrs_4_en-GB,4,,FHRS,5
144880,Stall 1,The Market Hall,Middleton Grange Centre,Hartlepool,M & L Ayre Delicatessen,Retailers - other,4613,5,,259133,5,,54.70172600000000,11,859,jane.kett@hartlepool.gov.uk,Hartlepool,http://www.hartlepool.gov.uk,-1.21856800000000,TS24 7RU,2014-07-28,fhrs_4_en-GB,4,,FHRS,10
144881,,404 Catcote Road,Hartlepool,,Mando's,Takeaway/sandwich shop,7844,10,,259342,0,,54.65519000000000,51709,859,jane.kett@hartlepool.gov.uk,Hartlepool,http://www.hartlepool.gov.uk,-1.23361600000000,TS25 2LS,2012-10-22,fhrs_4_en-GB,4,,FHRS,0
144882,Tees And Hartlepool Yacht Club,Fleet Avenue,Hartlepool,,Mandy's Catering,Restaurant/Cafe/Canteen,1,5,,259122,0,,54.68856700000000,51931,859,jane.kett@hartlepool.gov.uk,Hartlepool,http://www.hartlepool.gov.uk,-1.19749400000000,TS24 0SP,2014-02-19,fhrs_5_en-GB,5,,FHRS,0
144883,,Owton Manor Lane,Hartlepool,,Manor College Of Technology,School/college/university,7845,0,,259586,0,,54.65724200000000,365,859,jane.kett@hartlepool.gov.uk,Hartlepool,http://www.hartlepool.gov.uk,-1.24126600000000,TS25 3PS,2013-11-08,fhrs_5_en-GB,5,,FHRS,5
144884,,1 Greenock Road,Hartlepool,,Manor Park Care Home,Hospitals/Childcare/Caring Premises,5,5,,259116,0,,54.66182600000000,370,859,jane.kett@hartlepool.gov.uk,Hartlepool,http://www.hartlepool.gov.uk,-1.23699500000000,TS25 4EU,2013-09-11,fhrs_5_en-GB,5,,FHRS,5
144885,,52 Owton Manor Lane,Hartlepool,,Manor Wines,Retailers - other,4613,0,,259315,5,,54.65867300000000,2953,859,jane.kett@hartlepool.gov.uk,Hartlepool,http://www.hartlepool.gov.uk,-1.23007800000000,TS25 3AU,2014-11-03,fhrs_4_en-GB,4,,FHRS,10
144886,,34 Church Street,Hartlepool,,Maram's Takeaway,Takeaway/sandwich shop,7844,10,,584390,10,,54.68593100000000,55504,859,jane.kett@hartlepool.gov.uk,Hartlepool,http://www.hartlepool.gov.uk,-1.20792300000000,TS24 7DG,2014-02-13,fhrs_3_en-GB,3,,FHRS,10
144887,,91A York Road,Hartlepool,,Marco Polo,Restaurant/Cafe/Canteen,1,10,,259645,5,,54.68581000000000,2032,859,jane.kett@hartlepool.gov.uk,Hartlepool,http://www.hartlepool.gov.uk,-1.21696900000000,TS26 8AD,2014-03-25,fhrs_4_en-GB,4,,FHRS,5
144888,,Harbour Walk,Hartlepool,,Marina Pizza,Takeaway/sandwich shop,7844,5,,434523,5,,54.69172200000000,53979,859,jane.kett@hartlepool.gov.uk,Hartlepool,http://www.hartlepool.gov.uk,-1.20573200000000,TS24 0YA,2014-03-24,fhrs_5_en-GB,5,,FHRS,5
144889,Pound Smart,Marina Way,Hartlepool,,Marina Tea Rooms,Restaurant/Cafe/Canteen,1,20,,703821,5,,54.69128000000000,56736,859,jane.kett@hartlepool.gov.uk,Hartlepool,http://www.hartlepool.gov.uk,-1.20682600000000,TS24 0YA,2014-11-03,fhrs_1_en-GB,1,,FHRS,5
144890,,The Front,Hartlepool,,Marine Hotel,Hotel/bed & breakfast/guest house,7842,5,,259233,5,,54.66002200000000,634,859,jane.kett@hartlepool.gov.uk,Hartlepool,http://www.hartlepool.gov.uk,-1.18763900000000,TS25 1BS,2014-03-14,fhrs_5_en-GB,5,,FHRS,5
144891,,39 Middleton Grange Centre,Hartlepool,,Mariners,Takeaway/sandwich shop,7844,0,,259470,5,,54.68405400000000,2713,859,jane.kett@hartlepool.gov.uk,Hartlepool,http://www.hartlepool.gov.uk,-1.21500200000000,TS24 7RX,2013-03-05,fhrs_5_en-GB,5,,FHRS,5
144892,,140 Middleton Grange Centre,Hartlepool,,Marks & Spencer,Retailers - supermarkets/hypermarkets,7840,0,,259648,0,,54.68466700000000,731,859,jane.kett@hartlepool.gov.uk,Hartlepool,http://www.hartlepool.gov.uk,-1.21258600000000,TS24 7RD,2012-06-12,fhrs_5_en-GB,5,,FHRS,0
144893,,72 Elwick Road,Hartlepool,,Martin W Nowell,Retailers - other,4613,10,,259085,0,,54.67959500000000,241,859,jane.kett@hartlepool.gov.uk,Hartlepool,http://www.hartlepool.gov.uk,-1.21902700000000,TS26 9AP,2014-07-28,fhrs_4_en-GB,4,,FHRS,10
144894,Owton Manor Post Office,68 Owton Manor Lane,Hartlepool,,Martins,Retailers - other,4613,0,,259469,0,,54.65867300000000,444,859,jane.kett@hartlepool.gov.uk,Hartlepool,http://www.hartlepool.gov.uk,-1.23007800000000,TS25 3AU,2012-10-24,fhrs_4_en-GB,4,,FHRS,10
144895,,1 Villiers Street,Hartlepool,,Mary Lambert,Restaurant/Cafe/Canteen,1,5,,319497,5,,54.70172600000000,53569,859,jane.kett@hartlepool.gov.uk,Hartlepool,http://www.hartlepool.gov.uk,-1.21856800000000,TS24 7PA,2014-05-12,fhrs_5_en-GB,5,,FHRS,0
144896,,York Place,Hartlepool,,Mary Rowntree's,Restaurant/Cafe/Canteen,1,0,,655923,0,,54.69373700000000,56301,859,jane.kett@hartlepool.gov.uk,Hartlepool,http://www.hartlepool.gov.uk,-1.18167600000000,TS24 0QR,2014-05-27,fhrs_5_en-GB,5,,FHRS,0
144897,,128 Northgate,Hartlepool,,Masala House,Takeaway/sandwich shop,7844,0,,259174,0,,54.70115700000000,8799,859,jane.kett@hartlepool.gov.uk,Hartlepool,http://www.hartlepool.gov.uk,-1.19195400000000,TS24 0EJ,2014-01-30,fhrs_5_en-GB,5,,FHRS,0
144898,,87-89 York Road,Hartlepool,,Masala Lounge,Restaurant/Cafe/Canteen,1,10,,534439,15,,54.68640300000000,55096,859,jane.kett@hartlepool.gov.uk,Hartlepool,http://www.hartlepool.gov.uk,-1.21697300000000,TS26 8AQ,2013-07-30,fhrs_2_en-GB,2,,FHRS,10
144899,,Regent Street,Hartlepool,,Masonic Hall,Pub/bar/nightclub,7843,0,,259001,0,,54.69451000000000,1258,859,jane.kett@hartlepool.gov.uk,Hartlepool,http://www.hartlepool.gov.uk,-1.18032600000000,TS24 0QN,2013-03-06,fhrs_5_en-GB,5,,FHRS,0
144900,,8 The Front,Hartlepool,,Matteo's,Restaurant/Cafe/Canteen,1,5,,259695,5,,54.66002200000000,5182,859,jane.kett@hartlepool.gov.uk,Hartlepool,http://www.hartlepool.gov.uk,-1.18763900000000,TS25 1BS,2013-03-07,fhrs_5_en-GB,5,,FHRS,5
144901,,11 Mansepool Close,Hartlepool,,Matt's Bits n Bobs,Retailers - other,4613,0,,709542,0,,54.70309300000000,5041,859,jane.kett@hartlepool.gov.uk,Hartlepool,http://www.hartlepool.gov.uk,-1.21030500000000,TS24 0TL,2014-11-21,fhrs_5_en-GB,5,,FHRS,0
144902,,131-133 Elwick Road,Hartlepool,,McColls,Retailers - other,4613,5,,259672,0,,54.67916200000000,1444,859,jane.kett@hartlepool.gov.uk,Hartlepool,http://www.hartlepool.gov.uk,-1.22285100000000,TS26 9BQ,2012-04-19,fhrs_5_en-GB,5,,FHRS,5
144903,,10 Murray Street,Hartlepool,,McColls,Retailers - other,4613,0,,259711,0,,54.68673300000000,6655,859,jane.kett@hartlepool.gov.uk,Hartlepool,http://www.hartlepool.gov.uk,-1.21932500000000,TS26 8PE,2013-04-18,fhrs_5_en-GB,5,,FHRS,0
144904,,410-412 Catcote Road,Hartlepool,,McColls,Retailers - other,4613,0,,259054,0,,54.65519000000000,465,859,jane.kett@hartlepool.gov.uk,Hartlepool,http://www.hartlepool.gov.uk,-1.23361600000000,TS25 2LS,2014-04-09,fhrs_4_en-GB,4,,FHRS,10
144905,3 Brierton Shops,Brierton Lane,Hartlepool,,McColls,Retailers - other,4613,0,,259339,0,,54.66618000000000,7709,859,jane.kett@hartlepool.gov.uk,Hartlepool,http://www.hartlepool.gov.uk,-1.24350200000000,TS25 4BX,2013-04-04,fhrs_5_en-GB,5,,FHRS,0
144906,Unit 1,Clavering Road,Hartlepool,,McColls,Retailers - other,4613,10,,259393,0,,54.71234800000000,7710,859,jane.kett@hartlepool.gov.uk,Hartlepool,http://www.hartlepool.gov.uk,-1.24962800000000,TS27 3QY,2013-04-19,fhrs_4_en-GB,4,,FHRS,5
144907,,174c Middleton Grange Centre,Hartlepool,,McDonalds Restaurant,Restaurant/Cafe/Canteen,1,0,,259240,0,,54.68428200000000,1378,859,jane.kett@hartlepool.gov.uk,Hartlepool,http://www.hartlepool.gov.uk,-1.21411300000000,TS24 7RT,2013-10-03,fhrs_5_en-GB,5,,FHRS,0
144908,,Burn Road,Hartlepool,,McDonalds Restaurant,Restaurant/Cafe/Canteen,1,0,,259493,0,,54.67821500000000,1989,859,jane.kett@hartlepool.gov.uk,Hartlepool,http://www.hartlepool.gov.uk,-1.20715900000000,TS25 1PN,2013-01-14,fhrs_5_en-GB,5,,FHRS,0
144909,The Lanyard,Marina Way,Hartlepool,,McDonalds Restaurant,Restaurant/Cafe/Canteen,1,0,,259313,0,,54.69052700000000,3606,859,jane.kett@hartlepool.gov.uk,Hartlepool,http://www.hartlepool.gov.uk,-1.21118500000000,TS24 0XR,2013-12-18,fhrs_5_en-GB,5,,FHRS,5
144910,,1 Egerton Terrace,Hartlepool,,McKies,Retailers - other,4613,5,,259029,5,,54.63987700000000,4122,859,jane.kett@hartlepool.gov.uk,Hartlepool,http://www.hartlepool.gov.uk,-1.23655300000000,TS25 2EU,2012-10-08,fhrs_5_en-GB,5,,FHRS,5
144911,,127 York Road,Hartlepool,,McKies Butterwick Farm,Retailers - other,4613,20,,680613,15,,54.68404900000000,708,859,jane.kett@hartlepool.gov.uk,Hartlepool,http://www.hartlepool.gov.uk,-1.21711200000000,TS26 9DL,2014-08-01,fhrs_0_en-GB,0,,FHRS,20
144912,,Hartlepool Outdoor Market,Hartlepool,,McMahons Ltd,Retailers - other,4613,0,,259532,0,,54.68429700000000,1069,859,jane.kett@hartlepool.gov.uk,Hartlepool,http://www.hartlepool.gov.uk,-1.21648600000000,TS26 9DE,2013-04-25,fhrs_5_en-GB,5,,FHRS,0
144913,,The Lanyard,Hartlepool,,Mecca Bingo,Restaurant/Cafe/Canteen,1,0,,259149,0,,54.68728400000000,2798,859,jane.kett@hartlepool.gov.uk,Hartlepool,http://www.hartlepool.gov.uk,-1.20735400000000,TS24 0XS,2013-02-26,fhrs_4_en-GB,4,,FHRS,10
144914,,Easington Road,Hartlepool,,Merry Go Round/Wacky Warehouse,Pub/bar/nightclub,7843,0,,259107,0,,54.70170100000000,2861,859,jane.kett@hartlepool.gov.uk,Hartlepool,http://www.hartlepool.gov.uk,-1.22431300000000,TS24 9AL,2014-12-05,fhrs_5_en-GB,5,,FHRS,5
144915,"Units 1-2, Avenue Parade",Avenue Road,Hartlepool,,Michelle's Cakes,Retailers - other,4613,0,,720311,0,,54.68625100000000,56957,859,jane.kett@hartlepool.gov.uk,Hartlepool,http://www.hartlepool.gov.uk,-1.21564200000000,TS24 8BB,2014-12-11,fhrs_5_en-GB,5,,FHRS,0
144916,,43 Murray Street,Hartlepool,,Milano,Takeaway/sandwich shop,7844,0,,259536,10,,54.68813600000000,6130,859,jane.kett@hartlepool.gov.uk,Hartlepool,http://www.hartlepool.gov.uk,-1.21946800000000,TS26 8PQ,2014-07-01,fhrs_4_en-GB,4,,FHRS,10
144917,,39-41 Murray Street,Hartlepool,,Millies Cafe,Restaurant/Cafe/Canteen,1,5,,717460,5,,54.68681600000000,56582,859,jane.kett@hartlepool.gov.uk,Hartlepool,http://www.hartlepool.gov.uk,-1.21969500000000,TS26 8PD,2014-11-19,fhrs_5_en-GB,5,,FHRS,5
144918,,23 Park View Road West,Hartlepool,,Mister Twister,Restaurant/Cafe/Canteen,1,5,,259080,5,,54.66077200000000,7516,859,jane.kett@hartlepool.gov.uk,Hartlepool,http://www.hartlepool.gov.uk,-1.21278400000000,TS25 1UD,2014-01-09,fhrs_5_en-GB,5,,FHRS,5
144919,,A689 Eastbound Hartlepool,,,Monkey Munchbox,Mobile caterer,7846,5,,642882,5,,,56292,859,jane.kett@hartlepool.gov.uk,Hartlepool,http://www.hartlepool.gov.uk,,,2014-02-24,fhrs_5_en-GB,5,,FHRS,0
144920,,241 York Road,Hartlepool,,Monkey Sangers,Takeaway/sandwich shop,7844,0,,536087,0,,54.67914100000000,51991,859,jane.kett@hartlepool.gov.uk,Hartlepool,http://www.hartlepool.gov.uk,-1.21686500000000,TS26 9AD,2013-04-30,fhrs_4_en-GB,4,,FHRS,10
144921,,171 York Road,Hartlepool,,Morrell & Sons,Retailers - other,4613,10,,259297,5,,54.68159500000000,316,859,jane.kett@hartlepool.gov.uk,Hartlepool,http://www.hartlepool.gov.uk,-1.21695700000000,TS26 9EQ,2013-09-19,fhrs_3_en-GB,3,,FHRS,10
144922,,Belle Vue Way,Hartlepool,,Morrisons Petrol Filling Station,Retailers - other,4613,0,,259211,0,,54.66525500000000,3639,859,jane.kett@hartlepool.gov.uk,Hartlepool,http://www.hartlepool.gov.uk,-1.21803100000000,TS25 1JZ,2013-10-29,fhrs_5_en-GB,5,,FHRS,0
144923,,Clarence Road,Hartlepool,,Morrisons Petrol Filling Station,Retailers - other,4613,0,,258987,0,,54.68818800000000,4069,859,jane.kett@hartlepool.gov.uk,Hartlepool,http://www.hartlepool.gov.uk,-1.21365000000000,TS24 8BZ,2013-04-05,fhrs_5_en-GB,5,,FHRS,0
144924,,Clarence Road,Hartlepool,,Morrisons Supermarket,Retailers - supermarkets/hypermarkets,7840,0,,259634,0,,54.68818800000000,3877,859,jane.kett@hartlepool.gov.uk,Hartlepool,http://www.hartlepool.gov.uk,-1.21365000000000,TS24 8BZ,2013-03-27,fhrs_5_en-GB,5,,FHRS,0
144925,,Hartlepool Outdoor Market,Hartlepool,,Mr Kevin Finn,Retailers - other,4613,5,,259130,0,,54.68429700000000,2555,859,jane.kett@hartlepool.gov.uk,Hartlepool,http://www.hartlepool.gov.uk,-1.21648600000000,TS26 9DE,2012-10-11,fhrs_5_en-GB,5,,FHRS,0
144926,Grand Hotel,Swainson Street,Hartlepool,,Mumbai,Restaurant/Cafe/Canteen,1,5,,732082,5,,54.68569500000000,57062,859,jane.kett@hartlepool.gov.uk,Hartlepool,http://www.hartlepool.gov.uk,-1.21321700000000,TS24 8AA,2015-01-21,fhrs_5_en-GB,5,,FHRS,5
144927,Sacred Heart R C School,Hart Lane,Hartlepool,,Munchkins,Hospitals/Childcare/Caring Premises,5,5,,508728,0,,54.69077400000000,54690,859,jane.kett@hartlepool.gov.uk,Hartlepool,http://www.hartlepool.gov.uk,-1.23159600000000,TS26 8NL,2014-09-17,fhrs_4_en-GB,4,,FHRS,10
144928,,28 Westbourne Road,Hartlepool,,NALGO Social Club,Pub/bar/nightclub,7843,5,,259262,0,,54.67633100000000,1658,859,jane.kett@hartlepool.gov.uk,Hartlepool,http://www.hartlepool.gov.uk,-1.21868700000000,TS25 5RE,2013-02-26,fhrs_5_en-GB,5,,FHRS,0
144929,,196 Middleton Grange Centre,Hartlepool,,Necita's,Restaurant/Cafe/Canteen,1,0,,259516,0,,54.68428200000000,6906,859,jane.kett@hartlepool.gov.uk,Hartlepool,http://www.hartlepool.gov.uk,-1.21411300000000,TS24 7RZ,2013-12-11,fhrs_5_en-GB,5,,FHRS,0
144930,,,,,NESTS,Hospitals/Childcare/Caring Premises,5,0,,611112,0,,,12993,859,jane.kett@hartlepool.gov.uk,Hartlepool,http://www.hartlepool.gov.uk,,,2013-11-15,fhrs_5_en-GB,5,,FHRS,0
144931,,123 Stockton Road,Hartlepool,,New Chow Kee,Takeaway/sandwich shop,7844,10,,259028,5,,54.67757100000000,4976,859,jane.kett@hartlepool.gov.uk,Hartlepool,http://www.hartlepool.gov.uk,-1.21591800000000,TS25 1SJ,2013-03-22,fhrs_3_en-GB,3,,FHRS,10
144932,Units K & L,Middleton Grange Centre,Hartlepool,,New Look,Retailers - other,4613,,,259050,,,54.68366000000000,6052,859,jane.kett@hartlepool.gov.uk,Hartlepool,http://www.hartlepool.gov.uk,-1.21380000000000,TS24 7RR,2014-07-01,fhrs_exempt_en-GB,Exempt,,FHRS,
144933,,51 Northgate,Hartlepool,,Newsmarket,Retailers - other,4613,10,,259019,0,,54.69748500000000,94,859,jane.kett@hartlepool.gov.uk,Hartlepool,http://www.hartlepool.gov.uk,-1.18434700000000,TS24 0JX,2014-08-04,fhrs_4_en-GB,4,,FHRS,5
144934,,,,,Newton's Cakes,Retailers - other,4613,0,,259471,0,,,22506,859,jane.kett@hartlepool.gov.uk,Hartlepool,http://www.hartlepool.gov.uk,,,2014-11-04,fhrs_5_en-GB,5,,FHRS,0
144935,Anchor Retail Park,Marina Way,Hartlepool,,Next,Retailers - other,4613,,,259320,,,54.69052700000000,3709,859,jane.kett@hartlepool.gov.uk,Hartlepool,http://www.hartlepool.gov.uk,-1.21118500000000,TS24 0XR,2013-11-05,fhrs_exempt_en-GB,Exempt,,FHRS,
144936,,147-149 Oxford Road,Hartlepool,,Nisa Local,Retailers - other,4613,0,,259248,0,,54.67390900000000,6025,859,jane.kett@hartlepool.gov.uk,Hartlepool,http://www.hartlepool.gov.uk,-1.22354100000000,TS25 5NQ,2013-04-17,fhrs_5_en-GB,5,,FHRS,0
144937,,228-232 Owton Manor Lane,Hartlepool,,Nisa Local,Retailers - other,4613,5,,259043,0,,54.65777300000000,52278,859,jane.kett@hartlepool.gov.uk,Hartlepool,http://www.hartlepool.gov.uk,-1.24564300000000,TS25 3QD,2012-01-18,fhrs_5_en-GB,5,,FHRS,0
144938,,83 King Oswy Drive,Hartlepool,,Nisa Local,Retailers - other,4613,0,,259253,0,,54.71123300000000,52174,859,jane.kett@hartlepool.gov.uk,Hartlepool,http://www.hartlepool.gov.uk,-1.23807000000000,TS24 9PF,2012-02-21,fhrs_5_en-GB,5,,FHRS,0
144939,,47-49 Wynyard Road,Hartlepool,,Nisa Local,Retailers - other,4613,0,,259362,0,,54.66069100000000,52234,859,jane.kett@hartlepool.gov.uk,Hartlepool,http://www.hartlepool.gov.uk,-1.23661300000000,TS25 3LB,2014-02-17,fhrs_5_en-GB,5,,FHRS,5
144940,,64 Catcote Road,Hartlepool,,Nisa Local,Retailers - other,4613,0,,259148,0,,54.67174400000000,52279,859,jane.kett@hartlepool.gov.uk,Hartlepool,http://www.hartlepool.gov.uk,-1.23640600000000,TS25 4HG,2014-02-12,fhrs_5_en-GB,5,,FHRS,5
144941,,70 Warren Road,Hartlepool,,NJoy,Retailers - other,4613,0,,259271,0,,54.70418000000000,68,859,jane.kett@hartlepool.gov.uk,Hartlepool,http://www.hartlepool.gov.uk,-1.22403300000000,TS24 9AR,2013-12-19,fhrs_5_en-GB,5,,FHRS,0
144942,,33 Park Road,Hartlepool,,No. Thirty Three Coffee Lounge,Restaurant/Cafe/Canteen,1,0,,259494,0,,54.68234100000000,53446,859,jane.kett@hartlepool.gov.uk,Hartlepool,http://www.hartlepool.gov.uk,-1.21416600000000,TS24 7PW,2014-02-17,fhrs_5_en-GB,5,,FHRS,0
144943,23 Navigation Point,Middleton Road,Hartlepool,,North Star,Pub/bar/nightclub,7843,0,,535329,0,,54.69189000000000,55104,859,jane.kett@hartlepool.gov.uk,Hartlepool,http://www.hartlepool.gov.uk,-1.19853000000000,TS24 0UG,2013-05-22,fhrs_5_en-GB,5,,FHRS,0
144944,,99 Northgate,Hartlepool,,Northgate Fish Bar,Takeaway/sandwich shop,7844,10,,259382,0,,54.69748500000000,5696,859,jane.kett@hartlepool.gov.uk,Hartlepool,http://www.hartlepool.gov.uk,-1.18434700000000,TS24 0JX,2014-09-25,fhrs_4_en-GB,4,,FHRS,10
144945,,1 The Green,Seaton Carew,Hartlepool,Norton Hotel,Hotel/bed & breakfast/guest house,7842,0,,259660,0,,54.66328900000000,598,859,jane.kett@hartlepool.gov.uk,Hartlepool,http://www.hartlepool.gov.uk,-1.18834900000000,TS25 1AR,2014-08-14,fhrs_5_en-GB,5,,FHRS,0
144946,,Brierton Lane,Billingham,,Oak Lodge Shooting Ground,Restaurant/Cafe/Canteen,1,5,,642880,0,,54.66647200000000,3179,859,jane.kett@hartlepool.gov.uk,Hartlepool,http://www.hartlepool.gov.uk,-1.25864500000000,TS22 5PP,2014-02-24,fhrs_5_en-GB,5,,FHRS,5
144947,Elmtree Park Social Club,Queen Street,Seaton Carew,Hartlepool,Oasis,Pub/bar/nightclub,7843,5,,259576,0,,54.66355700000000,2779,859,jane.kett@hartlepool.gov.uk,Hartlepool,http://www.hartlepool.gov.uk,-1.19217300000000,TS25 1AJ,2014-01-09,fhrs_5_en-GB,5,,FHRS,0
144948,,59A King Oswy Drive,Hartlepool,,Ocean Garden,Takeaway/sandwich shop,7844,10,,259649,0,,54.71123300000000,6604,859,jane.kett@hartlepool.gov.uk,Hartlepool,http://www.hartlepool.gov.uk,-1.23807000000000,TS24 9PF,2014-02-03,fhrs_4_en-GB,4,,FHRS,0
144949,,51-52 Church Street,Hartlepool,,Odd Bar,Pub/bar/nightclub,7843,5,,259023,0,,54.68653500000000,8664,859,jane.kett@hartlepool.gov.uk,Hartlepool,http://www.hartlepool.gov.uk,-1.20682600000000,TS24 7DX,2014-09-16,fhrs_5_en-GB,5,,FHRS,5
144950,,12 Duke Street,Hartlepool,,Odd Cod,Takeaway/sandwich shop,7844,5,,259483,5,,54.68942300000000,2606,859,jane.kett@hartlepool.gov.uk,Hartlepool,http://www.hartlepool.gov.uk,-1.22685900000000,TS26 8QD,2014-01-08,fhrs_5_en-GB,5,,FHRS,5
144951,,A19 Services Southbound,Elwick,Hartlepool,OK Diners Ltd,Restaurant/Cafe/Canteen,1,5,,259704,0,,54.65522700000000,4589,859,jane.kett@hartlepool.gov.uk,Hartlepool,http://www.hartlepool.gov.uk,-1.30840300000000,TS27 3HH,2013-02-13,fhrs_4_en-GB,4,,FHRS,10
144952,,6 Heronspool Close,Hartlepool,,Old Boys Field Sheltered Bungalows,Other catering premises,7841,,,259369,,,54.70131000000000,1682,859,jane.kett@hartlepool.gov.uk,Hartlepool,http://www.hartlepool.gov.uk,-1.20827600000000,TS24 0TG,2013-01-29,fhrs_exempt_en-GB,Exempt,,FHRS,
144953,,115 Raby Road,Hartlepool,,Olivitos,Takeaway/sandwich shop,7844,10,,655916,10,,54.69011100000000,53459,859,jane.kett@hartlepool.gov.uk,Hartlepool,http://www.hartlepool.gov.uk,-1.21784800000000,TS24 8DT,2014-07-03,fhrs_2_en-GB,2,,FHRS,15
144954,,175-177 York Road,Hartlepool,,One 77,Restaurant/Cafe/Canteen,1,5,,258985,0,,54.68159500000000,1154,859,jane.kett@hartlepool.gov.uk,Hartlepool,http://www.hartlepool.gov.uk,-1.21695700000000,TS26 9EQ,2013-11-18,fhrs_5_en-GB,5,,FHRS,5
144955,,23 Wynyard Road,Hartlepool,,One Stop,Retailers - other,4613,0,,259713,0,,54.66069100000000,4515,859,jane.kett@hartlepool.gov.uk,Hartlepool,http://www.hartlepool.gov.uk,-1.23661300000000,TS25 3LB,2013-10-29,fhrs_5_en-GB,5,,FHRS,5
144956,,220a Owton Manor Lane,Hartlepool,,One Stop,Retailers - other,4613,0,,259141,0,,54.65777300000000,7133,859,jane.kett@hartlepool.gov.uk,Hartlepool,http://www.hartlepool.gov.uk,-1.24564300000000,TS25 3QD,2012-11-23,fhrs_5_en-GB,5,,FHRS,5
144957,Unit E,Catcote Road,Hartlepool,,One Stop,Retailers - other,4613,0,,259572,0,,54.70172600000000,6972,859,jane.kett@hartlepool.gov.uk,Hartlepool,http://www.hartlepool.gov.uk,-1.21856800000000,TS24 5HG,2012-11-09,fhrs_5_en-GB,5,,FHRS,0
144958,,Thomlinson Road,Hartlepool,,Only Food and Sauces,Mobile caterer,7846,5,,706425,5,,54.64804900000000,56761,859,jane.kett@hartlepool.gov.uk,Hartlepool,http://www.hartlepool.gov.uk,-1.20678700000000,TS25 7AJ,2014-10-08,fhrs_5_en-GB,5,,FHRS,5
144959,Unit 1,Wiltshire Way,Hartlepool,,Oriental Palace,Takeaway/sandwich shop,7844,10,,259347,10,,54.69400100000000,1387,859,jane.kett@hartlepool.gov.uk,Hartlepool,http://www.hartlepool.gov.uk,-1.24300100000000,TS26 0XP,2014-01-14,fhrs_3_en-GB,3,,FHRS,10
144960,,3 Osborne Road,Hartlepool,,Osborne's Convenience Store,Retailers - other,4613,10,,558931,5,,54.68314400000000,55178,859,jane.kett@hartlepool.gov.uk,Hartlepool,http://www.hartlepool.gov.uk,-1.22023100000000,TS26 9EW,2013-06-20,fhrs_4_en-GB,4,,FHRS,5
144961,West Hartlepool Rugby Football,Catcote Road,Hartlepool,,Oscars Playcentre,Hospitals/Childcare/Caring Premises,5,0,,407272,0,,54.67554600000000,53758,859,jane.kett@hartlepool.gov.uk,Hartlepool,http://www.hartlepool.gov.uk,-1.23647400000000,TS25 4HA,2013-07-17,fhrs_5_en-GB,5,,FHRS,5
144962,,Stockton Road,Hartlepool,,Owton Lodge,Pub/bar/nightclub,7843,0,,319489,0,,54.65785000000000,52298,859,jane.kett@hartlepool.gov.uk,Hartlepool,http://www.hartlepool.gov.uk,-1.22096300000000,TS25 1HA,2014-07-21,fhrs_5_en-GB,5,,FHRS,0
144963,,54 Owton Manor Lane,Hartlepool,,Owton Manor Bakers and Deli,Retailers - other,4613,5,,259126,0,,54.65867300000000,519,859,jane.kett@hartlepool.gov.uk,Hartlepool,http://www.hartlepool.gov.uk,-1.23007800000000,TS25 3AU,2014-01-03,fhrs_5_en-GB,5,,FHRS,0
144964,,Eskdale Road,Hartlepool,,Owton Manor Primary School,School/college/university,7845,0,,259659,0,,54.66191200000000,369,859,jane.kett@hartlepool.gov.uk,Hartlepool,http://www.hartlepool.gov.uk,-1.24359700000000,TS25 4BT,2013-11-27,fhrs_5_en-GB,5,,FHRS,0
144965,,Wynyard Road,Hartlepool,,Owton Manor Social Club CIC,Pub/bar/nightclub,7843,10,,259607,0,,54.66117200000000,1634,859,jane.kett@hartlepool.gov.uk,Hartlepool,http://www.hartlepool.gov.uk,-1.23872800000000,TS25 3LQ,2014-03-19,fhrs_4_en-GB,4,,FHRS,5
144966,Ground Floor,12 Tower Street,Hartlepool,,Papa Caff's,Restaurant/Cafe/Canteen,1,0,,259033,0,,54.68511200000000,51157,859,jane.kett@hartlepool.gov.uk,Hartlepool,http://www.hartlepool.gov.uk,-1.20914900000000,TS24 7HD,2013-05-15,fhrs_5_en-GB,5,,FHRS,0
144967,,130 Northgate,Hartlepool,,Papa Chilli's,Takeaway/sandwich shop,7844,10,,688641,10,,54.70115700000000,56627,859,jane.kett@hartlepool.gov.uk,Hartlepool,http://www.hartlepool.gov.uk,-1.19195400000000,TS24 0EJ,2014-07-17,fhrs_2_en-GB,2,,FHRS,15
144968,,3c & 3d Park View Road West,Hartlepool,,Parkers Bakery,Manufacturers/packers,7839,5,,259227,5,,54.66198500000000,1898,859,jane.kett@hartlepool.gov.uk,Hartlepool,http://www.hartlepool.gov.uk,-1.21403200000000,TS25 1PE,2014-03-18,fhrs_5_en-GB,5,,FHRS,5
144969,,34 Station Lane,Hartlepool,,Parkview Residential Home,Hospitals/Childcare/Caring Premises,5,5,,259139,0,,54.66133500000000,5497,859,jane.kett@hartlepool.gov.uk,Hartlepool,http://www.hartlepool.gov.uk,-1.19183000000000,TS25 1BG,2014-03-04,fhrs_5_en-GB,5,,FHRS,5
144970,,129 Oxford Road,Hartlepool,,Pear Deals Convenience Store,Retailers - other,4613,10,,724517,10,,54.67425500000000,56968,859,jane.kett@hartlepool.gov.uk,Hartlepool,http://www.hartlepool.gov.uk,-1.22150200000000,TS25 5RP,2014-12-12,fhrs_3_en-GB,3,,FHRS,10
144971,,239 York Road,Hartlepool,,Pear Tree & Willow,Retailers - other,4613,,,540063,,,54.67914100000000,9524,859,jane.kett@hartlepool.gov.uk,Hartlepool,http://www.hartlepool.gov.uk,-1.21686500000000,TS26 9AD,2013-04-22,fhrs_exempt_en-GB,Exempt,,FHRS,
144972,North East Tackle Supplies Ltd,Mainsforth Terrace,Hartlepool,,PeeTee's Pantry,Mobile caterer,7846,5,,616918,5,,,55873,859,jane.kett@hartlepool.gov.uk,Hartlepool,http://www.hartlepool.gov.uk,,TS24 7AH,2014-02-06,fhrs_5_en-GB,5,,FHRS,0
144973,,37 Chatham Road,Hartlepool,,Penny's Pantry,Takeaway/sandwich shop,7844,5,,259183,5,,54.69497100000000,2649,859,jane.kett@hartlepool.gov.uk,Hartlepool,http://www.hartlepool.gov.uk,-1.22309200000000,TS24 8QG,2013-12-10,fhrs_4_en-GB,4,,FHRS,10
144974,,68a Elizabeth Way,Hartlepool,,Pharmacy@Seaton,Retailers - other,4613,,,259553,,,54.65559900000000,623,859,jane.kett@hartlepool.gov.uk,Hartlepool,http://www.hartlepool.gov.uk,-1.19419100000000,TS25 2AX,2012-10-03,fhrs_exempt_en-GB,Exempt,,FHRS,
144975,,The Cliff,Hartlepool,,Picadilly Ices R282 LEL,Mobile caterer,7846,10,,259200,0,,54.66617100000000,5337,859,jane.kett@hartlepool.gov.uk,Hartlepool,http://www.hartlepool.gov.uk,-1.18919100000000,TS25 1AB,2013-05-28,fhrs_4_en-GB,4,,FHRS,0
144976,,The Green,Seaton Carew,Hartlepool,Picadilly Ices YH08 0WG,Mobile caterer,7846,5,,259574,0,,54.66328900000000,7249,859,jane.kett@hartlepool.gov.uk,Hartlepool,http://www.hartlepool.gov.uk,-1.18834900000000,TS25 1AR,2013-05-03,fhrs_5_en-GB,5,,FHRS,0
144977,,19 Church Street,Hartlepool,,Pizza Hart,Takeaway/sandwich shop,7844,10,,258979,10,,54.68622800000000,4731,859,jane.kett@hartlepool.gov.uk,Hartlepool,http://www.hartlepool.gov.uk,-1.20655300000000,TS24 7DH,2014-01-22,fhrs_3_en-GB,3,,FHRS,10
144978,,The Lanyard,Hartlepool,,Pizza Hut,Restaurant/Cafe/Canteen,1,0,,259280,5,,54.69052700000000,2811,859,jane.kett@hartlepool.gov.uk,Hartlepool,http://www.hartlepool.gov.uk,-1.21118500000000,TS24 0XR,2014-02-27,fhrs_5_en-GB,5,,FHRS,5
144979,,36a Catcote Road,Hartlepool,,Pizza Hut Delivery,Takeaway/sandwich shop,7844,,,730030,,,54.67174300000000,15713,859,jane.kett@hartlepool.gov.uk,Hartlepool,http://www.hartlepool.gov.uk,-1.23640500000000,TS25 4HG,,fhrs_awaitinginspection_en-GB,AwaitingInspection,,FHRS,
144980,,14 Sydenham Road,Hartlepool,,Pizza Place,Takeaway/sandwich shop,7844,5,,259620,5,,54.67362900000000,6053,859,jane.kett@hartlepool.gov.uk,Hartlepool,http://www.hartlepool.gov.uk,-1.21355900000000,TS25 1QB,2014-03-06,fhrs_4_en-GB,4,,FHRS,10
144981,,49a Elwick Road,Hartlepool,,Pizza Time,Takeaway/sandwich shop,7844,10,,534429,5,,54.67942500000000,54544,859,jane.kett@hartlepool.gov.uk,Hartlepool,http://www.hartlepool.gov.uk,-1.21768100000000,TS26 9AE,2013-06-25,fhrs_4_en-GB,4,,FHRS,5
144982,,133 Stockton Road,Hartlepool,,Pizza World,Takeaway/sandwich shop,7844,10,,534428,0,,54.67639900000000,54256,859,jane.kett@hartlepool.gov.uk,Hartlepool,http://www.hartlepool.gov.uk,-1.21538200000000,TS25 1SL,2013-08-29,fhrs_4_en-GB,4,,FHRS,10
144983,,51 & 55-57 Murray Street,Hartlepool,,Playmates,Hospitals/Childcare/Caring Premises,5,5,,259169,0,,54.68813600000000,3898,859,jane.kett@hartlepool.gov.uk,Hartlepool,http://www.hartlepool.gov.uk,-1.21946800000000,TS26 8PQ,2014-03-19,fhrs_5_en-GB,5,,FHRS,5
144984,,35 Murray Street,Hartlepool,,Polish Food Store,Retailers - other,4613,20,,259037,5,,54.68813600000000,6168,859,jane.kett@hartlepool.gov.uk,Hartlepool,http://www.hartlepool.gov.uk,-1.21946800000000,TS26 8PQ,2014-04-29,fhrs_1_en-GB,1,,FHRS,10
144985,Britannia House,Slake Terrace,Hartlepool,,Popadoms,Restaurant/Cafe/Canteen,1,5,,259538,5,,54.68993900000000,5631,859,jane.kett@hartlepool.gov.uk,Hartlepool,http://www.hartlepool.gov.uk,-1.19833600000000,TS24 0YD,2014-02-26,fhrs_5_en-GB,5,,FHRS,5
144986,Heugh Gun Battery,Moor Terrace,Hartlepool,,Poppy's,Restaurant/Cafe/Canteen,1,5,,259569,0,,54.69636900000000,6742,859,jane.kett@hartlepool.gov.uk,Hartlepool,http://www.hartlepool.gov.uk,-1.17757300000000,TS24 0PS,2012-10-18,fhrs_5_en-GB,5,,FHRS,0
144987,,39 Shrewsbury Street,Hartlepool,,Porky's Butchers,Retailers - other,4613,10,,655917,15,,54.67485700000000,55323,859,jane.kett@hartlepool.gov.uk,Hartlepool,http://www.hartlepool.gov.uk,-1.22290200000000,TS25 5RQ,2014-04-22,fhrs_2_en-GB,2,,FHRS,0
144988,,Maritime Avenue,Hartlepool,,Portofino,Restaurant/Cafe/Canteen,1,5,,259321,0,,54.69016400000000,2901,859,jane.kett@hartlepool.gov.uk,Hartlepool,http://www.hartlepool.gov.uk,-1.20798100000000,TS24 0XZ,2014-07-22,fhrs_5_en-GB,5,,FHRS,5
144989,,Harbour Walk,Hartlepool,,Pound Smart,Retailers - other,4613,,,259077,,,54.69172200000000,7128,859,jane.kett@hartlepool.gov.uk,Hartlepool,http://www.hartlepool.gov.uk,-1.20573200000000,TS24 0YA,2012-05-08,fhrs_exempt_en-GB,Exempt,,FHRS,
144990,,185 Middleton Grange Centre,Hartlepool,,Poundland,Retailers - other,4613,5,,259403,0,,54.68366000000000,3129,859,jane.kett@hartlepool.gov.uk,Hartlepool,http://www.hartlepool.gov.uk,-1.21380000000000,TS24 7RR,2011-11-23,fhrs_5_en-GB,5,,FHRS,0
144991,Teesbay Retail Park,Brenda Road,Hartlepool,,Poundstretcher,Retailers - other,4613,0,,259421,0,,54.66575100000000,3407,859,jane.kett@hartlepool.gov.uk,Hartlepool,http://www.hartlepool.gov.uk,-1.20999000000000,TS25 1XJ,2014-03-19,fhrs_5_en-GB,5,,FHRS,0
144992,,82-83 Middleton Grange Centre,Hartlepool,,Poundworld,Retailers - other,4613,,,259106,,,54.68428200000000,1769,859,jane.kett@hartlepool.gov.uk,Hartlepool,http://www.hartlepool.gov.uk,-1.21411300000000,TS24 7RW,2014-03-24,fhrs_exempt_en-GB,Exempt,,FHRS,
144993,Hartlepool Power Station,Tees Road,Hartlepool,,Power Station Canteen,Restaurant/Cafe/Canteen,1,0,,259521,5,,54.63548900000000,2792,859,jane.kett@hartlepool.gov.uk,Hartlepool,http://www.hartlepool.gov.uk,-1.18111000000000,TS25 2BZ,2014-05-29,fhrs_4_en-GB,4,,FHRS,10
144994,,46 Owton Manor Lane,Hartlepool,,Premier Grocery Express,Retailers - other,4613,0,,259284,0,,54.65867300000000,3003,859,jane.kett@hartlepool.gov.uk,Hartlepool,http://www.hartlepool.gov.uk,-1.23007800000000,TS25 3AU,2014-04-15,fhrs_5_en-GB,5,,FHRS,0
144995,,2 Powlett Road,Hartlepool,,Primart Extra,Retailers - other,4613,5,,259335,0,,54.69796900000000,5498,859,jane.kett@hartlepool.gov.uk,Hartlepool,http://www.hartlepool.gov.uk,-1.21412800000000,TS24 8LZ,2014-09-10,fhrs_5_en-GB,5,,FHRS,5
144996,,15 Wynyard Road,Hartlepool,,Primo Pizzeria,Takeaway/sandwich shop,7844,10,,259250,10,,54.66069100000000,1962,859,jane.kett@hartlepool.gov.uk,Hartlepool,http://www.hartlepool.gov.uk,-1.23661300000000,TS25 3LB,2014-02-27,fhrs_3_en-GB,3,,FHRS,10
144997,,19 Whitby Street,Hartlepool,,Princess Helena,Pub/bar/nightclub,7843,5,,706428,0,,54.68562900000000,56765,859,jane.kett@hartlepool.gov.uk,Hartlepool,http://www.hartlepool.gov.uk,-1.20712300000000,TS24 7AD,2014-11-19,fhrs_5_en-GB,5,,FHRS,5
144998,,33 Chatham Road,Hartlepool,,Princess Pizza,Takeaway/sandwich shop,7844,5,,575923,5,,54.69497100000000,55392,859,jane.kett@hartlepool.gov.uk,Hartlepool,http://www.hartlepool.gov.uk,-1.22309200000000,TS24 8QG,2014-02-12,fhrs_4_en-GB,4,,FHRS,10
144999,,83A King Oswy Drive,Hartlepool,,Pronto Pizzeria,Takeaway/sandwich shop,7844,10,,259018,10,,54.71123300000000,2017,859,jane.kett@hartlepool.gov.uk,Hartlepool,http://www.hartlepool.gov.uk,-1.23807000000000,TS24 9PF,2015-01-13,fhrs_3_en-GB,3,,FHRS,5
145000,Fifield Industrial Estate,Usworth Road,Hartlepool,,Pyramid Cafe,Restaurant/Cafe/Canteen,1,10,,727221,10,,54.66576000000000,57018,859,jane.kett@hartlepool.gov.uk,Hartlepool,http://www.hartlepool.gov.uk,-1.21422300000000,TS25 1PD,2014-12-18,fhrs_2_en-GB,2,,FHRS,15
145001,Teesbay Retail Park,Brenda Road,Hartlepool,,Quality Catering Co,Mobile caterer,7846,0,,259417,0,,54.66575100000000,1067,859,jane.kett@hartlepool.gov.uk,Hartlepool,http://www.hartlepool.gov.uk,-1.20999000000000,TS25 1XJ,2014-10-22,fhrs_5_en-GB,5,,FHRS,0
145002,,327 Stockton Road,Hartlepool,,Queens Meadow Care Home,Hospitals/Childcare/Caring Premises,5,0,,259443,0,,54.66745900000000,652,859,jane.kett@hartlepool.gov.uk,Hartlepool,http://www.hartlepool.gov.uk,-1.21842300000000,TS25 5DF,2013-09-11,fhrs_5_en-GB,5,,FHRS,5
145003,,102 Middleton Grange Centre,Hartlepool,,Quicksilver,Retailers - other,4613,0,,259512,0,,54.68481500000000,1338,859,jane.kett@hartlepool.gov.uk,Hartlepool,http://www.hartlepool.gov.uk,-1.21320400000000,TS24 7RL,2014-08-02,fhrs_5_en-GB,5,,FHRS,0
145004,,45 Murray Street,Hartlepool,,Quidz-In,Retailers - other,4613,20,,259424,10,,54.68813600000000,9329,859,jane.kett@hartlepool.gov.uk,Hartlepool,http://www.hartlepool.gov.uk,-1.21946800000000,TS26 8PQ,2014-07-03,fhrs_1_en-GB,1,,FHRS,20
145005,,103 Park Road,Hartlepool,,R 'n' L's Food Parlour,Restaurant/Cafe/Canteen,1,5,,259605,0,,54.68232200000000,9541,859,jane.kett@hartlepool.gov.uk,Hartlepool,http://www.hartlepool.gov.uk,-1.21812200000000,TS26 9HP,2013-10-15,fhrs_5_en-GB,5,,FHRS,0
145006,,Front Street,Hart,Hartlepool,Raby Arms,Pub/bar/nightclub,7843,5,,259158,5,,54.70764100000000,177,859,jane.kett@hartlepool.gov.uk,Hartlepool,http://www.hartlepool.gov.uk,-1.27063600000000,TS27 3AJ,2014-03-17,fhrs_5_en-GB,5,,FHRS,5
145007,,197 Raby Road,Hartlepool,,Raby Road Convenience Store (Premier),Retailers - other,4613,10,,259425,10,,54.69267300000000,151,859,jane.kett@hartlepool.gov.uk,Hartlepool,http://www.hartlepool.gov.uk,-1.21936600000000,TS24 8EH,2014-08-12,fhrs_2_en-GB,2,,FHRS,15
145008,,Stuart Street,Hartlepool,,Raglan Quoit & Social Club,Pub/bar/nightclub,7843,5,,259592,0,,54.69120700000000,328,859,jane.kett@hartlepool.gov.uk,Hartlepool,http://www.hartlepool.gov.uk,-1.21221100000000,TS24 8DA,2013-11-12,fhrs_5_en-GB,5,,FHRS,5
145009,,57 King Oswy Drive,Hartlepool,,Rai General Dealers and Off Licence,Retailers - other,4613,0,,259057,0,,54.71123300000000,3138,859,jane.kett@hartlepool.gov.uk,Hartlepool,http://www.hartlepool.gov.uk,-1.23807000000000,TS24 9PF,2015-02-04,fhrs_5_en-GB,5,,FHRS,5
145010,Rossmere Centre,Rossmere Way,Hartlepool,,Rainbow Cafe,Restaurant/Cafe/Canteen,1,0,,259331,0,,54.66137600000000,5799,859,jane.kett@hartlepool.gov.uk,Hartlepool,http://www.hartlepool.gov.uk,-1.23408900000000,TS25 5EB,2014-12-17,fhrs_5_en-GB,5,,FHRS,0
145011,,125 Elwick Road,Hartlepool,,Rainbow City,Takeaway/sandwich shop,7844,5,,259562,5,,54.67916200000000,9532,859,jane.kett@hartlepool.gov.uk,Hartlepool,http://www.hartlepool.gov.uk,-1.22285100000000,TS26 9BQ,2014-08-21,fhrs_4_en-GB,4,,FHRS,10
145012,,23 Church Square,Hartlepool,,Ranch House,Takeaway/sandwich shop,7844,0,,589579,0,,54.68521300000000,53751,859,jane.kett@hartlepool.gov.uk,Hartlepool,http://www.hartlepool.gov.uk,-1.20948900000000,TS24 7EU,2014-03-05,fhrs_5_en-GB,5,,FHRS,0
145013,,Station Approach,Hartlepool,,Rat Race Ale House,Pub/bar/nightclub,7843,5,,259003,0,,54.68674000000000,7700,859,jane.kett@hartlepool.gov.uk,Hartlepool,http://www.hartlepool.gov.uk,-1.20795400000000,TS24 7ED,2012-09-06,fhrs_5_en-GB,5,,FHRS,0
145014,,Elwick Road,Hartlepool,,Ready Steady Grow Day Care Centre,Hospitals/Childcare/Caring Premises,5,10,,259526,5,,54.67895200000000,52060,859,jane.kett@hartlepool.gov.uk,Hartlepool,http://www.hartlepool.gov.uk,-1.23078000000000,TS26 9NP,2014-10-22,fhrs_4_en-GB,4,,FHRS,0
145015,,68 Elizabeth Way,Hartlepool,,Redz,Takeaway/sandwich shop,7844,5,,632802,0,,54.65559900000000,51673,859,jane.kett@hartlepool.gov.uk,Hartlepool,http://www.hartlepool.gov.uk,-1.19419100000000,TS25 2AX,2014-02-11,fhrs_5_en-GB,5,,FHRS,5
145016,,56 Church Street,Hartlepool,,Reflections,Pub/bar/nightclub,7843,0,,259515,0,,54.68653500000000,9653,859,jane.kett@hartlepool.gov.uk,Hartlepool,http://www.hartlepool.gov.uk,-1.20682600000000,TS24 7DX,2014-02-14,fhrs_5_en-GB,5,,FHRS,0
145017,,Winterbottom Avenue,Hartlepool,,Richardson & Westgarth Sport and Social Club,Pub/bar/nightclub,7843,5,,259155,0,,54.69972900000000,511,859,jane.kett@hartlepool.gov.uk,Hartlepool,http://www.hartlepool.gov.uk,-1.22224100000000,TS24 9AA,2012-01-03,fhrs_4_en-GB,4,,FHRS,10
145018,,Masefield Road,Hartlepool,,Rift House Primary School,School/college/university,7845,0,,259124,0,,54.67276400000000,360,859,jane.kett@hartlepool.gov.uk,Hartlepool,http://www.hartlepool.gov.uk,-1.24285300000000,TS25 4JY,2013-09-11,fhrs_5_en-GB,5,,FHRS,5
145019,,176 Raby Road,Hartlepool,,RMT Convenience Stores,Retailers - other,4613,10,,611115,0,,54.69308500000000,53448,859,jane.kett@hartlepool.gov.uk,Hartlepool,http://www.hartlepool.gov.uk,-1.21904800000000,TS24 8EJ,2013-12-10,fhrs_4_en-GB,4,,FHRS,10
145020,,65A King Oswy Drive,Hartlepool,,Robert Moore Butchers,Retailers - other,4613,10,,259068,5,,54.71123300000000,315,859,jane.kett@hartlepool.gov.uk,Hartlepool,http://www.hartlepool.gov.uk,-1.23807000000000,TS24 9PF,2014-03-11,fhrs_4_en-GB,4,,FHRS,5
145021,,75 Church Street,Hartlepool,,Rockies Bar,Pub/bar/nightclub,7843,5,,259058,0,,54.68696400000000,3187,859,jane.kett@hartlepool.gov.uk,Hartlepool,http://www.hartlepool.gov.uk,-1.20509600000000,TS24 7DN,2013-02-28,fhrs_4_en-GB,4,,FHRS,10
145022,,2a Powlett Road,Hartlepool,,Romeo Pizza,Takeaway/sandwich shop,7844,10,,455912,0,,54.69796900000000,54184,859,jane.kett@hartlepool.gov.uk,Hartlepool,http://www.hartlepool.gov.uk,-1.21412800000000,TS24 8LZ,2012-11-21,fhrs_4_en-GB,4,,FHRS,5
145023,,125 Oxford Road,Hartlepool,,Roscilli's,Takeaway/sandwich shop,7844,5,,696125,5,,54.67425500000000,56689,859,jane.kett@hartlepool.gov.uk,Hartlepool,http://www.hartlepool.gov.uk,-1.22150200000000,TS25 5RP,2014-09-12,fhrs_4_en-GB,4,,FHRS,10
145024,,5-7 Flaxton Street,Hartlepool,,Rosewood/Rosedale Residential Home,Hospitals/Childcare/Caring Premises,5,0,,259322,0,,54.68045100000000,3210,859,jane.kett@hartlepool.gov.uk,Hartlepool,http://www.hartlepool.gov.uk,-1.21927500000000,TS26 9JY,2015-01-20,fhrs_5_en-GB,5,,FHRS,5
145025,8-9 Navigation Point,Middleton Road,Hartlepool,,Rosie O'Gradys,Pub/bar/nightclub,7843,20,,259392,5,,54.69189000000000,1318,859,jane.kett@hartlepool.gov.uk,Hartlepool,http://www.hartlepool.gov.uk,-1.19853000000000,TS24 0UG,2014-03-13,fhrs_1_en-GB,1,,FHRS,15
145026,,23 Jesmond Road,Hartlepool,,Rossco's,Retailers - other,4613,10,,696122,10,,54.69244500000000,30336,859,jane.kett@hartlepool.gov.uk,Hartlepool,http://www.hartlepool.gov.uk,-1.22726700000000,TS26 0JD,2014-11-14,fhrs_3_en-GB,3,,FHRS,10
145027,,Catcote Road,Hartlepool,,Rossmere Primary - After School Club,Hospitals/Childcare/Caring Premises,5,5,,259220,0,,54.66078900000000,4584,859,jane.kett@hartlepool.gov.uk,Hartlepool,http://www.hartlepool.gov.uk,-1.23506100000000,TS25 3JL,2014-01-15,fhrs_5_en-GB,5,,FHRS,0
145028,,Catcote Road,Hartlepool,,Rossmere Primary School,School/college/university,7845,0,,259638,0,,54.66078900000000,350,859,jane.kett@hartlepool.gov.uk,Hartlepool,http://www.hartlepool.gov.uk,-1.23506100000000,TS25 3JL,2013-09-09,fhrs_5_en-GB,5,,FHRS,5
145029,,9 The Cliff,Hartlepool,,Rothbury Guest House,Hotel/bed & breakfast/guest house,7842,0,,259373,0,,54.66408100000000,3173,859,jane.kett@hartlepool.gov.uk,Hartlepool,http://www.hartlepool.gov.uk,-1.18852000000000,TS25 1AP,2014-06-20,fhrs_5_en-GB,5,,FHRS,0
145030,Stall 5,The Market Hall,Middleton Grange Centre,Hartlepool,Roy Blyth Family Butcher,Retailers - other,4613,5,,259582,5,,54.70172600000000,13,859,jane.kett@hartlepool.gov.uk,Hartlepool,http://www.hartlepool.gov.uk,-1.21856800000000,TS24 7RU,2014-11-11,fhrs_5_en-GB,5,,FHRS,5
145031,,84 Middleton Grange Centre,Hartlepool,,Royal Gaming,Retailers - other,4613,,,457863,,,54.68428200000000,7459,859,jane.kett@hartlepool.gov.uk,Hartlepool,http://www.hartlepool.gov.uk,-1.21411300000000,TS24 7RW,2012-10-25,fhrs_exempt_en-GB,Exempt,,FHRS,
145032,,61 Milton Road,Hartlepool,,Royal Naval Association,Pub/bar/nightclub,7843,0,,259497,0,,54.68592400000000,1221,859,jane.kett@hartlepool.gov.uk,Hartlepool,http://www.hartlepool.gov.uk,-1.21938700000000,TS26 8AF,2012-11-05,fhrs_5_en-GB,5,,FHRS,0
145033,Stall 5,The Market Hall,Middleton Grange Centre,Hartlepool,Ryans Fruit and Veg,Retailers - other,4613,0,,259376,0,,54.68405400000000,14,859,jane.kett@hartlepool.gov.uk,Hartlepool,http://www.hartlepool.gov.uk,-1.21500200000000,TS24 7RX,2014-02-06,fhrs_5_en-GB,5,,FHRS,5
145034,Stalls 8b&d,The Market Hall,Middleton Grange Centre,Hartlepool,S & L News,Retailers - other,4613,0,,259397,5,,54.70172600000000,4,859,jane.kett@hartlepool.gov.uk,Hartlepool,http://www.hartlepool.gov.uk,-1.21856800000000,TS24 7RU,2014-11-03,fhrs_5_en-GB,5,,FHRS,0
145035,,Hart Lane,Hartlepool,,Sacred Heart RC Primary School,School/college/university,7845,0,,259079,5,,54.69077400000000,2228,859,jane.kett@hartlepool.gov.uk,Hartlepool,http://www.hartlepool.gov.uk,-1.23159600000000,TS26 8NL,2014-09-12,fhrs_5_en-GB,5,,FHRS,5
145036,,88 York Road,Hartlepool,,Saffron Express,Restaurant/Cafe/Canteen,1,5,,455909,5,,54.68560000000000,50351,859,jane.kett@hartlepool.gov.uk,Hartlepool,http://www.hartlepool.gov.uk,-1.21652300000000,TS26 8AB,2014-05-27,fhrs_5_en-GB,5,,FHRS,5
145037,,43-49 Murray Street,Hartlepool,,Sainsbury's Supermarket,Retailers - supermarkets/hypermarkets,7840,0,,259063,0,,54.68813600000000,2394,859,jane.kett@hartlepool.gov.uk,Hartlepool,http://www.hartlepool.gov.uk,-1.21946800000000,TS26 8PQ,2012-07-16,fhrs_5_en-GB,5,,FHRS,5
145038,,132 Station Lane,Hartlepool,,Sainsbury's Supermarket,Retailers - supermarkets/hypermarkets,7840,0,,259006,0,,54.65931700000000,1327,859,jane.kett@hartlepool.gov.uk,Hartlepool,http://www.hartlepool.gov.uk,-1.19785300000000,TS25 1DW,2014-12-10,fhrs_5_en-GB,5,,FHRS,0
145039,"Unit 3, Middle Warren Centre",Mulberry Rise,Hartlepool,,Sainsbury's Supermarket,Retailers - supermarkets/hypermarkets,7840,0,,259682,0,,54.70747500000000,6508,859,jane.kett@hartlepool.gov.uk,Hartlepool,http://www.hartlepool.gov.uk,-1.24922200000000,TS26 0BF,2014-05-28,fhrs_5_en-GB,5,,FHRS,0
145040,,20-21 Church Street,Hartlepool,,Sambuca,Restaurant/Cafe/Canteen,1,10,,589583,0,,54.68622800000000,55779,859,jane.kett@hartlepool.gov.uk,Hartlepool,http://www.hartlepool.gov.uk,-1.20655300000000,TS24 7DH,2013-11-28,fhrs_4_en-GB,4,,FHRS,10
145041,,76-86 Park Road,Hartlepool,,Sam's Snooker and American Pool,Pub/bar/nightclub,7843,0,,259251,0,,54.68269700000000,3363,859,jane.kett@hartlepool.gov.uk,Hartlepool,http://www.hartlepool.gov.uk,-1.21775800000000,TS26 9HU,2013-01-03,fhrs_5_en-GB,5,,FHRS,5
145042,Tata Steel,Brenda Road,Hartlepool,,Sandwich Bar 20 Inch Pipe Mill,Takeaway/sandwich shop,7844,5,,259539,0,,54.65218700000000,45,859,jane.kett@hartlepool.gov.uk,Hartlepool,http://www.hartlepool.gov.uk,-1.21377200000000,TS25 2EG,2013-02-14,fhrs_4_en-GB,4,,FHRS,10
145043,Stall 2,The Market Hall,Middleton Grange Centre,Hartlepool,Sandwich Express,Takeaway/sandwich shop,7844,5,,620650,0,,54.70172600000000,55900,859,jane.kett@hartlepool.gov.uk,Hartlepool,http://www.hartlepool.gov.uk,-1.21856800000000,TS24 7RU,2013-12-17,fhrs_5_en-GB,5,,FHRS,0
145044,,Brierton Sports Centre,Brierton Lane,Hartlepool,Scallywags,Hospitals/Childcare/Caring Premises,5,5,,259170,0,,54.66624000000000,4726,859,jane.kett@hartlepool.gov.uk,Hartlepool,http://www.hartlepool.gov.uk,-1.23578000000000,TS25 4HN,2013-06-26,fhrs_5_en-GB,5,,FHRS,5
145045,,Warrior Drive,Hartlepool,,Scallywags,Hospitals/Childcare/Caring Premises,5,5,,259478,5,,54.66177100000000,5039,859,jane.kett@hartlepool.gov.uk,Hartlepool,http://www.hartlepool.gov.uk,-1.19379000000000,TS25 1EZ,2014-11-28,fhrs_5_en-GB,5,,FHRS,5
145046,,,,,Scrum Diddly Umptious,Retailers - other,4613,0,,259641,0,,,9611,859,jane.kett@hartlepool.gov.uk,Hartlepool,http://www.hartlepool.gov.uk,,,2014-05-20,fhrs_5_en-GB,5,,FHRS,0
145047,,36 Station Lane,Hartlepool,,Seaton Carew Social Club,Pub/bar/nightclub,7843,0,,259140,0,,54.66133500000000,631,859,jane.kett@hartlepool.gov.uk,Hartlepool,http://www.hartlepool.gov.uk,-1.19183000000000,TS25 1BG,2013-02-05,fhrs_5_en-GB,5,,FHRS,0
145048,,Elizabeth Way,Hartlepool,Hartlepool,Seaton Carew Sports & Social Club,Pub/bar/nightclub,7843,10,,259062,5,,54.65598800000000,584,859,jane.kett@hartlepool.gov.uk,Hartlepool,http://www.hartlepool.gov.uk,-1.18908400000000,TS25 2AZ,2014-04-28,fhrs_4_en-GB,4,,FHRS,5
145049,,70-71 The Front,Hartlepool,,Seaton Gift & Rock Shop,Retailers - other,4613,5,,259489,0,,54.65917200000000,1602,859,jane.kett@hartlepool.gov.uk,Hartlepool,http://www.hartlepool.gov.uk,-1.18685000000000,TS25 1BU,2013-03-12,fhrs_5_en-GB,5,,FHRS,5
145050,,10 The Green,Seaton Carew,Hartlepool,Seaton Hall Residential Home,Hospitals/Childcare/Caring Premises,5,5,,259401,5,,54.66286400000000,597,859,jane.kett@hartlepool.gov.uk,Hartlepool,http://www.hartlepool.gov.uk,-1.18927200000000,TS25 1AS,2013-10-09,fhrs_5_en-GB,5,,FHRS,5
145051,,The Front,Hartlepool,,Seaton Hotel,Pub/bar/nightclub,7843,10,,495595,0,,54.66002200000000,54133,859,jane.kett@hartlepool.gov.uk,Hartlepool,http://www.hartlepool.gov.uk,-1.18763900000000,TS25 1BS,2013-03-05,fhrs_4_en-GB,4,,FHRS,0
145052,,29 The Front,Hartlepool,,Seaton News,Retailers - other,4613,10,,259034,0,,54.66002200000000,639,859,jane.kett@hartlepool.gov.uk,Hartlepool,http://www.hartlepool.gov.uk,-1.18763900000000,TS25 1BS,2015-01-09,fhrs_4_en-GB,4,,FHRS,5
145053,,31 The Front,Hartlepool,,Seaton Tandoori,Restaurant/Cafe/Canteen,1,10,,259236,10,,54.66002200000000,2794,859,jane.kett@hartlepool.gov.uk,Hartlepool,http://www.hartlepool.gov.uk,-1.18763900000000,TS25 1BS,2013-11-05,fhrs_3_en-GB,3,,FHRS,10
145054,,11 The Green,Seaton Carew,Hartlepool,Seaview Bed and Breakfast,Hotel/bed & breakfast/guest house,7842,0,,259173,0,,54.66286400000000,4115,859,jane.kett@hartlepool.gov.uk,Hartlepool,http://www.hartlepool.gov.uk,-1.18927200000000,TS25 1AS,2014-03-26,fhrs_5_en-GB,5,,FHRS,0
145055,,The Front,Hartlepool,,Seymour House Nursing Home,Hospitals/Childcare/Caring Premises,5,0,,259595,0,,54.65783300000000,7384,859,jane.kett@hartlepool.gov.uk,Hartlepool,http://www.hartlepool.gov.uk,-1.18689200000000,TS25 1DJ,2014-10-02,fhrs_5_en-GB,5,,FHRS,0
145056,,40a Catcote Road,Hartlepool,,Shake Ya Bonbons,Retailers - other,4613,5,,727219,5,,54.67174400000000,56662,859,jane.kett@hartlepool.gov.uk,Hartlepool,http://www.hartlepool.gov.uk,-1.23640600000000,TS25 4HG,2014-12-22,fhrs_4_en-GB,4,,FHRS,10
145057,,1-3 Victoria Road,Hartlepool,,Sheara's Fish Inn,Takeaway/sandwich shop,7844,5,,578505,0,,54.68512900000000,53651,859,jane.kett@hartlepool.gov.uk,Hartlepool,http://www.hartlepool.gov.uk,-1.21585000000000,TS24 7SE,2013-08-07,fhrs_5_en-GB,5,,FHRS,5
145058,,69-72 Church Street,Hartlepool,,Sheara's Restaurant,Takeaway/sandwich shop,7844,5,,447110,5,,54.68696400000000,51694,859,jane.kett@hartlepool.gov.uk,Hartlepool,http://www.hartlepool.gov.uk,-1.20509600000000,TS24 7DN,2014-03-05,fhrs_5_en-GB,5,,FHRS,0
145059,1 Seaton Reach,Coronation Drive,Hartlepool,,Sheesh Mahal,Restaurant/Cafe/Canteen,1,10,,259609,10,,54.66949900000000,7386,859,jane.kett@hartlepool.gov.uk,Hartlepool,http://www.hartlepool.gov.uk,-1.19097000000000,TS25 1XN,2013-12-19,fhrs_3_en-GB,3,,FHRS,10
145060,,Easington Road,Hartlepool,,Shell Service Station,Retailers - other,4613,0,,259217,0,,54.70048900000000,1157,859,jane.kett@hartlepool.gov.uk,Hartlepool,http://www.hartlepool.gov.uk,-1.23007800000000,TS24 9AG,2013-01-14,fhrs_5_en-GB,5,,FHRS,0
145061,,Warren Road,Hartlepool,,Sheraton Court,Hospitals/Childcare/Caring Premises,5,0,,259541,0,,54.70285900000000,6602,859,jane.kett@hartlepool.gov.uk,Hartlepool,http://www.hartlepool.gov.uk,-1.23108800000000,TS24 9DR,2014-07-11,fhrs_5_en-GB,5,,FHRS,0
145062,,93a York Road,Hartlepool,,Siciliano,Takeaway/sandwich shop,7844,5,,606600,5,,54.68581000000000,55814,859,jane.kett@hartlepool.gov.uk,Hartlepool,http://www.hartlepool.gov.uk,-1.21696900000000,TS26 8AD,2014-03-05,fhrs_4_en-GB,4,,FHRS,10
145063,,247 York Road,Hartlepool,,Silver Star,Takeaway/sandwich shop,7844,0,,259022,0,,54.67914100000000,484,859,jane.kett@hartlepool.gov.uk,Hartlepool,http://www.hartlepool.gov.uk,-1.21686500000000,TS26 9AD,2014-03-25,fhrs_5_en-GB,5,,FHRS,0
145064,,Avenue Road,Hartlepool,,Skyy,Pub/bar/nightclub,7843,5,,259423,0,,54.68723000000000,989,859,jane.kett@hartlepool.gov.uk,Hartlepool,http://www.hartlepool.gov.uk,-1.21551500000000,TS24 8AT,2013-03-14,fhrs_4_en-GB,4,,FHRS,10
145065,,49 Church Street,Hartlepool,,Sorrento Pizzaria,Takeaway/sandwich shop,7844,10,,688640,10,,54.68653500000000,55957,859,jane.kett@hartlepool.gov.uk,Hartlepool,http://www.hartlepool.gov.uk,-1.20682600000000,TS24 7DX,2014-11-06,fhrs_3_en-GB,3,,FHRS,10
145066,Dalton Piercy Indoor Riding Sc,Dalton Back Lane,Hartlepool,,South Durham Saddle Club,Restaurant/Cafe/Canteen,1,0,,534437,0,,54.66788500000000,55094,859,jane.kett@hartlepool.gov.uk,Hartlepool,http://www.hartlepool.gov.uk,-1.22872500000000,TS25 5JB,2013-06-27,fhrs_5_en-GB,5,,FHRS,5
145067,,Westbourne Road,Hartlepool,,South Durham Social Club,Pub/bar/nightclub,7843,0,,259279,0,,54.67633100000000,1854,859,jane.kett@hartlepool.gov.uk,Hartlepool,http://www.hartlepool.gov.uk,-1.21868700000000,TS25 5RE,2013-02-07,fhrs_5_en-GB,5,,FHRS,0
145068,,Park Avenue,Hartlepool,,South Highnam,Hospitals/Childcare/Caring Premises,5,0,,259528,0,,54.68507500000000,3079,859,jane.kett@hartlepool.gov.uk,Hartlepool,http://www.hartlepool.gov.uk,-1.23845100000000,TS26 0DZ,2013-08-22,fhrs_5_en-GB,5,,FHRS,0
145069,,,,,SP Cakes,Retailers - other,4613,5,,259325,0,,,9613,859,jane.kett@hartlepool.gov.uk,Hartlepool,http://www.hartlepool.gov.uk,,,2014-09-30,fhrs_5_en-GB,5,,FHRS,0
145070,Unit 1,Powlett Road,Hartlepool,,Spar,Retailers - other,4613,0,,427004,0,,54.69841000000000,53762,859,jane.kett@hartlepool.gov.uk,Hartlepool,http://www.hartlepool.gov.uk,-1.21840200000000,TS24 8NA,2012-07-25,fhrs_5_en-GB,5,,FHRS,5
145071,,50-52 Elizabeth Way,Hartlepool,,Spar Stores and Post Office,Retailers - other,4613,0,,259686,5,,54.65559900000000,568,859,jane.kett@hartlepool.gov.uk,Hartlepool,http://www.hartlepool.gov.uk,-1.19419100000000,TS25 2AX,2014-10-02,fhrs_5_en-GB,5,,FHRS,5
145072,16-18 Navigation Point,Middleton Road,Hartlepool,,Spices,Restaurant/Cafe/Canteen,1,10,,259433,10,,54.69189000000000,3352,859,jane.kett@hartlepool.gov.uk,Hartlepool,http://www.hartlepool.gov.uk,-1.19853000000000,TS24 0UG,2013-12-17,fhrs_3_en-GB,3,,FHRS,10
145073,,The Green,Elwick,Hartlepool,Spotted Cow,Pub/bar/nightclub,7843,10,,415784,10,,54.68383000000000,53911,859,jane.kett@hartlepool.gov.uk,Hartlepool,http://www.hartlepool.gov.uk,-1.29401900000000,TS27 3EF,2014-07-22,fhrs_3_en-GB,3,,FHRS,10
145074,,Wiltshire Way,Hartlepool,,Springwell School,School/college/university,7845,0,,259286,0,,54.69622700000000,107,859,jane.kett@hartlepool.gov.uk,Hartlepool,http://www.hartlepool.gov.uk,-1.23824200000000,TS26 0TB,2015-01-29,fhrs_5_en-GB,5,,FHRS,5
145075,Coach Park,The Front,Seaton Carew,Hartlepool,Spud In The Oven,Mobile caterer,7846,5,,730034,5,,,57042,859,jane.kett@hartlepool.gov.uk,Hartlepool,http://www.hartlepool.gov.uk,,,2015-01-12,fhrs_5_en-GB,5,,FHRS,0
145076,,Loyalty Road,Hartlepool,,St Aidans Primary School,School/college/university,7845,0,,259086,0,,54.66890600000000,2210,859,jane.kett@hartlepool.gov.uk,Hartlepool,http://www.hartlepool.gov.uk,-1.21709300000000,TS25 5BA,2014-04-30,fhrs_5_en-GB,5,,FHRS,5
145077,,Thorpe Street,Hartlepool,Hartlepool,St Begas RC School,School/college/university,7845,0,,259570,0,,54.70230600000000,2225,859,jane.kett@hartlepool.gov.uk,Hartlepool,http://www.hartlepool.gov.uk,-1.19444500000000,TS24 0DX,2014-06-02,fhrs_5_en-GB,5,,FHRS,5
145078,,Stratford Road,Hartlepool,Hartlepool,St Cuthberts RC School,School/college/university,7845,0,,258976,0,,54.67304400000000,2226,859,jane.kett@hartlepool.gov.uk,Hartlepool,http://www.hartlepool.gov.uk,-1.21764900000000,TS25 5AJ,2014-10-08,fhrs_5_en-GB,5,,FHRS,5
145079,,Durham Street,Hartlepool,,St Helens Primary School,School/college/university,7845,0,,259355,0,,54.70052900000000,2211,859,jane.kett@hartlepool.gov.uk,Hartlepool,http://www.hartlepool.gov.uk,-1.18669100000000,TS24 0HG,2013-04-17,fhrs_5_en-GB,5,,FHRS,5
145080,,King Oswy Drive,Hartlepool,,St Hilds C of E Voluntary Aided School,School/college/university,7845,0,,258990,0,,54.71008500000000,560,859,jane.kett@hartlepool.gov.uk,Hartlepool,http://www.hartlepool.gov.uk,-1.23270600000000,TS24 9PB,2013-09-17,fhrs_5_en-GB,5,,FHRS,5
145081,,King Oswy Drive,Hartlepool,,St John Vianney Primary School,School/college/university,7845,5,,259707,0,,54.70997400000000,155,859,jane.kett@hartlepool.gov.uk,Hartlepool,http://www.hartlepool.gov.uk,-1.23076800000000,TS24 9PA,2013-02-28,fhrs_4_en-GB,4,,FHRS,10
145082,St Josephs Parish Centre,St Pauls Road,Hartlepool,,St Josephs Breakfast Club,Restaurant/Cafe/Canteen,1,0,,259505,0,,54.68439200000000,3644,859,jane.kett@hartlepool.gov.uk,Hartlepool,http://www.hartlepool.gov.uk,-1.21999000000000,TS26 9EY,2015-01-21,fhrs_5_en-GB,5,,FHRS,0
145083,,Musgrave Street,Hartlepool,,St Josephs RC Primary School,School/college/university,7845,0,,259511,0,,54.68286600000000,2162,859,jane.kett@hartlepool.gov.uk,Hartlepool,http://www.hartlepool.gov.uk,-1.20647900000000,TS24 7HT,2014-05-07,fhrs_5_en-GB,5,,FHRS,5
145084,,North Lane,Elwick,Hartlepool,St Peter's Elwick Primary School,School/college/university,7845,0,,259093,0,,54.68465100000000,2199,859,jane.kett@hartlepool.gov.uk,Hartlepool,http://www.hartlepool.gov.uk,-1.29771200000000,TS27 3EG,2014-03-27,fhrs_5_en-GB,5,,FHRS,0
145085,,Callander Road,Hartlepool,,St Teresas RC Primary School,School/college/university,7845,0,,259702,0,,54.65958300000000,349,859,jane.kett@hartlepool.gov.uk,Hartlepool,http://www.hartlepool.gov.uk,-1.23055700000000,TS25 3BG,2014-05-09,fhrs_5_en-GB,5,,FHRS,5
145086,,3 Church Street,Seaton Carew,Hartlepool,Stafford House,Hotel/bed & breakfast/guest house,7842,0,,259083,0,,54.65882800000000,5718,859,jane.kett@hartlepool.gov.uk,Hartlepool,http://www.hartlepool.gov.uk,-1.18781800000000,TS25 1BX,2014-11-04,fhrs_5_en-GB,5,,FHRS,0
145087,,The Cliff,Hartlepool,,Staincliffe Hotel,Hotel/bed & breakfast/guest house,7842,10,,258993,5,,54.66617100000000,7407,859,jane.kett@hartlepool.gov.uk,Hartlepool,http://www.hartlepool.gov.uk,-1.18919100000000,TS25 1AB,2013-06-06,fhrs_4_en-GB,4,,FHRS,5
145088,St John Vianney Rc Primary Sch,King Oswy Drive,Hartlepool,,Starfish Daycare,Hospitals/Childcare/Caring Premises,5,0,,259530,0,,54.70997400000000,5221,859,jane.kett@hartlepool.gov.uk,Hartlepool,http://www.hartlepool.gov.uk,-1.23076800000000,TS24 9PA,2014-09-04,fhrs_5_en-GB,5,,FHRS,5
145089,,249a Raby Road,Hartlepool,,Starvin Marvin's,Restaurant/Cafe/Canteen,1,5,,259075,5,,54.69267300000000,6838,859,jane.kett@hartlepool.gov.uk,Hartlepool,http://www.hartlepool.gov.uk,-1.21936600000000,TS24 8EH,2013-12-16,fhrs_5_en-GB,5,,FHRS,5
145090,,Front Street,Greatham,Hartlepool,Stichell House - Hospital of God,Hospitals/Childcare/Caring Premises,5,0,,259503,0,,54.64119800000000,5700,859,jane.kett@hartlepool.gov.uk,Hartlepool,http://www.hartlepool.gov.uk,-1.23938000000000,TS25 2HS,2013-09-30,fhrs_5_en-GB,5,,FHRS,0
145091,,,,,Stockton Road Children's Home,Hospitals/Childcare/Caring Premises,5,0,,696123,0,,,55108,859,jane.kett@hartlepool.gov.uk,Hartlepool,http://www.hartlepool.gov.uk,,,2015-01-20,fhrs_5_en-GB,5,,FHRS,0
145092,,Southburn Terrace,Hartlepool,,Stranton Childrens Club,Hospitals/Childcare/Caring Premises,5,0,,259468,0,,54.67802900000000,3455,859,jane.kett@hartlepool.gov.uk,Hartlepool,http://www.hartlepool.gov.uk,-1.21300900000000,TS25 1SQ,2013-03-06,fhrs_5_en-GB,5,,FHRS,0
145093,,Southburn Terrace,Hartlepool,,Stranton Primary School,School/college/university,7845,0,,259186,0,,54.67802900000000,473,859,jane.kett@hartlepool.gov.uk,Hartlepool,http://www.hartlepool.gov.uk,-1.21300900000000,TS25 1SQ,2014-04-25,fhrs_5_en-GB,5,,FHRS,0
145094,,Waldon Street,Hartlepool,,Stranton Social Club,Pub/bar/nightclub,7843,0,,259715,0,,54.67913500000000,1655,859,jane.kett@hartlepool.gov.uk,Hartlepool,http://www.hartlepool.gov.uk,-1.21457000000000,TS24 7QJ,2014-06-05,fhrs_5_en-GB,5,,FHRS,5
145095,,105a Middleton Grange Centre,Hartlepool,,Subway,Takeaway/sandwich shop,7844,10,,258988,5,,54.68481500000000,5504,859,jane.kett@hartlepool.gov.uk,Hartlepool,http://www.hartlepool.gov.uk,-1.21320400000000,TS24 7RF,2013-09-17,fhrs_3_en-GB,3,,FHRS,10
145096,,100b York Road,Hartlepool,,Subway,Restaurant/Cafe/Canteen,1,5,,259716,5,,54.68429700000000,4393,859,jane.kett@hartlepool.gov.uk,Hartlepool,http://www.hartlepool.gov.uk,-1.21648600000000,TS26 9DE,2014-08-22,fhrs_4_en-GB,4,,FHRS,10
145097,,65 Jutland Road,Hartlepool,,Sunny House,Takeaway/sandwich shop,7844,10,,371841,5,,54.65982600000000,49270,859,jane.kett@hartlepool.gov.uk,Hartlepool,http://www.hartlepool.gov.uk,-1.21653900000000,TS25 1LP,2014-08-21,fhrs_4_en-GB,4,,FHRS,5
145098,,9 Middleton Grange Centre,Hartlepool,,Super News,Retailers - other,4613,,,259065,,,54.68428200000000,767,859,jane.kett@hartlepool.gov.uk,Hartlepool,http://www.hartlepool.gov.uk,-1.21411300000000,TS24 7RT,2013-04-03,fhrs_exempt_en-GB,Exempt,,FHRS,
145099,,136 York Road,Hartlepool,,Supernews,Retailers - other,4613,10,,375517,5,,54.68308400000000,8996,859,jane.kett@hartlepool.gov.uk,Hartlepool,http://www.hartlepool.gov.uk,-1.21647900000000,TS26 9DA,2014-06-02,fhrs_3_en-GB,3,,FHRS,10
145100,,Hartlepool,,,Supreme Ice Cream,Retailers - other,4613,,,706426,,,54.68544006347660,56762,859,jane.kett@hartlepool.gov.uk,Hartlepool,http://www.hartlepool.gov.uk,-1.21322000026703,TS2,,fhrs_awaitinginspection_en-GB,AwaitingInspection,,FHRS,
145101,,73 The Front,Hartlepool,,Supreme Ice Cream and Burgerland,Takeaway/sandwich shop,7844,5,,259559,0,,54.65917200000000,493,859,jane.kett@hartlepool.gov.uk,Hartlepool,http://www.hartlepool.gov.uk,-1.18685000000000,TS25 1BU,2013-03-14,fhrs_5_en-GB,5,,FHRS,0
145102,3 Seaton Reach,Coronation Drive,Hartlepool,,Surfside,Restaurant/Cafe/Canteen,1,5,,259594,0,,54.66949900000000,8804,859,jane.kett@hartlepool.gov.uk,Hartlepool,http://www.hartlepool.gov.uk,-1.19097000000000,TS25 1XN,2014-03-19,fhrs_5_en-GB,5,,FHRS,5
145103,,135 Elwick Road,Hartlepool,,Sweet Balloons,Retailers - other,4613,,,534441,,,54.67916200000000,9607,859,jane.kett@hartlepool.gov.uk,Hartlepool,http://www.hartlepool.gov.uk,-1.22285100000000,TS26 9BQ,2013-04-11,fhrs_exempt_en-GB,Exempt,,FHRS,
145104,,,,,Sweet Niblets Confectionery,Retailers - other,4613,0,,259060,0,,,52295,859,jane.kett@hartlepool.gov.uk,Hartlepool,http://www.hartlepool.gov.uk,,,2012-01-16,fhrs_5_en-GB,5,,FHRS,5
145105,,Sarah Street,Hartlepool,,Sweet P's Garden Centre,Restaurant/Cafe/Canteen,1,0,,427003,0,,54.64804900000000,53629,859,jane.kett@hartlepool.gov.uk,Hartlepool,http://www.hartlepool.gov.uk,-1.20678700000000,TS25 1NZ,2014-07-14,fhrs_5_en-GB,5,,FHRS,0
145106,Stalls 15a&c,The Market Hall,Middleton Grange Centre,Hartlepool,Sweetie Heaven,Retailers - other,4613,0,,259486,0,,54.68405400000000,7024,859,jane.kett@hartlepool.gov.uk,Hartlepool,http://www.hartlepool.gov.uk,-1.21500200000000,TS24 7RX,2014-04-23,fhrs_5_en-GB,5,,FHRS,0
145107,Hartlepool Indoor Bowls Centre,Raby Road,Hartlepool,,T.A.D's Catering,Restaurant/Cafe/Canteen,1,5,,319494,0,,54.64804900000000,53513,859,jane.kett@hartlepool.gov.uk,Hartlepool,http://www.hartlepool.gov.uk,-1.20678700000000,TS25 8AR,2014-01-20,fhrs_5_en-GB,5,,FHRS,5
145108,,12-14 The Front,Hartlepool,,Talk Of The Town - Rubicon Past Times,Restaurant/Cafe/Canteen,1,0,,259011,0,,54.66002200000000,2797,859,jane.kett@hartlepool.gov.uk,Hartlepool,http://www.hartlepool.gov.uk,-1.18763900000000,TS25 1BS,2015-02-05,fhrs_5_en-GB,5,,FHRS,5
145109,,Mulberry Rise,Hartlepool,,Tall Ships,Pub/bar/nightclub,7843,0,,259690,0,,54.70747500000000,6295,859,jane.kett@hartlepool.gov.uk,Hartlepool,http://www.hartlepool.gov.uk,-1.24922200000000,TS26 0BF,2014-12-11,fhrs_5_en-GB,5,,FHRS,5
145110,,27 Church Street,Hartlepool,,Tandoori Night,Takeaway/sandwich shop,7844,10,,589582,5,,54.68622800000000,55645,859,jane.kett@hartlepool.gov.uk,Hartlepool,http://www.hartlepool.gov.uk,-1.20655300000000,TS24 7DH,2014-01-16,fhrs_4_en-GB,4,,FHRS,5
145111,Hartlepool Enterprise Centre,Brougham Terrace,Hartlepool,,Taste @ The HEC,Restaurant/Cafe/Canteen,1,5,,536088,5,,54.69386900000000,55150,859,jane.kett@hartlepool.gov.uk,Hartlepool,http://www.hartlepool.gov.uk,-1.21659700000000,TS24 8EY,2013-09-17,fhrs_5_en-GB,5,,FHRS,0
145112,,,,,Tastes Like Heaven,Other catering premises,7841,5,,259502,0,,,9612,859,jane.kett@hartlepool.gov.uk,Hartlepool,http://www.hartlepool.gov.uk,,,2013-04-19,fhrs_5_en-GB,5,,FHRS,0
145113,,80 York Road,Hartlepool,,Tasty Bites,Takeaway/sandwich shop,7844,10,,584386,5,,54.68560000000000,54846,859,jane.kett@hartlepool.gov.uk,Hartlepool,http://www.hartlepool.gov.uk,-1.21652300000000,TS26 8AB,2014-01-23,fhrs_4_en-GB,4,,FHRS,5
145114,,102 York Road,Hartlepool,,Tea@Hart,Restaurant/Cafe/Canteen,1,,,724516,,,54.68436000000000,56932,859,jane.kett@hartlepool.gov.uk,Hartlepool,http://www.hartlepool.gov.uk,-1.21650100000000,TS26 9DE,,fhrs_awaitinginspection_en-GB,AwaitingInspection,,FHRS,
145115,,Fleet Avenue,Hartlepool,,Tees and Hartlepool Yacht Club,Pub/bar/nightclub,7843,0,,259454,0,,54.68856700000000,2940,859,jane.kett@hartlepool.gov.uk,Hartlepool,http://www.hartlepool.gov.uk,-1.19749400000000,TS24 0SP,2014-03-10,fhrs_5_en-GB,5,,FHRS,0
145116,,Lancaster Road,Hartlepool,,"Tees, Esk & Wear Valleys NHS Trust",Hospitals/Childcare/Caring Premises,5,0,,259542,0,,54.69215600000000,5729,859,jane.kett@hartlepool.gov.uk,Hartlepool,http://www.hartlepool.gov.uk,-1.21293700000000,TS24 8LL,2013-12-12,fhrs_5_en-GB,5,,FHRS,0
145117,Tesco Stores Ltd,Belle Vue Way,Hartlepool,,Tesco Customer Cafe,Restaurant/Cafe/Canteen,1,0,,259295,0,,54.66525500000000,4750,859,jane.kett@hartlepool.gov.uk,Hartlepool,http://www.hartlepool.gov.uk,-1.21803100000000,TS25 1JZ,2013-05-14,fhrs_5_en-GB,5,,FHRS,5
145118,,420-426 Catcote Road,Hartlepool,,Tesco Express,Retailers - supermarkets/hypermarkets,7840,0,,259343,0,,54.65519000000000,2319,859,jane.kett@hartlepool.gov.uk,Hartlepool,http://www.hartlepool.gov.uk,-1.23361600000000,TS25 2LS,2014-05-12,fhrs_5_en-GB,5,,FHRS,5
145119,,Wiltshire Way,Hartlepool,,Tesco Express,Retailers - supermarkets/hypermarkets,7840,0,,259336,0,,54.69400100000000,3421,859,jane.kett@hartlepool.gov.uk,Hartlepool,http://www.hartlepool.gov.uk,-1.24300100000000,TS26 0XP,2013-09-26,fhrs_5_en-GB,5,,FHRS,0
145120,,Villiers Street,Hartlepool,,Tesco Express,Retailers - supermarkets/hypermarkets,7840,5,,259276,0,,54.70172600000000,6063,859,jane.kett@hartlepool.gov.uk,Hartlepool,http://www.hartlepool.gov.uk,-1.21856800000000,TS24 7PA,2012-05-08,fhrs_5_en-GB,5,,FHRS,0
145121,,Belle Vue Way,Hartlepool,,Tesco Extra,Retailers - supermarkets/hypermarkets,7840,0,,258989,0,,54.66525500000000,582,859,jane.kett@hartlepool.gov.uk,Hartlepool,http://www.hartlepool.gov.uk,-1.21803100000000,TS25 1JZ,2013-02-06,fhrs_5_en-GB,5,,FHRS,0
145122,Tesco Stores Ltd,Belle Vue Way,Hartlepool,,Tesco Petrol Station,Retailers - supermarkets/hypermarkets,7840,0,,259100,0,,54.66525500000000,1166,859,jane.kett@hartlepool.gov.uk,Hartlepool,http://www.hartlepool.gov.uk,-1.21803100000000,TS25 1JZ,2014-03-26,fhrs_5_en-GB,5,,FHRS,0
145123,,34a Duke Street,Hartlepool,,Thai Pan,Takeaway/sandwich shop,7844,0,,259619,0,,54.68820900000000,4796,859,jane.kett@hartlepool.gov.uk,Hartlepool,http://www.hartlepool.gov.uk,-1.22663400000000,TS26 8PU,2013-03-14,fhrs_5_en-GB,5,,FHRS,0
145124,,46-48 Middleton Grange Centre,Hartlepool,,The 99p Store,Retailers - other,4613,0,,259675,0,,54.68405400000000,5639,859,jane.kett@hartlepool.gov.uk,Hartlepool,http://www.hartlepool.gov.uk,-1.21500200000000,TS24 7RX,2012-10-09,fhrs_5_en-GB,5,,FHRS,5
145125,,76-78 The Front,Hartlepool,,The Almighty Cod,Restaurant/Cafe/Canteen,1,5,,259491,5,,54.65917200000000,6344,859,jane.kett@hartlepool.gov.uk,Hartlepool,http://www.hartlepool.gov.uk,-1.18685000000000,TS25 1BU,2013-05-02,fhrs_5_en-GB,5,,FHRS,0
145126,,Wharton Terrace,Hartlepool,,The Annexe,Restaurant/Cafe/Canteen,1,5,,319485,5,,54.69446400000000,49224,859,jane.kett@hartlepool.gov.uk,Hartlepool,http://www.hartlepool.gov.uk,-1.21695800000000,TS24 8NS,2014-08-27,fhrs_5_en-GB,5,,FHRS,5
145127,,,,,The Apple Treat Shop,Retailers - other,4613,5,,732083,0,,,57070,859,jane.kett@hartlepool.gov.uk,Hartlepool,http://www.hartlepool.gov.uk,,,2015-01-26,fhrs_5_en-GB,5,,FHRS,0
145128,"Unit 10, The Arches",Park Road,Hartlepool,,The Arches Cafe,Restaurant/Cafe/Canteen,1,5,,259629,0,,54.68234100000000,7088,859,jane.kett@hartlepool.gov.uk,Hartlepool,http://www.hartlepool.gov.uk,-1.21416600000000,TS24 7PW,2014-04-24,fhrs_5_en-GB,5,,FHRS,5
145129,,Church Street,Hartlepool,,The Athenaeum,Pub/bar/nightclub,7843,0,,259531,0,,54.68622800000000,2252,859,jane.kett@hartlepool.gov.uk,Hartlepool,http://www.hartlepool.gov.uk,-1.20655300000000,TS24 7DH,2012-11-15,fhrs_5_en-GB,5,,FHRS,0
145130,,7a Murray Street,Hartlepool,,The Balti,Takeaway/sandwich shop,7844,0,,259477,0,,54.68665500000000,2139,859,jane.kett@hartlepool.gov.uk,Hartlepool,http://www.hartlepool.gov.uk,-1.21979200000000,TS26 8PD,2013-05-02,fhrs_5_en-GB,5,,FHRS,0
145131,,4 Duke Street,Hartlepool,,The Blossom Garden,Takeaway/sandwich shop,7844,0,,259312,0,,54.68971000000000,204,859,jane.kett@hartlepool.gov.uk,Hartlepool,http://www.hartlepool.gov.uk,-1.22677600000000,TS26 8QE,2013-12-11,fhrs_5_en-GB,5,,FHRS,0
145132,,Middlegate,Hartlepool,,The Borough Hall,Other catering premises,7841,0,,259462,0,,54.69604300000000,2705,859,jane.kett@hartlepool.gov.uk,Hartlepool,http://www.hartlepool.gov.uk,-1.18383200000000,TS24 0JD,2014-03-25,fhrs_5_en-GB,5,,FHRS,5
145133,,Stockton Street,Hartlepool,,The Brewery Tap,Pub/bar/nightclub,7843,5,,259087,5,,54.68582500000000,2110,859,jane.kett@hartlepool.gov.uk,Hartlepool,http://www.hartlepool.gov.uk,-1.21099700000000,TS24 7NU,2014-02-06,fhrs_5_en-GB,5,,FHRS,5
145134,Sitchell House,Front Street,Greatham,Hartlepool,The Brother House Cafe,Restaurant/Cafe/Canteen,1,0,,259386,0,,54.64119800000000,6031,859,jane.kett@hartlepool.gov.uk,Hartlepool,http://www.hartlepool.gov.uk,-1.23938000000000,TS25 2HS,2014-03-18,fhrs_5_en-GB,5,,FHRS,5
145135,,Powlett Road,Hartlepool,,The Burger Grill,Mobile caterer,7846,5,,259717,5,,54.69841000000000,5947,859,jane.kett@hartlepool.gov.uk,Hartlepool,http://www.hartlepool.gov.uk,-1.21840200000000,TS24 8NA,2014-10-22,fhrs_5_en-GB,5,,FHRS,5
145136,"Unit 11 & 12 , The Arches",Park Road,Hartlepool,,The Cake Decorators Workshop,Retailers - other,4613,0,,259066,0,,54.68234100000000,687,859,jane.kett@hartlepool.gov.uk,Hartlepool,http://www.hartlepool.gov.uk,-1.21416600000000,TS24 7PW,2013-04-25,fhrs_5_en-GB,5,,FHRS,0
145137,,Stranton,Hartlepool,,The Causeway,Pub/bar/nightclub,7843,5,,259171,5,,54.67999649047852,9478,859,jane.kett@hartlepool.gov.uk,Hartlepool,http://www.hartlepool.gov.uk,-1.21306407451630,TS24 7QT,2013-01-08,fhrs_5_en-GB,5,,FHRS,5
145138,,Shields Terrace,Hartlepool,,The Central,Pub/bar/nightclub,7843,5,,259448,0,,54.70422900000000,3054,859,jane.kett@hartlepool.gov.uk,Hartlepool,http://www.hartlepool.gov.uk,-1.20531700000000,TS24 0BS,2014-10-15,fhrs_4_en-GB,4,,FHRS,10
145139,,58 Owton Manor Lane,Hartlepool,,The Chop Shop,Retailers - other,4613,0,,452502,0,,54.65867300000000,51793,859,jane.kett@hartlepool.gov.uk,Hartlepool,http://www.hartlepool.gov.uk,-1.23007800000000,TS25 3AU,2014-06-26,fhrs_5_en-GB,5,,FHRS,5
145140,,Tower Street,Hartlepool,,The Clarendon,Pub/bar/nightclub,7843,5,,259709,0,,54.68526300000000,1549,859,jane.kett@hartlepool.gov.uk,Hartlepool,http://www.hartlepool.gov.uk,-1.20877400000000,TS24 7HF,2013-08-14,fhrs_4_en-GB,4,,FHRS,10
145141,,118-120 Stockton Road,Hartlepool,,The Co-operative,Retailers - other,4613,0,,259137,0,,54.67348100000000,3072,859,jane.kett@hartlepool.gov.uk,Hartlepool,http://www.hartlepool.gov.uk,-1.21576400000000,TS25 5AB,2013-03-19,fhrs_5_en-GB,5,,FHRS,5
145142,,71-79 Elwick Road,Hartlepool,,The Co-operative,Retailers - other,4613,0,,259247,0,,54.67927100000000,1758,859,jane.kett@hartlepool.gov.uk,Hartlepool,http://www.hartlepool.gov.uk,-1.22022800000000,TS26 9AU,2012-10-17,fhrs_5_en-GB,5,,FHRS,5
145143,,58-60 Northgate,Hartlepool,,The Co-operative,Retailers - other,4613,0,,258982,0,,54.70023300000000,1789,859,jane.kett@hartlepool.gov.uk,Hartlepool,http://www.hartlepool.gov.uk,-1.18947400000000,TS24 0LX,2014-01-13,fhrs_5_en-GB,5,,FHRS,5
145144,,99a York Road,Hartlepool,,The Co-operative Pharmacy,Retailers - other,4613,,,259398,,,54.68496700000000,838,859,jane.kett@hartlepool.gov.uk,Hartlepool,http://www.hartlepool.gov.uk,-1.21723400000000,TS26 9DH,2012-11-29,fhrs_exempt_en-GB,Exempt,,FHRS,
145145,,416 Catcote Road,Hartlepool,,The Co-operative Pharmacy,Retailers - other,4613,,,259159,,,54.65519000000000,6216,859,jane.kett@hartlepool.gov.uk,Hartlepool,http://www.hartlepool.gov.uk,-1.23361600000000,TS25 2LS,2013-04-24,fhrs_exempt_en-GB,Exempt,,FHRS,
145146,Victoria Park,Clarence Road,Hartlepool,,The Corner Flag,Pub/bar/nightclub,7843,0,,259340,0,,54.68818800000000,3249,859,jane.kett@hartlepool.gov.uk,Hartlepool,http://www.hartlepool.gov.uk,-1.21365000000000,TS24 8BZ,2012-08-20,fhrs_5_en-GB,5,,FHRS,0
145147,,Middlegate,Hartlepool,,The Cosmopolitan Hotel,Pub/bar/nightclub,7843,5,,259440,0,,54.69613200000000,34,859,jane.kett@hartlepool.gov.uk,Hartlepool,http://www.hartlepool.gov.uk,-1.18235700000000,TS24 0HY,2014-03-24,fhrs_5_en-GB,5,,FHRS,5
145148,,2 Grange Road,Hartlepool,,The Douglas Hotel & Ruskins Bistro,Hotel/bed & breakfast/guest house,7842,5,,319500,5,,54.68582400000000,53601,859,jane.kett@hartlepool.gov.uk,Hartlepool,http://www.hartlepool.gov.uk,-1.22049000000000,TS26 8JA,2013-12-04,fhrs_5_en-GB,5,,FHRS,5
145149,,42 Murray Street,Hartlepool,,The Farm Shop,Manufacturers/packers,7839,10,,259436,5,,54.68772800000000,259,859,jane.kett@hartlepool.gov.uk,Hartlepool,http://www.hartlepool.gov.uk,-1.21896400000000,TS26 8PH,2014-03-26,fhrs_3_en-GB,3,,FHRS,10
145150,,Catcote Road,Hartlepool,,The Fens Hotel,Pub/bar/nightclub,7843,10,,259038,10,,54.65403600000000,6083,859,jane.kett@hartlepool.gov.uk,Hartlepool,http://www.hartlepool.gov.uk,-1.23294000000000,TS25 2LT,2013-03-05,fhrs_3_en-GB,3,,FHRS,10
145151,,Hartlepool Outdoor Market,Hartlepool,,The Fish Stall,Retailers - other,4613,0,,259305,0,,54.68429700000000,2771,859,jane.kett@hartlepool.gov.uk,Hartlepool,http://www.hartlepool.gov.uk,-1.21648600000000,TS26 9DE,2013-02-15,fhrs_5_en-GB,5,,FHRS,0
145152,,Southgate,Hartlepool,,The Fishermans Arms,Pub/bar/nightclub,7843,10,,259328,5,,54.69571304321289,31,859,jane.kett@hartlepool.gov.uk,Hartlepool,http://www.hartlepool.gov.uk,-1.18660092353821,TS24 0JJ,2014-03-21,fhrs_4_en-GB,4,,FHRS,5
145153,HCFE,Stockton Street,Hartlepool,,The Flagship Restaurant,Restaurant/Cafe/Canteen,1,5,,259260,0,,54.68582500000000,52033,859,jane.kett@hartlepool.gov.uk,Hartlepool,http://www.hartlepool.gov.uk,-1.21099700000000,TS24 7NU,2014-03-26,fhrs_5_en-GB,5,,FHRS,0
145154,,20-23 Middleton Grange Centre,Hartlepool,,The Galleries,Restaurant/Cafe/Canteen,1,0,,259352,5,,54.68428200000000,1267,859,jane.kett@hartlepool.gov.uk,Hartlepool,http://www.hartlepool.gov.uk,-1.21411300000000,TS24 7RS,2015-01-06,fhrs_5_en-GB,5,,FHRS,5
145155,,26 Northgate,Hartlepool,,The Globe,Pub/bar/nightclub,7843,0,,259238,0,,54.69888900000000,6572,859,jane.kett@hartlepool.gov.uk,Hartlepool,http://www.hartlepool.gov.uk,-1.18605600000000,TS24 0LJ,2013-06-25,fhrs_5_en-GB,5,,FHRS,0
145156,,74 Church Street,Hartlepool,,The Golden Gate,Restaurant/Cafe/Canteen,1,5,,259045,5,,54.68696400000000,5613,859,jane.kett@hartlepool.gov.uk,Hartlepool,http://www.hartlepool.gov.uk,-1.20509600000000,TS24 7DN,2013-03-22,fhrs_4_en-GB,4,,FHRS,10
145157,,Catcote Road,Hartlepool,,The Goldmine,Pub/bar/nightclub,7843,0,,259705,10,,54.66067700000000,4381,859,jane.kett@hartlepool.gov.uk,Hartlepool,http://www.hartlepool.gov.uk,-1.23577600000000,TS25 3JN,2011-07-20,fhrs_4_en-GB,4,,FHRS,0
145158,,150 Stockton Road,Hartlepool,,The Greenside,Pub/bar/nightclub,7843,5,,259721,0,,54.65745800000000,1373,859,jane.kett@hartlepool.gov.uk,Hartlepool,http://www.hartlepool.gov.uk,-1.22280000000000,TS25 2PG,2014-05-16,fhrs_5_en-GB,5,,FHRS,5
145159,,117 Raby Road,Hartlepool,,The Home Bakery,Retailers - other,4613,10,,259094,10,,54.69011100000000,197,859,jane.kett@hartlepool.gov.uk,Hartlepool,http://www.hartlepool.gov.uk,-1.21784800000000,TS24 8DT,2013-07-24,fhrs_3_en-GB,3,,FHRS,10
145160,,Eaglesfield Road,Hartlepool,,The Hourglass,Pub/bar/nightclub,7843,5,,259059,0,,54.66315600000000,1932,859,jane.kett@hartlepool.gov.uk,Hartlepool,http://www.hartlepool.gov.uk,-1.24419400000000,TS25 4BS,2014-03-13,fhrs_5_en-GB,5,,FHRS,0
145161,,119-123 Raby Road,Hartlepool,,The Local Store,Retailers - other,4613,5,,259684,0,,54.69011100000000,2566,859,jane.kett@hartlepool.gov.uk,Hartlepool,http://www.hartlepool.gov.uk,-1.21784800000000,TS24 8DT,2013-06-19,fhrs_5_en-GB,5,,FHRS,5
145162,,58 Church Street,Hartlepool,,The Lodge Bar,Pub/bar/nightclub,7843,0,,259439,0,,54.68653500000000,217,859,jane.kett@hartlepool.gov.uk,Hartlepool,http://www.hartlepool.gov.uk,-1.20682600000000,TS24 7DX,2014-03-17,fhrs_5_en-GB,5,,FHRS,0
145163,,36 Catcote Road,Hartlepool,,The Lunch Box,Takeaway/sandwich shop,7844,5,,564597,5,,54.67174400000000,55027,859,jane.kett@hartlepool.gov.uk,Hartlepool,http://www.hartlepool.gov.uk,-1.23640600000000,TS25 4HG,2013-08-13,fhrs_5_en-GB,5,,FHRS,5
145164,,34 The Green,Elwick,Hartlepool,The McOrville Inn,Pub/bar/nightclub,7843,,,706427,,,54.68383000000000,56763,859,jane.kett@hartlepool.gov.uk,Hartlepool,http://www.hartlepool.gov.uk,-1.29401900000000,TS27 3EF,,fhrs_awaitinginspection_en-GB,AwaitingInspection,,FHRS,
145165,,Mainsforth Terrace,Hartlepool,,The Merry Chef,Mobile caterer,7846,10,,259701,10,,54.67838700000000,7245,859,jane.kett@hartlepool.gov.uk,Hartlepool,http://www.hartlepool.gov.uk,-1.20042400000000,TS25 1NR,2013-12-16,fhrs_3_en-GB,3,,FHRS,10
145166,,Rium Terrace,Hartlepool,,The Mill House Inn,Pub/bar/nightclub,7843,0,,259394,5,,54.68864100000000,6512,859,jane.kett@hartlepool.gov.uk,Hartlepool,http://www.hartlepool.gov.uk,-1.21567400000000,TS24 8AP,2014-07-04,fhrs_5_en-GB,5,,FHRS,5
145167,"Unit 3, The Mowbray",Mowbray Road,Hartlepool,,The Mowbray,Pub/bar/nightclub,7843,5,,683106,0,,54.65389100000000,56102,859,jane.kett@hartlepool.gov.uk,Hartlepool,http://www.hartlepool.gov.uk,-1.24428800000000,TS25 2ND,2014-11-18,fhrs_5_en-GB,5,,FHRS,0
145168,,Broadfield Road,Hartlepool,,The New Inn,Pub/bar/nightclub,7843,0,,691467,5,,54.69917000000000,55861,859,jane.kett@hartlepool.gov.uk,Hartlepool,http://www.hartlepool.gov.uk,-1.18243500000000,TS24 0NS,2014-08-27,fhrs_5_en-GB,5,,FHRS,5
145169,,Hopps Street,Hartlepool,,The Nursery Inn,Pub/bar/nightclub,7843,5,,259354,0,,54.69003100000000,1933,859,jane.kett@hartlepool.gov.uk,Hartlepool,http://www.hartlepool.gov.uk,-1.22206900000000,TS26 8RA,2013-03-08,fhrs_5_en-GB,5,,FHRS,5
145170,,Maritime Avenue,Hartlepool,,The Old West Quay/Premier Inn,Pub/bar/nightclub,7843,0,,259181,0,,54.68953900000000,1430,859,jane.kett@hartlepool.gov.uk,Hartlepool,http://www.hartlepool.gov.uk,-1.20167900000000,TS24 0YG,2013-02-15,fhrs_5_en-GB,5,,FHRS,5
145171,,39 Mulgrave Road,Hartlepool,,The Pantry,Takeaway/sandwich shop,7844,10,,259112,5,,54.68654700000000,5414,859,jane.kett@hartlepool.gov.uk,Hartlepool,http://www.hartlepool.gov.uk,-1.22685200000000,TS26 8ED,2014-02-04,fhrs_3_en-GB,3,,FHRS,10
145172,,Park Road,Hartlepool,,The Park Inn,Pub/bar/nightclub,7843,5,,259258,0,,54.68269700000000,6593,859,jane.kett@hartlepool.gov.uk,Hartlepool,http://www.hartlepool.gov.uk,-1.21775800000000,TS26 9HU,2014-01-21,fhrs_5_en-GB,5,,FHRS,0
145173,,29-31 Park Road,Hartlepool,,The Pizza Guys,Takeaway/sandwich shop,7844,5,,668535,5,,54.68234100000000,56407,859,jane.kett@hartlepool.gov.uk,Hartlepool,http://www.hartlepool.gov.uk,-1.21416600000000,TS24 7PW,2014-08-18,fhrs_4_en-GB,4,,FHRS,10
145174,,Park Avenue,Hartlepool,,The Place in the Park,Restaurant/Cafe/Canteen,1,0,,259353,0,,54.68324100000000,6836,859,jane.kett@hartlepool.gov.uk,Hartlepool,http://www.hartlepool.gov.uk,-1.23981900000000,TS26 0BQ,2014-03-04,fhrs_5_en-GB,5,,FHRS,5
145175,,Croft Terrace,Hartlepool,,The Pot House,Pub/bar/nightclub,7843,0,,655926,0,,54.69467800000000,56326,859,jane.kett@hartlepool.gov.uk,Hartlepool,http://www.hartlepool.gov.uk,-1.18261900000000,TS24 0QX,2014-06-03,fhrs_5_en-GB,5,,FHRS,0
145176,Hartlepool Marina,Maritime Avenue,Hartlepool,,The Quayside Coffee Shop,Restaurant/Cafe/Canteen,1,5,,666194,5,,54.69016400000000,56428,859,jane.kett@hartlepool.gov.uk,Hartlepool,http://www.hartlepool.gov.uk,-1.20798100000000,TS24 0XZ,2015-01-18,fhrs_5_en-GB,5,,FHRS,5
145177,Teesbay Retail Park,Brenda Road,Hartlepool,,The Range,Retailers - other,4613,5,,452507,0,,54.66735000000000,54067,859,jane.kett@hartlepool.gov.uk,Hartlepool,http://www.hartlepool.gov.uk,-1.20988200000000,TS25 1XH,2012-09-18,fhrs_5_en-GB,5,,FHRS,0
145178,The Range,Brenda Road,Hartlepool,,The Range Coffee Shop,Restaurant/Cafe/Canteen,1,5,,444565,10,,54.66735000000000,54051,859,jane.kett@hartlepool.gov.uk,Hartlepool,http://www.hartlepool.gov.uk,-1.20988200000000,TS25 1XH,2014-02-04,fhrs_4_en-GB,4,,FHRS,0
145179,,78 The Front,Hartlepool,,The Rock Shop,Retailers - other,4613,10,,259598,0,,54.65917200000000,3618,859,jane.kett@hartlepool.gov.uk,Hartlepool,http://www.hartlepool.gov.uk,-1.18685000000000,TS25 1BU,2014-12-10,fhrs_4_en-GB,4,,FHRS,0
145180,,Balmoral Road,Hartlepool,,The Rossmere,Pub/bar/nightclub,7843,5,,259070,0,,54.65918200000000,7701,859,jane.kett@hartlepool.gov.uk,Hartlepool,http://www.hartlepool.gov.uk,-1.22823900000000,TS25 3AX,2014-02-12,fhrs_5_en-GB,5,,FHRS,5
145181,,Church Street,Hartlepool,,The Royal,Pub/bar/nightclub,7843,5,,259513,5,,54.68696400000000,8962,859,jane.kett@hartlepool.gov.uk,Hartlepool,http://www.hartlepool.gov.uk,-1.20509600000000,TS24 7DN,2012-09-10,fhrs_4_en-GB,4,,FHRS,10
145182,,Warrior Drive,Hartlepool,,The Schooner,Pub/bar/nightclub,7843,10,,534432,5,,54.66177100000000,55081,859,jane.kett@hartlepool.gov.uk,Hartlepool,http://www.hartlepool.gov.uk,-1.19379000000000,TS25 1EZ,2014-10-21,fhrs_4_en-GB,4,,FHRS,5
145183,,48 Catcote Road,Hartlepool,,The Scranary,Takeaway/sandwich shop,7844,0,,259365,5,,54.67174400000000,9337,859,jane.kett@hartlepool.gov.uk,Hartlepool,http://www.hartlepool.gov.uk,-1.23640600000000,TS25 4HG,2014-01-06,fhrs_5_en-GB,5,,FHRS,5
145184,,Middlegate,Hartlepool,,The Ship Inn,Pub/bar/nightclub,7843,5,,258986,5,,54.69590700000000,2300,859,jane.kett@hartlepool.gov.uk,Hartlepool,http://www.hartlepool.gov.uk,-1.18492100000000,TS24 0JN,2012-01-05,fhrs_4_en-GB,4,,FHRS,10
145185,,2 Victoria Road,Hartlepool,,The Showroom,Pub/bar/nightclub,7843,5,,259142,0,,54.68548900000000,3728,859,jane.kett@hartlepool.gov.uk,Hartlepool,http://www.hartlepool.gov.uk,-1.21602900000000,TS24 7SD,2012-02-13,fhrs_5_en-GB,5,,FHRS,0
145186,,Tees Road,Hartlepool,,The Sports Domes,Restaurant/Cafe/Canteen,1,0,,564596,0,,54.65719000000000,54558,859,jane.kett@hartlepool.gov.uk,Hartlepool,http://www.hartlepool.gov.uk,-1.18613000000000,TS25 1DE,2013-08-02,fhrs_5_en-GB,5,,FHRS,0
145187,,Brenda Road,Hartlepool,,The Stag & Monkey,Pub/bar/nightclub,7843,0,,657196,0,,,55858,859,jane.kett@hartlepool.gov.uk,Hartlepool,http://www.hartlepool.gov.uk,,TS25 1SD,2014-09-03,fhrs_5_en-GB,5,,FHRS,5
145188,,28 Whitby Street,Hartlepool,,The Vault,Pub/bar/nightclub,7843,0,,259069,0,,54.68562900000000,53204,859,jane.kett@hartlepool.gov.uk,Hartlepool,http://www.hartlepool.gov.uk,-1.20712300000000,TS24 7AD,2012-02-06,fhrs_5_en-GB,5,,FHRS,0
145189,,17 Victoria Road,Hartlepool,,The Vinery,Takeaway/sandwich shop,7844,5,,655922,0,,54.68512800000000,56153,859,jane.kett@hartlepool.gov.uk,Hartlepool,http://www.hartlepool.gov.uk,-1.21566400000000,TS24 7SE,2014-04-23,fhrs_4_en-GB,4,,FHRS,10
145190,,3-9 Church Square,Hartlepool,,The Ward Jackson,Pub/bar/nightclub,7843,0,,259508,0,,54.68551400000000,1552,859,jane.kett@hartlepool.gov.uk,Hartlepool,http://www.hartlepool.gov.uk,-1.20872300000000,TS24 7EY,2014-07-14,fhrs_5_en-GB,5,,FHRS,5
145191,14 Navigation Point,Middleton Road,Hartlepool,,The Waterfront,Takeaway/sandwich shop,7844,10,,259566,10,,54.69189000000000,5870,859,jane.kett@hartlepool.gov.uk,Hartlepool,http://www.hartlepool.gov.uk,-1.19853000000000,TS24 0UG,2014-06-04,fhrs_3_en-GB,3,,FHRS,10
145192,,Wooler Road,Hartlepool,,The White House,Pub/bar/nightclub,7843,0,,259055,0,,54.68453000000000,1887,859,jane.kett@hartlepool.gov.uk,Hartlepool,http://www.hartlepool.gov.uk,-1.23458400000000,TS26 0DR,2013-12-11,fhrs_5_en-GB,5,,FHRS,0
145193,,Dalton Piercy Road,Dalton Piercy,Hartlepool,The Windmill,Pub/bar/nightclub,7843,20,,259461,15,,54.67281800000000,8744,859,jane.kett@hartlepool.gov.uk,Hartlepool,http://www.hartlepool.gov.uk,-1.29973000000000,TS27 3HG,2014-08-28,fhrs_1_en-GB,1,,FHRS,15
145194,,Maritime Avenue,Hartlepool,,The Wingfield Castle Cafe,Restaurant/Cafe/Canteen,1,20,,666193,10,,54.69016400000000,56427,859,jane.kett@hartlepool.gov.uk,Hartlepool,http://www.hartlepool.gov.uk,-1.20798100000000,TS24 0XZ,2014-05-16,fhrs_1_en-GB,1,,FHRS,0
145195,,245 West View Road,Hartlepool,,The Wok Inn,Restaurant/Cafe/Canteen,1,10,,258997,10,,54.70710500000000,6223,859,jane.kett@hartlepool.gov.uk,Hartlepool,http://www.hartlepool.gov.uk,-1.21497600000000,TS24 9LF,2014-03-06,fhrs_3_en-GB,3,,FHRS,10
145196,,86 Middleton Grange Centre,Hartlepool,,The Works,Retailers - other,4613,,,259162,,,54.68428200000000,6997,859,jane.kett@hartlepool.gov.uk,Hartlepool,http://www.hartlepool.gov.uk,-1.21411300000000,TS24 7RW,2015-01-14,fhrs_exempt_en-GB,Exempt,,FHRS,
145197,,Flint Walk,Hartlepool,,Throston Primary School,School/college/university,7845,0,,259333,0,,54.69707400000000,2205,859,jane.kett@hartlepool.gov.uk,Hartlepool,http://www.hartlepool.gov.uk,-1.23873900000000,TS26 0TJ,2013-10-22,fhrs_5_en-GB,5,,FHRS,0
145198,,195 Middleton Grange Centre,Hartlepool,,TJ Hughes,Restaurant/Cafe/Canteen,1,5,,706422,5,,54.68366000000000,53610,859,jane.kett@hartlepool.gov.uk,Hartlepool,http://www.hartlepool.gov.uk,-1.21380000000000,TS24 7RR,2014-10-09,fhrs_5_en-GB,5,,FHRS,5
145199,,Hartlepool,,,Tonino Ices LTR 506R,Retailers - other,4613,5,,259699,0,,54.68544006347660,9922,859,jane.kett@hartlepool.gov.uk,Hartlepool,http://www.hartlepool.gov.uk,-1.21322000026703,TS2,2015-01-28,fhrs_5_en-GB,5,,FHRS,0
145200,,235 York Road,Hartlepool,,Tony's Parmesan House,Takeaway/sandwich shop,7844,5,,259449,5,,54.67914100000000,4990,859,jane.kett@hartlepool.gov.uk,Hartlepool,http://www.hartlepool.gov.uk,-1.21686500000000,TS26 9AD,2013-11-18,fhrs_5_en-GB,5,,FHRS,5
145201,,4 Powlett Road,Hartlepool,,Top Chef,Takeaway/sandwich shop,7844,10,,584387,5,,54.69796900000000,55292,859,jane.kett@hartlepool.gov.uk,Hartlepool,http://www.hartlepool.gov.uk,-1.21412800000000,TS24 8LZ,2014-01-08,fhrs_4_en-GB,4,,FHRS,5
145202,,66-68 Jesmond Gardens,Hartlepool,,Top Shop,Retailers - other,4613,,,259108,,,54.69366700000000,6797,859,jane.kett@hartlepool.gov.uk,Hartlepool,http://www.hartlepool.gov.uk,-1.22721300000000,TS24 8QS,2013-02-07,fhrs_exempt_en-GB,Exempt,,FHRS,
145203,,Raby Road,Hartlepool,,Town Hall Theatre,Pub/bar/nightclub,7843,0,,259310,0,,54.68676200000000,551,859,jane.kett@hartlepool.gov.uk,Hartlepool,http://www.hartlepool.gov.uk,-1.21409700000000,TS24 8AH,2013-02-22,fhrs_5_en-GB,5,,FHRS,0
145204,,Station Approach,Hartlepool,,Trainstop Cafe,Restaurant/Cafe/Canteen,1,5,,655929,5,,54.68674000000000,56372,859,jane.kett@hartlepool.gov.uk,Hartlepool,http://www.hartlepool.gov.uk,-1.20795400000000,TS24 7ED,2014-06-03,fhrs_4_en-GB,4,,FHRS,10
145205,,363 Stockton Road,Hartlepool,,Travellers Rest,Pub/bar/nightclub,7843,0,,259510,0,,54.66417700000000,9471,859,jane.kett@hartlepool.gov.uk,Hartlepool,http://www.hartlepool.gov.uk,-1.21946300000000,TS25 1LB,2013-12-02,fhrs_5_en-GB,5,,FHRS,5
145206,The Lanyard,Hartlepool,,,Travelodge,Hotel/bed & breakfast/guest house,7842,0,,495594,0,,54.68728400000000,54004,859,jane.kett@hartlepool.gov.uk,Hartlepool,http://www.hartlepool.gov.uk,-1.20735400000000,TS24 0XS,2013-02-21,fhrs_5_en-GB,5,,FHRS,0
145207,,5 Church Street,Seaton Carew,Hartlepool,Trinity Guest House,Hotel/bed & breakfast/guest house,7842,0,,259125,0,,54.65882800000000,7713,859,jane.kett@hartlepool.gov.uk,Hartlepool,http://www.hartlepool.gov.uk,-1.18781800000000,TS25 1BX,2014-03-20,fhrs_5_en-GB,5,,FHRS,0
145208,,Avenue Road,Hartlepool,,Trixx Skatepark,Retailers - other,4613,,,534438,,,54.68723000000000,55095,859,jane.kett@hartlepool.gov.uk,Hartlepool,http://www.hartlepool.gov.uk,-1.21551500000000,TS24 8AT,2013-05-03,fhrs_exempt_en-GB,Exempt,,FHRS,
145209,,42 Hartlepool Enterprise Centre,Brougham Terrace,Hartlepool,Truly Scrumptious Cakes,Retailers - other,4613,0,,717458,0,,54.69386900000000,52269,859,jane.kett@hartlepool.gov.uk,Hartlepool,http://www.hartlepool.gov.uk,-1.21659700000000,TS24 8EY,2015-01-09,fhrs_5_en-GB,5,,FHRS,5
145210,,170 Raby Road,Hartlepool,,Tuck-In,Takeaway/sandwich shop,7844,5,,720310,5,,54.69303000000000,55193,859,jane.kett@hartlepool.gov.uk,Hartlepool,http://www.hartlepool.gov.uk,-1.21897100000000,TS24 8EJ,2014-12-05,fhrs_5_en-GB,5,,FHRS,5
145211,,224a Owton Manor Lane,Hartlepool,,UK Pizza,Takeaway/sandwich shop,7844,10,,319503,10,,54.65777300000000,6131,859,jane.kett@hartlepool.gov.uk,Hartlepool,http://www.hartlepool.gov.uk,-1.24564300000000,TS25 3QD,2014-03-10,fhrs_2_en-GB,2,,FHRS,15
145212,,Miers Avenue,Hartlepool,,United Services Club,Pub/bar/nightclub,7843,5,,259611,0,,54.70686000000000,1662,859,jane.kett@hartlepool.gov.uk,Hartlepool,http://www.hartlepool.gov.uk,-1.22441700000000,TS24 9JQ,2014-03-21,fhrs_4_en-GB,4,,FHRS,10
145213,,Holdforth Road,Hartlepool,,University Hospital of Hartlepool,Hospitals/Childcare/Caring Premises,5,5,,259221,0,,54.70239000000000,513,859,jane.kett@hartlepool.gov.uk,Hartlepool,http://www.hartlepool.gov.uk,-1.22802500000000,TS24 9AH,2013-11-07,fhrs_5_en-GB,5,,FHRS,0
145214,,70-71 The Front,Hartlepool,,Unwin Ices FX54 WBU,Retailers - other,4613,5,,259636,5,,54.65917200000000,6380,859,jane.kett@hartlepool.gov.uk,Hartlepool,http://www.hartlepool.gov.uk,-1.18685000000000,TS25 1BU,2014-03-11,fhrs_5_en-GB,5,,FHRS,0
145215,,70-71 The Front,Hartlepool,,Unwin Ices NA54 XNL,Mobile caterer,7846,5,,259334,0,,54.65917200000000,6722,859,jane.kett@hartlepool.gov.uk,Hartlepool,http://www.hartlepool.gov.uk,-1.18685000000000,TS25 1BU,2014-03-11,fhrs_5_en-GB,5,,FHRS,0
145216,,70-71 The Front,Hartlepool,,Unwin Ices V535 KOA,Mobile caterer,7846,5,,259027,5,,54.65917200000000,4550,859,jane.kett@hartlepool.gov.uk,Hartlepool,http://www.hartlepool.gov.uk,-1.18685000000000,TS25 1BU,2014-03-11,fhrs_5_en-GB,5,,FHRS,5
145217,,58 Elizabeth Way,Hartlepool,,Valentino's,Takeaway/sandwich shop,7844,10,,259383,10,,54.65559900000000,6440,859,jane.kett@hartlepool.gov.uk,Hartlepool,http://www.hartlepool.gov.uk,-1.19419100000000,TS25 2AX,2014-11-24,fhrs_3_en-GB,3,,FHRS,10
145218,,132 Oxford Road,Hartlepool,,Venezia Pizzeria,Takeaway/sandwich shop,7844,10,,259415,10,,54.67450900000000,7299,859,jane.kett@hartlepool.gov.uk,Hartlepool,http://www.hartlepool.gov.uk,-1.22179200000000,TS25 5RH,2014-10-07,fhrs_3_en-GB,3,,FHRS,10
145219,Unit 3,Wiltshire Way,Hartlepool,,Verona Pizzeria,Takeaway/sandwich shop,7844,5,,259078,5,,54.69400100000000,1631,859,jane.kett@hartlepool.gov.uk,Hartlepool,http://www.hartlepool.gov.uk,-1.24300100000000,TS26 0XP,2012-11-28,fhrs_4_en-GB,4,,FHRS,10
145220,,99 High Street,Headland,Hartlepool,Verrills,Takeaway/sandwich shop,7844,5,,259368,0,,54.69538100000000,165,859,jane.kett@hartlepool.gov.uk,Hartlepool,http://www.hartlepool.gov.uk,-1.18289900000000,TS24 0JE,2015-02-10,fhrs_5_en-GB,5,,FHRS,0
145221,,154 Northgate,Hartlepool,,Victoria Arms,Pub/bar/nightclub,7843,,,727220,,,54.70156400000000,56941,859,jane.kett@hartlepool.gov.uk,Hartlepool,http://www.hartlepool.gov.uk,-1.19362200000000,TS24 0EQ,,fhrs_awaitinginspection_en-GB,AwaitingInspection,,FHRS,
145222,,408 Catcote Road,Hartlepool,,Victoria's,Retailers - other,4613,0,,259318,0,,54.65519000000000,6475,859,jane.kett@hartlepool.gov.uk,Hartlepool,http://www.hartlepool.gov.uk,-1.23361600000000,TS25 2LS,2013-08-13,fhrs_5_en-GB,5,,FHRS,5
145223,,,,,Victoria's Sweet Treats,Retailers - other,4613,5,,455917,5,,,54214,859,jane.kett@hartlepool.gov.uk,Hartlepool,http://www.hartlepool.gov.uk,,,2013-01-09,fhrs_5_en-GB,5,,FHRS,5
145224,,94 York Road,Hartlepool,,Vito's,Takeaway/sandwich shop,7844,5,,717459,5,,54.68497100000000,55943,859,jane.kett@hartlepool.gov.uk,Hartlepool,http://www.hartlepool.gov.uk,-1.21648900000000,TS26 9DQ,2014-11-17,fhrs_5_en-GB,5,,FHRS,5
145225,,13 Hutton Avenue,Hartlepool,,Voyage Care Ltd,Hospitals/Childcare/Caring Premises,5,5,,259308,5,,54.68466000000000,5616,859,jane.kett@hartlepool.gov.uk,Hartlepool,http://www.hartlepool.gov.uk,-1.22252900000000,TS26 9PW,2014-08-11,fhrs_5_en-GB,5,,FHRS,5
145226,,The Lanyard,Hartlepool,,Vue Cinemas UK Ltd,Retailers - other,4613,0,,259341,0,,54.68728400000000,2937,859,jane.kett@hartlepool.gov.uk,Hartlepool,http://www.hartlepool.gov.uk,-1.20735400000000,TS24 0XS,2014-07-23,fhrs_5_en-GB,5,,FHRS,0
145227,,79 Murray Street,Hartlepool,,VVC Newsagent,Retailers - other,4613,10,,259160,5,,54.68925000000000,3615,859,jane.kett@hartlepool.gov.uk,Hartlepool,http://www.hartlepool.gov.uk,-1.21944700000000,TS26 8RG,2014-06-19,fhrs_3_en-GB,3,,FHRS,10
145228,,5 Whitby Street,Hartlepool,,W Hodgson (Hartlepool) Ltd,Retailers - other,4613,0,,259473,0,,54.68562900000000,167,859,jane.kett@hartlepool.gov.uk,Hartlepool,http://www.hartlepool.gov.uk,-1.20712300000000,TS24 7AD,2013-12-20,fhrs_5_en-GB,5,,FHRS,0
145229,,Wiltshire Way,Hartlepool,,W.H.T.D.S.O.B.R.U.F.C.,Pub/bar/nightclub,7843,0,,259387,0,,54.69622700000000,2813,859,jane.kett@hartlepool.gov.uk,Hartlepool,http://www.hartlepool.gov.uk,-1.23824200000000,TS26 0TB,2014-03-25,fhrs_5_en-GB,5,,FHRS,0
145230,,Clark Street,Hartlepool,,Ward Jackson Primary School,School/college/university,7845,0,,259637,0,,54.68148900000000,614,859,jane.kett@hartlepool.gov.uk,Hartlepool,http://www.hartlepool.gov.uk,-1.20890900000000,TS24 7LE,2014-09-11,fhrs_5_en-GB,5,,FHRS,0
145231,,72 Warren Road,Hartlepool,,Warren Fisheries,Takeaway/sandwich shop,7844,10,,259601,5,,54.70418000000000,69,859,jane.kett@hartlepool.gov.uk,Hartlepool,http://www.hartlepool.gov.uk,-1.22403300000000,TS24 9AR,2014-02-10,fhrs_4_en-GB,4,,FHRS,0
145232,,Warren Road,Hartlepool,,Warren Road Social Skills Centre,Hospitals/Childcare/Caring Premises,5,5,,259114,0,,54.70575100000000,25,859,jane.kett@hartlepool.gov.uk,Hartlepool,http://www.hartlepool.gov.uk,-1.21407100000000,TS24 0RG,2013-10-25,fhrs_5_en-GB,5,,FHRS,0
145233,,Queen Street,Seaton Carew,Hartlepool,Warrior Park Nursing Home,Hospitals/Childcare/Caring Premises,5,0,,259413,0,,54.66177100000000,583,859,jane.kett@hartlepool.gov.uk,Hartlepool,http://www.hartlepool.gov.uk,-1.19379000000000,TS25 1EZ,2015-01-07,fhrs_5_en-GB,5,,FHRS,5
145234,,145 Elwick Road,Hartlepool,,Watsons Fruit and Veg,Retailers - other,4613,0,,259399,0,,54.67911700000000,234,859,jane.kett@hartlepool.gov.uk,Hartlepool,http://www.hartlepool.gov.uk,-1.22423200000000,TS26 9BW,2011-11-03,fhrs_5_en-GB,5,,FHRS,0
145235,,82 York Road,Hartlepool,,Welcome Cafe,Restaurant/Cafe/Canteen,1,10,,575925,0,,54.68560000000000,7383,859,jane.kett@hartlepool.gov.uk,Hartlepool,http://www.hartlepool.gov.uk,-1.21652300000000,TS26 8AB,2013-08-21,fhrs_4_en-GB,4,,FHRS,0
145236,,14 Lister Street,Hartlepool,,Welcome Chinese Takeaway,Takeaway/sandwich shop,7844,10,,584389,5,,54.68099700000000,55503,859,jane.kett@hartlepool.gov.uk,Hartlepool,http://www.hartlepool.gov.uk,-1.21475100000000,TS24 7QE,2013-09-04,fhrs_4_en-GB,4,,FHRS,5
145237,,70-72 Murray Street,Hartlepool,,West End Social Club,Pub/bar/nightclub,7843,5,,730031,0,,54.68847400000000,55908,859,jane.kett@hartlepool.gov.uk,Hartlepool,http://www.hartlepool.gov.uk,-1.21899600000000,TS26 8PL,2015-02-09,fhrs_5_en-GB,5,,FHRS,5
145238,,Raby Road,Hartlepool,,West Hartlepool Masonic Hall,Pub/bar/nightclub,7843,0,,259589,0,,54.68676200000000,1622,859,jane.kett@hartlepool.gov.uk,Hartlepool,http://www.hartlepool.gov.uk,-1.21409700000000,TS24 8AH,2014-01-09,fhrs_5_en-GB,5,,FHRS,5
145239,,Catcote Road,Hartlepool,,West Hartlepool RFC Clubhouse,Pub/bar/nightclub,7843,10,,259578,5,,54.67554600000000,3586,859,jane.kett@hartlepool.gov.uk,Hartlepool,http://www.hartlepool.gov.uk,-1.23647400000000,TS25 4HA,2014-01-16,fhrs_3_en-GB,3,,FHRS,10
145240,,1 Sandringham Road,Hartlepool,,West Hartlepool Victory Social Club,Pub/bar/nightclub,7843,5,,259718,0,,54.68867900000000,1446,859,jane.kett@hartlepool.gov.uk,Hartlepool,http://www.hartlepool.gov.uk,-1.22014100000000,TS26 8PN,2014-08-08,fhrs_5_en-GB,5,,FHRS,5
145241,,1 Coniscliffe Road,Hartlepool,,West Park Primary School,School/college/university,7845,5,,259025,0,,54.68431300000000,347,859,jane.kett@hartlepool.gov.uk,Hartlepool,http://www.hartlepool.gov.uk,-1.25458100000000,TS26 0BU,2013-07-03,fhrs_5_en-GB,5,,FHRS,5
145242,,10 Brus Corner,Hartlepool,,West View Fish Shop,Takeaway/sandwich shop,7844,10,,259129,5,,54.70903400000000,8533,859,jane.kett@hartlepool.gov.uk,Hartlepool,http://www.hartlepool.gov.uk,-1.22152000000000,TS24 9LA,2014-07-01,fhrs_4_en-GB,4,,FHRS,5
145243,,124a West View Road,Hartlepool,,West View Lodge Nursing Home,Hospitals/Childcare/Caring Premises,5,5,,259210,5,,54.70451500000000,2501,859,jane.kett@hartlepool.gov.uk,Hartlepool,http://www.hartlepool.gov.uk,-1.20923800000000,TS24 0BW,2015-02-05,fhrs_5_en-GB,5,,FHRS,5
145244,,7-8 Brus Corner,Hartlepool,,West View Pharmacy,Retailers - other,4613,,,259166,,,54.70903400000000,1085,859,jane.kett@hartlepool.gov.uk,Hartlepool,http://www.hartlepool.gov.uk,-1.22152000000000,TS24 9LA,2012-05-01,fhrs_exempt_en-GB,Exempt,,FHRS,
145245,,21 Brus Corner,Hartlepool,,West View Post Office,Retailers - other,4613,,,616917,,,54.70903400000000,55644,859,jane.kett@hartlepool.gov.uk,Hartlepool,http://www.hartlepool.gov.uk,-1.22152000000000,TS24 9LA,2014-02-12,fhrs_exempt_en-GB,Exempt,,FHRS,
145246,,Davison Drive,Hartlepool,,West View Primary School,School/college/university,7845,0,,259590,0,,54.70570300000000,156,859,jane.kett@hartlepool.gov.uk,Hartlepool,http://www.hartlepool.gov.uk,-1.22752700000000,TS24 9BP,2013-09-13,fhrs_5_en-GB,5,,FHRS,5
145247,,Miers Avenue,Hartlepool,,West View Project,Retailers - other,4613,10,,259677,5,,54.70686000000000,1770,859,jane.kett@hartlepool.gov.uk,Hartlepool,http://www.hartlepool.gov.uk,-1.22441700000000,TS24 9JQ,2012-10-15,fhrs_4_en-GB,4,,FHRS,0
145248,,Wells Avenue,Hartlepool,,West Villas,Hospitals/Childcare/Caring Premises,5,0,,259529,0,,54.70227800000000,3647,859,jane.kett@hartlepool.gov.uk,Hartlepool,http://www.hartlepool.gov.uk,-1.22461300000000,TS24 9DA,2013-02-18,fhrs_5_en-GB,5,,FHRS,0
145249,Westbourne Methodist Church,Stockton Road,Hartlepool,,Westbourne Walk-In,Restaurant/Cafe/Canteen,1,5,,259176,0,,54.67850700000000,6514,859,jane.kett@hartlepool.gov.uk,Hartlepool,http://www.hartlepool.gov.uk,-1.21602400000000,TS25 1TY,2014-09-03,fhrs_5_en-GB,5,,FHRS,5
145250,,26 Mulgrave Road,Hartlepool,,Westhorp Convenience (Premier),Retailers - other,4613,10,,259144,10,,54.68694300000000,1431,859,jane.kett@hartlepool.gov.uk,Hartlepool,http://www.hartlepool.gov.uk,-1.22679800000000,TS26 8EE,2014-05-22,fhrs_3_en-GB,3,,FHRS,10
145251,,186 Middleton Grange Centre,Hartlepool,,WH Smith,Retailers - other,4613,,,259646,,,54.68428200000000,753,859,jane.kett@hartlepool.gov.uk,Hartlepool,http://www.hartlepool.gov.uk,-1.21411300000000,TS24 7RT,2015-01-22,fhrs_exempt_en-GB,Exempt,,FHRS,
145252,,Front Street,Hart,Hartlepool,White Hart Inn,Pub/bar/nightclub,7843,10,,259311,5,,54.70764100000000,175,859,jane.kett@hartlepool.gov.uk,Hartlepool,http://www.hartlepool.gov.uk,-1.27063600000000,TS27 3AJ,2014-01-20,fhrs_3_en-GB,3,,FHRS,10
145253,,40-42 Shrewsbury Street,Hartlepool,,White's Fish and Chips,Takeaway/sandwich shop,7844,5,,259266,10,,54.67485700000000,281,859,jane.kett@hartlepool.gov.uk,Hartlepool,http://www.hartlepool.gov.uk,-1.22290200000000,TS25 5RQ,2013-11-20,fhrs_4_en-GB,4,,FHRS,5
145254,,115-119 Middleton Grange Centre,Hartlepool,,Wilko,Retailers - other,4613,0,,259091,0,,54.68508600000000,1429,859,jane.kett@hartlepool.gov.uk,Hartlepool,http://www.hartlepool.gov.uk,-1.21206600000000,TS24 7RJ,2013-03-06,fhrs_5_en-GB,5,,FHRS,0
145255,,15 Davison Drive,Hartlepool,,WJ Meadley,Retailers - other,4613,10,,434522,10,,54.70476600000000,53387,859,jane.kett@hartlepool.gov.uk,Hartlepool,http://www.hartlepool.gov.uk,-1.22725000000000,TS24 9BW,2014-01-06,fhrs_3_en-GB,3,,FHRS,10
145256,,10 Westbourne Road,Hartlepool,,Wordsley House,Hospitals/Childcare/Caring Premises,5,5,,259182,5,,54.67633100000000,2516,859,jane.kett@hartlepool.gov.uk,Hartlepool,http://www.hartlepool.gov.uk,-1.21868700000000,TS25 5RE,2013-12-20,fhrs_5_en-GB,5,,FHRS,5
145257,Rossmere Park,Rossmere Way,Hartlepool,,Wright Bite,Restaurant/Cafe/Canteen,1,10,,655920,0,,54.66225100000000,56025,859,jane.kett@hartlepool.gov.uk,Hartlepool,http://www.hartlepool.gov.uk,-1.22469300000000,TS25 5EG,2014-05-08,fhrs_4_en-GB,4,,FHRS,5
145258,The University Hospital Of Har,Holdforth Road,Hartlepool,,WRVS Shop,Retailers - other,4613,0,,259277,0,,54.70239000000000,2818,859,jane.kett@hartlepool.gov.uk,Hartlepool,http://www.hartlepool.gov.uk,-1.22802500000000,TS24 9AH,2013-01-28,fhrs_5_en-GB,5,,FHRS,0
145259,Orcel Centre,Wynyard Road,Hartlepool,,Wynyard Cafe.com,Restaurant/Cafe/Canteen,1,0,,259474,0,,54.66069100000000,2809,859,jane.kett@hartlepool.gov.uk,Hartlepool,http://www.hartlepool.gov.uk,-1.23661300000000,TS25 3LB,2015-01-22,fhrs_5_en-GB,5,,FHRS,0
145260,,Wynyard,Billingham,,Wynyard Woods,Hospitals/Childcare/Caring Premises,5,0,,259495,0,,54.64070892333984,7085,859,jane.kett@hartlepool.gov.uk,Hartlepool,http://www.hartlepool.gov.uk,-1.35700714588165,TS22 5GJ,2015-01-28,fhrs_5_en-GB,5,,FHRS,0
145261,Unit 2,Longhill Industrial Estate,Hartlepool,,Xtreme Fitness,Retailers - other,4613,,,452510,,,54.67556400000000,54162,859,jane.kett@hartlepool.gov.uk,Hartlepool,http://www.hartlepool.gov.uk,-1.20849700000000,TS25 1PX,2012-10-02,fhrs_exempt_en-GB,Exempt,,FHRS,
145262,,4 Victoria Road,Hartlepool,,Yates's,Pub/bar/nightclub,7843,5,,259134,5,,54.68548900000000,2409,859,jane.kett@hartlepool.gov.uk,Hartlepool,http://www.hartlepool.gov.uk,-1.21602900000000,TS24 7SD,2014-11-18,fhrs_5_en-GB,5,,FHRS,5
145263,,St Aidans Street,Hartlepool,,Ye Olde Durhams Social Club,Pub/bar/nightclub,7843,5,,259074,5,,54.67521800000000,1665,859,jane.kett@hartlepool.gov.uk,Hartlepool,http://www.hartlepool.gov.uk,-1.21472300000000,TS25 1SN,2014-03-20,fhrs_5_en-GB,5,,FHRS,5
145264,,32 The Front,Hartlepool,,Youngs Fisheries,Takeaway/sandwich shop,7844,0,,259560,0,,54.66002200000000,9592,859,jane.kett@hartlepool.gov.uk,Hartlepool,http://www.hartlepool.gov.uk,-1.18763900000000,TS25 1BS,2015-01-22,fhrs_5_en-GB,5,,FHRS,0
