,addressline1,addressline2,addressline3,addressline4,businessname,businesstype,businesstypeid,confidenceinmanagement,extractdate,fhrsid,hygiene,itemcount,latitude,localauthoritybusinessid,localauthoritycode,localauthorityemailaddress,localauthorityname,localauthoritywebsite,longitude,postcode,ratingdate,ratingkey,ratingvalue,returncode,schemetype,structural
254397,,909 Yeovil Road,,Slough,24 Hour Ice,Manufacturers/packers,7839,,,511991,,,51.52398700000000,53224,885,foodandsafety@slough.gov.uk,Slough,http://www.slough.gov.uk,-0.64063500000000,SL1 4JA,2010-03-11,fhrs_exempt_en-GB,Exempt,,FHRS,
254398,,13 Baylis Parade,,Slough,7 Days Food & Wine,Retailers - other,4613,10,,512254,10,,51.51988400000000,97531,885,foodandsafety@slough.gov.uk,Slough,http://www.slough.gov.uk,-0.59992400000000,SL1 3LF,2014-09-01,fhrs_3_en-GB,3,,FHRS,5
254399,,4 Woodland Avenue,,Slough,8 Til Late,Retailers - other,4613,20,,556195,15,,51.51721100000000,97764,885,foodandsafety@slough.gov.uk,Slough,http://www.slough.gov.uk,-0.60725500000000,SL1 3BU,2014-07-24,fhrs_1_en-GB,1,,FHRS,15
254400,,210-216 High Street,,Slough,99p Stores,Retailers - other,4613,10,,511809,10,,51.50774000000000,41337,885,foodandsafety@slough.gov.uk,Slough,http://www.slough.gov.uk,-0.58977700000000,SL1 1JS,2014-09-11,fhrs_3_en-GB,3,,FHRS,10
254401,,412 Bath Road,,Slough,A & J Newsagents,Retailers - other,4613,10,,511676,5,,51.52049800000000,3457,885,foodandsafety@slough.gov.uk,Slough,http://www.slough.gov.uk,-0.64220900000000,SL1 6JA,2014-10-01,fhrs_3_en-GB,3,,FHRS,10
254402,,150 Oatlands Drive,,Slough,A J Lodge,Hotel/bed & breakfast/guest house,7842,20,,511572,10,,51.52297900000000,25702,885,foodandsafety@slough.gov.uk,Slough,http://www.slough.gov.uk,-0.60909700000000,SL1 3HS,2013-02-15,fhrs_1_en-GB,1,,FHRS,5
254403,,463 Bath Road,,Chalvey,A1 Food and Wine,Retailers - other,4613,10,,511908,10,,51.51996900000000,49569,885,foodandsafety@slough.gov.uk,Slough,http://www.slough.gov.uk,-0.64781700000000,SL1 6AA,2010-10-29,fhrs_3_en-GB,3,,FHRS,5
254404,James Elliman Primary School,Elliman Avenue,,Slough,ABM Catering Limited at James Elliman Combined School,School/college/university,7845,0,,512217,0,,51.51924500000000,97475,885,foodandsafety@slough.gov.uk,Slough,http://www.slough.gov.uk,-0.59608100000000,SL2 5BA,2014-09-12,fhrs_5_en-GB,5,,FHRS,5
254405,Ice Arena,Montem Lane,,Slough,Absolute Ice,Other catering premises,7841,0,,511761,5,,51.51006600000000,35687,885,foodandsafety@slough.gov.uk,Slough,http://www.slough.gov.uk,-0.60681000000000,SL1 2QG,2013-04-29,fhrs_5_en-GB,5,,FHRS,0
254406,Salt Hill Park,Bath Road,,Slough,Absolutely Tenpin Bowling,Takeaway/sandwich shop,7844,5,,512055,5,,51.51236200000000,55657,885,foodandsafety@slough.gov.uk,Slough,http://www.slough.gov.uk,-0.60782100000000,SL1 3SR,2012-09-17,fhrs_5_en-GB,5,,FHRS,5
254407,The Harrow,290 High Street,,Langley,Accent Catering,Restaurant/Cafe/Canteen,1,10,,705658,10,,51.50400800000000,97821,885,foodandsafety@slough.gov.uk,Slough,http://www.slough.gov.uk,-0.54263300000000,SL3 8HF,2014-09-09,fhrs_3_en-GB,3,,FHRS,5
254408,Langley Hall,Langley Road,,Langley,Accent Catering at The Langley Academy,Restaurant/Cafe/Canteen,1,5,,512236,5,,51.50462200000000,97499,885,foodandsafety@slough.gov.uk,Slough,http://www.slough.gov.uk,-0.55303100000000,SL3 7EF,2011-01-05,fhrs_5_en-GB,5,,FHRS,0
254409,Cippenham Primary School,Elmshott Lane,,Slough,Accent Catering Services Ltd at Cippenham Primary School,School/college/university,7845,5,,512218,5,,51.51690700000000,97476,885,foodandsafety@slough.gov.uk,Slough,http://www.slough.gov.uk,-0.64580300000000,SL1 5RB,2012-10-18,fhrs_5_en-GB,5,,FHRS,0
254410,,,,,Advance Housing & Support Limited,Hospitals/Childcare/Caring Premises,5,10,,511537,5,,,17977,885,foodandsafety@slough.gov.uk,Slough,http://www.slough.gov.uk,,,2013-05-02,fhrs_4_en-GB,4,,FHRS,5
254411,Manor Park Hall,Villiers Road,,Slough,Age Concern,Other catering premises,7841,5,,511532,0,,51.52832400000000,17373,885,foodandsafety@slough.gov.uk,Slough,http://www.slough.gov.uk,-0.60641200000000,SL2 1NP,2014-07-23,fhrs_5_en-GB,5,,FHRS,5
254412,"Langley Pavillion, Memorial Hall",Langley Road,,Slough,Age Concern Slough & Berkshire East,Other catering premises,7841,5,,511935,5,,51.50360200000000,51386,885,foodandsafety@slough.gov.uk,Slough,http://www.slough.gov.uk,-0.54619000000000,SL3 8BS,2014-10-08,fhrs_5_en-GB,5,,FHRS,5
254413,,289 High Street,,Slough,Al Fanouse,Restaurant/Cafe/Canteen,1,10,,511869,10,,51.50765000000000,47457,885,foodandsafety@slough.gov.uk,Slough,http://www.slough.gov.uk,-0.58604800000000,SL1 1BD,2013-12-18,fhrs_3_en-GB,3,,FHRS,5
254414,Upton Lea Community Centre,Wexham Road,,Slough,Al Firdaus Day Nursery,Hospitals/Childcare/Caring Premises,5,10,,619114,10,,51.51628200000000,97861,885,foodandsafety@slough.gov.uk,Slough,http://www.slough.gov.uk,-0.57928100000000,SL2 5JW,2013-12-02,fhrs_3_en-GB,3,,FHRS,10
254415,,232 Trelawney Avenue,,Slough,Al Sadiq,Retailers - other,4613,10,,511972,10,,51.50216300000000,52540,885,foodandsafety@slough.gov.uk,Slough,http://www.slough.gov.uk,-0.55485200000000,SL3 7UD,2013-04-30,fhrs_3_en-GB,3,,FHRS,10
254416,,216-218 Farnham Road,,Slough,Alek's Kebabs,Mobile caterer,7846,10,,511665,10,,51.52321900000000,34130,885,foodandsafety@slough.gov.uk,Slough,http://www.slough.gov.uk,-0.61498600000000,SL1 4XE,2013-03-05,fhrs_3_en-GB,3,,FHRS,10
254417,Street Record,Poyle Road,,Poyle,Ali's Kebabs,Mobile caterer,7846,20,,656382,15,,,98174,885,foodandsafety@slough.gov.uk,Slough,http://www.slough.gov.uk,,,2014-04-14,fhrs_1_en-GB,1,,FHRS,10
254418,"Unit 3, Royal Shopping Centre",299 High Street,,Slough,Alla Amins,Retailers - other,4613,,,591255,,,51.50765000000000,97612,885,foodandsafety@slough.gov.uk,Slough,http://www.slough.gov.uk,-0.58604800000000,SL1 1BD,2014-08-14,fhrs_exempt_en-GB,Exempt,,FHRS,
254419,,17-25 Elmshott Lane,,Slough,Al-Maya Restaurant,Restaurant/Cafe/Canteen,1,10,,512165,5,,51.51846100000000,97287,885,foodandsafety@slough.gov.uk,Slough,http://www.slough.gov.uk,-0.64493600000000,SL1 5QS,2013-06-05,fhrs_4_en-GB,4,,FHRS,5
254420,,332 Bath Road,,Slough,Alminta 2 Limited,Retailers - supermarkets/hypermarkets,7840,10,,511963,10,,51.52049800000000,52341,885,foodandsafety@slough.gov.uk,Slough,http://www.slough.gov.uk,-0.64220900000000,SL1 6JA,2011-08-17,fhrs_4_en-GB,4,,FHRS,0
254421,,11 Albert Street,,Slough,AM 2 PM,Retailers - other,4613,10,,511788,5,,51.50476600000000,38234,885,foodandsafety@slough.gov.uk,Slough,http://www.slough.gov.uk,-0.59223200000000,SL1 2BE,2011-03-18,fhrs_4_en-GB,4,,FHRS,5
254422,,1 High Street,,Chalvey,Ambala Sweet Centre,Retailers - other,4613,20,,511691,5,,51.50610100000000,34759,885,foodandsafety@slough.gov.uk,Slough,http://www.slough.gov.uk,-0.60690200000000,SL1 2RU,2014-09-02,fhrs_1_en-GB,1,,FHRS,5
254423,,3-6 Queensmere Road,,Slough,Ann Summers,Retailers - other,4613,,,511795,,,51.50865600000000,38860,885,foodandsafety@slough.gov.uk,Slough,http://www.slough.gov.uk,-0.59044100000000,SL1 1DB,2010-06-16,fhrs_exempt_en-GB,Exempt,,FHRS,
254424,,34 Buckingham Avenue,,Slough,Ann's Pantry,Restaurant/Cafe/Canteen,1,5,,512178,5,,51.52247000000000,97346,885,foodandsafety@slough.gov.uk,Slough,http://www.slough.gov.uk,-0.62623700000000,SL1 4QA,2014-08-07,fhrs_5_en-GB,5,,FHRS,5
254425,,314 High Street,,Slough,Antonio's,Restaurant/Cafe/Canteen,1,5,,511611,5,,51.50719300000000,30502,885,foodandsafety@slough.gov.uk,Slough,http://www.slough.gov.uk,-0.58612000000000,SL1 1NB,2014-07-24,fhrs_4_en-GB,4,,FHRS,10
254426,,265-267 High Street,,Slough,Apna Dadyal Store,Retailers - other,4613,20,,511949,15,,51.50786100000000,51838,885,foodandsafety@slough.gov.uk,Slough,http://www.slough.gov.uk,-0.58787100000000,SL1 1BN,2013-09-20,fhrs_1_en-GB,1,,FHRS,15
254427,,2 Baylis Parade,,Slough,Apna Punjab Meat Market,Retailers - other,4613,10,,511731,10,,51.51988400000000,35045,885,foodandsafety@slough.gov.uk,Slough,http://www.slough.gov.uk,-0.59992400000000,SL1 3LF,2012-06-18,fhrs_3_en-GB,3,,FHRS,10
254428,,24 Huntercombe Lane North,,Slough,Applegarth Res Care Home,Hospitals/Childcare/Caring Premises,5,5,,511672,5,,51.52243000000000,34387,885,foodandsafety@slough.gov.uk,Slough,http://www.slough.gov.uk,-0.65931900000000,SL6 0LG,2014-08-26,fhrs_5_en-GB,5,,FHRS,5
254429,East Berkshire College,Station Road,,Langley,"Aramark Ltd at East Berkshire College Refectory ""The Hub""",Restaurant/Cafe/Canteen,1,5,,512208,5,,51.50565800000000,97463,885,foodandsafety@slough.gov.uk,Slough,http://www.slough.gov.uk,-0.54518800000000,SL3 8BY,2013-01-22,fhrs_5_en-GB,5,,FHRS,5
254430,Britwell Youth And Community Project,Wentworth Avenue,,Slough,Arc Pre-School,Hospitals/Childcare/Caring Premises,5,0,,705665,0,,51.53436300000000,98301,885,foodandsafety@slough.gov.uk,Slough,http://www.slough.gov.uk,-0.62975800000000,SL2 2DH,2014-09-11,fhrs_5_en-GB,5,,FHRS,0
254431,,19a Stoke Road,,Slough,Aromat Kuchni,Restaurant/Cafe/Canteen,1,5,,619113,5,,51.51396300000000,97523,885,foodandsafety@slough.gov.uk,Slough,http://www.slough.gov.uk,-0.59353400000000,SL2 5AH,2014-11-26,fhrs_4_en-GB,4,,FHRS,10
254432,Arora Park Hotel,Bath Road,,Colnbrook,Arora Park Hotel,Hotel/bed & breakfast/guest house,7842,5,,511803,0,,51.48055000000000,40014,885,foodandsafety@slough.gov.uk,Slough,http://www.slough.gov.uk,-0.51560100000000,SL3 0JA,2010-09-13,fhrs_5_en-GB,5,,FHRS,0
254433,,277 High Street,,Slough,As Asia,Restaurant/Cafe/Canteen,1,20,,511932,10,,51.50786100000000,51286,885,foodandsafety@slough.gov.uk,Slough,http://www.slough.gov.uk,-0.58787100000000,SL1 1BN,2014-04-10,fhrs_1_en-GB,1,,FHRS,15
254434,,99 Sussex Place,,Slough,Ascots House,Hotel/bed & breakfast/guest house,7842,5,,690837,5,,51.50617600000000,97718,885,foodandsafety@slough.gov.uk,Slough,http://www.slough.gov.uk,-0.57642500000000,SL1 1NN,2014-07-10,fhrs_5_en-GB,5,,FHRS,0
254435,Asda Stores Limited,Telford Drive,,Slough,Asda Retail Supermarket,Retailers - supermarkets/hypermarkets,7840,5,,511762,0,,51.50760200000000,35692,885,foodandsafety@slough.gov.uk,Slough,http://www.slough.gov.uk,-0.63044500000000,SL1 9LA,2013-08-22,fhrs_5_en-GB,5,,FHRS,5
254436,7 The Observatory,High Street,,Slough,Asian Food,Retailers - other,4613,10,,729683,10,,51.50870200000000,98675,885,foodandsafety@slough.gov.uk,Slough,http://www.slough.gov.uk,-0.58976200000000,SL1 1LE,2014-02-24,fhrs_3_en-GB,3,,FHRS,10
254437,,490-491 Ipswich Road,,Slough,Asquith Day Nursery (Slough),Hospitals/Childcare/Caring Premises,5,5,,511641,5,,51.52015700000000,33029,885,foodandsafety@slough.gov.uk,Slough,http://www.slough.gov.uk,-0.62836800000000,SL1 4EP,2014-03-03,fhrs_5_en-GB,5,,FHRS,5
254438,,225 Bath Road,,Slough,Avenance at Sara Lee,Restaurant/Cafe/Canteen,1,5,,512197,0,,51.51343700000000,97442,885,foodandsafety@slough.gov.uk,Slough,http://www.slough.gov.uk,-0.61812100000000,SL1 4AA,2011-11-03,fhrs_5_en-GB,5,,FHRS,5
254439,,6 Stoney Meade,,Slough,B & P Pharmacy,Retailers - other,4613,,,511522,,,51.51180600000000,16382,885,foodandsafety@slough.gov.uk,Slough,http://www.slough.gov.uk,-0.62322900000000,SL1 2YL,2010-03-30,fhrs_exempt_en-GB,Exempt,,FHRS,
254440,,,,,Baba Shaid Mandi Temple,Other catering premises,7841,20,,512056,10,,,55738,885,foodandsafety@slough.gov.uk,Slough,http://www.slough.gov.uk,,,2014-03-18,fhrs_1_en-GB,1,,FHRS,5
254441,,263 Farnham Road,,Slough,Balboa's,Takeaway/sandwich shop,7844,10,,512185,10,,51.52823300000000,97380,885,foodandsafety@slough.gov.uk,Slough,http://www.slough.gov.uk,-0.61698200000000,SL2 1HA,2014-08-01,fhrs_3_en-GB,3,,FHRS,10
254442,,,,,Bannys Foodline Direct,Distributors/Transporters,7,10,,512026,5,,,54632,885,foodandsafety@slough.gov.uk,Slough,http://www.slough.gov.uk,,,2010-04-15,fhrs_4_en-GB,4,,FHRS,5
254443,,Buckingham Avenue,,Slough,Bar La La,Restaurant/Cafe/Canteen,1,10,,619117,10,,,97976,885,foodandsafety@slough.gov.uk,Slough,http://www.slough.gov.uk,,,2013-11-22,fhrs_3_en-GB,3,,FHRS,10
254444,,163d Farnham Road,,Slough,Bar Oaza,Restaurant/Cafe/Canteen,1,5,,512051,5,,51.52482300000000,55622,885,foodandsafety@slough.gov.uk,Slough,http://www.slough.gov.uk,-0.61603300000000,SL1 4XP,2014-09-01,fhrs_4_en-GB,4,,FHRS,10
254445,,253-257 Farnham Road,,Slough,Barney Bee's Day Nursery Ltd.,Hospitals/Childcare/Caring Premises,5,10,,511823,10,,51.52823300000000,43219,885,foodandsafety@slough.gov.uk,Slough,http://www.slough.gov.uk,-0.61698200000000,SL2 1HA,2014-02-18,fhrs_3_en-GB,3,,FHRS,10
254446,,232 Bath Road,,Slough,Bath Road Snack Station,Retailers - other,4613,10,,512105,15,,51.51984500000000,9201,885,foodandsafety@slough.gov.uk,Slough,http://www.slough.gov.uk,-0.63167800000000,SL1 4DX,2012-12-17,fhrs_2_en-GB,2,,FHRS,15
254447,,470 London Road,,Slough,Baxter Storey @ Honda,Restaurant/Cafe/Canteen,1,0,,511776,0,,51.49049200000000,37531,885,foodandsafety@slough.gov.uk,Slough,http://www.slough.gov.uk,-0.54110500000000,SL3 8QY,2012-06-06,fhrs_5_en-GB,5,,FHRS,0
254448,,216 Bath Road,,Slough,Baxter Storey @ UCB,Restaurant/Cafe/Canteen,1,5,,547910,5,,51.51528800000000,97703,885,foodandsafety@slough.gov.uk,Slough,http://www.slough.gov.uk,-0.62031400000000,SL1 3WE,2013-05-07,fhrs_5_en-GB,5,,FHRS,5
254449,Honda Institute,Blackthorne Road,,Poyle,Baxter Storey at Honda Institute,Restaurant/Cafe/Canteen,1,0,,512200,0,,51.47371700000000,97448,885,foodandsafety@slough.gov.uk,Slough,http://www.slough.gov.uk,-0.51074000000000,SL3 0DA,2012-12-03,fhrs_5_en-GB,5,,FHRS,0
254450,,208 Bath Road,,Slough,Baxter Storey at UCB,Restaurant/Cafe/Canteen,1,5,,547907,5,,51.51349600000000,97613,885,foodandsafety@slough.gov.uk,Slough,http://www.slough.gov.uk,-0.61630400000000,SL1 3XE,2013-05-07,fhrs_5_en-GB,5,,FHRS,5
254451,Patriot Court,7 The Grove,,Slough,Baxter Storey Ltd at Amazon.co.uk Ltd,Restaurant/Cafe/Canteen,1,5,,512257,5,,51.50690200000000,97540,885,foodandsafety@slough.gov.uk,Slough,http://www.slough.gov.uk,-0.58814600000000,SL1 1QP,2013-01-24,fhrs_5_en-GB,5,,FHRS,5
254452,Technology House,11 Waterside Drive,,Slough,Baxter Storey Ltd at Cisco Tandberg,Restaurant/Cafe/Canteen,1,10,,512211,10,,51.50848600000000,97467,885,foodandsafety@slough.gov.uk,Slough,http://www.slough.gov.uk,-0.54553000000000,SL3 6EZ,2011-03-10,fhrs_3_en-GB,3,,FHRS,5
254453,Axis One,Hurricane Way,,Slough,Baxter Storey Ltd at Travelport,Restaurant/Cafe/Canteen,1,5,,512205,5,,51.49396200000000,97457,885,foodandsafety@slough.gov.uk,Slough,http://www.slough.gov.uk,-0.53530400000000,SL3 8US,2011-10-31,fhrs_5_en-GB,5,,FHRS,5
254454,,638 Ajax Avenue,,Slough,Baxterstorey at UCB,Restaurant/Cafe/Canteen,1,5,,547909,5,,51.51775500000000,97671,885,foodandsafety@slough.gov.uk,Slough,http://www.slough.gov.uk,-0.61908600000000,SL1 4BG,2013-05-07,fhrs_5_en-GB,5,,FHRS,5
254455,Conference Centre,Stoke Poges Lane,,Slough,Baylis House & Seasons Restaurant,Restaurant/Cafe/Canteen,1,5,,511910,10,,51.51843300000000,49762,885,foodandsafety@slough.gov.uk,Slough,http://www.slough.gov.uk,-0.60417700000000,SL1 3PB,2013-09-25,fhrs_3_en-GB,3,,FHRS,10
254456,,5A Baylis Parade,,Slough,"Baylis News, Food & Wine",Retailers - other,4613,20,,511635,15,,51.51988400000000,32415,885,foodandsafety@slough.gov.uk,Slough,http://www.slough.gov.uk,-0.59992400000000,SL1 3LF,2014-10-23,fhrs_1_en-GB,1,,FHRS,10
254457,,30 Stoke Poges Lane,,Slough,Belgrave Stores,Retailers - other,4613,5,,511529,5,,51.51680000000000,16428,885,foodandsafety@slough.gov.uk,Slough,http://www.slough.gov.uk,-0.59996100000000,SL1 3PG,2010-04-08,fhrs_5_en-GB,5,,FHRS,5
254458,,292a Farnham Road,,Slough,Bida,Restaurant/Cafe/Canteen,1,10,,512008,10,,51.52487600000000,53655,885,foodandsafety@slough.gov.uk,Slough,http://www.slough.gov.uk,-0.61516600000000,SL1 4XL,2014-07-29,fhrs_3_en-GB,3,,FHRS,10
254459,,29 Diamond Road,,Slough,Big Charles Afro Carribean,Retailers - other,4613,20,,705659,15,,51.50953500000000,98055,885,foodandsafety@slough.gov.uk,Slough,http://www.slough.gov.uk,-0.58127700000000,SL1 1RT,2014-09-17,fhrs_1_en-GB,1,,FHRS,5
254460,,30 Chalvey Road East,,Slough,Bismillah Tandoori & Grill Restaurant,Takeaway/sandwich shop,7844,10,,512034,0,,51.50614600000000,54782,885,foodandsafety@slough.gov.uk,Slough,http://www.slough.gov.uk,-0.60234800000000,SL1 2LU,2010-12-30,fhrs_4_en-GB,4,,FHRS,0
254461,,169 Farnham Road,,Slough,Blockbuster,Retailers - other,4613,,,511703,,,51.52482300000000,34867,885,foodandsafety@slough.gov.uk,Slough,http://www.slough.gov.uk,-0.61603300000000,SL1 4XP,2010-04-06,fhrs_exempt_en-GB,Exempt,,FHRS,
254462,,217 Bath Road,,Slough,Blue Apple Catering Ltd at Orange Business Services,Restaurant/Cafe/Canteen,1,5,,607396,5,,51.51374800000000,97760,885,foodandsafety@slough.gov.uk,Slough,http://www.slough.gov.uk,-0.61933700000000,SL1 4AA,2013-10-14,fhrs_5_en-GB,5,,FHRS,5
254463,,353 Buckingham Avenue,,Slough,Blue Apple Contract Catering Ltd at Anite Business Systems,Restaurant/Cafe/Canteen,1,5,,512201,5,,51.52169600000000,97449,885,foodandsafety@slough.gov.uk,Slough,http://www.slough.gov.uk,-0.62313200000000,SL1 4PF,2012-01-27,fhrs_5_en-GB,5,,FHRS,5
254464,,15 Diamond Road,,Slough,BML Afro Carribean Food,Retailers - other,4613,10,,511548,10,,51.50953500000000,21299,885,foodandsafety@slough.gov.uk,Slough,http://www.slough.gov.uk,-0.58127700000000,SL1 1RT,2013-12-13,fhrs_3_en-GB,3,,FHRS,5
254465,,799 Weston Road,,Slough,Booker Ltd.,Distributors/Transporters,7,5,,511645,0,,51.52549500000000,33129,885,foodandsafety@slough.gov.uk,Slough,http://www.slough.gov.uk,-0.63890300000000,SL1 4HR,2011-04-06,fhrs_4_en-GB,4,,FHRS,10
254466,Brands Hill Filling Station,London Road,,Slough,BP Brands Hill Connect,Retailers - other,4613,0,,511630,0,,51.48984600000000,32305,885,foodandsafety@slough.gov.uk,Slough,http://www.slough.gov.uk,-0.53690500000000,SL3 8QE,2012-04-23,fhrs_4_en-GB,4,,FHRS,10
254467,Langley Service Station,4 Parlaunt Road,,Langley,BP Connect,Retailers - other,4613,5,,511830,5,,51.49936200000000,45113,885,foodandsafety@slough.gov.uk,Slough,http://www.slough.gov.uk,-0.53930900000000,SL3 8BB,2011-11-24,fhrs_5_en-GB,5,,FHRS,5
254468,SF Connect,578-581 London Road,,Slough,BP Connect,Retailers - other,4613,0,,512100,5,,51.48826000000000,76342,885,foodandsafety@slough.gov.uk,Slough,http://www.slough.gov.uk,-0.53445000000000,SL3 8QF,2012-12-13,fhrs_5_en-GB,5,,FHRS,0
254469,Chequers Filling Station,Colnbrook By Pass,,Colnbrook,BP Oil UK Limited,Retailers - other,4613,0,,511530,5,,51.48471200000000,16498,885,foodandsafety@slough.gov.uk,Slough,http://www.slough.gov.uk,-0.51120300000000,SL3 0EH,2011-03-03,fhrs_4_en-GB,4,,FHRS,10
254470,,,,,Breakaway,Hospitals/Childcare/Caring Premises,5,5,,511790,0,,,38553,885,foodandsafety@slough.gov.uk,Slough,http://www.slough.gov.uk,,,2012-05-28,fhrs_5_en-GB,5,,FHRS,5
254471,Britwell Baptist Church,36 Long Furlong Drive,,Slough,Britwell Baptist Church,Other catering premises,7841,,,511722,,,51.53199500000000,34989,885,foodandsafety@slough.gov.uk,Slough,http://www.slough.gov.uk,-0.62486900000000,SL2 1QZ,,fhrs_exempt_en-GB,Exempt,,FHRS,
254472,Britwell Ex Servicemens Club,Wentworth Avenue,,Slough,Britwell Ex Servicemens Club,Pub/bar/nightclub,7843,10,,511570,10,,51.53601200000000,25590,885,foodandsafety@slough.gov.uk,Slough,http://www.slough.gov.uk,-0.63011200000000,SL2 2DG,2011-03-10,fhrs_3_en-GB,3,,FHRS,10
254473,Community Centre,Long Furlong Drive,,Slough,Britwell Parish Council Community Hall,Other catering premises,7841,10,,511538,10,,51.53236800000000,17989,885,foodandsafety@slough.gov.uk,Slough,http://www.slough.gov.uk,-0.63529600000000,SL2 2PH,2011-03-16,fhrs_3_en-GB,3,,FHRS,10
254474,,401 Bath Road,,Slough,Bruv's Pie & Mash Ltd,Restaurant/Cafe/Canteen,1,20,,705663,5,,51.51960000000000,98149,885,foodandsafety@slough.gov.uk,Slough,http://www.slough.gov.uk,-0.64468600000000,SL1 5QL,2014-09-29,fhrs_1_en-GB,1,,FHRS,10
254475,,218-220 High Street,,Slough,Buenisimo Take Away,Restaurant/Cafe/Canteen,1,20,,729670,15,,51.50793500000000,98336,885,foodandsafety@slough.gov.uk,Slough,http://www.slough.gov.uk,-0.59026100000000,SL1 1JS,2014-11-10,fhrs_0_en-GB,0,,FHRS,20
254476,,150-152 High Street,,Slough,Burger King,Restaurant/Cafe/Canteen,1,0,,511584,0,,51.50851700000000,2672,885,foodandsafety@slough.gov.uk,Slough,http://www.slough.gov.uk,-0.59234700000000,SL1 1JP,2012-02-20,fhrs_5_en-GB,5,,FHRS,0
254477,,164 Burnham Lane,,Slough,Burnham Fish & Chips,Takeaway/sandwich shop,7844,5,,511602,5,,51.52790100000000,2919,885,foodandsafety@slough.gov.uk,Slough,http://www.slough.gov.uk,-0.65020600000000,SL1 6LE,2014-09-11,fhrs_5_en-GB,5,,FHRS,5
254478,Lady Astor Court,Burlington Road,,Slough,Burnham House Care Centre - HC-One,Hospitals/Childcare/Caring Premises,5,5,,511930,5,,51.50937600000000,51085,885,foodandsafety@slough.gov.uk,Slough,http://www.slough.gov.uk,-0.60026000000000,SL1 2LD,2014-10-07,fhrs_5_en-GB,5,,FHRS,5
254479,,11 Baylis Parade,,Slough,Butchers @ Jaybee Superstore,Retailers - other,4613,10,,512071,5,,51.51988400000000,56454,885,foodandsafety@slough.gov.uk,Slough,http://www.slough.gov.uk,-0.59992400000000,SL1 3LF,2010-11-01,fhrs_4_en-GB,4,,FHRS,5
254480,,281 High Street,,Slough,Cabana (front of Marwa),Takeaway/sandwich shop,7844,10,,512172,10,,51.50765000000000,97321,885,foodandsafety@slough.gov.uk,Slough,http://www.slough.gov.uk,-0.58604800000000,SL1 1BD,2014-04-01,fhrs_2_en-GB,2,,FHRS,15
254481,,32 Buckingham Avenue,,Slough,Cafe Cafe,Restaurant/Cafe/Canteen,1,5,,511902,5,,51.52247000000000,49135,885,foodandsafety@slough.gov.uk,Slough,http://www.slough.gov.uk,-0.62623700000000,SL1 4QA,2014-08-07,fhrs_4_en-GB,4,,FHRS,10
254482,,115-135 Farnham Road,,Slough,Cafe Exotic @ Selco,Restaurant/Cafe/Canteen,1,10,,512135,10,,51.51968400000000,97013,885,foodandsafety@slough.gov.uk,Slough,http://www.slough.gov.uk,-0.61561200000000,SL1 4UN,2014-07-29,fhrs_3_en-GB,3,,FHRS,10
254483,Unit 2- Royal Shopping Centre,299 High Street,,Slough,Cafe Fadhi Wanaag,Restaurant/Cafe/Canteen,1,20,,512259,15,,51.50765000000000,97553,885,foodandsafety@slough.gov.uk,Slough,http://www.slough.gov.uk,-0.58604800000000,SL1 1BD,2014-06-03,fhrs_1_en-GB,1,,FHRS,10
254484,Arbour Vale School,Farnham Road,,Slough,Cafe Vibe at Arbour Vale School,Restaurant/Cafe/Canteen,1,10,,512266,5,,51.53486700000000,97592,885,foodandsafety@slough.gov.uk,Slough,http://www.slough.gov.uk,-0.61751600000000,SL2 3AE,2012-03-09,fhrs_4_en-GB,4,,FHRS,5
254485,,,,,Cake Bar,Other catering premises,7841,5,,690835,0,,,97676,885,foodandsafety@slough.gov.uk,Slough,http://www.slough.gov.uk,,,2014-06-30,fhrs_5_en-GB,5,,FHRS,0
254486,,245 Farnham Road,,Slough,Cake Box,Retailers - other,4613,5,,512120,5,,51.52735800000000,96920,885,foodandsafety@slough.gov.uk,Slough,http://www.slough.gov.uk,-0.61672000000000,SL2 1DE,2014-07-23,fhrs_4_en-GB,4,,FHRS,10
254487,"Sure Start Childrens Centre, Montem Primary School",Chalvey Grove,,Slough,Cambridge Education @ Chalvey Grove Children's Centre,Hospitals/Childcare/Caring Premises,5,5,,656374,5,,51.50586800000000,98090,885,foodandsafety@slough.gov.uk,Slough,http://www.slough.gov.uk,-0.61911400000000,SL1 2TE,2014-07-10,fhrs_5_en-GB,5,,FHRS,5
254488,"Sure Start Childrens Centre, James Elliman Primary School",Elliman Avenue,,Slough,Cambridge Education @ Elliman Avenue Children's Centre,Hospitals/Childcare/Caring Premises,5,5,,656375,0,,51.51907600000000,98091,885,foodandsafety@slough.gov.uk,Slough,http://www.slough.gov.uk,-0.59780100000000,SL2 5BD,2012-09-27,fhrs_5_en-GB,5,,FHRS,0
254489,"Sure Start Childrens Centre, Claycots School",Monksfield Way,,Slough,Cambridge Education @ Monksfield Way Children's Centre,Hospitals/Childcare/Caring Premises,5,0,,656380,0,,51.53351600000000,98096,885,foodandsafety@slough.gov.uk,Slough,http://www.slough.gov.uk,-0.62423200000000,SL2 1QX,2013-03-14,fhrs_5_en-GB,5,,FHRS,5
254490,Orchard Avenue Childrens Centre,Orchard Avenue,,Slough,Cambridge Education @ Orchard Avenue Children's Centre,Hospitals/Childcare/Caring Premises,5,5,,656376,0,,51.52676800000000,98092,885,foodandsafety@slough.gov.uk,Slough,http://www.slough.gov.uk,-0.65181100000000,SL1 6HE,2012-08-30,fhrs_5_en-GB,5,,FHRS,0
254491,"Childrens Centre, Penn Wood Primary School And Nursery",Penn Road,,Slough,Cambridge Education @ Penn Road Children's Centre,Hospitals/Childcare/Caring Premises,5,10,,656377,5,,51.53082200000000,98093,885,foodandsafety@slough.gov.uk,Slough,http://www.slough.gov.uk,-0.60780600000000,SL2 1PG,2014-12-01,fhrs_4_en-GB,4,,FHRS,5
254492,Sure Start Childrens Centre,Romsey Close,,Slough,Cambridge Education @ Romsey Close Children's Centre,Hospitals/Childcare/Caring Premises,5,5,,656371,0,,51.50223900000000,98087,885,foodandsafety@slough.gov.uk,Slough,http://www.slough.gov.uk,-0.54717000000000,SL3 8PE,2014-06-26,fhrs_5_en-GB,5,,FHRS,0
254493,"Sure Start Childrens Centre, Cippenham Nursery School",St Andrews Way,,Slough,Cambridge Education @ St Andrew's Way Children's Centre,Hospitals/Childcare/Caring Premises,5,5,,656378,5,,51.51715900000000,98094,885,foodandsafety@slough.gov.uk,Slough,http://www.slough.gov.uk,-0.64973100000000,SL1 5NL,2013-03-25,fhrs_5_en-GB,5,,FHRS,0
254494,Street Record,Vicarage Way,,Colnbrook,Cambridge Education @ Vicarage Way Children's Centre,Hospitals/Childcare/Caring Premises,5,0,,656372,0,,,98088,885,foodandsafety@slough.gov.uk,Slough,http://www.slough.gov.uk,,,2013-04-18,fhrs_5_en-GB,5,,FHRS,0
254495,Childrens Centre,Wexham Road,,Slough,Cambridge Education @ Wexham Road Children's Centre,Hospitals/Childcare/Caring Premises,5,0,,656373,0,,51.51628200000000,98089,885,foodandsafety@slough.gov.uk,Slough,http://www.slough.gov.uk,-0.57928100000000,SL2 5JW,2013-05-01,fhrs_5_en-GB,5,,FHRS,0
254496,"Sure Start Childrens Centre, St Marys Ce Primary School",Yew Tree Road,,Slough,Cambridge Education @ Yew Tree Road Children's Centre,Hospitals/Childcare/Caring Premises,5,10,,656379,10,,51.50458300000000,98095,885,foodandsafety@slough.gov.uk,Slough,http://www.slough.gov.uk,-0.58667600000000,SL1 2AR,2013-02-26,fhrs_3_en-GB,3,,FHRS,5
254497,Baylis Court School,Gloucester Avenue,,Slough,Canteen at Baylis Court Secondary School,School/college/university,7845,10,,512222,5,,51.52536800000000,97480,885,foodandsafety@slough.gov.uk,Slough,http://www.slough.gov.uk,-0.60811700000000,SL1 3AH,2012-02-01,fhrs_4_en-GB,4,,FHRS,5
254498,Castleview School,Woodstock Avenue,,Slough,Canteen at Castleview School,School/college/university,7845,10,,512241,10,,51.49811000000000,97505,885,foodandsafety@slough.gov.uk,Slough,http://www.slough.gov.uk,-0.56382600000000,SL3 7LJ,2011-10-12,fhrs_3_en-GB,3,,FHRS,5
254499,Chalvey Early Years Centre,Ladbrooke Road,,Slough,Canteen at Chalvey Early Years Centre,Restaurant/Cafe/Canteen,1,5,,512225,5,,51.50554300000000,97484,885,foodandsafety@slough.gov.uk,Slough,http://www.slough.gov.uk,-0.60988800000000,SL1 2SR,2011-03-08,fhrs_5_en-GB,5,,FHRS,0
254500,Foxborough Primary School,Common Road,,Slough,Canteen at Foxborough Primary School,School/college/university,7845,5,,512216,5,,51.49504900000000,97474,885,foodandsafety@slough.gov.uk,Slough,http://www.slough.gov.uk,-0.54095900000000,SL3 8TX,2012-03-14,fhrs_5_en-GB,5,,FHRS,5
254501,Herschel Grammar School,Northampton Avenue,,Slough,Canteen at Herschel Grammar School,School/college/university,7845,5,,512227,0,,51.51982100000000,97487,885,foodandsafety@slough.gov.uk,Slough,http://www.slough.gov.uk,-0.61129800000000,SL1 3BW,2012-11-15,fhrs_5_en-GB,5,,FHRS,5
254502,Khalsa Primary School,Wexham Road,,Slough,Canteen at Khalsa Primary School,School/college/university,7845,5,,512239,5,,51.52378800000000,97503,885,foodandsafety@slough.gov.uk,Slough,http://www.slough.gov.uk,-0.58283800000000,SL2 5QR,2013-06-17,fhrs_5_en-GB,5,,FHRS,0
254503,,St Marys Road,,Langley,Canteen at Langley Manor School,School/college/university,7845,5,,512235,0,,51.51060900000000,97498,885,foodandsafety@slough.gov.uk,Slough,http://www.slough.gov.uk,-0.55876400000000,SL3 6BZ,2011-02-16,fhrs_5_en-GB,5,,FHRS,0
254504,Lynch Hill Primary School,Garrard Road,,Slough,Canteen at Lynch Hill School Primary Academy,School/college/university,7845,10,,512221,10,,51.53466600000000,97479,885,foodandsafety@slough.gov.uk,Slough,http://www.slough.gov.uk,-0.63881700000000,SL2 2HX,2011-02-16,fhrs_3_en-GB,3,,FHRS,5
254505,Parlaunt Park Primary School,Kennett Road,,Slough,Canteen at Parlaunt Park Primary School,School/college/university,7845,5,,512224,0,,51.50341500000000,97483,885,foodandsafety@slough.gov.uk,Slough,http://www.slough.gov.uk,-0.53544800000000,SL3 8EQ,2012-11-21,fhrs_5_en-GB,5,,FHRS,5
254506,Penn Wood Primary School And Nursery,Penn Road,,Slough,Canteen at Penn Wood School,School/college/university,7845,5,,512230,5,,51.53120400000000,97492,885,foodandsafety@slough.gov.uk,Slough,http://www.slough.gov.uk,-0.60816900000000,SL2 1PH,2011-11-29,fhrs_5_en-GB,5,,FHRS,0
254507,Ryvers Primary School,Trelawney Avenue,,Slough,Canteen at Ryvers Primary School,School/college/university,7845,0,,512237,5,,51.50364700000000,97500,885,foodandsafety@slough.gov.uk,Slough,http://www.slough.gov.uk,-0.56147600000000,SL3 7TS,2013-07-02,fhrs_5_en-GB,5,,FHRS,5
254508,Slough And Eton Church Of England Business And Enterprise College,Ragstone Road,,Slough,Canteen at Slough & Eton CoE business & enterprise college,School/college/university,7845,10,,512232,5,,51.50492800000000,97494,885,foodandsafety@slough.gov.uk,Slough,http://www.slough.gov.uk,-0.60348000000000,SL1 2PU,2011-10-13,fhrs_3_en-GB,3,,FHRS,10
254509,St Bernards Catholic Grammar School,Langley Road,,Slough,Canteen at St Bernard's Catholic Grammar School,School/college/university,7845,10,,512214,5,,51.50612600000000,97470,885,foodandsafety@slough.gov.uk,Slough,http://www.slough.gov.uk,-0.57376100000000,SL3 7AF,2013-03-22,fhrs_4_en-GB,4,,FHRS,5
254510,St Bernards Preparatory School,Hawtrey Close,,Slough,Canteen at St Bernards Preparatory School,School/college/university,7845,10,,512223,5,,51.50773400000000,97481,885,foodandsafety@slough.gov.uk,Slough,http://www.slough.gov.uk,-0.57662100000000,SL1 1TB,2013-02-28,fhrs_4_en-GB,4,,FHRS,5
254511,Slough Grammar School,Lascelles Road,,Slough,Canteen at Upton Court Grammar School,School/college/university,7845,,,531079,,,51.50419000000000,97485,885,foodandsafety@slough.gov.uk,Slough,http://www.slough.gov.uk,-0.57872000000000,SL3 7PR,2014-03-10,fhrs_4_en-GB,4,,FHRS,
254512,Wexham County Secondary School,Norway Drive,,Slough,Canteen at Wexham Secondary School,School/college/university,7845,10,,512228,5,,51.52665200000000,97488,885,foodandsafety@slough.gov.uk,Slough,http://www.slough.gov.uk,-0.57647900000000,SL2 5QP,2011-11-01,fhrs_3_en-GB,3,,FHRS,10
254513,,116 Canterbury Avenue,,Slough,Caribbean Experience,Retailers - other,4613,10,,512043,10,,51.53004500000000,55447,885,foodandsafety@slough.gov.uk,Slough,http://www.slough.gov.uk,-0.61054000000000,SL2 1DZ,2010-09-16,fhrs_3_en-GB,3,,FHRS,5
254514,,63 Coleridge Crescent,,Poyle,Carp and Trout,Takeaway/sandwich shop,7844,10,,511980,10,,51.48200200000000,52751,885,foodandsafety@slough.gov.uk,Slough,http://www.slough.gov.uk,-0.51597100000000,SL3 0QD,2013-12-05,fhrs_3_en-GB,3,,FHRS,10
254515,,11 Harrison Way,,Slough,Castle Meats (Burnham) Ltd,Farmers/growers,7838,5,,511496,5,,51.51486200000000,149,885,foodandsafety@slough.gov.uk,Slough,http://www.slough.gov.uk,-0.65014400000000,SL1 5LG,2013-11-06,fhrs_5_en-GB,5,,FHRS,5
254516,,14 Chalvey Road East,,Slough,Catering 786 Ltd,Takeaway/sandwich shop,7844,5,,511687,5,,51.50614600000000,34747,885,foodandsafety@slough.gov.uk,Slough,http://www.slough.gov.uk,-0.60234800000000,SL1 2LU,2013-05-31,fhrs_5_en-GB,5,,FHRS,5
254517,,258 Bath Road,,Slough,Catermaster@Segro,Restaurant/Cafe/Canteen,1,5,,656370,10,,51.51984500000000,98051,885,foodandsafety@slough.gov.uk,Slough,http://www.slough.gov.uk,-0.63167800000000,SL1 4DX,2014-01-30,fhrs_4_en-GB,4,,FHRS,5
254518,Lakeside Industrial Estate,Lakeside Road,,Colnbrook,Catermasters @ DHL Supply Chain,Restaurant/Cafe/Canteen,1,0,,512021,0,,51.48809100000000,54293,885,foodandsafety@slough.gov.uk,Slough,http://www.slough.gov.uk,-0.50258000000000,SL3 0ED,2012-04-25,fhrs_5_en-GB,5,,FHRS,0
254519,,240 Bath Road,,Slough,Catermasters at Fiat,Restaurant/Cafe/Canteen,1,5,,512198,5,,51.51984500000000,97443,885,foodandsafety@slough.gov.uk,Slough,http://www.slough.gov.uk,-0.63167800000000,SL1 4DX,2012-01-12,fhrs_5_en-GB,5,,FHRS,5
254520,,190 Bath Road,,Slough,Catermasters at Ipsen,Restaurant/Cafe/Canteen,1,5,,512195,5,,51.51349600000000,97438,885,foodandsafety@slough.gov.uk,Slough,http://www.slough.gov.uk,-0.61630400000000,SL1 3XE,2012-01-04,fhrs_5_en-GB,5,,FHRS,5
254521,The Mere,Upton Park,,Slough,Catermasters Contract Catering Ltd at National Foundation for Educatio,Restaurant/Cafe/Canteen,1,5,,512210,5,,51.50536000000000,97466,885,foodandsafety@slough.gov.uk,Slough,http://www.slough.gov.uk,-0.59596000000000,SL1 2DD,2012-02-01,fhrs_5_en-GB,5,,FHRS,5
254522,Cedars Guest House,High Street,,Colnbrook,Cedars Guest House,Hotel/bed & breakfast/guest house,7842,10,,511693,5,,51.48381400000000,34766,885,foodandsafety@slough.gov.uk,Slough,http://www.slough.gov.uk,-0.52554800000000,SL3 0JZ,2011-03-31,fhrs_4_en-GB,4,,FHRS,0
254523,,,,,Celine Misier-Trouble,Other catering premises,7841,10,,512054,10,,,55656,885,foodandsafety@slough.gov.uk,Slough,http://www.slough.gov.uk,,,2010-09-23,fhrs_3_en-GB,3,,FHRS,5
254524,,24 Cippenham Lane,,Slough,Central Food Stores,Retailers - other,4613,20,,511953,10,,51.51910800000000,52019,885,foodandsafety@slough.gov.uk,Slough,http://www.slough.gov.uk,-0.63400600000000,SL1 5BS,2013-10-24,fhrs_1_en-GB,1,,FHRS,10
254525,,162 Langley Road,,Slough,CfBT Educational Trust Ltd at Langley Nursery School,School/college/university,7845,10,,512242,5,,51.50514200000000,97506,885,foodandsafety@slough.gov.uk,Slough,http://www.slough.gov.uk,-0.55873400000000,SL3 7TG,2012-11-01,fhrs_4_en-GB,4,,FHRS,5
254526,Buckingham House,361-366 Buckingham Avenue,,Slough,CH & Co Catering Ltd at John Crane UK Limited,Restaurant/Cafe/Canteen,1,0,,512203,0,,51.52395100000000,97451,885,foodandsafety@slough.gov.uk,Slough,http://www.slough.gov.uk,-0.63365900000000,SL1 4LU,2011-11-23,fhrs_5_en-GB,5,,FHRS,5
254527,,336 Farnham Road,,Slough,Chahal's,Other catering premises,7841,10,,512070,10,,51.52613800000000,56448,885,foodandsafety@slough.gov.uk,Slough,http://www.slough.gov.uk,-0.61548800000000,SL2 1BT,2014-03-27,fhrs_3_en-GB,3,,FHRS,10
254528,,31 Chalvey Road East,,Slough,Chalvey Food and Wine,Retailers - other,4613,10,,511966,10,,51.50641700000000,52393,885,foodandsafety@slough.gov.uk,Slough,http://www.slough.gov.uk,-0.60245500000000,SL1 2LN,2012-07-17,fhrs_3_en-GB,3,,FHRS,10
254529,7-8 Alexandra Plaza,33-45 Chalvey Road West,,Slough,Chalvey Supermarket,Retailers - other,4613,10,,511884,5,,51.50642700000000,480,885,foodandsafety@slough.gov.uk,Slough,http://www.slough.gov.uk,-0.60630200000000,SL1 2NJ,2013-12-04,fhrs_4_en-GB,4,,FHRS,5
254530,Youth And Community Centre,Darvills Lane,,Slough,Chalvey Youth & Community Centre,Other catering premises,7841,,,511637,,,51.50718000000000,33013,885,foodandsafety@slough.gov.uk,Slough,http://www.slough.gov.uk,-0.60687000000000,SL1 2PH,2006-03-09,fhrs_exempt_en-GB,Exempt,,FHRS,
254531,,179 Bedford Avenue,,Slough,Cherry Tree Nursery,Hospitals/Childcare/Caring Premises,5,5,,511753,10,,51.52079400000000,35322,885,foodandsafety@slough.gov.uk,Slough,http://www.slough.gov.uk,-0.62519200000000,SL1 4RA,2014-10-08,fhrs_3_en-GB,3,,FHRS,10
254532,,16 Park Street,,Slough,Chicago Chicken & Burgers,Takeaway/sandwich shop,7844,10,,511692,10,,51.50755800000000,34763,885,foodandsafety@slough.gov.uk,Slough,http://www.slough.gov.uk,-0.59109400000000,SL1 1PD,2014-09-25,fhrs_3_en-GB,3,,FHRS,5
254533,,269 High Street,,Slough,Chicken Delite,Takeaway/sandwich shop,7844,10,,511633,10,,51.50786100000000,32378,885,foodandsafety@slough.gov.uk,Slough,http://www.slough.gov.uk,-0.58787100000000,SL1 1BN,2014-11-28,fhrs_3_en-GB,3,,FHRS,10
254534,,238 Farnham Road,,Slough,Chicken Delite,Takeaway/sandwich shop,7844,0,,511624,5,,51.52321900000000,31813,885,foodandsafety@slough.gov.uk,Slough,http://www.slough.gov.uk,-0.61498600000000,SL1 4XE,2010-09-29,fhrs_5_en-GB,5,,FHRS,5
254535,,21 Stoke Road,,Slough,Chicken Ranch,Takeaway/sandwich shop,7844,10,,512113,5,,51.51396300000000,9577,885,foodandsafety@slough.gov.uk,Slough,http://www.slough.gov.uk,-0.59353400000000,SL2 5AH,2014-11-24,fhrs_3_en-GB,3,,FHRS,10
254536,76 Queensmere,High Street,,Slough,Chopstix,Restaurant/Cafe/Canteen,1,5,,512175,5,,51.50911300000000,97335,885,foodandsafety@slough.gov.uk,Slough,http://www.slough.gov.uk,-0.59176700000000,SL1 1DD,2012-10-03,fhrs_5_en-GB,5,,FHRS,5
254537,Kingsway United Reformed,Church Street,,Slough,Church Street Cafe,Other catering premises,7841,5,,511564,5,,51.50792300000000,25222,885,foodandsafety@slough.gov.uk,Slough,http://www.slough.gov.uk,-0.59304300000000,SL1 1SZ,2011-11-29,fhrs_5_en-GB,5,,FHRS,5
254538,,9 Harrison Way,,Slough,Cinnamon Spice,Takeaway/sandwich shop,7844,20,,690834,5,,51.51486200000000,97572,885,foodandsafety@slough.gov.uk,Slough,http://www.slough.gov.uk,-0.65014400000000,SL1 5LG,2014-05-20,fhrs_1_en-GB,1,,FHRS,5
254539,,11 Elmshott Lane,,Slough,Cippenham Baptist Playgroup,Hospitals/Childcare/Caring Premises,5,,,511848,,,51.51846100000000,45863,885,foodandsafety@slough.gov.uk,Slough,http://www.slough.gov.uk,-0.64493600000000,SL1 5QS,2013-01-17,fhrs_exempt_en-GB,Exempt,,FHRS,
254540,Cippenham Bowls Club,Station Road,,Slough,Cippenham Bowling Club,Pub/bar/nightclub,7843,5,,511642,5,,51.52115900000000,33032,885,foodandsafety@slough.gov.uk,Slough,http://www.slough.gov.uk,-0.64497100000000,SL1 6JJ,2014-09-11,fhrs_5_en-GB,5,,FHRS,0
254541,,104 Cippenham Lane,,Slough,Cippenham Food & Wine,Retailers - other,4613,10,,512090,5,,51.51722900000000,57091,885,foodandsafety@slough.gov.uk,Slough,http://www.slough.gov.uk,-0.63401900000000,SL1 5BN,2011-03-18,fhrs_4_en-GB,4,,FHRS,5
254542,,24 Queensmere Road,,Slough,Clinton Cards Plc,Retailers - other,4613,,,511699,,,51.50865600000000,3485,885,foodandsafety@slough.gov.uk,Slough,http://www.slough.gov.uk,-0.59044100000000,SL1 1DB,2009-07-09,fhrs_exempt_en-GB,Exempt,,FHRS,
254543,,36 High Street,,Colnbrook,Colnbrook Pharmacy,Retailers - other,4613,,,511576,,,51.48374600000000,25869,885,foodandsafety@slough.gov.uk,Slough,http://www.slough.gov.uk,-0.52372100000000,SL3 0LX,2008-12-01,fhrs_exempt_en-GB,Exempt,,FHRS,
254544,Seymour House,21-25 Seymour Road,,Slough,Committed Care Services Ltd,Hospitals/Childcare/Caring Premises,5,5,,511606,5,,51.50881400000000,29395,885,foodandsafety@slough.gov.uk,Slough,http://www.slough.gov.uk,-0.60970200000000,SL1 2NS,2011-09-27,fhrs_5_en-GB,5,,FHRS,5
254545,,215 Bath Road,,Slough,Compass Contract Services Ltd at Reckitt Benckiser,Restaurant/Cafe/Canteen,1,0,,512117,0,,51.51343700000000,96891,885,foodandsafety@slough.gov.uk,Slough,http://www.slough.gov.uk,-0.61812100000000,SL1 4AA,2012-03-01,fhrs_5_en-GB,5,,FHRS,5
254546,,235 Farnham Road,,Slough,Complete Party Services (Slough) Ltd.,Other catering premises,7841,0,,511779,0,,51.52735800000000,37673,885,foodandsafety@slough.gov.uk,Slough,http://www.slough.gov.uk,-0.61672000000000,SL2 1DE,2011-02-07,fhrs_5_en-GB,5,,FHRS,0
254547,,1 Ladbrooke Road,,Slough,Convenience store,Retailers - other,4613,10,,511829,10,,51.50554300000000,44761,885,foodandsafety@slough.gov.uk,Slough,http://www.slough.gov.uk,-0.60988800000000,SL1 2SR,2013-12-02,fhrs_2_en-GB,2,,FHRS,15
254548,,172-174 Burnham Lane,,Slough,Co-Op,Retailers - supermarkets/hypermarkets,7840,5,,511836,0,,51.52790100000000,45598,885,foodandsafety@slough.gov.uk,Slough,http://www.slough.gov.uk,-0.65020600000000,SL1 6LE,2011-03-07,fhrs_5_en-GB,5,,FHRS,0
254549,Copthorne Hotel,Cippenham Lane,,Slough,Copthorne Millenium Hotel (Slough),Hotel/bed & breakfast/guest house,7842,0,,511697,0,,51.51025200000000,34825,885,foodandsafety@slough.gov.uk,Slough,http://www.slough.gov.uk,-0.61569600000000,SL1 2YE,2014-09-12,fhrs_5_en-GB,5,,FHRS,5
254550,,83 Ledgers Road,,Slough,Costcutters,Retailers - other,4613,20,,512013,10,,51.50800100000000,54085,885,foodandsafety@slough.gov.uk,Slough,http://www.slough.gov.uk,-0.60406300000000,SL1 2RQ,2013-12-02,fhrs_1_en-GB,1,,FHRS,15
254551,,237 Farnham Road,,Slough,Costsavers Supermarket,Retailers - other,4613,10,,511811,5,,51.52735800000000,41382,885,foodandsafety@slough.gov.uk,Slough,http://www.slough.gov.uk,-0.61672000000000,SL2 1DE,2013-09-27,fhrs_4_en-GB,4,,FHRS,5
254552,Nash House,21 Datchet Road,,Slough,Crackerjacks Day Nursery,Other catering premises,7841,5,,512191,5,,,97428,885,foodandsafety@slough.gov.uk,Slough,http://www.slough.gov.uk,,SL3 7LL,2014-07-07,fhrs_5_en-GB,5,,FHRS,5
254553,Queensmere,High Street,,Slough,Crazy Corn,Takeaway/sandwich shop,7844,10,,512155,10,,,97233,885,foodandsafety@slough.gov.uk,Slough,http://www.slough.gov.uk,,,2014-03-25,fhrs_2_en-GB,2,,FHRS,15
254554,,356-358 Farnham Road,,Slough,Creams,Restaurant/Cafe/Canteen,1,10,,656369,10,,51.52609300000000,98049,885,foodandsafety@slough.gov.uk,Slough,http://www.slough.gov.uk,-0.61546100000000,SL2 1BT,2014-02-04,fhrs_2_en-GB,2,,FHRS,15
254555,,,,,Crepes a la Francaise,Mobile caterer,7846,5,,714752,5,,,98455,885,foodandsafety@slough.gov.uk,Slough,http://www.slough.gov.uk,,,2014-11-04,fhrs_5_en-GB,5,,FHRS,0
254556,,239 Farnham Road,,Slough,Crystal Pharmacy,Retailers - other,4613,,,511613,,,51.52735800000000,3094,885,foodandsafety@slough.gov.uk,Slough,http://www.slough.gov.uk,-0.61672000000000,SL2 1DE,2009-08-12,fhrs_exempt_en-GB,Exempt,,FHRS,
254557,,,,,Cupcakez,Other catering premises,7841,20,,521197,10,,,97303,885,foodandsafety@slough.gov.uk,Slough,http://www.slough.gov.uk,,,2013-02-28,fhrs_1_en-GB,1,,FHRS,10
254558,,1a Meadfield Road,,Slough,Cuppateanos,Restaurant/Cafe/Canteen,1,10,,511943,5,,51.50410400000000,51781,885,foodandsafety@slough.gov.uk,Slough,http://www.slough.gov.uk,-0.54169300000000,SL3 8HL,2014-08-12,fhrs_4_en-GB,4,,FHRS,5
254559,The Golden Cross,Poyle Road,,Poyle,Custard Inns Ltd,Restaurant/Cafe/Canteen,1,10,,512126,10,,51.47120000000000,96930,885,foodandsafety@slough.gov.uk,Slough,http://www.slough.gov.uk,-0.51792000000000,SL3 0BN,2012-03-28,fhrs_3_en-GB,3,,FHRS,10
254560,,103 High Street,,Slough,Cyclon Food & Wine,Retailers - other,4613,10,,680778,5,,51.50947200000000,98025,885,foodandsafety@slough.gov.uk,Slough,http://www.slough.gov.uk,-0.59475300000000,SL1 1DH,2014-06-24,fhrs_4_en-GB,4,,FHRS,5
254561,Langley Hall Primary Academy,Langley Road,,Langley,Cygnet Catering at Langley Hall Primary Academy,School/college/university,7845,5,,512112,5,,51.50462200000000,93268,885,foodandsafety@slough.gov.uk,Slough,http://www.slough.gov.uk,-0.55303100000000,SL3 7EF,2012-01-09,fhrs_5_en-GB,5,,FHRS,5
254562,Unit 25 Queensmere,High Street,,Slough,D Food Factory,Restaurant/Cafe/Canteen,1,10,,531081,5,,51.50865600000000,97552,885,foodandsafety@slough.gov.uk,Slough,http://www.slough.gov.uk,-0.59044100000000,SL1 1DB,2013-04-22,fhrs_4_en-GB,4,,FHRS,5
254563,,415 Bath Road,,Chalvey,Day 'n' Nite,Retailers - other,4613,10,,511491,5,,51.51960000000000,1372,885,foodandsafety@slough.gov.uk,Slough,http://www.slough.gov.uk,-0.64468600000000,SL1 5QL,2011-10-26,fhrs_3_en-GB,3,,FHRS,10
254564,Centre For The Deaf,Windmill Road,,Slough,Deaf Centre,Other catering premises,7841,10,,511644,10,,51.51291800000000,33061,885,foodandsafety@slough.gov.uk,Slough,http://www.slough.gov.uk,-0.60923100000000,SL1 3SU,2013-10-16,fhrs_3_en-GB,3,,FHRS,5
254565,Tesco Stores Limited,Wellington Street,,Slough,Decks @ Tesco,Restaurant/Cafe/Canteen,1,0,,705670,0,,51.51074400000000,98444,885,foodandsafety@slough.gov.uk,Slough,http://www.slough.gov.uk,-0.59054900000000,SL1 1XW,2014-09-01,fhrs_5_en-GB,5,,FHRS,5
254566,,16 Mirador Crescent,,Slough,Dee's Delicious Fish & Chips,Takeaway/sandwich shop,7844,10,,511912,10,,51.51770800000000,49926,885,foodandsafety@slough.gov.uk,Slough,http://www.slough.gov.uk,-0.57752100000000,SL2 5JX,2014-08-04,fhrs_3_en-GB,3,,FHRS,10
254567,Asda Stores Limited,Telford Drive,,Slough,Delicja (Polish Deli),Retailers - other,4613,5,,512255,10,,51.50760200000000,97537,885,foodandsafety@slough.gov.uk,Slough,http://www.slough.gov.uk,-0.63044500000000,SL1 9LA,2013-10-14,fhrs_4_en-GB,4,,FHRS,5
254568,Masonic Centre,Ragstone Road,,Slough,DG Caterers at Slough Masonic Club,Pub/bar/nightclub,7843,10,,511517,10,,51.50375700000000,16324,885,foodandsafety@slough.gov.uk,Slough,http://www.slough.gov.uk,-0.60184500000000,SL1 2PX,2011-03-30,fhrs_3_en-GB,3,,FHRS,5
254569,,20 Boadicea Close,,Slough,Dimensions,Other catering premises,7841,5,,512081,5,,51.51164000000000,57015,885,foodandsafety@slough.gov.uk,Slough,http://www.slough.gov.uk,-0.64604600000000,SL1 5UJ,2014-09-11,fhrs_5_en-GB,5,,FHRS,5
254570,,1 Harrow Market,,Slough,Dominos Pizza,Restaurant/Cafe/Canteen,1,0,,657774,0,,51.50491400000000,98058,885,foodandsafety@slough.gov.uk,Slough,http://www.slough.gov.uk,-0.54316600000000,SL3 8HJ,2014-04-29,fhrs_5_en-GB,5,,FHRS,0
254571,,115 Bath Road,,Chalvey,Domino's Pizza,Takeaway/sandwich shop,7844,5,,511506,5,,51.51240700000000,16260,885,foodandsafety@slough.gov.uk,Slough,http://www.slough.gov.uk,-0.61313700000000,SL1 3UW,2011-11-22,fhrs_5_en-GB,5,,FHRS,5
254572,,256 High Street,,Langley,Drinks Direct,Retailers - other,4613,10,,511815,10,,51.50260200000000,41619,885,foodandsafety@slough.gov.uk,Slough,http://www.slough.gov.uk,-0.54169800000000,SL3 8HA,2010-10-29,fhrs_3_en-GB,3,,FHRS,10
254573,"Units 6 To 7, Slough Interchange Industrial Estate",Whittenham Close,,Slough,Drinks Stop Cash & Carry Ltd,Distributors/Transporters,7,,,511889,,,51.51228900000000,48388,885,foodandsafety@slough.gov.uk,Slough,http://www.slough.gov.uk,-0.58819600000000,SL2 5EP,2010-12-01,fhrs_exempt_en-GB,Exempt,,FHRS,
254574,5 Kennedy Parade,Twist Way,,Slough,Drinks Stop Off Licence,Retailers - other,4613,0,,729677,0,,,98491,885,foodandsafety@slough.gov.uk,Slough,http://www.slough.gov.uk,,SL2 2BF,2015-01-14,fhrs_5_en-GB,5,,FHRS,0
254575,Falcon Sports And Community Centre,Stoke Poges Lane,,Slough,Early Steps Preschool,Hospitals/Childcare/Caring Premises,5,10,,619115,5,,51.51434200000000,97870,885,foodandsafety@slough.gov.uk,Slough,http://www.slough.gov.uk,-0.56981500000000,SL2 5XE,2013-12-02,fhrs_4_en-GB,4,,FHRS,0
254576,,,,,Edmar Cakes,Other catering premises,7841,10,,521201,5,,,97454,885,foodandsafety@slough.gov.uk,Slough,http://www.slough.gov.uk,,,2013-03-05,fhrs_3_en-GB,3,,FHRS,10
254577,,280 High Street,,Slough,Edmond Syla,Mobile caterer,7846,30,,542756,15,,51.50870200000000,97712,885,foodandsafety@slough.gov.uk,Slough,http://www.slough.gov.uk,-0.58976200000000,SL1 1LE,2014-09-08,fhrs_0_en-GB,0,,FHRS,15
254578,St Josephs Catholic High School,Shaggy Calf Lane,,Slough,Edwards and Ward at St Josephs RC High School,School/college/university,7845,5,,531080,5,,51.51933700000000,97497,885,foodandsafety@slough.gov.uk,Slough,http://www.slough.gov.uk,-0.58652200000000,SL2 5HW,2014-06-30,fhrs_5_en-GB,5,,FHRS,5
254579,Northampton Place,82 Northampton Avenue,,Slough,Elior UK,Restaurant/Cafe/Canteen,1,5,,511955,5,,51.51965100000000,52190,885,foodandsafety@slough.gov.uk,Slough,http://www.slough.gov.uk,-0.61287400000000,SL1 3FT,2014-07-21,fhrs_5_en-GB,5,,FHRS,0
254580,,45 Queensmere Road,,Slough,Empire Cinema,Restaurant/Cafe/Canteen,1,10,,511933,5,,51.50911300000000,51316,885,foodandsafety@slough.gov.uk,Slough,http://www.slough.gov.uk,-0.59176700000000,SL1 1DD,2014-06-18,fhrs_3_en-GB,3,,FHRS,10
254581,,,,,Ethnic Pot Caterers,Takeaway/sandwich shop,7844,10,,511931,5,,,51201,885,foodandsafety@slough.gov.uk,Slough,http://www.slough.gov.uk,,,2010-08-10,fhrs_4_en-GB,4,,FHRS,5
254582,Tesco Extra,Brunel Way,,Slough,Euphorium,Retailers - other,4613,0,,729681,5,,51.51074400000000,98580,885,foodandsafety@slough.gov.uk,Slough,http://www.slough.gov.uk,-0.59054900000000,SL1 1XW,2014-12-01,fhrs_5_en-GB,5,,FHRS,0
254583,,200 Bath Road,,Slough,Eurest Compass Group Ltd at Research In Motion Uk Ltd,Restaurant/Cafe/Canteen,1,0,,512196,5,,51.51349600000000,97441,885,foodandsafety@slough.gov.uk,Slough,http://www.slough.gov.uk,-0.61630400000000,SL1 3XE,2010-02-26,fhrs_5_en-GB,5,,FHRS,0
254584,St Martins Place,51 Bath Road,,Slough,Eurest Services - Compass Contract Services UK Ltd,Restaurant/Cafe/Canteen,1,5,,512159,5,,51.51113200000000,97254,885,foodandsafety@slough.gov.uk,Slough,http://www.slough.gov.uk,-0.60646100000000,SL1 3UF,2012-06-26,fhrs_5_en-GB,5,,FHRS,5
254585,Observatory House,25 Windsor Road,,Slough,Eurest Services at Fujitsu,Restaurant/Cafe/Canteen,1,0,,512213,0,,51.50779400000000,97469,885,foodandsafety@slough.gov.uk,Slough,http://www.slough.gov.uk,-0.59578400000000,SL1 2EY,2013-02-21,fhrs_5_en-GB,5,,FHRS,5
254586,Unit G,Heron Drive,,Slough,Eurest Services at Virgin Media,Other catering premises,7841,5,,512087,5,,51.49874900000000,57082,885,foodandsafety@slough.gov.uk,Slough,http://www.slough.gov.uk,-0.53484800000000,SL3 8XP,2013-06-12,fhrs_5_en-GB,5,,FHRS,5
254587,Ground Floor,307-309 High Street,,Slough,Euro Food & Wine,Retailers - other,4613,10,,511477,5,,51.50765000000000,11381,885,foodandsafety@slough.gov.uk,Slough,http://www.slough.gov.uk,-0.58604800000000,SL1 1BD,2010-10-29,fhrs_4_en-GB,4,,FHRS,5
254588,,262-264 Farnham Road,,Slough,Exotic Karahi,Retailers - other,4613,5,,512025,5,,51.52487600000000,54628,885,foodandsafety@slough.gov.uk,Slough,http://www.slough.gov.uk,-0.61516600000000,SL1 4XL,2012-03-13,fhrs_5_en-GB,5,,FHRS,5
254589,,282 Farnham Road,,Slough,Exotic Superstore Ltd,Retailers - other,4613,10,,512041,10,,51.52487600000000,55427,885,foodandsafety@slough.gov.uk,Slough,http://www.slough.gov.uk,-0.61516600000000,SL1 4XL,2014-12-10,fhrs_2_en-GB,2,,FHRS,15
254590,,41 Stoke Road,,Slough,Fair Price Food & Wine,Retailers - other,4613,10,,511483,10,,51.51396300000000,1325,885,foodandsafety@slough.gov.uk,Slough,http://www.slough.gov.uk,-0.59353400000000,SL2 5AH,2010-09-29,fhrs_3_en-GB,3,,FHRS,10
254591,,68 High Street,,Slough,Fairprice Food & Wine,Retailers - other,4613,10,,511901,5,,51.50972700000000,49134,885,foodandsafety@slough.gov.uk,Slough,http://www.slough.gov.uk,-0.59651700000000,SL1 1EL,2010-10-29,fhrs_4_en-GB,4,,FHRS,5
254592,,37 Buckingham Avenue,,Slough,Fairprice Supermarket,Retailers - other,4613,20,,511748,15,,51.52247000000000,35275,885,foodandsafety@slough.gov.uk,Slough,http://www.slough.gov.uk,-0.62623700000000,SL1 4QA,2014-10-08,fhrs_1_en-GB,1,,FHRS,10
254593,Unit 1,26 High Street,,Slough,Familijny Continental Food,Retailers - other,4613,10,,690846,10,,51.51017500000000,98357,885,foodandsafety@slough.gov.uk,Slough,http://www.slough.gov.uk,-0.59865100000000,SL1 1EQ,2014-06-26,fhrs_3_en-GB,3,,FHRS,5
254594,,145-147 Farnham Road,,Slough,Family Bargains,Retailers - other,4613,10,,619112,5,,51.52267600000000,55275,885,foodandsafety@slough.gov.uk,Slough,http://www.slough.gov.uk,-0.61621300000000,SL1 4XB,2013-11-29,fhrs_4_en-GB,4,,FHRS,5
254595,Faraday Ex Servicemans Club,Faraday Road,,Slough,Faraday Social Club,Pub/bar/nightclub,7843,10,,511518,5,,51.52791700000000,16331,885,foodandsafety@slough.gov.uk,Slough,http://www.slough.gov.uk,-0.62222400000000,SL2 1RP,2014-10-21,fhrs_3_en-GB,3,,FHRS,10
254596,,279 Farnham Road,,Slough,Farnham Kebabs,Takeaway/sandwich shop,7844,30,,511965,15,,51.52823300000000,52367,885,foodandsafety@slough.gov.uk,Slough,http://www.slough.gov.uk,-0.61698200000000,SL2 1HA,2014-03-24,fhrs_0_en-GB,0,,FHRS,10
254597,,48 Spackmans Way,,Slough,Farnham Kebabs - Storage Facility,Mobile caterer,7846,,,714742,,,51.50393400000000,45736,885,foodandsafety@slough.gov.uk,Slough,http://www.slough.gov.uk,-0.61064300000000,SL1 2SA,2014-08-26,fhrs_exempt_en-GB,Exempt,,FHRS,
254598,,240 Farnham Road,,Slough,Farnham Off Licence and Food,Retailers - other,4613,10,,511778,5,,51.52321900000000,37658,885,foodandsafety@slough.gov.uk,Slough,http://www.slough.gov.uk,-0.61498600000000,SL1 4XE,2010-10-29,fhrs_4_en-GB,4,,FHRS,5
254599,,220 Farnham Road,,Slough,Farnham Road Post Office,Retailers - other,4613,10,,511573,5,,51.52321900000000,25726,885,foodandsafety@slough.gov.uk,Slough,http://www.slough.gov.uk,-0.61498600000000,SL1 4XE,2010-07-02,fhrs_4_en-GB,4,,FHRS,5
254600,,1 Poyle Road,,Poyle,Fat Boys Caf,Restaurant/Cafe/Canteen,1,10,,705672,5,,51.47922600000000,98483,885,foodandsafety@slough.gov.uk,Slough,http://www.slough.gov.uk,-0.51404500000000,SL3 0EZ,2014-09-19,fhrs_4_en-GB,4,,FHRS,5
254601,,315 High Street,,Slough,Favorite Fried Chicken,Takeaway/sandwich shop,7844,5,,511718,5,,51.50765000000000,34961,885,foodandsafety@slough.gov.uk,Slough,http://www.slough.gov.uk,-0.58604800000000,SL1 1BD,2014-07-07,fhrs_5_en-GB,5,,FHRS,5
254602,,317 High Street,,Slough,Favourites Dessert Lounge,Restaurant/Cafe/Canteen,1,5,,690845,5,,51.50765000000000,98335,885,foodandsafety@slough.gov.uk,Slough,http://www.slough.gov.uk,-0.58604800000000,SL1 1BD,2014-07-07,fhrs_5_en-GB,5,,FHRS,5
254603,,842 Yeovil Road,,Slough,Fiat University,Restaurant/Cafe/Canteen,1,10,,512161,5,,51.52682200000000,97269,885,foodandsafety@slough.gov.uk,Slough,http://www.slough.gov.uk,-0.63929600000000,SL1 4JG,2012-06-25,fhrs_4_en-GB,4,,FHRS,5
254604,Wexham Park Hospital,Wexham Street,,Slough,First Steps Day Nursery,Hospitals/Childcare/Caring Premises,5,5,,511851,0,,51.53314600000000,45900,885,foodandsafety@slough.gov.uk,Slough,http://www.slough.gov.uk,-0.57513700000000,SL2 4HL,2011-01-28,fhrs_5_en-GB,5,,FHRS,0
254605,,116 London Road,,Slough,Fish Chef,Takeaway/sandwich shop,7844,5,,511497,5,,51.49954500000000,15411,885,foodandsafety@slough.gov.uk,Slough,http://www.slough.gov.uk,-0.56285800000000,SL3 7HS,2012-01-24,fhrs_5_en-GB,5,,FHRS,5
254606,,151 Burnham Lane,,Slough,Forget Me Not Residential Care,Other catering premises,7841,5,,511578,5,,51.52796600000000,25916,885,foodandsafety@slough.gov.uk,Slough,http://www.slough.gov.uk,-0.65115500000000,SL1 6LA,2013-08-27,fhrs_5_en-GB,5,,FHRS,5
254607,,259 Farnham Road,,Slough,Furnival Filling Station,Retailers - other,4613,,,512174,,,51.52823300000000,97329,885,foodandsafety@slough.gov.uk,Slough,http://www.slough.gov.uk,-0.61698200000000,SL2 1HA,2012-12-13,fhrs_exempt_en-GB,Exempt,,FHRS,
254608,,260 Trelawney Avenue,,Langley,Fusionz,Takeaway/sandwich shop,7844,5,,511599,5,,51.50216300000000,28851,885,foodandsafety@slough.gov.uk,Slough,http://www.slough.gov.uk,-0.55485200000000,SL3 7UD,2013-04-10,fhrs_5_en-GB,5,,FHRS,5
254609,Bingo Hall,3 Bath Road,,Slough,Gala Club,Other catering premises,7841,10,,511747,5,,51.51089900000000,35274,885,foodandsafety@slough.gov.uk,Slough,http://www.slough.gov.uk,-0.60203000000000,SL1 3UA,2014-11-18,fhrs_4_en-GB,4,,FHRS,0
254610,,31-33 Stoke Road,,Slough,Gaudio's Delicatessen,Retailers - other,4613,5,,511495,5,,51.51396300000000,1480,885,foodandsafety@slough.gov.uk,Slough,http://www.slough.gov.uk,-0.59353400000000,SL2 5AH,2011-11-22,fhrs_5_en-GB,5,,FHRS,5
254611,Jocks Cafe,Colnbrook By Pass,,Colnbrook,Gibtel Cafe,Restaurant/Cafe/Canteen,1,10,,511587,10,,51.48813200000000,2682,885,foodandsafety@slough.gov.uk,Slough,http://www.slough.gov.uk,-0.53219200000000,SL3 8QQ,2013-11-07,fhrs_3_en-GB,3,,FHRS,5
254612,,96 Knolton Way,,Slough,Gills,Retailers - other,4613,5,,511721,5,,51.52286100000000,34975,885,foodandsafety@slough.gov.uk,Slough,http://www.slough.gov.uk,-0.57456400000000,SL2 5TL,2014-10-02,fhrs_5_en-GB,5,,FHRS,5
254613,,74 Stoke Road,,Slough,Gills Cash & Carry,Retailers - other,4613,10,,511485,10,,51.51544700000000,1331,885,foodandsafety@slough.gov.uk,Slough,http://www.slough.gov.uk,-0.59131200000000,SL2 5AP,2012-06-29,fhrs_3_en-GB,3,,FHRS,10
254614,,20 Parlaunt Road,,Slough,Gill's Meat Market,Retailers - other,4613,10,,512073,5,,51.49936200000000,56537,885,foodandsafety@slough.gov.uk,Slough,http://www.slough.gov.uk,-0.53930900000000,SL3 8BB,2013-11-27,fhrs_3_en-GB,3,,FHRS,10
254615,,34 Stoke Poges Lane,,Slough,Gills Off Licence,Retailers - other,4613,10,,511821,10,,51.51680000000000,42824,885,foodandsafety@slough.gov.uk,Slough,http://www.slough.gov.uk,-0.59996100000000,SL1 3PG,2012-11-22,fhrs_3_en-GB,3,,FHRS,10
254616,,82 High Street,,Slough,Gino's Cafe,Restaurant/Cafe/Canteen,1,5,,511586,5,,51.50972700000000,2680,885,foodandsafety@slough.gov.uk,Slough,http://www.slough.gov.uk,-0.59651700000000,SL1 1EL,2014-08-08,fhrs_5_en-GB,5,,FHRS,5
254617,,136 Lower Cippenham Lane,,Slough,Giovani's,Restaurant/Cafe/Canteen,1,10,,512028,5,,51.51490300000000,54671,885,foodandsafety@slough.gov.uk,Slough,http://www.slough.gov.uk,-0.63890200000000,SL1 5EA,2012-02-15,fhrs_4_en-GB,4,,FHRS,5
254618,2 Queensmere,High Street,,Slough,GNC,Retailers - other,4613,5,,512181,5,,51.50865600000000,97354,885,foodandsafety@slough.gov.uk,Slough,http://www.slough.gov.uk,-0.59044100000000,SL1 1DB,2013-01-21,fhrs_5_en-GB,5,,FHRS,5
254619,,54 Park Street,,Slough,Godari Restaurant,Restaurant/Cafe/Canteen,1,5,,512096,5,,51.50691000000000,64289,885,foodandsafety@slough.gov.uk,Slough,http://www.slough.gov.uk,-0.59177700000000,SL1 1PS,2012-06-11,fhrs_5_en-GB,5,,FHRS,5
254620,,265 Farnham Road,,Slough,Golden City,Takeaway/sandwich shop,7844,5,,511597,5,,51.52823300000000,28282,885,foodandsafety@slough.gov.uk,Slough,http://www.slough.gov.uk,-0.61698200000000,SL2 1HA,2014-08-01,fhrs_4_en-GB,4,,FHRS,10
254621,Golden Cross Service Station,High Street,,Colnbrook,Golden Cross Service Station,Retailers - other,4613,10,,511478,5,,51.48381400000000,12865,885,foodandsafety@slough.gov.uk,Slough,http://www.slough.gov.uk,-0.52554800000000,SL3 0JZ,2012-06-07,fhrs_4_en-GB,4,,FHRS,5
254622,,268 Farnham Road,,Slough,Greggs,Retailers - other,4613,0,,512077,0,,51.52487600000000,569,885,foodandsafety@slough.gov.uk,Slough,http://www.slough.gov.uk,-0.61516600000000,SL1 4XL,2012-05-15,fhrs_5_en-GB,5,,FHRS,5
254623,,1 Mackenzie Street,,Slough,Greggs,Retailers - other,4613,5,,511685,5,,51.50936300000000,34739,885,foodandsafety@slough.gov.uk,Slough,http://www.slough.gov.uk,-0.59386300000000,SL1 1XQ,2014-08-06,fhrs_5_en-GB,5,,FHRS,5
254624,,171 Buckingham Avenue,,Slough,Greggs PLC,Retailers - other,4613,0,,511822,5,,51.52135800000000,43212,885,foodandsafety@slough.gov.uk,Slough,http://www.slough.gov.uk,-0.62572300000000,SL1 4RD,2012-04-24,fhrs_5_en-GB,5,,FHRS,5
254625,,223 High Street,,Slough,Greggs Plc,Retailers - other,4613,0,,511758,0,,51.50811400000000,35461,885,foodandsafety@slough.gov.uk,Slough,http://www.slough.gov.uk,-0.58947700000000,SL1 1BY,2010-01-27,fhrs_5_en-GB,5,,FHRS,0
254626,,413 Bath Road,,Chalvey,Greggs Plc.,Retailers - other,4613,5,,512098,0,,51.51960000000000,666,885,foodandsafety@slough.gov.uk,Slough,http://www.slough.gov.uk,-0.64468600000000,SL1 5QL,2011-02-12,fhrs_5_en-GB,5,,FHRS,5
254627,,169 Farnham Road,,Slough,Groszek,Retailers - other,4613,20,,690847,15,,51.52482300000000,98368,885,foodandsafety@slough.gov.uk,Slough,http://www.slough.gov.uk,-0.61603300000000,SL1 4XP,2014-07-16,fhrs_1_en-GB,1,,FHRS,15
254628,Chalvey Community Centre,The Green,,Slough,Groundwork South Trust,Restaurant/Cafe/Canteen,1,0,,656363,5,,51.50604300000000,97932,885,foodandsafety@slough.gov.uk,Slough,http://www.slough.gov.uk,-0.61033400000000,SL1 2SP,2014-11-19,fhrs_5_en-GB,5,,FHRS,0
254629,Sirigurusingh Sabha Sikh Temple,Sheehy Way,,Slough,Gurdwara Sri Guru Singh Sabha,Restaurant/Cafe/Canteen,1,10,,511660,10,,,34051,885,foodandsafety@slough.gov.uk,Slough,http://www.slough.gov.uk,,SL2 5AA,2010-10-04,fhrs_3_en-GB,3,,FHRS,10
254630,,6 Harrow Market,,Slough,H A McParland,Retailers - other,4613,,,511619,,,51.50491400000000,3106,885,foodandsafety@slough.gov.uk,Slough,http://www.slough.gov.uk,-0.54316600000000,SL3 8HJ,2009-07-09,fhrs_exempt_en-GB,Exempt,,FHRS,
254631,,226 Farnham Road,,Slough,H A McParland Chemist,Retailers - other,4613,,,511702,,,51.52321900000000,34863,885,foodandsafety@slough.gov.uk,Slough,http://www.slough.gov.uk,-0.61498600000000,SL1 4XE,2009-07-24,fhrs_exempt_en-GB,Exempt,,FHRS,
254632,,4 Woodland Avenue,,Slough,H&S Halal Meat,Retailers - other,4613,10,,569829,5,,51.51721100000000,97721,885,foodandsafety@slough.gov.uk,Slough,http://www.slough.gov.uk,-0.60725500000000,SL1 3BU,2013-06-11,fhrs_4_en-GB,4,,FHRS,5
254633,,49 Chalvey Road West,,Slough,H.F.C & Fastfood,Takeaway/sandwich shop,7844,10,,511940,10,,51.50642700000000,51724,885,foodandsafety@slough.gov.uk,Slough,http://www.slough.gov.uk,-0.60630200000000,SL1 2NJ,2013-07-18,fhrs_3_en-GB,3,,FHRS,10
254634,,306 Trelawney Avenue,,Langley,HA McParland Ltd,Retailers - other,4613,,,511621,,,51.50231200000000,3111,885,foodandsafety@slough.gov.uk,Slough,http://www.slough.gov.uk,-0.55604300000000,SL3 7UB,2008-03-06,fhrs_exempt_en-GB,Exempt,,FHRS,
254635,Asda Stores Limited,Telford Drive,,Slough,Haji Baba Ltd,Retailers - other,4613,10,,512085,5,,51.50760200000000,57053,885,foodandsafety@slough.gov.uk,Slough,http://www.slough.gov.uk,-0.63044500000000,SL1 9LA,2011-02-14,fhrs_4_en-GB,4,,FHRS,0
254636,,462 Bath Road,,Slough,Hank Marvin's,Mobile caterer,7846,5,,656365,5,,51.52066200000000,97968,885,foodandsafety@slough.gov.uk,Slough,http://www.slough.gov.uk,-0.64784000000000,SL1 6BB,2014-03-12,fhrs_4_en-GB,4,,FHRS,10
254637,,14 Anslow Place,,Slough,Happy Chef,Restaurant/Cafe/Canteen,1,10,,511710,10,,51.52621800000000,34900,885,foodandsafety@slough.gov.uk,Slough,http://www.slough.gov.uk,-0.65952500000000,SL1 6EA,2011-09-02,fhrs_3_en-GB,3,,FHRS,10
254638,Tesco Extra,Brunel Way,,Slough,Harris & Hoole,Restaurant/Cafe/Canteen,1,10,,705667,5,,51.51074400000000,98381,885,foodandsafety@slough.gov.uk,Slough,http://www.slough.gov.uk,-0.59054900000000,SL1 1XW,2014-09-30,fhrs_4_en-GB,4,,FHRS,5
254639,,250 Trelawney Avenue,,Slough,Harvest Moon,Takeaway/sandwich shop,7844,10,,512256,5,,51.50216300000000,97538,885,foodandsafety@slough.gov.uk,Slough,http://www.slough.gov.uk,-0.55485200000000,SL3 7UD,2012-11-29,fhrs_4_en-GB,4,,FHRS,5
254640,Montague Arms,374 London Road,,Slough,Harvester Langley,Restaurant/Cafe/Canteen,1,5,,511554,5,,51.49452600000000,2371,885,foodandsafety@slough.gov.uk,Slough,http://www.slough.gov.uk,-0.55026800000000,SL3 7HX,2013-02-27,fhrs_5_en-GB,5,,FHRS,5
254641,,21 Chalvey Road East,,Slough,Hasseb Halal Meat,Retailers - other,4613,10,,700614,10,,51.50641700000000,98050,885,foodandsafety@slough.gov.uk,Slough,http://www.slough.gov.uk,-0.60245500000000,SL1 2LN,2014-08-29,fhrs_3_en-GB,3,,FHRS,10
254642,,93 Stoke Poges Lane,,Slough,Haveli Restaurant,Restaurant/Cafe/Canteen,1,10,,511839,10,,51.52005400000000,45743,885,foodandsafety@slough.gov.uk,Slough,http://www.slough.gov.uk,-0.59909700000000,SL1 3NJ,2014-01-08,fhrs_3_en-GB,3,,FHRS,10
254643,,173 Farnham Road,,Slough,Head Chef,Restaurant/Cafe/Canteen,1,10,,511997,10,,51.52482300000000,53412,885,foodandsafety@slough.gov.uk,Slough,http://www.slough.gov.uk,-0.61603300000000,SL1 4XP,2013-11-08,fhrs_3_en-GB,3,,FHRS,5
254644,,290 Farnham Road,,Slough,Herbies Pizza,Takeaway/sandwich shop,7844,5,,511705,5,,51.52487600000000,34879,885,foodandsafety@slough.gov.uk,Slough,http://www.slough.gov.uk,-0.61516600000000,SL1 4XL,2013-06-24,fhrs_5_en-GB,5,,FHRS,5
254645,,49 Herschel Street,,Slough,Herschel Food & Wine,Retailers - other,4613,10,,511598,10,,51.50761500000000,28849,885,foodandsafety@slough.gov.uk,Slough,http://www.slough.gov.uk,-0.59204300000000,SL1 1PB,2012-11-02,fhrs_3_en-GB,3,,FHRS,10
254646,,18 High Street,,Slough,High Street Food & Wine,Retailers - other,4613,10,,705666,10,,51.51017500000000,98370,885,foodandsafety@slough.gov.uk,Slough,http://www.slough.gov.uk,-0.59865100000000,SL1 1EQ,2014-08-14,fhrs_3_en-GB,3,,FHRS,5
254647,Hilton Hotel,Poyle Road,,Poyle,Hilton London Heathrow Airport Terminal 5,Hotel/bed & breakfast/guest house,7842,0,,512132,5,,51.47701900000000,96964,885,foodandsafety@slough.gov.uk,Slough,http://www.slough.gov.uk,-0.51728500000000,SL3 0FF,2012-03-20,fhrs_5_en-GB,5,,FHRS,0
254648,Hindu Temple,Keel Drive,,Slough,Hindu Cultural Society,Other catering premises,7841,10,,511593,5,,,27953,885,foodandsafety@slough.gov.uk,Slough,http://www.slough.gov.uk,,,2014-03-25,fhrs_4_en-GB,4,,FHRS,5
254649,,570 London Road,,Slough,Holiday Inn Express - London Heathrow T5,Hotel/bed & breakfast/guest house,7842,5,,512115,5,,51.48826000000000,96889,885,foodandsafety@slough.gov.uk,Slough,http://www.slough.gov.uk,-0.53445000000000,SL3 8QF,2011-09-06,fhrs_5_en-GB,5,,FHRS,0
254650,New Station House,Mill Street,,Slough,Holiday Inn Express Slough,Hotel/bed & breakfast/guest house,7842,5,,511923,5,,51.51221300000000,50575,885,foodandsafety@slough.gov.uk,Slough,http://www.slough.gov.uk,-0.59011500000000,SL2 5DD,2011-12-13,fhrs_5_en-GB,5,,FHRS,5
254651,,1 Church Street,,Chalvey,Holiday Inn Slough/Windsor,Hotel/bed & breakfast/guest house,7842,5,,511487,5,,51.50718600000000,13381,885,foodandsafety@slough.gov.uk,Slough,http://www.slough.gov.uk,-0.60890100000000,SL1 2NL,2013-08-01,fhrs_5_en-GB,5,,FHRS,5
254652,Horsemoor Green Youth Club,Common Road,,Slough,Horsemoor Green Youth Club,Retailers - other,4613,,,511751,,,51.49758200000000,35312,885,foodandsafety@slough.gov.uk,Slough,http://www.slough.gov.uk,-0.54365900000000,SL3 8JU,2008-03-25,fhrs_exempt_en-GB,Exempt,,FHRS,
254653,,9 Minster Way,,Slough,Hyland Foodstore,Retailers - other,4613,5,,511727,5,,51.50686800000000,35021,885,foodandsafety@slough.gov.uk,Slough,http://www.slough.gov.uk,-0.55212400000000,SL3 7EY,2010-03-08,fhrs_5_en-GB,5,,FHRS,5
254654,,310 High Street,,Slough,I & H Food & Wine,Retailers - other,4613,10,,512125,10,,51.50719300000000,96929,885,foodandsafety@slough.gov.uk,Slough,http://www.slough.gov.uk,-0.58612000000000,SL1 1NB,2011-11-08,fhrs_3_en-GB,3,,FHRS,10
254655,Iceland Foods Public Limited C,Farnburn Avenue,,Slough,Iceland Frozen Foods Plc,Retailers - supermarkets/hypermarkets,7840,5,,511946,5,,51.52529800000000,518,885,foodandsafety@slough.gov.uk,Slough,http://www.slough.gov.uk,-0.61820900000000,SL1 4XT,2011-03-16,fhrs_4_en-GB,4,,FHRS,10
254656,,154 High Street,,Slough,Il Dolce,Restaurant/Cafe/Canteen,1,,,729676,,,51.50851700000000,98490,885,foodandsafety@slough.gov.uk,Slough,http://www.slough.gov.uk,-0.59234600000000,SL1 1JP,,fhrs_awaitinginspection_en-GB,AwaitingInspection,,FHRS,
254657,,105 High Street,,Slough,Imperium Bar,Pub/bar/nightclub,7843,10,,512170,10,,51.50947200000000,97317,885,foodandsafety@slough.gov.uk,Slough,http://www.slough.gov.uk,-0.59475300000000,SL1 1DH,2012-07-06,fhrs_3_en-GB,3,,FHRS,10
254658,,6 Chalvey Road West,,Slough,Imran Halal Meat & Grocery,Retailers - other,4613,10,,511888,15,,51.50669000000000,48361,885,foodandsafety@slough.gov.uk,Slough,http://www.slough.gov.uk,-0.60499700000000,SL1 2PN,2013-03-26,fhrs_2_en-GB,2,,FHRS,15
254659,,257 Wexham Road,,Slough,Imran Tandoori,Takeaway/sandwich shop,7844,10,,512058,10,,51.51757900000000,55879,885,foodandsafety@slough.gov.uk,Slough,http://www.slough.gov.uk,-0.57872200000000,SL2 5JT,2013-11-15,fhrs_3_en-GB,3,,FHRS,10
254660,Langley Grammar School,Reddington Drive,,Slough,Innovate at Langley Grammar School,School/college/university,7845,5,,512234,5,,51.49904100000000,97496,885,foodandsafety@slough.gov.uk,Slough,http://www.slough.gov.uk,-0.55257300000000,SL3 7QS,2011-03-01,fhrs_5_en-GB,5,,FHRS,5
254661,Beechwood School,Long Readings Lane,,Slough,ISS at Beechwood and Arbour Vale Schools,School/college/university,7845,0,,512226,0,,51.53528800000000,97486,885,foodandsafety@slough.gov.uk,Slough,http://www.slough.gov.uk,-0.62275100000000,SL2 1QE,2013-02-28,fhrs_5_en-GB,5,,FHRS,0
254662,,Bath Road,,Slough,ISS at Claycots School,Restaurant/Cafe/Canteen,1,5,,607394,5,,51.51086800000000,97511,885,foodandsafety@slough.gov.uk,Slough,http://www.slough.gov.uk,-0.60466800000000,SL1 3UQ,2013-10-23,fhrs_5_en-GB,5,,FHRS,5
254663,Claycots School,Monksfield Way,,Slough,ISS at Claycots School,School/college/university,7845,5,,512243,5,,51.53351600000000,97509,885,foodandsafety@slough.gov.uk,Slough,http://www.slough.gov.uk,-0.62423200000000,SL2 1QX,2010-11-03,fhrs_5_en-GB,5,,FHRS,5
254664,Colnbrook Ce Primary School,High Street,,Colnbrook,ISS at Colnbrook C of E Primary School,School/college/university,7845,5,,512244,5,,51.48381400000000,97512,885,foodandsafety@slough.gov.uk,Slough,http://www.slough.gov.uk,-0.52554800000000,SL3 0JZ,2014-10-09,fhrs_5_en-GB,5,,FHRS,0
254665,Godolphin Infant School,Warrington Avenue,,Slough,ISS at Godolphin Infant School,School/college/university,7845,5,,512245,5,,51.52385000000000,97513,885,foodandsafety@slough.gov.uk,Slough,http://www.slough.gov.uk,-0.61133400000000,SL1 3BQ,2011-11-22,fhrs_5_en-GB,5,,FHRS,5
254666,Godolphin Junior School,Oatlands Drive,,Slough,ISS at Godolphin Junior School,School/college/university,7845,5,,512246,5,,51.52297900000000,97514,885,foodandsafety@slough.gov.uk,Slough,http://www.slough.gov.uk,-0.60909700000000,SL1 3HS,2010-11-23,fhrs_5_en-GB,5,,FHRS,5
254667,Haybrook College,112 Burnham Lane,,Slough,ISS at Haybrook College (Millside & Springboard),School/college/university,7845,10,,512247,5,,51.52593000000000,97515,885,foodandsafety@slough.gov.uk,Slough,http://www.slough.gov.uk,-0.64693400000000,SL1 6LY,2011-03-31,fhrs_4_en-GB,4,,FHRS,5
254668,Iqra Islamic Primary School,Fernside,,Slough,ISS at Iqra Slough Islamic Primary School,School/college/university,7845,5,,512248,0,,51.51632600000000,97517,885,foodandsafety@slough.gov.uk,Slough,http://www.slough.gov.uk,-0.58147000000000,SL2 5FF,2013-12-09,fhrs_5_en-GB,5,,FHRS,0
254669,Littledown School,Stoke Road,,Slough,ISS at Littledown School,School/college/university,7845,10,,512249,5,,51.51543200000000,97518,885,foodandsafety@slough.gov.uk,Slough,http://www.slough.gov.uk,-0.59461300000000,SL1 3QW,2011-01-06,fhrs_4_en-GB,4,,FHRS,5
254670,Marish Primary School,Swabey Road,,Slough,ISS at Marish Primary School,School/college/university,7845,5,,512250,0,,51.50123000000000,97519,885,foodandsafety@slough.gov.uk,Slough,http://www.slough.gov.uk,-0.54486800000000,SL3 8NZ,2013-06-25,fhrs_5_en-GB,5,,FHRS,5
254671,Haybrook College,112 Burnham Lane,,Slough,ISS at Millside,School/college/university,7845,10,,512066,10,,51.52593000000000,56047,885,foodandsafety@slough.gov.uk,Slough,http://www.slough.gov.uk,-0.64693400000000,SL1 6LY,2010-11-04,fhrs_3_en-GB,3,,FHRS,10
254672,Montem Primary School,Chalvey Grove,,Slough,ISS at Montem Primary School,School/college/university,7845,5,,512215,5,,51.50586800000000,97472,885,foodandsafety@slough.gov.uk,Slough,http://www.slough.gov.uk,-0.61911400000000,SL1 2TE,2011-01-19,fhrs_5_en-GB,5,,FHRS,5
254673,Our Lady Of Peace Catholic Infant And Nursery Schools,Derwent Drive,,Slough,ISS at Our Lady of Peace Catholic Infant & Nursery School,School/college/university,7845,0,,512251,0,,51.52674600000000,97520,885,foodandsafety@slough.gov.uk,Slough,http://www.slough.gov.uk,-0.65537200000000,SL1 6HW,2013-03-07,fhrs_5_en-GB,5,,FHRS,0
254674,Our Lady Of Peace Catholic Junior School,Derwent Drive,,Slough,ISS at Our Lady of Peace R C Junior School,Restaurant/Cafe/Canteen,1,0,,607395,0,,51.52674600000000,97521,885,foodandsafety@slough.gov.uk,Slough,http://www.slough.gov.uk,-0.65537200000000,SL1 6HW,2013-03-07,fhrs_5_en-GB,5,,FHRS,0
254675,St Anthonys Catholic Primary School,Farnham Road,,Slough,ISS at St Anthony's Roman Catholic Primary School,School/college/university,7845,5,,512219,0,,51.53297400000000,97477,885,foodandsafety@slough.gov.uk,Slough,http://www.slough.gov.uk,-0.61711200000000,SL2 3AA,2013-12-16,fhrs_5_en-GB,5,,FHRS,5
254676,St Ethelberts Catholic Primary School,Wexham Road,,Slough,ISS at St Ethelbert's RC Primary School,School/college/university,7845,5,,512240,5,,51.52378800000000,97504,885,foodandsafety@slough.gov.uk,Slough,http://www.slough.gov.uk,-0.58283800000000,SL2 5QR,2010-12-09,fhrs_5_en-GB,5,,FHRS,5
254677,St Marys Ce Primary School,Yew Tree Road,,Slough,ISS at St Mary's C of E Primary School,School/college/university,7845,5,,512263,0,,51.50458300000000,97579,885,foodandsafety@slough.gov.uk,Slough,http://www.slough.gov.uk,-0.58667600000000,SL1 2AR,2011-03-31,fhrs_5_en-GB,5,,FHRS,0
254678,Western House Primary School,Richards Way,,Slough,ISS at Western House Primary School,School/college/university,7845,5,,512252,5,,51.51149300000000,97522,885,foodandsafety@slough.gov.uk,Slough,http://www.slough.gov.uk,-0.63955100000000,SL1 5TJ,2011-01-17,fhrs_5_en-GB,5,,FHRS,5
254679,Wexham Court Primary School,Church Lane,,Slough,ISS at Wexham Court School,School/college/university,7845,5,,512229,5,,51.52395800000000,97489,885,foodandsafety@slough.gov.uk,Slough,http://www.slough.gov.uk,-0.57313200000000,SL3 6LU,2013-06-25,fhrs_5_en-GB,5,,FHRS,5
254680,Willow Primary School,Fernside,,Slough,ISS at Willow Primary School,School/college/university,7845,5,,512220,5,,51.51632600000000,97478,885,foodandsafety@slough.gov.uk,Slough,http://www.slough.gov.uk,-0.58147000000000,SL2 5FF,2011-06-06,fhrs_5_en-GB,5,,FHRS,5
254681,,264 Bath Road,,Slough,ISS Food and Hospitality at O2,Restaurant/Cafe/Canteen,1,0,,512199,0,,51.51984500000000,97445,885,foodandsafety@slough.gov.uk,Slough,http://www.slough.gov.uk,-0.63167800000000,SL1 4DX,2012-04-23,fhrs_5_en-GB,5,,FHRS,0
254682,,354 Buckingham Avenue,,Slough,ISS Food and Hospitality at O2,Restaurant/Cafe/Canteen,1,5,,512202,5,,51.52169600000000,97450,885,foodandsafety@slough.gov.uk,Slough,http://www.slough.gov.uk,-0.62313200000000,SL1 4PF,2011-11-23,fhrs_5_en-GB,5,,FHRS,5
254683,,15 Harrow Market,,Slough,J Morgan Butchers,Retailers - other,4613,5,,511493,5,,51.50491400000000,143,885,foodandsafety@slough.gov.uk,Slough,http://www.slough.gov.uk,-0.54316600000000,SL3 8HJ,2014-11-18,fhrs_4_en-GB,4,,FHRS,10
254684,Upton Hospital,Albert Street,,Slough,Jack In The Box Day Nursery,Hospitals/Childcare/Caring Premises,5,20,,511659,10,,51.50536900000000,34022,885,foodandsafety@slough.gov.uk,Slough,http://www.slough.gov.uk,-0.59377000000000,SL1 2BJ,2014-05-14,fhrs_1_en-GB,1,,FHRS,5
254685,,228 Farnham Road,,Slough,Jasmine Superstore,Retailers - other,4613,,,512057,,,51.52321900000000,55754,885,foodandsafety@slough.gov.uk,Slough,http://www.slough.gov.uk,-0.61498600000000,SL1 4XE,2013-09-30,fhrs_exempt_en-GB,Exempt,,FHRS,
254686,,11 Baylis Parade,,Slough,Jay Bee Superstore,Retailers - other,4613,10,,512031,10,,51.51988400000000,54714,885,foodandsafety@slough.gov.uk,Slough,http://www.slough.gov.uk,-0.59992400000000,SL1 3LF,2010-11-01,fhrs_3_en-GB,3,,FHRS,5
254687,,66 High Street,,Slough,Jerry's Pizza,Takeaway/sandwich shop,7844,5,,512089,10,,51.50972700000000,57089,885,foodandsafety@slough.gov.uk,Slough,http://www.slough.gov.uk,-0.59651700000000,SL1 1EL,2014-03-27,fhrs_3_en-GB,3,,FHRS,10
254688,,8 Stoney Meade,,Slough,JK's Fish and Chips,Takeaway/sandwich shop,7844,10,,511976,10,,51.51180600000000,52611,885,foodandsafety@slough.gov.uk,Slough,http://www.slough.gov.uk,-0.62322900000000,SL1 2YL,2013-05-30,fhrs_3_en-GB,3,,FHRS,10
254689,,Upton Court Road,,Slough,Joes Snacks,Restaurant/Cafe/Canteen,1,5,,690843,5,,51.50033000000000,98113,885,foodandsafety@slough.gov.uk,Slough,http://www.slough.gov.uk,-0.57185300000000,SL3 7NA,2014-07-10,fhrs_5_en-GB,5,,FHRS,0
254690,,4 Stoney Meade,,Slough,Johal Premier Express,Retailers - other,4613,10,,511813,10,,51.51180600000000,41474,885,foodandsafety@slough.gov.uk,Slough,http://www.slough.gov.uk,-0.62322900000000,SL1 2YL,2011-03-18,fhrs_3_en-GB,3,,FHRS,10
254691,,16/18 Chalvey Road East,,SLOUGH,J'S Chemist,Retailers - other,4613,,,700610,,,51.50614600000000,25389,885,foodandsafety@slough.gov.uk,Slough,http://www.slough.gov.uk,-0.60234800000000,SL1 2LU,2014-08-15,fhrs_exempt_en-GB,Exempt,,FHRS,
254692,2 The Observatory,High Street,,Slough,Jumeirah Caf Ltd,Restaurant/Cafe/Canteen,1,5,,729679,10,,51.50870200000000,98520,885,foodandsafety@slough.gov.uk,Slough,http://www.slough.gov.uk,-0.58976200000000,SL1 1LE,2014-12-01,fhrs_3_en-GB,3,,FHRS,10
254693,,4 Baylis Parade,,Slough,K2 Kebab & Grill,Takeaway/sandwich shop,7844,20,,705668,15,,51.51988400000000,98404,885,foodandsafety@slough.gov.uk,Slough,http://www.slough.gov.uk,-0.59992400000000,SL1 3LF,2014-08-13,fhrs_1_en-GB,1,,FHRS,15
254694,,467 Bath Road,,Slough,Kai's Restaurant,Restaurant/Cafe/Canteen,1,5,,511588,5,,51.51996900000000,2690,885,foodandsafety@slough.gov.uk,Slough,http://www.slough.gov.uk,-0.64781700000000,SL1 6AA,2014-03-24,fhrs_5_en-GB,5,,FHRS,5
254695,,14 Woodland Avenue,,Slough,Kamal Enterprises,Retailers - other,4613,,,511739,,,51.51721100000000,35163,885,foodandsafety@slough.gov.uk,Slough,http://www.slough.gov.uk,-0.60725500000000,SL1 3BU,2005-01-27,fhrs_exempt_en-GB,Exempt,,FHRS,
254696,,22 Cippenham Lane,,Slough,Kang's fish & Chips,Takeaway/sandwich shop,7844,10,,607397,15,,51.51910800000000,97825,885,foodandsafety@slough.gov.uk,Slough,http://www.slough.gov.uk,-0.63400600000000,SL1 5BS,2014-10-10,fhrs_2_en-GB,2,,FHRS,10
254697,,296 Farnham Road,,Slough,Karahi Express,Takeaway/sandwich shop,7844,10,,511929,10,,51.52487600000000,50999,885,foodandsafety@slough.gov.uk,Slough,http://www.slough.gov.uk,-0.61516600000000,SL1 4XL,2014-08-07,fhrs_3_en-GB,3,,FHRS,10
254698,,276 Farnham Road,,Slough,Kashmir  Halal Butchers,Retailers - other,4613,10,,680781,5,,51.52487600000000,98309,885,foodandsafety@slough.gov.uk,Slough,http://www.slough.gov.uk,-0.61516600000000,SL1 4XL,2014-06-17,fhrs_2_en-GB,2,,FHRS,15
254699,Salt Hill Park,Bath Road,,Slough,Kashmiri Karahi,Restaurant/Cafe/Canteen,1,5,,511960,5,,51.51236200000000,52279,885,foodandsafety@slough.gov.uk,Slough,http://www.slough.gov.uk,-0.60782100000000,SL1 3SR,2014-08-11,fhrs_5_en-GB,5,,FHRS,5
254700,,57 Corfe Gardens,,Slough,Kathy's Childcare,Hospitals/Childcare/Caring Premises,5,,,705660,,,51.51571500000000,98084,885,foodandsafety@slough.gov.uk,Slough,http://www.slough.gov.uk,-0.63220500000000,SL1 5SX,2014-09-11,fhrs_exempt_en-GB,Exempt,,FHRS,
254701,,151 Oatlands Drive,,Slough,Kays Supermarket,Retailers - other,4613,10,,511480,10,,51.52244900000000,1309,885,foodandsafety@slough.gov.uk,Slough,http://www.slough.gov.uk,-0.60843600000000,SL1 3HN,2011-11-18,fhrs_3_en-GB,3,,FHRS,5
254702,Upton Hospital,Albert Street,,Slough,Kennet Cafe,Hospitals/Childcare/Caring Premises,5,20,,511539,10,,51.50536900000000,18024,885,foodandsafety@slough.gov.uk,Slough,http://www.slough.gov.uk,-0.59377000000000,SL1 2BJ,2014-05-14,fhrs_1_en-GB,1,,FHRS,10
254703,,50 Herschel Street,,Slough,Kenya Halal Butchers,Retailers - other,4613,10,,511764,10,,51.50761500000000,35924,885,foodandsafety@slough.gov.uk,Slough,http://www.slough.gov.uk,-0.59204300000000,SL1 1PB,2013-01-07,fhrs_3_en-GB,3,,FHRS,10
254704,,51 Herschel Street,,Slough,Kenya Store,Retailers - other,4613,20,,511840,10,,51.50798400000000,45778,885,foodandsafety@slough.gov.uk,Slough,http://www.slough.gov.uk,-0.59511600000000,SL1 1PG,2014-07-15,fhrs_1_en-GB,1,,FHRS,20
254705,,409 Bath Road,,Chalvey,KFC,Restaurant/Cafe/Canteen,1,5,,511565,0,,51.51960000000000,25230,885,foodandsafety@slough.gov.uk,Slough,http://www.slough.gov.uk,-0.64468600000000,SL1 5QL,2011-11-22,fhrs_5_en-GB,5,,FHRS,0
254706,,137 Farnham Road,,Slough,KFC,Restaurant/Cafe/Canteen,1,5,,512141,5,,,97140,885,foodandsafety@slough.gov.uk,Slough,http://www.slough.gov.uk,,SL1 4XD,2014-12-19,fhrs_5_en-GB,5,,FHRS,5
254707,75-77 Queensmere,High Street,,Slough,KFC,Restaurant/Cafe/Canteen,1,5,,511757,5,,51.50954400000000,35389,885,foodandsafety@slough.gov.uk,Slough,http://www.slough.gov.uk,-0.59250300000000,SL1 1DG,2014-04-01,fhrs_5_en-GB,5,,FHRS,5
254708,,9 Villiers Road,,Slough,Khatkar Dispencing Chemist,Retailers - other,4613,,,511617,,,51.52867600000000,3099,885,foodandsafety@slough.gov.uk,Slough,http://www.slough.gov.uk,-0.60651600000000,SL2 1NW,2008-12-01,fhrs_exempt_en-GB,Exempt,,FHRS,
254709,,286 High Street,,Langley,Kinara Karahi,Takeaway/sandwich shop,7844,10,,511996,10,,51.50400800000000,53274,885,foodandsafety@slough.gov.uk,Slough,http://www.slough.gov.uk,-0.54263300000000,SL3 8HF,2011-10-24,fhrs_3_en-GB,3,,FHRS,10
254710,The Moon And Spoon,86 High Street,,Slough,King Kebabs,Mobile caterer,7846,10,,511674,10,,51.50972700000000,34471,885,foodandsafety@slough.gov.uk,Slough,http://www.slough.gov.uk,-0.59651700000000,SL1 1EL,2014-09-29,fhrs_3_en-GB,3,,FHRS,5
254711,,,,,King of Churros,Mobile caterer,7846,5,,700613,5,,,98031,885,foodandsafety@slough.gov.uk,Slough,http://www.slough.gov.uk,,,2014-09-08,fhrs_5_en-GB,5,,FHRS,5
254712,,149 Lower Cippenham Lane,,Slough,Kings Head Ph,Pub/bar/nightclub,7843,5,,511734,5,,51.51439900000000,35078,885,foodandsafety@slough.gov.uk,Slough,http://www.slough.gov.uk,-0.63971000000000,SL1 5DS,2013-07-08,fhrs_5_en-GB,5,,FHRS,5
254713,,,,,Kiran's Kup Kakes,Other catering premises,7841,5,,512047,5,,,55526,885,foodandsafety@slough.gov.uk,Slough,http://www.slough.gov.uk,,,2010-09-28,fhrs_5_en-GB,5,,FHRS,5
254714,,881 Plymouth Road,,Slough,Kitchen Craft,School/college/university,7845,10,,556194,5,,51.52547200000000,97606,885,foodandsafety@slough.gov.uk,Slough,http://www.slough.gov.uk,-0.64154200000000,SL1 4LP,2013-05-16,fhrs_4_en-GB,4,,FHRS,5
254715,Plot 1,1-7 High Street,,Slough,Kittiwake Shop,Retailers - other,4613,10,,512258,15,,51.51067300000000,97550,885,foodandsafety@slough.gov.uk,Slough,http://www.slough.gov.uk,-0.59889500000000,SL1 1DY,2013-01-30,fhrs_2_en-GB,2,,FHRS,5
254716,,216-218 Farnham Road,,Slough,Kopernik,Retailers - other,4613,20,,511904,20,,51.52321900000000,49245,885,foodandsafety@slough.gov.uk,Slough,http://www.slough.gov.uk,-0.61498600000000,SL1 4XE,2014-08-20,fhrs_0_en-GB,0,,FHRS,20
254717,Tesco Stores Limited,Wellington Street,,Slough,Krispy Kreme,Manufacturers/packers,7839,0,,511877,0,,51.51074400000000,47742,885,foodandsafety@slough.gov.uk,Slough,http://www.slough.gov.uk,-0.59054900000000,SL1 1XW,2013-02-06,fhrs_5_en-GB,5,,FHRS,5
254718,,53 Chalvey Road West,,Slough,K's Kebabs,Takeaway/sandwich shop,7844,10,,511671,10,,51.50642700000000,34269,885,foodandsafety@slough.gov.uk,Slough,http://www.slough.gov.uk,-0.60630200000000,SL1 2NJ,2013-07-18,fhrs_3_en-GB,3,,FHRS,10
254719,,268 Bath Road,,Slough,Kudos Cafe at Regus,Restaurant/Cafe/Canteen,1,5,,511789,5,,51.51984500000000,38280,885,foodandsafety@slough.gov.uk,Slough,http://www.slough.gov.uk,-0.63167800000000,SL1 4DX,2011-10-26,fhrs_5_en-GB,5,,FHRS,5
254720,,17 Elmshott Lane,,Slough,K'z Cippenham,Restaurant/Cafe/Canteen,1,10,,512123,10,,51.51846100000000,96925,885,foodandsafety@slough.gov.uk,Slough,http://www.slough.gov.uk,-0.64493600000000,SL1 5QS,2014-09-08,fhrs_3_en-GB,3,,FHRS,10
254721,Colnbrook Lodge,Old Bath Road,,Colnbrook,La Bettola,Restaurant/Cafe/Canteen,1,10,,511814,5,,51.47932200000000,41585,885,foodandsafety@slough.gov.uk,Slough,http://www.slough.gov.uk,-0.51165200000000,SL3 0NZ,2012-10-24,fhrs_4_en-GB,4,,FHRS,5
254722,Unit,25 Queensmere Road,,Slough,La Doloce,Restaurant/Cafe/Canteen,1,10,,680779,10,,51.50905900000000,98114,885,foodandsafety@slough.gov.uk,Slough,http://www.slough.gov.uk,-0.59104800000000,SL1 1DB,2014-06-10,fhrs_4_en-GB,4,,FHRS,0
254723,,27 Stoke Road,,Slough,La Kasbah,Retailers - other,4613,10,,511862,10,,51.51396300000000,46795,885,foodandsafety@slough.gov.uk,Slough,http://www.slough.gov.uk,-0.59353400000000,SL2 5AH,2014-08-27,fhrs_2_en-GB,2,,FHRS,15
254724,,258 High Street,,Langley,Langley Fish and Chips,Takeaway/sandwich shop,7844,5,,511639,5,,51.50260200000000,33026,885,foodandsafety@slough.gov.uk,Slough,http://www.slough.gov.uk,-0.54169800000000,SL3 8HA,2013-06-04,fhrs_5_en-GB,5,,FHRS,5
254725,,55 Cheviot Road,,Slough,Langley Food & Wine,Retailers - other,4613,10,,511527,5,,51.49369200000000,16413,885,foodandsafety@slough.gov.uk,Slough,http://www.slough.gov.uk,-0.54317800000000,SL3 8UE,2012-10-23,fhrs_3_en-GB,3,,FHRS,10
254726,,100 Trelawney Avenue,,Langley,Langley Free Church,Other catering premises,7841,10,,511752,5,,51.49907100000000,35314,885,foodandsafety@slough.gov.uk,Slough,http://www.slough.gov.uk,-0.54698300000000,SL3 8RW,2012-01-27,fhrs_4_en-GB,4,,FHRS,5
254727,,30 Rambler Lane,,Slough,Langley Haven Care Home Ltd,Restaurant/Cafe/Canteen,1,5,,512133,5,,51.50427300000000,96968,885,foodandsafety@slough.gov.uk,Slough,http://www.slough.gov.uk,-0.56858800000000,SL3 7RR,2014-09-19,fhrs_5_en-GB,5,,FHRS,5
254728,,44 Langley Road,,Langley,Langley Nursing Home,Other catering premises,7841,5,,511768,5,,51.50548100000000,36639,885,foodandsafety@slough.gov.uk,Slough,http://www.slough.gov.uk,-0.56807500000000,SL3 7AD,2012-11-01,fhrs_5_en-GB,5,,FHRS,5
254729,,20 High Street,,Langley,Langley Stores,Retailers - other,4613,10,,511756,10,,51.49545700000000,35360,885,foodandsafety@slough.gov.uk,Slough,http://www.slough.gov.uk,-0.54632000000000,SL3 8JP,2010-03-19,fhrs_3_en-GB,3,,FHRS,5
254730,,,,,Lavender Court,Hospitals/Childcare/Caring Premises,5,10,,511732,5,,,35062,885,foodandsafety@slough.gov.uk,Slough,http://www.slough.gov.uk,,,2011-12-01,fhrs_4_en-GB,4,,FHRS,5
254731,,268 Bath Road,,Slough,Le Cafe Aroma Ltd,Restaurant/Cafe/Canteen,1,10,,656368,5,,51.51984500000000,97993,885,foodandsafety@slough.gov.uk,Slough,http://www.slough.gov.uk,-0.63167800000000,SL1 4DX,2014-03-11,fhrs_4_en-GB,4,,FHRS,5
254732,Lea County Nursery School,Wexham Road,,Wexham,Lea Nursery School,School/college/university,7845,,,511886,,,51.51628200000000,48153,885,foodandsafety@slough.gov.uk,Slough,http://www.slough.gov.uk,-0.57928100000000,SL2 5JW,2007-10-15,fhrs_exempt_en-GB,Exempt,,FHRS,
254733,,316 Farnham Road,,Slough,Lebanese Grill,Restaurant/Cafe/Canteen,1,10,,511987,10,,51.52613800000000,52926,885,foodandsafety@slough.gov.uk,Slough,http://www.slough.gov.uk,-0.61548800000000,SL2 1BT,2014-07-23,fhrs_3_en-GB,3,,FHRS,10
254734,,360 Farnham Road,,Slough,Lidl,Retailers - supermarkets/hypermarkets,7840,0,,511627,0,,51.52613800000000,32235,885,foodandsafety@slough.gov.uk,Slough,http://www.slough.gov.uk,-0.61548800000000,SL2 1BT,2012-11-15,fhrs_5_en-GB,5,,FHRS,0
254735,,29 Chalvey Road East,,Slough,Liquor Store,Retailers - other,4613,10,,511523,5,,51.50641700000000,16384,885,foodandsafety@slough.gov.uk,Slough,http://www.slough.gov.uk,-0.60245500000000,SL1 2LN,2010-10-29,fhrs_4_en-GB,4,,FHRS,5
254736,,,,,Lisa's Kitchen,Other catering premises,7841,10,,700616,0,,,98406,885,foodandsafety@slough.gov.uk,Slough,http://www.slough.gov.uk,,,2014-08-28,fhrs_4_en-GB,4,,FHRS,0
254737,,540 London Road,,Slough,Little Boppers Day Nursery Ltd,Hospitals/Childcare/Caring Premises,5,10,,512131,10,,51.48940300000000,96958,885,foodandsafety@slough.gov.uk,Slough,http://www.slough.gov.uk,-0.53745200000000,SL3 8QR,2014-08-29,fhrs_3_en-GB,3,,FHRS,10
254738,,10 Upton Lea Parade,,Wexham Road,Lloyds Chemist Retail Ltd,Retailers - other,4613,,,511612,,,51.51722100000000,3090,885,foodandsafety@slough.gov.uk,Slough,http://www.slough.gov.uk,-0.57884800000000,SL2 5JU,,fhrs_exempt_en-GB,Exempt,,FHRS,
254739,,45 Osborne Street,,Slough,Lloyds Pharmacy,Retailers - other,4613,,,511855,,,51.50617600000000,46135,885,foodandsafety@slough.gov.uk,Slough,http://www.slough.gov.uk,-0.59203000000000,SL1 1TT,2006-06-05,fhrs_exempt_en-GB,Exempt,,FHRS,
254740,,18 Parlaunt Road,,Langley,LLoyds Pharmacy,Retailers - other,4613,,,511618,,,51.49936200000000,3102,885,foodandsafety@slough.gov.uk,Slough,http://www.slough.gov.uk,-0.53930900000000,SL3 8BB,2009-03-17,fhrs_exempt_en-GB,Exempt,,FHRS,
254741,,417-419 Bath Road,,Slough,Lloyds Pharmacy,Retailers - other,4613,,,511622,,,51.51960000000000,3115,885,foodandsafety@slough.gov.uk,Slough,http://www.slough.gov.uk,-0.64468600000000,SL1 5QL,2006-03-08,fhrs_exempt_en-GB,Exempt,,FHRS,
254742,,51 Cheviot Road,,Slough,Lloyds Pharmacy,Retailers - other,4613,,,511745,,,51.49369200000000,35243,885,foodandsafety@slough.gov.uk,Slough,http://www.slough.gov.uk,-0.54317800000000,SL3 8UE,2008-11-24,fhrs_exempt_en-GB,Exempt,,FHRS,
254743,,129 Earls Lane,,Slough,Londis,Retailers - other,4613,5,,511842,5,,51.51250500000000,45825,885,foodandsafety@slough.gov.uk,Slough,http://www.slough.gov.uk,-0.63839700000000,SL1 5TD,2011-10-14,fhrs_4_en-GB,4,,FHRS,10
254744,,33 Willoughby Road,,Langley,Loon Tin,Takeaway/sandwich shop,7844,5,,511585,5,,51.50314900000000,2676,885,foodandsafety@slough.gov.uk,Slough,http://www.slough.gov.uk,-0.54009500000000,SL3 8JH,2010-07-28,fhrs_5_en-GB,5,,FHRS,5
254745,,98A Meadfield Road,,Langley,Lotus Kitchen,Takeaway/sandwich shop,7844,10,,511608,10,,51.50491800000000,2943,885,foodandsafety@slough.gov.uk,Slough,http://www.slough.gov.uk,-0.53993800000000,SL3 8HR,2014-09-23,fhrs_3_en-GB,3,,FHRS,10
254746,,17 Baylis Parade,,Slough,Lucky House,Restaurant/Cafe/Canteen,1,10,,511623,10,,51.51988400000000,31810,885,foodandsafety@slough.gov.uk,Slough,http://www.slough.gov.uk,-0.59992400000000,SL1 3LF,2012-08-08,fhrs_3_en-GB,3,,FHRS,10
254747,,,,,Lutfun Hossain,Hospitals/Childcare/Caring Premises,5,10,,705661,5,,,98085,885,foodandsafety@slough.gov.uk,Slough,http://www.slough.gov.uk,,,2014-09-19,fhrs_4_en-GB,4,,FHRS,0
254748,,,,,Luv at First Bite,Other catering premises,7841,10,,556192,5,,,97597,885,foodandsafety@slough.gov.uk,Slough,http://www.slough.gov.uk,,,2013-05-31,fhrs_4_en-GB,4,,FHRS,5
254749,The Lynch Pin,Long Furlong Drive,,Slough,Lynchpin,Pub/bar/nightclub,7843,10,,511594,10,,51.53243000000000,28086,885,foodandsafety@slough.gov.uk,Slough,http://www.slough.gov.uk,-0.63750000000000,SL2 2PJ,2011-11-18,fhrs_3_en-GB,3,,FHRS,5
254750,,118 Albert Street,,Slough,Lynton Stores,Retailers - other,4613,10,,511490,5,,51.50422000000000,1367,885,foodandsafety@slough.gov.uk,Slough,http://www.slough.gov.uk,-0.59089400000000,SL1 2AY,2013-07-18,fhrs_3_en-GB,3,,FHRS,10
254751,,8 Grasmere Parade,,Slough,Maharaja Foods Ltd,Other catering premises,7841,10,,511626,5,,51.51837100000000,32234,885,foodandsafety@slough.gov.uk,Slough,http://www.slough.gov.uk,-0.57876900000000,SL2 5HZ,2014-10-29,fhrs_3_en-GB,3,,FHRS,10
254752,2 Prudential Building,William Street,,Slough,Malinka,Retailers - other,4613,10,,511876,10,,51.50980800000000,47736,885,foodandsafety@slough.gov.uk,Slough,http://www.slough.gov.uk,-0.59500200000000,SL1 1XY,2014-06-24,fhrs_3_en-GB,3,,FHRS,5
254753,,6 Villiers Road,,Slough,Manor Food Stores,Retailers - other,4613,5,,511549,10,,51.52832400000000,23494,885,foodandsafety@slough.gov.uk,Slough,http://www.slough.gov.uk,-0.60641200000000,SL2 1NP,2010-10-29,fhrs_4_en-GB,4,,FHRS,5
254754,,4 Villiers Road,,Slough,Manor News & Post Office,Retailers - other,4613,10,,511677,10,,51.52832400000000,3461,885,foodandsafety@slough.gov.uk,Slough,http://www.slough.gov.uk,-0.60641200000000,SL2 1NP,2013-09-27,fhrs_3_en-GB,3,,FHRS,10
254755,,3 Villiers Road,,Slough,Manor Stores Off Licence,Retailers - other,4613,10,,511625,5,,51.52867600000000,32184,885,foodandsafety@slough.gov.uk,Slough,http://www.slough.gov.uk,-0.60651600000000,SL2 1NW,2010-10-29,fhrs_4_en-GB,4,,FHRS,5
254756,,147-153 High Street,,Slough,Marks & Spencer Plc,Retailers - supermarkets/hypermarkets,7840,0,,511488,0,,51.50916800000000,13435,885,foodandsafety@slough.gov.uk,Slough,http://www.slough.gov.uk,-0.59332100000000,SL1 1DN,2012-09-25,fhrs_5_en-GB,5,,FHRS,0
254757,,293-299 Bath Road,,Chalvey,Marks & Spencer Plc,Retailers - supermarkets/hypermarkets,7840,0,,511861,0,,51.52032900000000,46704,885,foodandsafety@slough.gov.uk,Slough,http://www.slough.gov.uk,-0.63770300000000,SL1 5PR,2012-09-04,fhrs_5_en-GB,5,,FHRS,0
254758,,281 High Street,,Slough,Marwa Halal Centre,Retailers - other,4613,20,,729678,10,,51.50765000000000,98500,885,foodandsafety@slough.gov.uk,Slough,http://www.slough.gov.uk,-0.58604800000000,SL1 1BD,2014-11-27,fhrs_1_en-GB,1,,FHRS,10
254759,,248 Trelawney Avenue,,Langley,Master Butchers Ltd.,Retailers - other,4613,20,,511494,15,,51.50216300000000,144,885,foodandsafety@slough.gov.uk,Slough,http://www.slough.gov.uk,-0.55485200000000,SL3 7UD,2014-07-02,fhrs_1_en-GB,1,,FHRS,10
254760,,89 Buckingham Avenue,,Slough,McDonalds Restaurants Ltd,Restaurant/Cafe/Canteen,1,5,,511787,5,,51.52113700000000,38195,885,foodandsafety@slough.gov.uk,Slough,http://www.slough.gov.uk,-0.61990600000000,SL1 4PN,2014-01-21,fhrs_5_en-GB,5,,FHRS,5
254761,,310 Bath Road,,Slough,McDonalds Restaurants Ltd,Restaurant/Cafe/Canteen,1,5,,511670,0,,51.51984500000000,34255,885,foodandsafety@slough.gov.uk,Slough,http://www.slough.gov.uk,-0.63167800000000,SL1 4DX,2011-11-29,fhrs_5_en-GB,5,,FHRS,5
254762,,172 High Street,,Slough,McDonalds Restaurants Ltd,Restaurant/Cafe/Canteen,1,0,,511719,0,,51.50851700000000,34962,885,foodandsafety@slough.gov.uk,Slough,http://www.slough.gov.uk,-0.59234700000000,SL1 1JP,2010-12-13,fhrs_5_en-GB,5,,FHRS,0
254763,,Windsor Road,,Slough,McDonalds Restaurants Ltd,Restaurant/Cafe/Canteen,1,5,,511744,0,,51.50359000000000,35204,885,foodandsafety@slough.gov.uk,Slough,http://www.slough.gov.uk,-0.59991900000000,SL1 2JD,2012-01-03,fhrs_5_en-GB,5,,FHRS,0
254764,Asda Stores Limited,Telford Drive,,Slough,McDonalds Restaurants Ltd,Restaurant/Cafe/Canteen,1,5,,511838,0,,51.50760200000000,45719,885,foodandsafety@slough.gov.uk,Slough,http://www.slough.gov.uk,-0.63044500000000,SL1 9LA,2012-10-11,fhrs_5_en-GB,5,,FHRS,0
254765,,51 Herschel Street,,Slough,Mecca Halal Meat,Retailers - other,4613,20,,690848,10,,51.50739900000000,98373,885,foodandsafety@slough.gov.uk,Slough,http://www.slough.gov.uk,-0.59206400000000,SL1 1PB,2014-07-04,fhrs_1_en-GB,1,,FHRS,20
254766,Medina Dairies Limited,White Hart Road,,Slough,Medina Food Services Ltd,Retailers - other,4613,10,,511561,10,,51.50404700000000,24955,885,foodandsafety@slough.gov.uk,Slough,http://www.slough.gov.uk,-0.60882400000000,SL1 2SF,2010-03-16,fhrs_3_en-GB,3,,FHRS,10
254767,,31 Diamond Road,,Slough,Medina Superstore,Retailers - other,4613,10,,511636,10,,51.50953500000000,327,885,foodandsafety@slough.gov.uk,Slough,http://www.slough.gov.uk,-0.58127700000000,SL1 1RT,2014-05-09,fhrs_2_en-GB,2,,FHRS,15
254768,,7 Upton Lea Parade,,Slough,Meghna Tandoori,Restaurant/Cafe/Canteen,1,10,,511738,5,,51.51722100000000,35139,885,foodandsafety@slough.gov.uk,Slough,http://www.slough.gov.uk,-0.57884800000000,SL2 5JU,2014-10-22,fhrs_3_en-GB,3,,FHRS,10
254769,The Merrymakers,Meadow Road,,Slough,Merrymakers,Pub/bar/nightclub,7843,10,,512179,10,,51.50148300000000,97347,885,foodandsafety@slough.gov.uk,Slough,http://www.slough.gov.uk,-0.55805700000000,SL3 7QA,2012-12-13,fhrs_3_en-GB,3,,FHRS,10
254770,,193 Farnham Road,,Slough,Metro Food and Wine,Retailers - other,4613,5,,511882,5,,51.52558000000000,47958,885,foodandsafety@slough.gov.uk,Slough,http://www.slough.gov.uk,-0.61616800000000,SL1 4XS,2014-05-08,fhrs_5_en-GB,5,,FHRS,5
254771,Street Record,Wexham Road,,Slough,Mighty Acorns Day Nursery Ltd,Hospitals/Childcare/Caring Premises,5,10,,512017,10,,,54139,885,foodandsafety@slough.gov.uk,Slough,http://www.slough.gov.uk,,,2013-02-26,fhrs_3_en-GB,3,,FHRS,5
254772,The Willow Tree,62 Station Road,,Langley,Millionaires Punjabi Cuisine,Restaurant/Cafe/Canteen,1,5,,705669,5,,51.50691600000000,98426,885,foodandsafety@slough.gov.uk,Slough,http://www.slough.gov.uk,-0.54367800000000,SL3 8BT,2014-08-22,fhrs_5_en-GB,5,,FHRS,5
254773,,,,,Mina's Homecooked Munchies,Mobile caterer,7846,10,,714753,5,,,98469,885,foodandsafety@slough.gov.uk,Slough,http://www.slough.gov.uk,,,2014-10-15,fhrs_4_en-GB,4,,FHRS,5
254774,,254 Scafell Road,,Slough,Ming,Takeaway/sandwich shop,7844,5,,511736,10,,51.52803800000000,35111,885,foodandsafety@slough.gov.uk,Slough,http://www.slough.gov.uk,-0.63405600000000,SL2 1TZ,2014-09-18,fhrs_3_en-GB,3,,FHRS,10
254775,,168 Burnham Lane,,Slough,Monihar Tandoori,Takeaway/sandwich shop,7844,10,,511651,10,,51.52790100000000,33418,885,foodandsafety@slough.gov.uk,Slough,http://www.slough.gov.uk,-0.65020600000000,SL1 6LE,2011-01-24,fhrs_3_en-GB,3,,FHRS,10
254776,,252 Farnham Road,,Slough,Monopol,Retailers - other,4613,0,,714747,0,,51.52316500000000,98047,885,foodandsafety@slough.gov.uk,Slough,http://www.slough.gov.uk,-0.61497300000000,SL1 4XE,2014-11-04,fhrs_5_en-GB,5,,FHRS,0
254777,,11-13 Montem Lane,,Slough,Montem Guest House,Hotel/bed & breakfast/guest house,7842,5,,511782,10,,51.50881400000000,37720,885,foodandsafety@slough.gov.uk,Slough,http://www.slough.gov.uk,-0.60434100000000,SL1 2QU,2010-12-23,fhrs_3_en-GB,3,,FHRS,10
254778,,222-224 High Street,,Slough,Morrisons,Retailers - supermarkets/hypermarkets,7840,10,,656361,5,,51.50774000000000,97838,885,foodandsafety@slough.gov.uk,Slough,http://www.slough.gov.uk,-0.58977700000000,SL1 1JS,2014-03-13,fhrs_4_en-GB,4,,FHRS,5
254779,,59 Wentworth Avenue,,Slough,Mr C G Harrison Chemist,Retailers - other,4613,,,511615,,,51.53498400000000,3097,885,foodandsafety@slough.gov.uk,Slough,http://www.slough.gov.uk,-0.63133900000000,SL2 2DS,2009-07-09,fhrs_exempt_en-GB,Exempt,,FHRS,
254780,,273 High Street,,Slough,Mr Cod,Takeaway/sandwich shop,7844,20,,511870,15,,51.50786100000000,47458,885,foodandsafety@slough.gov.uk,Slough,http://www.slough.gov.uk,-0.58787100000000,SL1 1BN,2014-05-15,fhrs_1_en-GB,1,,FHRS,15
254781,,,,,Mrs Terrence,Other catering premises,7841,10,,512162,5,,,97271,885,foodandsafety@slough.gov.uk,Slough,http://www.slough.gov.uk,,,2013-01-21,fhrs_4_en-GB,4,,FHRS,5
254782,,70 High Street,,Slough,Murgh Pilao,Restaurant/Cafe/Canteen,1,5,,512093,5,,51.50972700000000,57193,885,foodandsafety@slough.gov.uk,Slough,http://www.slough.gov.uk,-0.59651700000000,SL1 1EL,2013-07-03,fhrs_4_en-GB,4,,FHRS,10
254783,,5 Meadfield Road,,Slough,My Favourite Chicken,Restaurant/Cafe/Canteen,1,10,,512097,5,,51.50410400000000,64345,885,foodandsafety@slough.gov.uk,Slough,http://www.slough.gov.uk,-0.54169300000000,SL3 8HL,2014-08-12,fhrs_4_en-GB,4,,FHRS,5
254784,76b Queensmere,High Street,,Slough,Nandos,Restaurant/Cafe/Canteen,1,0,,512046,5,,51.50911300000000,55515,885,foodandsafety@slough.gov.uk,Slough,http://www.slough.gov.uk,-0.59176700000000,SL1 1DD,2010-11-11,fhrs_5_en-GB,5,,FHRS,0
254785,,258 High Street,,Slough,Nando's,Restaurant/Cafe/Canteen,1,0,,511689,0,,51.50753200000000,34757,885,foodandsafety@slough.gov.uk,Slough,http://www.slough.gov.uk,-0.58814100000000,SL1 1JU,2012-05-25,fhrs_5_en-GB,5,,FHRS,5
254786,,408 Bath Road,,Slough,Narvis,Restaurant/Cafe/Canteen,1,20,,729672,20,,51.52049800000000,98403,885,foodandsafety@slough.gov.uk,Slough,http://www.slough.gov.uk,-0.64220900000000,SL1 6JA,2014-11-18,fhrs_0_en-GB,0,,FHRS,20
254787,Tesco Stores Limited,Wellington Street,,Slough,National Halal Centre,Retailers - other,4613,5,,512182,5,,51.51074400000000,97361,885,foodandsafety@slough.gov.uk,Slough,http://www.slough.gov.uk,-0.59054900000000,SL1 1XW,2013-07-16,fhrs_5_en-GB,5,,FHRS,5
254788,,405 Bath Road,,Slough,New China Kitchen,Takeaway/sandwich shop,7844,20,,511566,15,,51.51960000000000,25313,885,foodandsafety@slough.gov.uk,Slough,http://www.slough.gov.uk,-0.64468600000000,SL1 5QL,2014-09-04,fhrs_1_en-GB,1,,FHRS,15
254789,,32 Stoke Poges Lane,,Slough,New Jalandhar Tandoori,Takeaway/sandwich shop,7844,10,,512160,10,,51.51680000000000,97260,885,foodandsafety@slough.gov.uk,Slough,http://www.slough.gov.uk,-0.59996100000000,SL1 3PG,2012-06-13,fhrs_3_en-GB,3,,FHRS,10
254790,,1 Baylis Parade,,Slough,New Loon Moon,Takeaway/sandwich shop,7844,5,,511694,5,,51.51988400000000,34787,885,foodandsafety@slough.gov.uk,Slough,http://www.slough.gov.uk,-0.59992400000000,SL1 3LF,2010-08-18,fhrs_5_en-GB,5,,FHRS,5
254791,,25 Stoke Road,,Slough,New Loon Sing,Takeaway/sandwich shop,7844,5,,511603,5,,51.51396300000000,2923,885,foodandsafety@slough.gov.uk,Slough,http://www.slough.gov.uk,-0.59353400000000,SL2 5AH,2012-07-31,fhrs_5_en-GB,5,,FHRS,5
254792,,8 Cherwell Close,,Slough,New Ocean,Takeaway/sandwich shop,7844,5,,511695,5,,51.49042300000000,34807,885,foodandsafety@slough.gov.uk,Slough,http://www.slough.gov.uk,-0.53847100000000,SL3 8XB,2012-07-13,fhrs_4_en-GB,4,,FHRS,10
254793,,327-329 High Street,,Slough,New Shahi Kebab,Takeaway/sandwich shop,7844,10,,511717,10,,51.50727300000000,34957,885,foodandsafety@slough.gov.uk,Slough,http://www.slough.gov.uk,-0.58459000000000,SL1 1TX,2014-07-24,fhrs_3_en-GB,3,,FHRS,10
254794,,88 Knolton Way,,Slough,News Shops Express,Retailers - other,4613,10,,512150,5,,51.52286100000000,97181,885,foodandsafety@slough.gov.uk,Slough,http://www.slough.gov.uk,-0.57456400000000,SL2 5TL,2012-06-13,fhrs_3_en-GB,3,,FHRS,10
254795,,16 Harrow Market,,Langley,Nick's Fish & Chips,Takeaway/sandwich shop,7844,5,,511713,5,,51.50491400000000,34921,885,foodandsafety@slough.gov.uk,Slough,http://www.slough.gov.uk,-0.54316600000000,SL3 8HJ,2014-08-22,fhrs_5_en-GB,5,,FHRS,5
254796,,Forest Close,,Slough,Oak House Care Home,Other catering premises,7841,5,,511979,5,,51.52792100000000,52742,885,foodandsafety@slough.gov.uk,Slough,http://www.slough.gov.uk,-0.57881800000000,SL2 4HF,2013-06-10,fhrs_5_en-GB,5,,FHRS,0
254797,11 The Observatory,High Street,,Slough,Observatory News,Retailers - other,4613,0,,511580,0,,51.50870200000000,25921,885,foodandsafety@slough.gov.uk,Slough,http://www.slough.gov.uk,-0.58976200000000,SL1 1LE,2014-09-17,fhrs_5_en-GB,5,,FHRS,5
254798,,,,,Old Skool Sweet Store,Retailers - other,4613,5,,511947,5,,,51828,885,foodandsafety@slough.gov.uk,Slough,http://www.slough.gov.uk,,,2011-02-16,fhrs_5_en-GB,5,,FHRS,5
254799,,41 Elmshott Lane,,Slough,One Stop,Retailers - other,4613,5,,511792,10,,51.51649400000000,38727,885,foodandsafety@slough.gov.uk,Slough,http://www.slough.gov.uk,-0.64512400000000,SL1 5QU,2013-07-31,fhrs_3_en-GB,3,,FHRS,10
254800,,402 Farnham Road,,Slough,One Stop Liquor Store Ltd,Retailers - other,4613,10,,511806,10,,51.52851300000000,40455,885,foodandsafety@slough.gov.uk,Slough,http://www.slough.gov.uk,-0.61628100000000,SL2 1JD,2010-06-30,fhrs_3_en-GB,3,,FHRS,5
254801,,4 Stoke Poges Lane,,Slough,Optimum Specialised Homes Ltd,Hospitals/Childcare/Caring Premises,5,10,,512068,10,,51.51544800000000,56203,885,foodandsafety@slough.gov.uk,Slough,http://www.slough.gov.uk,-0.60046300000000,SL1 3NT,2011-05-24,fhrs_3_en-GB,3,,FHRS,10
254802,The Oratory,Lower Britwell Road,,Slough,Oratory Day Nursery,Other catering premises,7841,5,,511763,5,,51.53070600000000,35883,885,foodandsafety@slough.gov.uk,Slough,http://www.slough.gov.uk,-0.65095900000000,SL2 2NJ,2014-08-07,fhrs_4_en-GB,4,,FHRS,10
254803,,204 Stoke Road,,Slough,Oxford House Nursing Home,Hospitals/Childcare/Caring Premises,5,10,,511547,0,,51.51905500000000,18103,885,foodandsafety@slough.gov.uk,Slough,http://www.slough.gov.uk,-0.58922600000000,SL2 5AY,2013-12-12,fhrs_4_en-GB,4,,FHRS,5
254804,The Westgate School,Cippenham Lane,,Slough,Pabulum Limited at Westgate School,School/college/university,7845,10,,511696,10,,51.51341400000000,34819,885,foodandsafety@slough.gov.uk,Slough,http://www.slough.gov.uk,-0.62769100000000,SL1 5AH,2011-12-08,fhrs_3_en-GB,3,,FHRS,5
254805,,272A High Street,,Slough,Papa Johns,Takeaway/sandwich shop,7844,5,,511780,0,,51.50719300000000,3768,885,foodandsafety@slough.gov.uk,Slough,http://www.slough.gov.uk,-0.58612000000000,SL1 1NB,2011-10-27,fhrs_5_en-GB,5,,FHRS,0
254806,,424B Bath Road,,Chalvey,Party Time,Retailers - other,4613,,,511875,,,51.52049800000000,47721,885,foodandsafety@slough.gov.uk,Slough,http://www.slough.gov.uk,-0.64220900000000,SL1 6JA,2012-12-07,fhrs_exempt_en-GB,Exempt,,FHRS,
254807,,332 Farnham Road,,Slough,Pauls Bakery,Other catering premises,7841,10,,512164,10,,51.52613800000000,97273,885,foodandsafety@slough.gov.uk,Slough,http://www.slough.gov.uk,-0.61548800000000,SL2 1BT,2014-02-05,fhrs_3_en-GB,3,,FHRS,10
254808,,249 Farnham Road,,Slough,Peking Cuisine Express,Takeaway/sandwich shop,7844,5,,511985,5,,51.52735800000000,52814,885,foodandsafety@slough.gov.uk,Slough,http://www.slough.gov.uk,-0.61672000000000,SL2 1DE,2012-05-15,fhrs_5_en-GB,5,,FHRS,5
254809,,256 High Street,,Slough,Pepes Piri Piri,Takeaway/sandwich shop,7844,5,,591256,0,,51.50749800000000,97788,885,foodandsafety@slough.gov.uk,Slough,http://www.slough.gov.uk,-0.58830000000000,SL1 1JU,2013-09-13,fhrs_5_en-GB,5,,FHRS,5
254810,,275 High Street,,Slough,Perfect Pizza,Takeaway/sandwich shop,7844,10,,511607,5,,51.50786100000000,2940,885,foodandsafety@slough.gov.uk,Slough,http://www.slough.gov.uk,-0.58787100000000,SL1 1BN,2014-07-24,fhrs_4_en-GB,4,,FHRS,5
254811,,121 Bath Road,,Slough,Peri Chick n Grill,Restaurant/Cafe/Canteen,1,10,,511956,10,,51.51240700000000,52213,885,foodandsafety@slough.gov.uk,Slough,http://www.slough.gov.uk,-0.61313700000000,SL1 3UW,2014-08-18,fhrs_3_en-GB,3,,FHRS,10
254812,,246 Farnham Road,,Slough,Peri Peri Chicken Original Ltd,Takeaway/sandwich shop,7844,20,,512088,15,,51.52321900000000,57088,885,foodandsafety@slough.gov.uk,Slough,http://www.slough.gov.uk,-0.61498600000000,SL1 4XE,2014-03-12,fhrs_1_en-GB,1,,FHRS,15
254813,,241-243 Farnham Road,,Slough,Perigano's,Takeaway/sandwich shop,7844,20,,512138,10,,51.52735800000000,97093,885,foodandsafety@slough.gov.uk,Slough,http://www.slough.gov.uk,-0.61672000000000,SL2 1DE,2014-11-04,fhrs_1_en-GB,1,,FHRS,10
254814,Lombard Buildings,62 Farnham Road,,Slough,Pitts Stop Food & Wine,Retailers - other,4613,10,,511970,10,,51.51465200000000,52521,885,foodandsafety@slough.gov.uk,Slough,http://www.slough.gov.uk,-0.61210400000000,SL1 3TA,2010-10-29,fhrs_3_en-GB,3,,FHRS,5
254815,,31 Chalvey Road West,,Slough,Pizza 2 Night,Takeaway/sandwich shop,7844,10,,714749,5,,51.50649400000000,98199,885,foodandsafety@slough.gov.uk,Slough,http://www.slough.gov.uk,-0.60510400000000,SL1 2NF,2014-10-10,fhrs_3_en-GB,3,,FHRS,10
254816,,406 Bath Road,,Slough,Pizza 4U & Kebab Express,Restaurant/Cafe/Canteen,1,10,,512027,5,,51.52049800000000,54637,885,foodandsafety@slough.gov.uk,Slough,http://www.slough.gov.uk,-0.64220900000000,SL1 6JA,2014-08-26,fhrs_4_en-GB,4,,FHRS,5
254817,,254 Trelawney Avenue,,Slough,Pizza Bien Manger,Takeaway/sandwich shop,7844,10,,700617,5,,51.50216300000000,98429,885,foodandsafety@slough.gov.uk,Slough,http://www.slough.gov.uk,-0.55485200000000,SL3 7UD,2014-08-20,fhrs_4_en-GB,4,,FHRS,5
254818,,158 Burnham Lane,,Slough,Pizza Bien Manger,Takeaway/sandwich shop,7844,20,,729673,10,,51.52787300000000,98409,885,foodandsafety@slough.gov.uk,Slough,http://www.slough.gov.uk,-0.65013500000000,SL1 6LE,2014-11-06,fhrs_1_en-GB,1,,FHRS,15
254819,,80 High Street,,Slough,Pizza Express,Restaurant/Cafe/Canteen,1,5,,511773,5,,51.50972700000000,37412,885,foodandsafety@slough.gov.uk,Slough,http://www.slough.gov.uk,-0.59651700000000,SL1 1EL,2012-01-12,fhrs_5_en-GB,5,,FHRS,5
254820,,82 Bath Road,,Chalvey,Pizza Go Go,Takeaway/sandwich shop,7844,5,,511796,5,,51.51236200000000,39025,885,foodandsafety@slough.gov.uk,Slough,http://www.slough.gov.uk,-0.60782100000000,SL1 3SR,2014-07-21,fhrs_5_en-GB,5,,FHRS,5
254821,,123A Bath Road,,Slough,Pizza Hut Delivery,Restaurant/Cafe/Canteen,1,5,,511667,5,,51.51240700000000,34186,885,foodandsafety@slough.gov.uk,Slough,http://www.slough.gov.uk,-0.61313700000000,SL1 3UW,2012-07-10,fhrs_5_en-GB,5,,FHRS,5
254822,,337 High Street,,Slough,Pizza Junction,Takeaway/sandwich shop,7844,10,,512154,5,,51.50727300000000,97232,885,foodandsafety@slough.gov.uk,Slough,http://www.slough.gov.uk,-0.58459000000000,SL1 1TX,2014-09-18,fhrs_4_en-GB,4,,FHRS,5
254823,,23c Park Street,,Slough,Pizza Party,Takeaway/sandwich shop,7844,20,,690844,10,,51.50691000000000,98333,885,foodandsafety@slough.gov.uk,Slough,http://www.slough.gov.uk,-0.59177700000000,SL1 1PS,2014-07-03,fhrs_1_en-GB,1,,FHRS,15
254824,"Platform 4, Langley Railway Station",Station Road,,Langley,Platform Coffee,Restaurant/Cafe/Canteen,1,10,,511998,10,,51.50856300000000,53418,885,foodandsafety@slough.gov.uk,Slough,http://www.slough.gov.uk,-0.54087400000000,SL3 6DB,2011-10-18,fhrs_3_en-GB,3,,FHRS,5
254825,The Punchbowl,Bath Road,,Colnbrook,Plathong Thai Reastaurant,Restaurant/Cafe/Canteen,1,20,,511775,10,,51.47948700000000,37491,885,foodandsafety@slough.gov.uk,Slough,http://www.slough.gov.uk,-0.51262600000000,SL3 0PH,2013-12-03,fhrs_1_en-GB,1,,FHRS,15
254826,,48 Pitts Road,,Slough,Polish Roman Catholic Church,Other catering premises,7841,5,,511592,5,,51.51405600000000,27918,885,foodandsafety@slough.gov.uk,Slough,http://www.slough.gov.uk,-0.61496100000000,SL1 3XH,2014-07-25,fhrs_5_en-GB,5,,FHRS,5
254827,Tesco Extra,Brunel Way,,Slough,Polonia Deli,Retailers - other,4613,5,,680780,5,,51.51074400000000,98185,885,foodandsafety@slough.gov.uk,Slough,http://www.slough.gov.uk,-0.59054900000000,SL1 1XW,2014-05-21,fhrs_5_en-GB,5,,FHRS,0
254828,,242 Trelawney Avenue,,Slough,Polski Sklep Smaczek Ltd,Retailers - other,4613,10,,607399,10,,51.50216300000000,97897,885,foodandsafety@slough.gov.uk,Slough,http://www.slough.gov.uk,-0.55485200000000,SL3 7UD,2013-10-22,fhrs_3_en-GB,3,,FHRS,10
254829,,404 Bath Road,,Slough,Post Office,Retailers - other,4613,,,511474,,,51.52049800000000,10302,885,foodandsafety@slough.gov.uk,Slough,http://www.slough.gov.uk,-0.64220900000000,SL1 6JA,2009-07-09,fhrs_exempt_en-GB,Exempt,,FHRS,
254830,,118 Cippenham Lane,,Slough,Post Office,Retailers - other,4613,,,511714,,,51.51485500000000,3493,885,foodandsafety@slough.gov.uk,Slough,http://www.slough.gov.uk,-0.63175500000000,SL1 5BE,2007-02-14,fhrs_exempt_en-GB,Exempt,,FHRS,
254831,,192 High Street,,Slough,Poundland Ltd.,Retailers - other,4613,10,,512064,0,,51.50774000000000,55912,885,foodandsafety@slough.gov.uk,Slough,http://www.slough.gov.uk,-0.58977700000000,SL1 1JS,2010-11-09,fhrs_4_en-GB,4,,FHRS,0
254832,,74 Furnival Avenue,,Slough,Premier Convenience Store,Retailers - other,4613,10,,511500,10,,51.52754600000000,15948,885,foodandsafety@slough.gov.uk,Slough,http://www.slough.gov.uk,-0.61975600000000,SL2 1DW,2012-11-06,fhrs_3_en-GB,3,,FHRS,10
254833,,406 Farnham Road,,Slough,Premier Foods,Retailers - other,4613,10,,511820,10,,51.52904600000000,42746,885,foodandsafety@slough.gov.uk,Slough,http://www.slough.gov.uk,-0.61649600000000,SL2 1JA,2012-03-06,fhrs_3_en-GB,3,,FHRS,10
254834,,76 Uxbridge Road,,Slough,"Premier Travel Inn, Slough",Hotel/bed & breakfast/guest house,7842,5,,511804,5,,51.50818700000000,40096,885,foodandsafety@slough.gov.uk,Slough,http://www.slough.gov.uk,-0.57912900000000,SL1 1SU,2013-09-02,fhrs_5_en-GB,5,,FHRS,5
254835,,4 Priors Close,,Slough,Priors Day Service,Hospitals/Childcare/Caring Premises,5,,,511785,,,51.50469000000000,38004,885,foodandsafety@slough.gov.uk,Slough,http://www.slough.gov.uk,-0.58812800000000,SL1 2BQ,2008-11-07,fhrs_exempt_en-GB,Exempt,,FHRS,
254836,Priory School,Orchard Avenue,,Slough,Priory Combined School,School/college/university,7845,5,,656360,5,,51.52676800000000,35048,885,foodandsafety@slough.gov.uk,Slough,http://www.slough.gov.uk,-0.65181100000000,SL1 6HE,2012-05-29,fhrs_5_en-GB,5,,FHRS,0
254837,,6 Stoke Poges Lane,,Slough,Quality Care Homes (UK) Ltd,Other catering premises,7841,10,,511770,10,,51.51544800000000,36833,885,foodandsafety@slough.gov.uk,Slough,http://www.slough.gov.uk,-0.60046300000000,SL1 3NT,2011-01-10,fhrs_3_en-GB,3,,FHRS,10
254838,,4 Cherwell Close,,Langley,Quality Foods,Retailers - other,4613,20,,511907,10,,51.49042300000000,49544,885,foodandsafety@slough.gov.uk,Slough,http://www.slough.gov.uk,-0.53847100000000,SL3 8XB,2014-08-26,fhrs_1_en-GB,1,,FHRS,15
254839,Unit,19b Queensmere Road,,Slough,Queensmere News,Retailers - other,4613,10,,511688,10,,51.50950100000000,34755,885,foodandsafety@slough.gov.uk,Slough,http://www.slough.gov.uk,-0.59188400000000,SL1 1DQ,2014-08-03,fhrs_3_en-GB,3,,FHRS,10
254840,,98 Uxbridge Road,,Slough,R K Superstores,Retailers - other,4613,10,,512084,5,,51.51098500000000,57051,885,foodandsafety@slough.gov.uk,Slough,http://www.slough.gov.uk,-0.57552600000000,SL2 5NB,2013-11-20,fhrs_4_en-GB,4,,FHRS,5
254841,,41 Chalvey Road East,,Slough,Ranus Stores,Retailers - other,4613,10,,511973,10,,51.50641700000000,52593,885,foodandsafety@slough.gov.uk,Slough,http://www.slough.gov.uk,-0.60245500000000,SL1 2LN,2013-07-18,fhrs_3_en-GB,3,,FHRS,10
254842,,308 High Street,,Slough,Rashko Baba Fruit Chaat,Other catering premises,7841,20,,569830,15,,51.50719300000000,97792,885,foodandsafety@slough.gov.uk,Slough,http://www.slough.gov.uk,-0.58612000000000,SL1 1NB,2014-08-12,fhrs_1_en-GB,1,,FHRS,15
254843,,2a Upton Court Road,,Slough,Reach Ltd,Hospitals/Childcare/Caring Premises,5,5,,512142,5,,51.50248000000000,97142,885,foodandsafety@slough.gov.uk,Slough,http://www.slough.gov.uk,-0.58678400000000,SL3 7LX,2012-10-15,fhrs_5_en-GB,5,,FHRS,5
254844,,178 Lower Cippenham Lane,,Slough,Reach Ltd.,Other catering premises,7841,5,,511774,5,,51.51490300000000,37450,885,foodandsafety@slough.gov.uk,Slough,http://www.slough.gov.uk,-0.63890200000000,SL1 5EA,2011-12-09,fhrs_5_en-GB,5,,FHRS,5
254845,Britwell Play Centre,Long Furlong Drive,,Slough,Recycled Teenagers,Hospitals/Childcare/Caring Premises,5,10,,511531,5,,51.53178800000000,16899,885,foodandsafety@slough.gov.uk,Slough,http://www.slough.gov.uk,-0.63492400000000,SL2 2LX,2011-12-14,fhrs_3_en-GB,3,,FHRS,10
254846,,33a Elmshott Lane,,Slough,Red Planet Pizza,Takeaway/sandwich shop,7844,20,,607400,10,,51.51846100000000,97955,885,foodandsafety@slough.gov.uk,Slough,http://www.slough.gov.uk,-0.64493600000000,SL1 5QS,2014-10-14,fhrs_1_en-GB,1,,FHRS,10
254847,,292 High Street,,Langley,Red's Cafe,Restaurant/Cafe/Canteen,1,10,,512121,5,,51.50400800000000,96921,885,foodandsafety@slough.gov.uk,Slough,http://www.slough.gov.uk,-0.54263300000000,SL3 8HF,2013-06-25,fhrs_4_en-GB,4,,FHRS,5
254848,,,,,Ren's Kitchen,Mobile caterer,7846,20,,531076,15,,,97363,885,foodandsafety@slough.gov.uk,Slough,http://www.slough.gov.uk,,,2014-11-07,fhrs_1_en-GB,1,,FHRS,15
254849,,,,,Respond Residential Care Home,Hospitals/Childcare/Caring Premises,5,5,,511536,5,,,17476,885,foodandsafety@slough.gov.uk,Slough,http://www.slough.gov.uk,,,2012-05-28,fhrs_5_en-GB,5,,FHRS,0
254850,,229 Bath Road,,Slough,Restaurant Associates at Lonza Biologics Plc,Restaurant/Cafe/Canteen,1,5,,511958,0,,51.51871400000000,52266,885,foodandsafety@slough.gov.uk,Slough,http://www.slough.gov.uk,-0.63179800000000,SL1 5PP,2011-11-30,fhrs_5_en-GB,5,,FHRS,5
254851,Turner House,103-105 Bath Road,,Slough,Restaurant Associates at Reckitt Benckiser,Restaurant/Cafe/Canteen,1,0,,512194,0,,51.51180800000000,97437,885,foodandsafety@slough.gov.uk,Slough,http://www.slough.gov.uk,-0.61037400000000,SL1 3UH,2012-10-10,fhrs_5_en-GB,5,,FHRS,5
254852,Wellcroft House,Wellcroft Road,,Slough,Restaurant Associates at Reckitt Benckiser,Restaurant/Cafe/Canteen,1,0,,511865,0,,51.51253300000000,46906,885,foodandsafety@slough.gov.uk,Slough,http://www.slough.gov.uk,-0.61771600000000,SL1 4AQ,2013-02-07,fhrs_5_en-GB,5,,FHRS,0
254853,The Olde George,High Street,,Colnbrook,Restaurant at Ye Olde George Inn,Restaurant/Cafe/Canteen,1,10,,626525,5,,51.48374600000000,97795,885,foodandsafety@slough.gov.uk,Slough,http://www.slough.gov.uk,-0.52372100000000,SL3 0LX,2014-01-07,fhrs_4_en-GB,4,,FHRS,5
254854,,13 Harrison Way,,Slough,Rice and Fries,Takeaway/sandwich shop,7844,5,,511777,10,,51.51486200000000,37589,885,foodandsafety@slough.gov.uk,Slough,http://www.slough.gov.uk,-0.65014400000000,SL1 5LG,2011-09-12,fhrs_4_en-GB,4,,FHRS,0
254855,,,,,Rita's Kitchen,Other catering premises,7841,10,,531073,5,,,57097,885,foodandsafety@slough.gov.uk,Slough,http://www.slough.gov.uk,,,2013-03-18,fhrs_4_en-GB,4,,FHRS,5
254856,The Riverside Cafe,Colnbrook By Pass,,Colnbrook,Riverside Cafe,Takeaway/sandwich shop,7844,10,,511654,10,,51.48564100000000,33451,885,foodandsafety@slough.gov.uk,Slough,http://www.slough.gov.uk,-0.51782600000000,SL3 0EA,2013-07-02,fhrs_3_en-GB,3,,FHRS,5
254857,Unit 2,1-7 High Street,,Slough,Rolands Stores Ltd.,Retailers - other,4613,10,,512265,10,,51.51067300000000,97589,885,foodandsafety@slough.gov.uk,Slough,http://www.slough.gov.uk,-0.59889500000000,SL1 1DY,2014-08-05,fhrs_3_en-GB,3,,FHRS,10
254858,,88-90 High Street,,Slough,Roosters Piri Piri,Takeaway/sandwich shop,7844,5,,512067,5,,51.50972700000000,56170,885,foodandsafety@slough.gov.uk,Slough,http://www.slough.gov.uk,-0.59651700000000,SL1 1EL,2014-09-26,fhrs_5_en-GB,5,,FHRS,5
254859,,261 High Street,,Slough,Roosters Piri Piri,Takeaway/sandwich shop,7844,20,,656364,15,,51.50786100000000,97953,885,foodandsafety@slough.gov.uk,Slough,http://www.slough.gov.uk,-0.58787100000000,SL1 1BN,2014-03-13,fhrs_1_en-GB,1,,FHRS,15
254860,,122 London Road,,Slough,Roshni Food & Wine,Retailers - other,4613,20,,512091,10,,51.49954500000000,57123,885,foodandsafety@slough.gov.uk,Slough,http://www.slough.gov.uk,-0.56285800000000,SL3 7HS,2013-10-28,fhrs_1_en-GB,1,,FHRS,15
254861,,118 London Road,,Slough,Roshni Wine Food & Post Office,Retailers - other,4613,10,,511686,5,,51.49954500000000,3474,885,foodandsafety@slough.gov.uk,Slough,http://www.slough.gov.uk,-0.56285800000000,SL3 7HS,2011-10-27,fhrs_4_en-GB,4,,FHRS,5
254862,,,,,Rossi's Ice Cream Van,Mobile caterer,7846,5,,705655,5,,,97369,885,foodandsafety@slough.gov.uk,Slough,http://www.slough.gov.uk,,,2014-09-04,fhrs_5_en-GB,5,,FHRS,5
254863,,9 Ladbrooke Road,,Slough,Roti & Curry Hut,Takeaway/sandwich shop,7844,10,,512156,10,,51.50554300000000,97234,885,foodandsafety@slough.gov.uk,Slough,http://www.slough.gov.uk,-0.60988800000000,SL1 2SR,2013-11-27,fhrs_3_en-GB,3,,FHRS,10
254864,,2A Upton Lea Parade,,Wexham Road,Roxy Chicken Ltd.,Takeaway/sandwich shop,7844,10,,511568,10,,51.51722100000000,25543,885,foodandsafety@slough.gov.uk,Slough,http://www.slough.gov.uk,-0.57884800000000,SL2 5JU,2014-08-04,fhrs_3_en-GB,3,,FHRS,10
254865,,70 Stoke Road,,Slough,Royal British Legion Club,Other catering premises,7841,10,,511643,5,,51.51544700000000,33047,885,foodandsafety@slough.gov.uk,Slough,http://www.slough.gov.uk,-0.59131200000000,SL2 5AP,2012-03-14,fhrs_4_en-GB,4,,FHRS,5
254866,,104 Knolton Way,,Slough,Royal Capital,Takeaway/sandwich shop,7844,5,,511720,5,,51.52286100000000,34972,885,foodandsafety@slough.gov.uk,Slough,http://www.slough.gov.uk,-0.57456400000000,SL2 5TL,2012-10-30,fhrs_5_en-GB,5,,FHRS,5
254867,Tesco Stores Limited,Wellington Street,,Slough,Royal Sweets,Retailers - other,4613,10,,511878,10,,51.51074400000000,47743,885,foodandsafety@slough.gov.uk,Slough,http://www.slough.gov.uk,-0.59054900000000,SL1 1XW,2013-09-02,fhrs_3_en-GB,3,,FHRS,10
254868,,16 Chalvey Road West,,Slough,RPS Heer Dispensing Chemist,Retailers - other,4613,,,512045,,,51.50669000000000,55509,885,foodandsafety@slough.gov.uk,Slough,http://www.slough.gov.uk,-0.60499700000000,SL1 2PN,,fhrs_exempt_en-GB,Exempt,,FHRS,
254869,,85A Elliman Avenue,,Slough,S & S Superstore,Retailers - other,4613,10,,511828,10,,51.51907600000000,44472,885,foodandsafety@slough.gov.uk,Slough,http://www.slough.gov.uk,-0.59780100000000,SL2 5BD,2012-11-15,fhrs_3_en-GB,3,,FHRS,10
254870,,131 Bath Road,,Chalvey,S D Wines,Retailers - other,4613,10,,512103,10,,51.51240700000000,807,885,foodandsafety@slough.gov.uk,Slough,http://www.slough.gov.uk,-0.61313700000000,SL1 3UW,2010-10-29,fhrs_3_en-GB,3,,FHRS,5
254871,,291 High Street,,Slough,S L Wines,Retailers - other,4613,10,,511872,5,,51.50765000000000,47488,885,foodandsafety@slough.gov.uk,Slough,http://www.slough.gov.uk,-0.58604800000000,SL1 1BD,2011-06-22,fhrs_4_en-GB,4,,FHRS,5
254872,,1A Upton Lea Parade,,Wexham Road,Sabar Bros,Retailers - other,4613,20,,511511,20,,51.51722100000000,16282,885,foodandsafety@slough.gov.uk,Slough,http://www.slough.gov.uk,-0.57884800000000,SL2 5JU,2014-11-20,fhrs_0_en-GB,0,,FHRS,20
254873,,5-7 Villiers Road,,Slough,Sabar Brothers,Retailers - other,4613,10,,511484,10,,51.52867600000000,1328,885,foodandsafety@slough.gov.uk,Slough,http://www.slough.gov.uk,-0.60651600000000,SL2 1NW,2013-05-07,fhrs_3_en-GB,3,,FHRS,10
254874,,215 Wexham Road,,Wexham,Sabar Brothers Superstore,Retailers - supermarkets/hypermarkets,7840,10,,511755,10,,51.51757900000000,35356,885,foodandsafety@slough.gov.uk,Slough,http://www.slough.gov.uk,-0.57872200000000,SL2 5JT,2014-01-21,fhrs_3_en-GB,3,,FHRS,10
254875,,,,,Safari (East African Food),Restaurant/Cafe/Canteen,1,5,,705662,0,,,98142,885,foodandsafety@slough.gov.uk,Slough,http://www.slough.gov.uk,,,2014-09-10,fhrs_5_en-GB,5,,FHRS,0
254876,,149 Farnham Road,,Slough,Sainsbury's,Retailers - supermarkets/hypermarkets,7840,0,,511879,0,,51.52482300000000,47797,885,foodandsafety@slough.gov.uk,Slough,http://www.slough.gov.uk,-0.61603300000000,SL1 4XP,2012-11-06,fhrs_5_en-GB,5,,FHRS,0
254877,,78 Uxbridge Road,,Slough,Sainsbury's Supermarket Ltd.,Retailers - supermarkets/hypermarkets,7840,5,,512049,5,,51.50818700000000,55620,885,foodandsafety@slough.gov.uk,Slough,http://www.slough.gov.uk,-0.57912900000000,SL1 1SU,2014-09-25,fhrs_5_en-GB,5,,FHRS,5
254878,,324 Farnham Road,,Slough,Salam (UK) Ltd,Retailers - other,4613,10,,512168,10,,51.52613800000000,97309,885,foodandsafety@slough.gov.uk,Slough,http://www.slough.gov.uk,-0.61548800000000,SL2 1BT,2012-11-29,fhrs_3_en-GB,3,,FHRS,10
254879,Salt Hill Park,Bath Road,,Slough,Salt Hill Cafe,Restaurant/Cafe/Canteen,1,5,,511992,5,,51.51236200000000,53259,885,foodandsafety@slough.gov.uk,Slough,http://www.slough.gov.uk,-0.60782100000000,SL1 3SR,2014-08-11,fhrs_5_en-GB,5,,FHRS,5
254880,,16 Bath Road,,Slough,Salt Hill Care Centre,Hospitals/Childcare/Caring Premises,5,5,,512119,5,,51.51126100000000,96919,885,foodandsafety@slough.gov.uk,Slough,http://www.slough.gov.uk,-0.60141300000000,SL1 3SA,2014-08-22,fhrs_5_en-GB,5,,FHRS,5
254881,,86 Bath Road,,Slough,Salt Hill Food & Wine,Retailers - other,4613,10,,511995,10,,51.51221600000000,53268,885,foodandsafety@slough.gov.uk,Slough,http://www.slough.gov.uk,-0.60990100000000,SL1 3SY,2013-08-01,fhrs_3_en-GB,3,,FHRS,10
254882,The Salvation Army,Stoke Road,,Slough,Salvation Army Lunch Club,Takeaway/sandwich shop,7844,10,,511749,5,,51.51508400000000,35282,885,foodandsafety@slough.gov.uk,Slough,http://www.slough.gov.uk,-0.59251900000000,SL2 5BW,2012-02-10,fhrs_4_en-GB,4,,FHRS,5
254883,Chalvey Community Centre,P.O Box 2650,,The Green,SANAS,Restaurant/Cafe/Canteen,1,10,,729667,5,,51.50604300000000,97226,885,foodandsafety@slough.gov.uk,Slough,http://www.slough.gov.uk,-0.61033400000000,SL1 2SP,2014-11-29,fhrs_4_en-GB,4,,FHRS,5
254884,,18 Woodland Avenue,,Slough,Sandhu Foodstores,Retailers - other,4613,10,,511481,5,,51.51721100000000,1314,885,foodandsafety@slough.gov.uk,Slough,http://www.slough.gov.uk,-0.60725500000000,SL1 3BU,2011-11-30,fhrs_3_en-GB,3,,FHRS,10
254885,,541 Ipswich Road,,Slough,Sandwich Warehouse,Takeaway/sandwich shop,7844,10,,511880,10,,51.52015700000000,47800,885,foodandsafety@slough.gov.uk,Slough,http://www.slough.gov.uk,-0.62836800000000,SL1 4EP,2013-02-07,fhrs_3_en-GB,3,,FHRS,5
254886,,,,,Sarita's Cupcakery,Other catering premises,7841,10,,512078,0,,,56963,885,foodandsafety@slough.gov.uk,Slough,http://www.slough.gov.uk,,,2011-01-21,fhrs_4_en-GB,4,,FHRS,5
254887,,12 Mirador Crescent,,Slough,Savers Supermarket,Retailers - other,4613,10,,511479,10,,51.51770800000000,1307,885,foodandsafety@slough.gov.uk,Slough,http://www.slough.gov.uk,-0.57752100000000,SL2 5JX,2014-08-04,fhrs_3_en-GB,3,,FHRS,10
254888,,,,,Sav's Bakes,Other catering premises,7841,5,,729674,0,,,98431,885,foodandsafety@slough.gov.uk,Slough,http://www.slough.gov.uk,,,2015-01-14,fhrs_5_en-GB,5,,FHRS,0
254889,Freestone Yard,Park Street,,Colnbrook,Set Breaks Limited,Hospitals/Childcare/Caring Premises,5,10,,511682,5,,51.48264900000000,34678,885,foodandsafety@slough.gov.uk,Slough,http://www.slough.gov.uk,-0.52015600000000,SL3 0HS,2012-03-27,fhrs_4_en-GB,4,,FHRS,5
254890,,12 Park Street,,Slough,Shahzad Tandoori,Restaurant/Cafe/Canteen,1,5,,511504,10,,51.50755800000000,16254,885,foodandsafety@slough.gov.uk,Slough,http://www.slough.gov.uk,-0.59109400000000,SL1 1PD,2014-05-29,fhrs_3_en-GB,3,,FHRS,10
254891,Lion House,Petersfield Avenue,,Slough,Shakha Siyan School,School/college/university,7845,,,512231,,,51.51354100000000,97493,885,foodandsafety@slough.gov.uk,Slough,http://www.slough.gov.uk,-0.58835900000000,SL2 5DN,,fhrs_exempt_en-GB,Exempt,,FHRS,
254892,3 Upton Lea Parade,Wexham Road,,Wexham,Shanrose,Retailers - other,4613,0,,700611,0,,51.51722100000000,3455,885,foodandsafety@slough.gov.uk,Slough,http://www.slough.gov.uk,-0.57884800000000,SL2 5JU,2014-09-15,fhrs_5_en-GB,5,,FHRS,5
254893,,,,,Sharmila Joshi,Other catering premises,7841,5,,531074,5,,,60268,885,foodandsafety@slough.gov.uk,Slough,http://www.slough.gov.uk,,,2013-03-14,fhrs_5_en-GB,5,,FHRS,0
254894,,85 London Road,,Slough,Shell Slough East,Retailers - other,4613,5,,714744,5,,51.50202500000000,97668,885,foodandsafety@slough.gov.uk,Slough,http://www.slough.gov.uk,-0.56632500000000,SL3 7RS,2014-11-05,fhrs_5_en-GB,5,,FHRS,5
254895,,17 Pitts Road,,Slough,Shiloh Pentecostal Church,Other catering premises,7841,,,511843,,,51.51452900000000,45846,885,foodandsafety@slough.gov.uk,Slough,http://www.slough.gov.uk,-0.61543700000000,SL1 3XG,2010-08-05,fhrs_exempt_en-GB,Exempt,,FHRS,
254896,,198 High Street,,Slough,Shoppers Pride Amusements,Other catering premises,7841,0,,511476,0,,51.50774000000000,11030,885,foodandsafety@slough.gov.uk,Slough,http://www.slough.gov.uk,-0.58977700000000,SL1 1JS,2013-12-06,fhrs_5_en-GB,5,,FHRS,0
254897,Sikh Temple,Woodland Avenue,,Slough,Sikh Temple,Other catering premises,7841,10,,511675,15,,51.51721100000000,34515,885,foodandsafety@slough.gov.uk,Slough,http://www.slough.gov.uk,-0.60725500000000,SL1 3BU,2014-11-27,fhrs_2_en-GB,2,,FHRS,15
254898,,,,,Simply Delicious Cakes,Hospitals/Childcare/Caring Premises,5,5,,512130,5,,,96954,885,foodandsafety@slough.gov.uk,Slough,http://www.slough.gov.uk,,,2011-08-19,fhrs_5_en-GB,5,,FHRS,5
254899,,82 Knolton Way,,Slough,Sklep Polski Smaczek,Distributors/Transporters,7,10,,512137,5,,51.52286100000000,97043,885,foodandsafety@slough.gov.uk,Slough,http://www.slough.gov.uk,-0.57456400000000,SL2 5TL,2014-11-03,fhrs_4_en-GB,4,,FHRS,5
254900,35 The Observatory,High Street,,Slough,Skoops,Restaurant/Cafe/Canteen,1,10,,511928,5,,51.50870200000000,50917,885,foodandsafety@slough.gov.uk,Slough,http://www.slough.gov.uk,-0.58976200000000,SL1 1LE,2013-10-11,fhrs_4_en-GB,4,,FHRS,5
254901,,38 Stoke Poges Lane,,Slough,Sky Fries,Takeaway/sandwich shop,7844,10,,511817,15,,51.51680000000000,42122,885,foodandsafety@slough.gov.uk,Slough,http://www.slough.gov.uk,-0.59996100000000,SL1 3PG,2014-09-22,fhrs_2_en-GB,2,,FHRS,10
254902,7-8 Belgrave Parade,Bradley Road,,Slough,Sky Superstore,Retailers - other,4613,10,,511868,10,,51.51667700000000,474,885,foodandsafety@slough.gov.uk,Slough,http://www.slough.gov.uk,-0.60013800000000,SL1 3PR,2010-03-08,fhrs_3_en-GB,3,,FHRS,5
254903,Brunel Bus Station,Brunel Way,,Slough,SL1 Coffee Station Limited,Restaurant/Cafe/Canteen,1,10,,512127,10,,51.51165200000000,96936,885,foodandsafety@slough.gov.uk,Slough,http://www.slough.gov.uk,-0.59279800000000,SL1 1XN,2014-09-25,fhrs_3_en-GB,3,,FHRS,5
254904,,,,,Slice of Time,Other catering premises,7841,10,,521199,5,,,97415,885,foodandsafety@slough.gov.uk,Slough,http://www.slough.gov.uk,,,2013-03-05,fhrs_4_en-GB,4,,FHRS,0
254905,"Langley Pavillion, Memorial Ha",Langley Road,,Slough,Slough African and Caribbean 50+,Other catering premises,7841,10,,511999,5,,51.50360200000000,53458,885,foodandsafety@slough.gov.uk,Slough,http://www.slough.gov.uk,-0.54619000000000,SL3 8BS,2011-10-27,fhrs_3_en-GB,3,,FHRS,10
254906,,50 Chalvey Road East,,Slough,Slough Bowls Club,Pub/bar/nightclub,7843,5,,511520,5,,51.50599700000000,16338,885,foodandsafety@slough.gov.uk,Slough,http://www.slough.gov.uk,-0.60117100000000,SL1 2LR,2010-08-10,fhrs_5_en-GB,5,,FHRS,5
254907,Slough Bus Station,Brunel Way,,Slough,Slough Canteen Committee at First Buses,Restaurant/Cafe/Canteen,1,5,,512207,5,,51.51165200000000,97462,885,foodandsafety@slough.gov.uk,Slough,http://www.slough.gov.uk,-0.59279800000000,SL1 1XN,2013-07-03,fhrs_5_en-GB,5,,FHRS,5
254908,Slough Centre Nursery School,Buckingham Avenue East,,Slough,Slough Centre Nursery School,School/college/university,7845,5,,531072,5,,51.52003700000000,33202,885,foodandsafety@slough.gov.uk,Slough,http://www.slough.gov.uk,-0.61354000000000,SL1 3EA,2013-03-28,fhrs_5_en-GB,5,,FHRS,5
254909,,247 Farnham Road,,Slough,Slough Food & Wine,Retailers - other,4613,10,,512118,5,,51.52735800000000,96894,885,foodandsafety@slough.gov.uk,Slough,http://www.slough.gov.uk,-0.61672000000000,SL2 1DE,2013-01-23,fhrs_3_en-GB,3,,FHRS,10
254910,Hockey Club,Upton Court Road,,Slough,Slough Hockey Club,Pub/bar/nightclub,7843,10,,511859,10,,51.49642900000000,46697,885,foodandsafety@slough.gov.uk,Slough,http://www.slough.gov.uk,-0.57345800000000,SL3 7LT,2014-10-07,fhrs_3_en-GB,3,,FHRS,10
254911,Street Record,Burlington Avenue,,Slough,Slough Homeless Our Concern,Hospitals/Childcare/Caring Premises,5,20,,511766,10,,,36374,885,foodandsafety@slough.gov.uk,Slough,http://www.slough.gov.uk,,,2014-11-28,fhrs_1_en-GB,1,,FHRS,15
254912,Irish Society Club,Sheehy Way,,Slough,Slough Irish Club,Pub/bar/nightclub,7843,5,,511546,5,,51.51846000000000,18087,885,foodandsafety@slough.gov.uk,Slough,http://www.slough.gov.uk,-0.57646000000000,SL2 5SS,2014-11-14,fhrs_5_en-GB,5,,FHRS,5
254913,,111-113 Bath Road,,Slough,Slough Kebab and Grill,Takeaway/sandwich shop,7844,5,,512101,5,,51.51240700000000,7753,885,foodandsafety@slough.gov.uk,Slough,http://www.slough.gov.uk,-0.61313700000000,SL1 3UW,2014-07-25,fhrs_5_en-GB,5,,FHRS,5
254914,,4 Park Street,,Slough,Slough Kebabish,Takeaway/sandwich shop,7844,10,,511971,10,,51.50755800000000,52535,885,foodandsafety@slough.gov.uk,Slough,http://www.slough.gov.uk,-0.59109400000000,SL1 1PD,2014-07-07,fhrs_3_en-GB,3,,FHRS,5
254915,Esso Service Station,395 Bath Road,,Slough,Slough Service Station West,Retailers - other,4613,0,,512108,0,,51.51960000000000,9210,885,foodandsafety@slough.gov.uk,Slough,http://www.slough.gov.uk,-0.64468600000000,SL1 5QL,2012-10-18,fhrs_5_en-GB,5,,FHRS,0
254916,,2 Ladbrooke Road,,Slough,Slough YMCA Hangout,Restaurant/Cafe/Canteen,1,5,,512053,5,,51.50554300000000,55635,885,foodandsafety@slough.gov.uk,Slough,http://www.slough.gov.uk,-0.60988800000000,SL1 2SR,2010-10-07,fhrs_5_en-GB,5,,FHRS,5
254917,Heathrow Marriott,Ditton Road,,Slough,Slough/Windsor Marriott Hotel,Hotel/bed & breakfast/guest house,7842,0,,511486,0,,51.49257000000000,13346,885,foodandsafety@slough.gov.uk,Slough,http://www.slough.gov.uk,-0.54701600000000,SL3 8PT,2012-11-21,fhrs_5_en-GB,5,,FHRS,5
254918,,288 Farnham Road,,Slough,Smaczek - Delikatesy Polskie,Retailers - other,4613,10,,542754,5,,51.52487600000000,97558,885,foodandsafety@slough.gov.uk,Slough,http://www.slough.gov.uk,-0.61516600000000,SL1 4XL,2013-04-25,fhrs_4_en-GB,4,,FHRS,5
254919,,258 Farnham Road,,Slough,Smaczek (Polski Skelp),Retailers - other,4613,10,,511951,10,,51.52487600000000,51948,885,foodandsafety@slough.gov.uk,Slough,http://www.slough.gov.uk,-0.61516600000000,SL1 4XL,2014-05-14,fhrs_3_en-GB,3,,FHRS,5
254920,,334 Bath Road,,Slough,Smart Cafe,Restaurant/Cafe/Canteen,1,10,,511959,10,,51.52049800000000,52274,885,foodandsafety@slough.gov.uk,Slough,http://www.slough.gov.uk,-0.64220900000000,SL1 6JA,2013-04-16,fhrs_3_en-GB,3,,FHRS,10
254921,,3a Church Street,,Slough,Smokeys Grill,Restaurant/Cafe/Canteen,1,10,,512176,10,,51.50836300000000,97340,885,foodandsafety@slough.gov.uk,Slough,http://www.slough.gov.uk,-0.59297100000000,SL1 1PQ,2014-03-14,fhrs_3_en-GB,3,,FHRS,10
254922,,293 High Street,,Slough,Snappy Tomato Pizza & Kabul Palace,Takeaway/sandwich shop,7844,10,,511632,10,,51.50765000000000,32372,885,foodandsafety@slough.gov.uk,Slough,http://www.slough.gov.uk,-0.58604800000000,SL1 1BD,2014-08-14,fhrs_3_en-GB,3,,FHRS,10
254923,Masterfoods,Dundee Road,,Slough,Sodexho Food Services at Masterfoods,Restaurant/Cafe/Canteen,1,5,,511498,0,,51.52692900000000,15477,885,foodandsafety@slough.gov.uk,Slough,http://www.slough.gov.uk,-0.63071600000000,SL1 4LG,2011-11-15,fhrs_5_en-GB,5,,FHRS,5
254924,,11 Stoke Poges Lane,,Slough,Sodexo at GSK,Restaurant/Cafe/Canteen,1,0,,512209,0,,51.51446600000000,97464,885,foodandsafety@slough.gov.uk,Slough,http://www.slough.gov.uk,-0.59949900000000,SL1 3NW,2012-01-05,fhrs_5_en-GB,5,,FHRS,5
254925,,227 Bath Road,,Slough,Sodexo at McAfee International,Other catering premises,7841,5,,511760,5,,51.51871400000000,35468,885,foodandsafety@slough.gov.uk,Slough,http://www.slough.gov.uk,-0.63179800000000,SL1 5PP,2011-11-09,fhrs_5_en-GB,5,,FHRS,5
254926,Wexham Park Hospital,Wexham Street,,Slough,Sodexo Healthcare Ltd at Postgraduate Medical Centre,Hospitals/Childcare/Caring Premises,5,5,,511569,5,,51.53314600000000,25577,885,foodandsafety@slough.gov.uk,Slough,http://www.slough.gov.uk,-0.57513700000000,SL2 4HL,2013-05-01,fhrs_5_en-GB,5,,FHRS,5
254927,Wexham Park Hospital,Wexham Street,,Slough,Sodexo Healthcare Ltd at Wexham Park Hospital,Hospitals/Childcare/Caring Premises,5,5,,511978,5,,51.53137600000000,52724,885,foodandsafety@slough.gov.uk,Slough,http://www.slough.gov.uk,-0.57672000000000,SL2 4GE,2014-07-01,fhrs_5_en-GB,5,,FHRS,5
254928,,1A Baylis Parade,,Slough,Southern Fried Chicken Limited,Restaurant/Cafe/Canteen,1,20,,511893,20,,51.51988400000000,48609,885,foodandsafety@slough.gov.uk,Slough,http://www.slough.gov.uk,-0.59992400000000,SL1 3LF,2014-12-09,fhrs_0_en-GB,0,,FHRS,20
254929,,35-37 Stoke Road,,Slough,Spar,Retailers - other,4613,10,,512050,5,,51.51396300000000,55621,885,foodandsafety@slough.gov.uk,Slough,http://www.slough.gov.uk,-0.59353400000000,SL2 5AH,2010-09-15,fhrs_4_en-GB,4,,FHRS,5
254930,Kidde Graviner,Mathisen Way,,Poyle,Special Catering Services at Kidde Graviner Limited,Restaurant/Cafe/Canteen,1,5,,512206,5,,51.47674200000000,97459,885,foodandsafety@slough.gov.uk,Slough,http://www.slough.gov.uk,-0.51173600000000,SL3 0HB,2011-12-20,fhrs_5_en-GB,5,,FHRS,5
254931,,2 Alpha Street North,,Slough,Spice 21,Takeaway/sandwich shop,7844,10,,619116,5,,51.50686800000000,97967,885,foodandsafety@slough.gov.uk,Slough,http://www.slough.gov.uk,-0.58906900000000,SL1 1RB,2013-11-08,fhrs_4_en-GB,4,,FHRS,5
254932,,,,,Spuds on the Run,Mobile caterer,7846,10,,591254,5,,,97413,885,foodandsafety@slough.gov.uk,Slough,http://www.slough.gov.uk,,,2013-09-30,fhrs_4_en-GB,4,,FHRS,5
254933,Slough Railway Station,Brunel Way,,Slough,SSP- Pumpkin,Restaurant/Cafe/Canteen,1,5,,511668,5,,51.51074400000000,34213,885,foodandsafety@slough.gov.uk,Slough,http://www.slough.gov.uk,-0.59054900000000,SL1 1XW,2014-04-17,fhrs_5_en-GB,5,,FHRS,5
254934,,84 St Andrews Way,,Slough,St Andrew's Food & Wine,Retailers - other,4613,10,,511526,10,,51.51412800000000,16410,885,foodandsafety@slough.gov.uk,Slough,http://www.slough.gov.uk,-0.64969100000000,SL1 5LJ,2012-06-06,fhrs_3_en-GB,3,,FHRS,5
254935,,2 Merton Road,,Slough,St Andrew's Methodist Church,Other catering premises,7841,,,511754,,,51.50586500000000,35332,885,foodandsafety@slough.gov.uk,Slough,http://www.slough.gov.uk,-0.58639100000000,SL1 1QW,2008-02-12,fhrs_exempt_en-GB,Exempt,,FHRS,
254936,,7 Harrison Way,,Slough,St Andrews Way News,Retailers - other,4613,,,511475,,,51.51486200000000,10312,885,foodandsafety@slough.gov.uk,Slough,http://www.slough.gov.uk,-0.65014400000000,SL1 5LG,2010-03-24,fhrs_exempt_en-GB,Exempt,,FHRS,
254937,,99 London Road,,Slough,St Francis Guest House,Hotel/bed & breakfast/guest house,7842,0,,511503,0,,51.50202500000000,16228,885,foodandsafety@slough.gov.uk,Slough,http://www.slough.gov.uk,-0.56632500000000,SL3 7RS,2012-11-01,fhrs_5_en-GB,5,,FHRS,0
254938,St Josephs Catholic High Schoo,Shaggy Calf Lane,,Slough,St Josephs RC High School,School/college/university,7845,,,680772,,,51.51933700000000,55596,885,foodandsafety@slough.gov.uk,Slough,http://www.slough.gov.uk,-0.58652200000000,SL2 5HW,,fhrs_awaitinginspection_en-GB,AwaitingInspection,,FHRS,
254939,,38 Herschel Street,,Slough,Star Karahi,Restaurant/Cafe/Canteen,1,5,,511819,5,,51.50761500000000,42745,885,foodandsafety@slough.gov.uk,Slough,http://www.slough.gov.uk,-0.59204300000000,SL1 1PB,2013-06-21,fhrs_5_en-GB,5,,FHRS,5
254940,,146 - 149 High Street Slough,,,Starbucks Coffee Company (UK) Ltd,Restaurant/Cafe/Canteen,1,0,,511934,0,,51.50851700000000,51332,885,foodandsafety@slough.gov.uk,Slough,http://www.slough.gov.uk,-0.59234700000000,SL1 1JP,2013-02-06,fhrs_5_en-GB,5,,FHRS,5
254941,,163 Farnham Road,,Slough,Stoby's Ltd,Takeaway/sandwich shop,7844,10,,511700,10,,51.52482300000000,34854,885,foodandsafety@slough.gov.uk,Slough,http://www.slough.gov.uk,-0.61603300000000,SL1 4XP,2013-06-06,fhrs_3_en-GB,3,,FHRS,10
254942,,,,,Strawberrycompany,Other catering premises,7841,10,,521200,5,,,97430,885,foodandsafety@slough.gov.uk,Slough,http://www.slough.gov.uk,,,2013-02-27,fhrs_4_en-GB,4,,FHRS,5
254943,,22 Windsor Road,,Slough,Subway,Takeaway/sandwich shop,7844,5,,511903,5,,51.50863600000000,49236,885,foodandsafety@slough.gov.uk,Slough,http://www.slough.gov.uk,-0.59620500000000,SL1 2EJ,2014-08-05,fhrs_5_en-GB,5,,FHRS,5
254944,,250 High Street,,Langley,Subway,Takeaway/sandwich shop,7844,5,,511918,0,,51.50260200000000,50474,885,foodandsafety@slough.gov.uk,Slough,http://www.slough.gov.uk,-0.54169800000000,SL3 8HA,2014-09-02,fhrs_5_en-GB,5,,FHRS,5
254945,,23B Buckingham Avenue,,Slough,Subway,Takeaway/sandwich shop,7844,5,,511894,5,,51.52247000000000,48639,885,foodandsafety@slough.gov.uk,Slough,http://www.slough.gov.uk,-0.62623700000000,SL1 4QA,2011-11-29,fhrs_5_en-GB,5,,FHRS,0
254946,1 Queensmere,High Street,,Slough,Subway,Restaurant/Cafe/Canteen,1,5,,511690,5,,51.50865600000000,34758,885,foodandsafety@slough.gov.uk,Slough,http://www.slough.gov.uk,-0.59044100000000,SL1 1DB,2014-07-07,fhrs_5_en-GB,5,,FHRS,5
254947,,284 Farnham Road,,Slough,Subway Restaurant,Restaurant/Cafe/Canteen,1,10,,705674,10,,51.52487600000000,98501,885,foodandsafety@slough.gov.uk,Slough,http://www.slough.gov.uk,-0.61516600000000,SL1 4XL,2014-09-04,fhrs_3_en-GB,3,,FHRS,5
254948,,2 Aldborough Spur,,Slough,Super Soft,Mobile caterer,7846,10,,511864,10,,51.51959600000000,46855,885,foodandsafety@slough.gov.uk,Slough,http://www.slough.gov.uk,-0.60294500000000,SL1 3EN,2010-03-26,fhrs_3_en-GB,3,,FHRS,10
254949,,5 Essex Avenue,,Slough,Super Whip,Mobile caterer,7846,10,,577306,5,,51.52814700000000,97803,885,foodandsafety@slough.gov.uk,Slough,http://www.slough.gov.uk,-0.61276000000000,SL2 1DP,2013-07-29,fhrs_4_en-GB,4,,FHRS,5
254950,,292 Farnham Road,,Slough,Superdrug,Retailers - other,4613,,,511614,,,51.52487600000000,3095,885,foodandsafety@slough.gov.uk,Slough,http://www.slough.gov.uk,-0.61516600000000,SL1 4XL,2006-03-21,fhrs_exempt_en-GB,Exempt,,FHRS,
254951,Pippins School,Raymond Close,,Poyle,Surrey Commercial Services at Pippins School,School/college/university,7845,5,,512233,0,,51.48110100000000,97495,885,foodandsafety@slough.gov.uk,Slough,http://www.slough.gov.uk,-0.51081600000000,SL3 0PR,2012-10-24,fhrs_5_en-GB,5,,FHRS,5
254952,,,,,Susan McCabe,Hospitals/Childcare/Caring Premises,5,10,,512022,5,,,54497,885,foodandsafety@slough.gov.uk,Slough,http://www.slough.gov.uk,,,2010-06-21,fhrs_4_en-GB,4,,FHRS,5
254953,,53 Cheviot Road,,Langley,Sweet News,Retailers - other,4613,5,,511701,5,,51.49369200000000,3486,885,foodandsafety@slough.gov.uk,Slough,http://www.slough.gov.uk,-0.54317800000000,SL3 8UE,2010-04-22,fhrs_5_en-GB,5,,FHRS,5
254954,,75-77 Queensmere Road,,Slough,Tangs Oriental Buffet Restaurant,Restaurant/Cafe/Canteen,1,,,729680,,,51.50954400000000,98525,885,foodandsafety@slough.gov.uk,Slough,http://www.slough.gov.uk,-0.59250300000000,SL1 1DG,,fhrs_awaitinginspection_en-GB,AwaitingInspection,,FHRS,
254955,Tantric Blue,Colnbrook By Pass,,Colnbrook,Tantric Blue,Restaurant/Cafe/Canteen,1,10,,714748,10,,51.48471200000000,98195,885,foodandsafety@slough.gov.uk,Slough,http://www.slough.gov.uk,-0.51120300000000,SL3 0EH,2014-11-06,fhrs_3_en-GB,3,,FHRS,10
254956,,9a Willow Road,,Poyle,Taste- Buds,Restaurant/Cafe/Canteen,1,5,,511841,5,,51.47532000000000,45795,885,foodandsafety@slough.gov.uk,Slough,http://www.slough.gov.uk,-0.51303500000000,SL3 0BS,2012-05-02,fhrs_5_en-GB,5,,FHRS,5
254957,,14 Chalvey Road West,,Slough,Tasty Hut,Takeaway/sandwich shop,7844,10,,511831,10,,51.50669000000000,45189,885,foodandsafety@slough.gov.uk,Slough,http://www.slough.gov.uk,-0.60499700000000,SL1 2PN,2013-06-04,fhrs_3_en-GB,3,,FHRS,5
254958,,,,,Tea with Taste,Other catering premises,7841,0,,729669,0,,,97808,885,foodandsafety@slough.gov.uk,Slough,http://www.slough.gov.uk,,,2014-11-17,fhrs_5_en-GB,5,,FHRS,0
254959,,187 Farnham Road,,Slough,Tenesee Fried Chicken,Takeaway/sandwich shop,7844,10,,511835,5,,51.52558000000000,45519,885,foodandsafety@slough.gov.uk,Slough,http://www.slough.gov.uk,-0.61616800000000,SL1 4XS,2013-05-23,fhrs_3_en-GB,3,,FHRS,10
254960,,150 Burnham Lane,,Slough,Tesco,Retailers - supermarkets/hypermarkets,7840,5,,512012,5,,51.52790100000000,53841,885,foodandsafety@slough.gov.uk,Slough,http://www.slough.gov.uk,-0.65020600000000,SL1 6LE,2012-07-31,fhrs_5_en-GB,5,,FHRS,5
254961,,1-7 Grasmere Parade,,Slough,Tesco Express,Retailers - supermarkets/hypermarkets,7840,5,,511890,5,,51.51837100000000,48396,885,foodandsafety@slough.gov.uk,Slough,http://www.slough.gov.uk,-0.57876900000000,SL2 5HZ,2012-08-28,fhrs_4_en-GB,4,,FHRS,10
254962,,84 London Road,,Slough,Tesco Express,Retailers - supermarkets/hypermarkets,7840,5,,511801,5,,51.50140900000000,39898,885,foodandsafety@slough.gov.uk,Slough,http://www.slough.gov.uk,-0.56673300000000,SL3 7HR,2015-01-07,fhrs_5_en-GB,5,,FHRS,5
254963,Tesco Stores Limited,Wellington Street,,Slough,Tesco Extra,Retailers - supermarkets/hypermarkets,7840,10,,511983,10,,51.51074400000000,528,885,foodandsafety@slough.gov.uk,Slough,http://www.slough.gov.uk,-0.59054900000000,SL1 1XW,2011-04-04,fhrs_3_en-GB,3,,FHRS,10
254964,Rising Sun,18-20 Windsor Road,,Slough,Thai Diamond Cuisine @ The Rising Sun,Restaurant/Cafe/Canteen,1,10,,656366,5,,51.50863600000000,97971,885,foodandsafety@slough.gov.uk,Slough,http://www.slough.gov.uk,-0.59620500000000,SL1 2EJ,2014-03-14,fhrs_3_en-GB,3,,FHRS,10
254965,,19 Stoke Road,,Slough,The 2nd Stop Public House,Pub/bar/nightclub,7843,10,,511513,10,,51.51396300000000,16303,885,foodandsafety@slough.gov.uk,Slough,http://www.slough.gov.uk,-0.59353400000000,SL2 5AH,2011-07-13,fhrs_3_en-GB,3,,FHRS,10
254966,,26 High Street,,Slough,The Ambrosia Bakery Ltd,Retailers - other,4613,10,,705656,10,,51.50989700000000,97622,885,foodandsafety@slough.gov.uk,Slough,http://www.slough.gov.uk,-0.59795300000000,SL1 1EP,2014-09-23,fhrs_3_en-GB,3,,FHRS,10
254967,,151 Lower Cippenham Lane,,Slough,The Barleycorn,Pub/bar/nightclub,7843,10,,511724,10,,51.51439900000000,35004,885,foodandsafety@slough.gov.uk,Slough,http://www.slough.gov.uk,-0.63971000000000,SL1 5DS,2012-07-11,fhrs_3_en-GB,3,,FHRS,10
254968,The Village,102-110 High Street,,Slough,The Cafe,Restaurant/Cafe/Canteen,1,5,,511993,5,,51.50903000000000,53260,885,foodandsafety@slough.gov.uk,Slough,http://www.slough.gov.uk,-0.59459400000000,SL1 1HL,2014-08-06,fhrs_5_en-GB,5,,FHRS,5
254969,Slough Community Centre Associ,Farnham Road,,Slough,The Centre Conference Venue,Other catering premises,7841,10,,511540,5,,51.51969400000000,18031,885,foodandsafety@slough.gov.uk,Slough,http://www.slough.gov.uk,-0.61419900000000,SL1 4UT,2013-01-07,fhrs_4_en-GB,4,,FHRS,5
254970,,252 Stoke Poges Lane,,Slough,The Cherry Pickers Public House,Pub/bar/nightclub,7843,20,,511737,10,,51.52442600000000,35114,885,foodandsafety@slough.gov.uk,Slough,http://www.slough.gov.uk,-0.59851600000000,SL1 3LJ,2013-11-08,fhrs_1_en-GB,1,,FHRS,10
254971,The Chestnuts,St Marys Road,,Slough,The Chestnuts Public House,Pub/bar/nightclub,7843,10,,511733,10,,51.51060900000000,35076,885,foodandsafety@slough.gov.uk,Slough,http://www.slough.gov.uk,-0.55876400000000,SL3 6BZ,2011-05-10,fhrs_3_en-GB,3,,FHRS,5
254972,,39 Stoke Road,,Slough,The Chip Box,Takeaway/sandwich shop,7844,10,,511895,5,,51.51396300000000,48832,885,foodandsafety@slough.gov.uk,Slough,http://www.slough.gov.uk,-0.59353400000000,SL2 5AH,2014-09-01,fhrs_4_en-GB,4,,FHRS,5
254973,Church Of God Of Prophecy,Wentworth Avenue,,Slough,The Church Of God Of Prophecy,Other catering premises,7841,10,,511649,5,,51.53436300000000,33311,885,foodandsafety@slough.gov.uk,Slough,http://www.slough.gov.uk,-0.62975800000000,SL2 2DH,2013-06-06,fhrs_4_en-GB,4,,FHRS,5
254974,,11 St Laurence Way,,Slough,"The Cookie Bar, The Coin Building",Restaurant/Cafe/Canteen,1,10,,705657,5,,51.50377000000000,97807,885,foodandsafety@slough.gov.uk,Slough,http://www.slough.gov.uk,-0.58863200000000,SL1 2BW,2014-09-04,fhrs_3_en-GB,3,,FHRS,10
254975,,29 Elmshott Lane,,Slough,The Co-operative Group,Retailers - supermarkets/hypermarkets,7840,5,,511502,5,,51.51846100000000,15973,885,foodandsafety@slough.gov.uk,Slough,http://www.slough.gov.uk,-0.64493600000000,SL1 5QS,2011-02-13,fhrs_5_en-GB,5,,FHRS,5
254976,,,,,The Dainty Cake Company,Other catering premises,7841,10,,512072,5,,,56509,885,foodandsafety@slough.gov.uk,Slough,http://www.slough.gov.uk,,,2011-01-12,fhrs_4_en-GB,4,,FHRS,0
254977,The Earl Of Cornwall,Cippenham Lane,,Slough,The Earl of Cornwall,Pub/bar/nightclub,7843,5,,511559,5,,51.51194700000000,2395,885,foodandsafety@slough.gov.uk,Slough,http://www.slough.gov.uk,-0.62223000000000,SL1 2XN,2014-08-26,fhrs_5_en-GB,5,,FHRS,5
254978,,112 Albert Street,,Slough,The Greyhound,Hotel/bed & breakfast/guest house,7842,10,,511556,10,,51.50422000000000,2384,885,foodandsafety@slough.gov.uk,Slough,http://www.slough.gov.uk,-0.59089400000000,SL1 2AY,2012-04-04,fhrs_3_en-GB,3,,FHRS,10
254979,,110 Stoke Road,,Slough,The Grill Garden,Other catering premises,7841,20,,729671,15,,51.51531400000000,98337,885,foodandsafety@slough.gov.uk,Slough,http://www.slough.gov.uk,-0.59146000000000,SL2 5AP,2014-11-19,fhrs_1_en-GB,1,,FHRS,10
254980,,228 Trelawney Avenue,,Langley,The Haven Fishbar,Takeaway/sandwich shop,7844,10,,511595,5,,51.50216300000000,28124,885,foodandsafety@slough.gov.uk,Slough,http://www.slough.gov.uk,-0.55485200000000,SL3 7UD,2012-11-01,fhrs_3_en-GB,3,,FHRS,10
254981,Herschel Arms,22 Park Street,,Slough,The Herschel Arms,Pub/bar/nightclub,7843,10,,511560,5,,51.50691000000000,2404,885,foodandsafety@slough.gov.uk,Slough,http://www.slough.gov.uk,-0.59177700000000,SL1 1PS,2014-10-16,fhrs_3_en-GB,3,,FHRS,10
254982,,3-5 Meadfield Road,,Slough,The India,Restaurant/Cafe/Canteen,1,10,,511600,10,,51.50410400000000,28887,885,foodandsafety@slough.gov.uk,Slough,http://www.slough.gov.uk,-0.54169300000000,SL3 8HL,2014-09-02,fhrs_3_en-GB,3,,FHRS,10
254983,,250-252 Bath Road,,Slough,The Korean Food Company,Restaurant/Cafe/Canteen,1,10,,714751,10,,51.51984500000000,98447,885,foodandsafety@slough.gov.uk,Slough,http://www.slough.gov.uk,-0.63167800000000,SL1 4DX,2014-08-26,fhrs_3_en-GB,3,,FHRS,10
254984,"The Look Inn, Cippenham Lodge",Cippenham Lane,,Slough,The Look Inn Partnership,Other catering premises,7841,10,,511581,0,,51.51241500000000,25981,885,foodandsafety@slough.gov.uk,Slough,http://www.slough.gov.uk,-0.62455100000000,SL1 5AN,2012-10-11,fhrs_4_en-GB,4,,FHRS,5
254985,The Moon And Spoon,86 High Street,,Slough,The Moon and Spoon,Pub/bar/nightclub,7843,5,,511579,5,,51.50972700000000,25917,885,foodandsafety@slough.gov.uk,Slough,http://www.slough.gov.uk,-0.59651700000000,SL1 1EL,2012-01-23,fhrs_5_en-GB,5,,FHRS,5
254986,"First And Second Floors, The Old Bank House",20-22 High Street,,Slough,The Old Bank House,Takeaway/sandwich shop,7844,10,,512134,5,,51.51017500000000,97004,885,foodandsafety@slough.gov.uk,Slough,http://www.slough.gov.uk,-0.59865100000000,SL1 1EQ,2012-06-07,fhrs_4_en-GB,4,,FHRS,5
254987,,Spital Farm,,Colnbrook-by-pass,The Olive Shop,Retailers - other,4613,0,,521198,0,,51.48826000000000,97337,885,foodandsafety@slough.gov.uk,Slough,http://www.slough.gov.uk,-0.53445000000000,SL3 8QF,2013-02-27,fhrs_5_en-GB,5,,FHRS,0
254988,Manor Park Play Centre,Villiers Road,,Slough,The Olive Tree Montessori,Retailers - other,4613,10,,512136,5,,51.52832400000000,97015,885,foodandsafety@slough.gov.uk,Slough,http://www.slough.gov.uk,-0.60641200000000,SL2 1NP,2011-11-10,fhrs_4_en-GB,4,,FHRS,5
254989,The Ostrich Inn,High Street,,Colnbrook,The Ostrich Inn,Pub/bar/nightclub,7843,10,,511575,5,,51.48381400000000,25868,885,foodandsafety@slough.gov.uk,Slough,http://www.slough.gov.uk,-0.52554800000000,SL3 0JZ,2013-10-10,fhrs_3_en-GB,3,,FHRS,10
254990,Wexham Park Hospital,Wexham Street,,Slough,The Paragon Suite (Private Patients Wing),Hospitals/Childcare/Caring Premises,5,5,,511786,5,,51.53314600000000,38194,885,foodandsafety@slough.gov.uk,Slough,http://www.slough.gov.uk,-0.57513700000000,SL2 4HL,2010-07-27,fhrs_5_en-GB,5,,FHRS,5
254991,"Flat 1, The Pines",,,Slough,The Pines,Other catering premises,7841,0,,511981,0,,51.52693600000000,52773,885,foodandsafety@slough.gov.uk,Slough,http://www.slough.gov.uk,-0.57840100000000,SL2 4FJ,2011-02-28,fhrs_5_en-GB,5,,FHRS,0
254992,,37 Elmshott Lane,,Slough,The Prince of India,Restaurant/Cafe/Canteen,1,10,,511557,10,,51.51846100000000,2386,885,foodandsafety@slough.gov.uk,Slough,http://www.slough.gov.uk,-0.64493600000000,SL1 5QS,2011-02-22,fhrs_3_en-GB,3,,FHRS,10
254993,Queens Arms,Old Bath Road,,Colnbrook,The Queens Arms PH,Pub/bar/nightclub,7843,10,,511653,5,,51.48504800000000,33450,885,foodandsafety@slough.gov.uk,Slough,http://www.slough.gov.uk,-0.52856100000000,SL3 0LU,2012-01-10,fhrs_3_en-GB,3,,FHRS,10
254994,,140 Albert Street,,Slough,The Red Cow,Hotel/bed & breakfast/guest house,7842,10,,511514,10,,51.50489900000000,16304,885,foodandsafety@slough.gov.uk,Slough,http://www.slough.gov.uk,-0.59428800000000,SL1 2BU,2011-11-10,fhrs_3_en-GB,3,,FHRS,10
254995,The Red Lion,St Marys Road,,Langley,The Red Lion,Pub/bar/nightclub,7843,5,,511555,5,,51.50664300000000,2381,885,foodandsafety@slough.gov.uk,Slough,http://www.slough.gov.uk,-0.55430700000000,SL3 7EN,2012-10-04,fhrs_4_en-GB,4,,FHRS,10
254996,Rising Sun,18-20 Windsor Road,,Slough,The Rising Sun,Restaurant/Cafe/Canteen,1,10,,512116,10,,51.50863600000000,96890,885,foodandsafety@slough.gov.uk,Slough,http://www.slough.gov.uk,-0.59620500000000,SL1 2EJ,2012-07-11,fhrs_3_en-GB,3,,FHRS,10
254997,,312 High Street,,Slough,The Rose & Crown,Pub/bar/nightclub,7843,10,,511553,10,,51.50719300000000,2369,885,foodandsafety@slough.gov.uk,Slough,http://www.slough.gov.uk,-0.58612000000000,SL1 1NB,2014-09-11,fhrs_3_en-GB,3,,FHRS,10
254998,Rotunda Youth And Community Centre,Northampton Avenue,,Slough,The Rotunda Youth Centre,Hospitals/Childcare/Caring Premises,5,,,511661,,,51.51885800000000,34058,885,foodandsafety@slough.gov.uk,Slough,http://www.slough.gov.uk,-0.61274000000000,SL1 3BP,2007-01-29,fhrs_exempt_en-GB,Exempt,,FHRS,
254999,,126 Lower Cippenham Lane,,Slough,The Sandwich Van Ltd,Mobile caterer,7846,10,,656367,10,,51.51490300000000,97977,885,foodandsafety@slough.gov.uk,Slough,http://www.slough.gov.uk,-0.63890200000000,SL1 5EA,2014-02-11,fhrs_3_en-GB,3,,FHRS,10
255000,,875 Plymouth Road,,Slough,The Source,Other catering premises,7841,5,,511919,0,,51.52547200000000,50475,885,foodandsafety@slough.gov.uk,Slough,http://www.slough.gov.uk,-0.64154200000000,SL1 4LP,2012-04-24,fhrs_4_en-GB,4,,FHRS,10
255001,,57 Coleridge Crescent,,Colnbrook,The Taj Mahal,Restaurant/Cafe/Canteen,1,10,,511656,10,,51.48200200000000,33468,885,foodandsafety@slough.gov.uk,Slough,http://www.slough.gov.uk,-0.51597100000000,SL3 0QD,2014-09-04,fhrs_3_en-GB,3,,FHRS,10
255002,,55 Coleridge Crescent,,Poyle,The Village Sandwich Bar Cafe,Restaurant/Cafe/Canteen,1,10,,512157,10,,51.48200200000000,97236,885,foodandsafety@slough.gov.uk,Slough,http://www.slough.gov.uk,-0.51597100000000,SL3 0QD,2014-09-04,fhrs_3_en-GB,3,,FHRS,10
255003,,93-95 Stoke Road,,Slough,The Wine Company,Retailers - other,4613,10,,511866,10,,51.51595500000000,47145,885,foodandsafety@slough.gov.uk,Slough,http://www.slough.gov.uk,-0.63427300000000,SL1 5BJ,2010-10-29,fhrs_3_en-GB,3,,FHRS,10
255004,Long Close School,Upton Court Road,,Slough,Thomas Franks Ltd,School/college/university,7845,5,,607398,5,,51.50130400000000,97832,885,foodandsafety@slough.gov.uk,Slough,http://www.slough.gov.uk,-0.58620100000000,SL3 7LU,2014-11-27,fhrs_4_en-GB,4,,FHRS,10
255005,The Three Tuns,124 Bath Road,,Slough,Three Tuns,Restaurant/Cafe/Canteen,1,10,,512169,10,,51.51305900000000,97316,885,foodandsafety@slough.gov.uk,Slough,http://www.slough.gov.uk,-0.61432800000000,SL1 3XL,2014-08-11,fhrs_3_en-GB,3,,FHRS,10
255006,,109 Bath Road,,Chalvey,Three Tuns Cafe,Restaurant/Cafe/Canteen,1,20,,511856,15,,51.51240700000000,46564,885,foodandsafety@slough.gov.uk,Slough,http://www.slough.gov.uk,-0.61313700000000,SL1 3UW,2015-01-14,fhrs_1_en-GB,1,,FHRS,10
255007,,4 Chalvey Road East,,Slough,Timoor Munchies,Takeaway/sandwich shop,7844,20,,511826,10,,51.50623700000000,44251,885,foodandsafety@slough.gov.uk,Slough,http://www.slough.gov.uk,-0.60318100000000,SL1 2LX,2014-06-27,fhrs_1_en-GB,1,,FHRS,15
255008,,,,,Tita's Cakes,Other catering premises,7841,5,,714750,5,,,98418,885,foodandsafety@slough.gov.uk,Slough,http://www.slough.gov.uk,,,2014-11-05,fhrs_5_en-GB,5,,FHRS,0
255009,30-40 The Observatory,High Street,,Slough,TK Maxx,Retailers - other,4613,,,511681,,,51.50870200000000,34670,885,foodandsafety@slough.gov.uk,Slough,http://www.slough.gov.uk,-0.58976200000000,SL1 1LE,2010-03-08,fhrs_exempt_en-GB,Exempt,,FHRS,
255010,Parlaunt House,Parlaunt Road,,Langley,Toad Hall Nursery,Other catering premises,7841,5,,511563,5,,51.49936200000000,25198,885,foodandsafety@slough.gov.uk,Slough,http://www.slough.gov.uk,-0.53930900000000,SL3 8BB,2014-02-27,fhrs_5_en-GB,5,,FHRS,5
255011,Queensmere,High Street,,Slough,Tobacco Point,Retailers - other,4613,,,511706,,,,3488,885,foodandsafety@slough.gov.uk,Slough,http://www.slough.gov.uk,,,2009-07-09,fhrs_exempt_en-GB,Exempt,,FHRS,
255012,Travelodge,London Road,,Slough,Toby Carvery,Pub/bar/nightclub,7843,5,,511725,5,,51.49389100000000,35008,885,foodandsafety@slough.gov.uk,Slough,http://www.slough.gov.uk,-0.54618200000000,SL3 8PS,2013-08-20,fhrs_5_en-GB,5,,FHRS,5
255013,,Cippenham Lane,,Slough,Tommy Flynns,Restaurant/Cafe/Canteen,1,5,,656381,10,,,98107,885,foodandsafety@slough.gov.uk,Slough,http://www.slough.gov.uk,,,2014-04-15,fhrs_3_en-GB,3,,FHRS,10
255014,,71 Uxbridge Road,,Slough,Top One,Takeaway/sandwich shop,7844,20,,680773,15,,51.50899800000000,57192,885,foodandsafety@slough.gov.uk,Slough,http://www.slough.gov.uk,-0.58002600000000,SL1 1SG,2014-06-10,fhrs_1_en-GB,1,,FHRS,15
255015,,222 Farnham Road,,Slough,Tops Pizza,Takeaway/sandwich shop,7844,5,,511610,5,,51.52321900000000,30004,885,foodandsafety@slough.gov.uk,Slough,http://www.slough.gov.uk,-0.61498600000000,SL1 4XE,2014-07-28,fhrs_5_en-GB,5,,FHRS,5
255016,,85 London Road,,Slough,Total Service Station,Retailers - other,4613,10,,512110,5,,51.50202500000000,9220,885,foodandsafety@slough.gov.uk,Slough,http://www.slough.gov.uk,-0.56632500000000,SL3 7RS,2011-02-07,fhrs_4_en-GB,4,,FHRS,5
255017,Holiday Inn Express Heathrow T5,570 London Road,,Slough,Tratts,Restaurant/Cafe/Canteen,1,5,,512140,5,,51.48826000000000,97128,885,foodandsafety@slough.gov.uk,Slough,http://www.slough.gov.uk,-0.53445000000000,SL3 8QF,2012-03-06,fhrs_5_en-GB,5,,FHRS,0
255018,,Calder Way,,Poyle,Travelodge,Hotel/bed & breakfast/guest house,7842,5,,511927,5,,,50813,885,foodandsafety@slough.gov.uk,Slough,http://www.slough.gov.uk,,SL3 OBQ,2012-01-10,fhrs_5_en-GB,5,,FHRS,5
255019,,399 London Road,,Slough,Travelodge Langley,Hotel/bed & breakfast/guest house,7842,5,,512059,5,,51.49389100000000,55904,885,foodandsafety@slough.gov.uk,Slough,http://www.slough.gov.uk,-0.54618200000000,SL3 8PS,2010-12-08,fhrs_5_en-GB,5,,FHRS,5
255020,Travel Lodge,Herschel Street,,Slough,Travelodge Slough,Restaurant/Cafe/Canteen,1,0,,511860,0,,51.50798400000000,46698,885,foodandsafety@slough.gov.uk,Slough,http://www.slough.gov.uk,-0.59511600000000,SL1 1PG,2012-10-02,fhrs_5_en-GB,5,,FHRS,5
255021,,254 High Street,,Slough,Treatz Dessert Parlour,Restaurant/Cafe/Canteen,1,10,,512167,5,,51.50753200000000,97304,885,foodandsafety@slough.gov.uk,Slough,http://www.slough.gov.uk,-0.58814100000000,SL1 1JU,2014-08-08,fhrs_4_en-GB,4,,FHRS,5
255022,,5-7 Station Road,,Slough,Tummies,Restaurant/Cafe/Canteen,1,10,,511735,10,,51.52115900000000,35108,885,foodandsafety@slough.gov.uk,Slough,http://www.slough.gov.uk,-0.64497100000000,SL1 6JJ,2013-11-22,fhrs_3_en-GB,3,,FHRS,10
255023,,,,,Tummy Fillers,Hospitals/Childcare/Caring Premises,5,10,,512099,5,,,68511,885,foodandsafety@slough.gov.uk,Slough,http://www.slough.gov.uk,,,2011-11-10,fhrs_4_en-GB,4,,FHRS,5
255024,Unit 6-7,Queensmere Shopping Centre,,Slough,U Babuni Ltd,Retailers - other,4613,5,,521202,5,,51.50865600000000,97570,885,foodandsafety@slough.gov.uk,Slough,http://www.slough.gov.uk,-0.59044100000000,SL1 1DB,2013-02-21,fhrs_4_en-GB,4,,FHRS,10
255025,,39-41 Upton Park,,Slough,Upton Park Hotel,Hotel/bed & breakfast/guest house,7842,10,,511857,5,,51.50428400000000,46586,885,foodandsafety@slough.gov.uk,Slough,http://www.slough.gov.uk,-0.59626700000000,SL1 2DA,2013-11-04,fhrs_3_en-GB,3,,FHRS,10
255026,,132 Lower Cippenham Lane,,Slough,Village Fish & Chips,Takeaway/sandwich shop,7844,10,,511723,5,,51.51490300000000,34993,885,foodandsafety@slough.gov.uk,Slough,http://www.slough.gov.uk,-0.63890200000000,SL1 5EA,2013-05-23,fhrs_4_en-GB,4,,FHRS,5
255027,,High Street,,Colnbrook,Village Grill,Restaurant/Cafe/Canteen,1,10,,705673,10,,,98484,885,foodandsafety@slough.gov.uk,Slough,http://www.slough.gov.uk,,,2014-09-19,fhrs_3_en-GB,3,,FHRS,10
255028,,134 Lower Cippenham Lane,,Slough,Village Store,Retailers - other,4613,10,,511634,0,,51.51490300000000,32394,885,foodandsafety@slough.gov.uk,Slough,http://www.slough.gov.uk,-0.63890200000000,SL1 5EA,2014-08-26,fhrs_4_en-GB,4,,FHRS,5
255029,,3 Cippenham Lane,,Slough,Vincents Stores,Retailers - other,4613,10,,511528,10,,51.51877000000000,16419,885,foodandsafety@slough.gov.uk,Slough,http://www.slough.gov.uk,-0.63354000000000,SL1 5BU,2013-11-01,fhrs_3_en-GB,3,,FHRS,5
255030,,249 Wexham Road,,Wexham,Virks Wine Store,Retailers - other,4613,,,511501,,,51.51757900000000,15961,885,foodandsafety@slough.gov.uk,Slough,http://www.slough.gov.uk,-0.57872200000000,SL2 5JT,2009-08-18,fhrs_exempt_en-GB,Exempt,,FHRS,
255031,Skyways Hotel,19-21 London Road,,Slough,"Viva L'Italia, Slough",Restaurant/Cafe/Canteen,1,5,,512171,5,,51.50448300000000,97318,885,foodandsafety@slough.gov.uk,Slough,http://www.slough.gov.uk,-0.57173700000000,SL3 7RL,2013-01-10,fhrs_5_en-GB,5,,FHRS,5
255032,,60 Langley Road,,Langley,Voyage Care,Other catering premises,7841,5,,511769,5,,51.50548100000000,36640,885,foodandsafety@slough.gov.uk,Slough,http://www.slough.gov.uk,-0.56807500000000,SL3 7AD,2012-01-10,fhrs_5_en-GB,5,,FHRS,5
255033,,12 Middlegreen Road,,Langley,Voyage Care,Other catering premises,7841,5,,511673,5,,51.50678600000000,34425,885,foodandsafety@slough.gov.uk,Slough,http://www.slough.gov.uk,-0.56447500000000,SL3 7BN,2013-02-15,fhrs_5_en-GB,5,,FHRS,5
255034,Castle House,3 Bridge Street,,Colnbrook,Warmstore Ltd. T/A Nisa Local,Retailers - supermarkets/hypermarkets,7840,5,,512074,5,,51.48340400000000,56557,885,foodandsafety@slough.gov.uk,Slough,http://www.slough.gov.uk,-0.52154300000000,SL3 0JH,2014-09-19,fhrs_5_en-GB,5,,FHRS,5
255035,Community Hall,Weekes Drive,,Slough,Weekes Drive Community Hall,Other catering premises,7841,,,511545,,,51.50504600000000,18081,885,foodandsafety@slough.gov.uk,Slough,http://www.slough.gov.uk,-0.61341900000000,SL1 2TR,2012-01-05,fhrs_exempt_en-GB,Exempt,,FHRS,
255036,2 Langley Quay,Waterside Drive,,Slough,Wellingtons for Langley Hall,School/college/university,7845,5,,512144,5,,,97147,885,foodandsafety@slough.gov.uk,Slough,http://www.slough.gov.uk,,SL3 6EX,2014-11-27,fhrs_5_en-GB,5,,FHRS,5
255037,,230 High Street,,Slough,Wernham Hoggs,Pub/bar/nightclub,7843,10,,511791,5,,51.50753200000000,38592,885,foodandsafety@slough.gov.uk,Slough,http://www.slough.gov.uk,-0.58814100000000,SL1 1JU,2014-08-14,fhrs_4_en-GB,4,,FHRS,5
255038,Westfield Community Hall,Severn Crescent,,Slough,Westfield Community Hall,Hospitals/Childcare/Caring Premises,5,,,511544,,,51.49218700000000,18078,885,foodandsafety@slough.gov.uk,Slough,http://www.slough.gov.uk,-0.53425200000000,SL3 8UX,2004-08-05,fhrs_exempt_en-GB,Exempt,,FHRS,
255039,,273 Wexham Road,,Wexham,Wexham Connect,Retailers - other,4613,5,,512106,5,,51.51995800000000,9204,885,foodandsafety@slough.gov.uk,Slough,http://www.slough.gov.uk,-0.57987300000000,SL2 5QY,2010-06-24,fhrs_5_en-GB,5,,FHRS,5
255040,The Post Office,Wexham Road,,Wexham,Wexham Post Office,Retailers - other,4613,5,,511678,5,,51.52941900000000,34656,885,foodandsafety@slough.gov.uk,Slough,http://www.slough.gov.uk,-0.57851100000000,SL2 4HE,2014-10-02,fhrs_5_en-GB,5,,FHRS,0
255041,,176 High Street,,Slough,WH Smith,Retailers - other,4613,,,511784,,,51.50851700000000,3790,885,foodandsafety@slough.gov.uk,Slough,http://www.slough.gov.uk,-0.59234700000000,SL1 1JP,2009-07-21,fhrs_exempt_en-GB,Exempt,,FHRS,
255042,Cafe,73-75 Grays Road,,Slough,Williams Cafe,Restaurant/Cafe/Canteen,1,10,,511707,10,,51.51434300000000,34890,885,foodandsafety@slough.gov.uk,Slough,http://www.slough.gov.uk,-0.59447300000000,SL1 3QG,2013-09-25,fhrs_3_en-GB,3,,FHRS,10
255043,The Windmill,104 Bath Road,,Slough,Windmill Care Centre,Other catering premises,7841,0,,511802,5,,51.51221600000000,39907,885,foodandsafety@slough.gov.uk,Slough,http://www.slough.gov.uk,-0.60990100000000,SL1 3SY,2014-07-25,fhrs_5_en-GB,5,,FHRS,0
255044,,5 Harrow Market,,Langley,Woodlands Bakery,Takeaway/sandwich shop,7844,5,,512095,5,,51.50491400000000,606,885,foodandsafety@slough.gov.uk,Slough,http://www.slough.gov.uk,-0.54316600000000,SL3 8HJ,2014-09-02,fhrs_5_en-GB,5,,FHRS,0
255045,"Room 19 Block 4, Wexham Park H",Wexham Street,,Slough,Wrvs Park Cafe,Restaurant/Cafe/Canteen,1,5,,511741,5,,51.53314600000000,35195,885,foodandsafety@slough.gov.uk,Slough,http://www.slough.gov.uk,-0.57513700000000,SL2 4HL,2012-01-11,fhrs_5_en-GB,5,,FHRS,5
255046,The Olde George,High Street,,Colnbrook,Ye Olde George Inn,Pub/bar/nightclub,7843,5,,511574,5,,51.48374600000000,25866,885,foodandsafety@slough.gov.uk,Slough,http://www.slough.gov.uk,-0.52372100000000,SL3 0LX,2013-11-19,fhrs_5_en-GB,5,,FHRS,5
255047,,595 Bath Road,,Slough,Ye Olde Huntercombe Public House,Pub/bar/nightclub,7843,10,,705654,10,,51.51988400000000,16319,885,foodandsafety@slough.gov.uk,Slough,http://www.slough.gov.uk,-0.65210000000000,SL1 6AB,2012-03-21,fhrs_2_en-GB,2,,FHRS,15
255048,,99 High Street,,Slough,Zam Zams,Takeaway/sandwich shop,7844,20,,511925,15,,51.50947200000000,50728,885,foodandsafety@slough.gov.uk,Slough,http://www.slough.gov.uk,-0.59475300000000,SL1 1DH,2014-06-24,fhrs_1_en-GB,1,,FHRS,15
255049,,Station Road,,Langley,Zest. Hospitality Academy. East Berks College,Restaurant/Cafe/Canteen,1,5,,680776,0,,51.50565800000000,97961,885,foodandsafety@slough.gov.uk,Slough,http://www.slough.gov.uk,-0.54518800000000,SL3 8BY,2014-05-01,fhrs_5_en-GB,5,,FHRS,0
255050,Montem Sports Centre,Montem Lane,,Slough,Zone Cafe,Restaurant/Cafe/Canteen,1,5,,511728,5,,51.51006600000000,35023,885,foodandsafety@slough.gov.uk,Slough,http://www.slough.gov.uk,-0.60681000000000,SL1 2QG,2012-02-13,fhrs_5_en-GB,5,,FHRS,5
